['Showers of Light Rain', '-SHRA、IWC80', 'Showers of Light Rain', '-SHRA、IWC80', 'Showers of Light Rain', '-SHRA、IWC80', 'Showers of Light Rain', '-SHRA、IWC80', 'Showers of Light Rain', '-SHRA、IWC80', 'Showers of Light Rain', '-SHRA、IWC80', 'Showers of Light Rain、Mist', '-SHRA、IWC80、BR、IWC10', 'Showers of Light Rain、Mist', '-SHRA、IWC80、BR、IWC10', 'Showers of Light Rain、Mist', '-SHRA、IWC80、BR、IWC10', '上午12:00', '11°C', '1,025毫巴', '每小时3.60公里, 北', '10.00公里', '大部分多云 (1,311米)', '本地:', '00:00、2019年3月16日周六', '协调世界时:', '16:00、2019年3月15日周五', '来源:', '周期文件', '趋势:', '无重要变化', '露点:', '10°C', '天气:', 'Showers of Light Rain', '原始:', 'ZUUU 151600Z 36001MPS 9999 -SHRA BKN043 11/10 Q1025 NOSIG', '上午12:00', '11.0°C', '1,025毫巴', '每小时3.60公里, 北', '10.00公里', '大部分多云 (1,311米)', '本地:', '00:00、2019年3月16日周六', '协调世界时:', '16:00、2019年3月15日周五', '来源:', 'USAF 每小时地面观测', '报告类型:', 'METAR 航空例行天气报告', '露点:', '10.0°C', '天气:', 'Showers of Light Rain', '上午1:00', '11°C', '1,024毫巴', '每小时3.60公里', '10.00公里', '大部分多云 (1,219米)', '本地:', '01:00、2019年3月16日周六', '协调世界时:', '17:00、2019年3月15日周五', '来源:', '周期文件', '趋势:', '无重要变化', '露点:', '10°C', '其他云层:', '大部分晴天 (244米)', '天气:', 'Showers of Light Rain', '原始:', 'ZUUU 151700Z VRB01MPS 9999 -SHRA FEW008 BKN040 11/10 Q1024 NOSIG', '上午1:00', '11.0°C', '1,024毫巴', '每小时3.60公里', '10.00公里', '大部分多云 (1,219米)', '本地:', '01:00、2019年3月16日周六', '协调世界时:', '17:00、2019年3月15日周五', '来源:', 'USAF 每小时地面观测', '报告类型:', 'METAR 航空例行天气报告', '露点:', '10.0°C', '其他云层:', '大部分晴天 (244米)', '天气:', 'Showers of Light Rain', '上午2:00', '11°C', '1,024毫巴', '每小时3.60公里', '10.00公里', '部分多云 (1,524米)', '本地:', '02:00、2019年3月16日周六', '协调世界时:', '18:00、2019年3月15日周五', '来源:', '周期文件', '趋势:', '无重要变化', '露点:', '10°C', '其他云层:', '大部分晴天 (244米)', '原始:', 'ZUUU 151800Z VRB01MPS 9999 FEW008 SCT050 11/10 Q1024 NOSIG', '上午2:00', '11.0°C', '1,024毫巴', '每小时3.60公里', '10.00公里', '部分多云 (1,524米)', '本地:', '02:00、2019年3月16日周六', '协调世界时:', '18:00、2019年3月15日周五', '来源:', 'USAF 每小时地面观测', '报告类型:', 'METAR 航空例行天气报告', '露点:', '10.0°C', '其他云层:', '大部分晴天 (244米)', '上午3:00', '11°C', '1,023毫巴', '每小时3.60公里, 北', '10.00公里', '部分多云 (1,524米)', '本地:', '03:00、2019年3月16日周六', '协调世界时:', '19:00、2019年3月15日周五', '来源:', '周期文件', '趋势:', '无重要变化', '露点:', '10°C', '原始:', 'ZUUU 151900Z 36001MPS 9999 SCT050 11/10 Q1023 NOSIG', '上午3:00', '11.0°C', '1,023毫巴', '每小时3.60公里, 北', '10.00公里', '部分多云 (1,524米)', '本地:', '03:00、2019年3月16日周六', '协调世界时:', '19:00、2019年3月15日周五', '来源:', 'USAF 每小时地面观测', '报告类型:', 'METAR 航空例行天气报告', '露点:', '10.0°C', '上午4:00', '11°C', '1,022毫巴', '每小时3.60公里, 北', '8.00公里', '部分多云 (1,219米)', '本地:', '04:00、2019年3月16日周六', '协调世界时:', '20:00、2019年3月15日周五', '来源:', '周期文件', '趋势:', '无重要变化', '露点:', '10°C', '天气:', 'Showers of Light Rain', '原始:', 'ZUUU 152000Z 34001MPS 8000 -SHRA SCT040 11/10 Q1022 NOSIG', '上午4:00', '11.0°C', '1,022毫巴', '每小时3.60公里, 北', '8.00公里', '部分多云 (1,219米)', '本地:', '04:00、2019年3月16日周六', '协调世界时:', '20:00、2019年3月15日周五', '来源:', 'USAF 每小时地面观测', '报告类型:', 'METAR 航空例行天气报告', '露点:', '10.0°C', '天气:', 'Showers of Light Rain', '上午5:00', '11°C', '1,022毫巴', '每小时0公里', '8.00公里', '部分多云 (1,219米)', '本地:', '05:00、2019年3月16日周六', '协调世界时:', '21:00、2019年3月15日周五', '来源:', '周期文件', '趋势:', '无重要变化', '露点:', '10°C', '天气:', 'Showers of Light Rain', '原始:', 'ZUUU 152100Z 00000MPS 8000 -SHRA SCT040 11/10 Q1022 NOSIG', '上午5:00', '11.0°C', '1,022毫巴', '每小时0公里', '8.00公里', '部分多云 (1,219米)', '本地:', '05:00、2019年3月16日周六', '协调世界时:', '21:00、2019年3月15日周五', '来源:', 'USAF 每小时地面观测', '报告类型:', 'METAR 航空例行天气报告', '露点:', '10.0°C', '天气:', 'Showers of Light Rain', '上午6:00', '11°C', '1,022毫巴', '每小时3.60公里', '8.00公里', '部分多云 (1,219米)', '本地:', '06:00、2019年3月16日周六', '协调世界时:', '22:00、2019年3月15日周五', '来源:', '周期文件', '趋势:', '无重要变化', '露点:', '10°C', '原始:', 'ZUUU 152200Z VRB01MPS 8000 SCT040 11/10 Q1022 NOSIG', '上午6:00', '11.0°C', '1,022毫巴', '每小时3.60公里', '8.00公里', '部分多云 (1,219米)', '本地:', '06:00、2019年3月16日周六', '协调世界时:', '22:00、2019年3月15日周五', '来源:', 'USAF 每小时地面观测', '报告类型:', 'METAR 航空例行天气报告', '露点:', '10.0°C', '上午7:00', '11°C', '1,022毫巴', '每小时10.8公里, 东北', '10.00公里', '部分多云 (1,219米)', '本地:', '07:00、2019年3月16日周六', '协调世界时:', '23:00、2019年3月15日周五', '来源:', '周期文件', '趋势:', '无重要变化', '露点:', '10°C', '原始:', 'ZUUU 152300Z 03003MPS 9999 SCT040 11/10 Q1022 NOSIG', '上午7:00', '11.0°C', '1,022毫巴', '每小时10.8公里, 东北', '10.00公里', '部分多云 (1,219米)', '本地:', '07:00、2019年3月16日周六', '协调世界时:', '23:00、2019年3月15日周五', '来源:', 'USAF 每小时地面观测', '报告类型:', 'METAR 航空例行天气报告', '露点:', '10.0°C', '上午8:00', '12°C', '1,023毫巴', '每小时3.60公里', '10.00公里', '部分多云 (1,219米)', '本地:', '08:00、2019年3月16日周六', '协调世界时:', '00:00、2019年3月16日周六', '来源:', '周期文件', '趋势:', '无重要变化', '露点:', '8°C', '原始:', 'ZUUU 160000Z VRB01MPS 9999 SCT040 12/08 Q1023 NOSIG', '上午8:00', '12.0°C', '1,023毫巴', '每小时3.60公里', '10.00公里', '部分多云 (1,219米)', '本地:', '08:00、2019年3月16日周六', '协调世界时:', '00:00、2019年3月16日周六', '来源:', 'USAF 每小时地面观测', '报告类型:', 'METAR 航空例行天气报告', '露点:', '8.0°C', '上午9:00', '12°C', '1,024毫巴', '每小时7.20公里, 北', '10.00公里', '大部分多云 (1,311米)', '本地:', '09:00、2019年3月16日周六', '协调世界时:', '01:00、2019年3月16日周六', '来源:', '周期文件', '趋势:', '无重要变化', '露点:', '8°C', '原始:', 'ZUUU 160100Z 02002MPS 340V090 9999 BKN043 12/08 Q1024 NOSIG', '上午9:00', '12.0°C', '1,024毫巴', '每小时7.20公里, 北', '10.00公里', '大部分多云 (1,311米)', '本地:', '09:00、2019年3月16日周六', '协调世界时:', '01:00、2019年3月16日周六', '来源:', 'USAF 每小时地面观测', '报告类型:', 'METAR 航空例行天气报告', '露点:', '8.0°C', '上午10:00', '12°C', '1,024毫巴', '每小时3.60公里', '10.00公里', '大部分多云 (1,311米)', '本地:', '10:00、2019年3月16日周六', '协调世界时:', '02:00、2019年3月16日周六', '来源:', '周期文件', '趋势:', '无重要变化', '露点:', '9°C', '其他云层:', '大部分晴天 (792米)', '原始:', 'ZUUU 160200Z VRB01MPS 9999 FEW026 BKN043 12/09 Q1024 NOSIG', '上午11:00', '13°C', '1,024毫巴', '每小时10.8公里, 东北', '10.00公里', '大部分多云 (1,311米)', '本地:', '11:00、2019年3月16日周六', '协调世界时:', '03:00、2019年3月16日周六', '来源:', '周期文件', '趋势:', '无重要变化', '露点:', '10°C', '其他云层:', '大部分晴天 (792米)', '原始:', 'ZUUU 160300Z 05003MPS 360V090 9999 FEW026 BKN043 13/10 Q1024 NOSIG', '下午12:00', '14°C', '1,024毫巴', '每小时10.8公里, 东北', '10.00公里', '大部分多云 (1,006米)', '本地:', '12:00、2019年3月16日周六', '协调世界时:', '04:00、2019年3月16日周六', '来源:', '周期文件', '趋势:', '无重要变化', '露点:', '10°C', '其他云层:', '部分多云 (792米)', '原始:', 'ZUUU 160400Z 06003MPS 010V090 9999 SCT026 BKN033 14/10 Q1024 NOSIG', '下午1:00', '15°C', '1,023毫巴', '每小时7.20公里', '10.00公里', '部分多云 (792米)', '本地:', '13:00、2019年3月16日周六', '协调世界时:', '05:00、2019年3月16日周六', '来源:', '周期文件', '趋势:', '无重要变化', '露点:', '9°C', '其他云层:', '部分多云 (1,524米)', '原始:', 'ZUUU 160500Z VRB02MPS 9999 SCT026 SCT050 15/09 Q1023 NOSIG', '下午2:00', '15°C', '1,022毫巴', '每小时3.60公里', '10.00公里', '部分多云 (701米)', '本地:', '14:00、2019年3月16日周六', '协调世界时:', '06:00、2019年3月16日周六', '来源:', '周期文件', '趋势:', '无重要变化', '露点:', '9°C', '其他云层:', '部分多云 (1,219米)', '原始:', 'ZUUU 160600Z VRB01MPS 9999 SCT023 SCT040 15/09 Q1022 NOSIG', '下午3:00', '15°C', '1,021毫巴', '每小时10.8公里, 东南', '10.00公里', '部分多云 (701米)', '本地:', '15:00、2019年3月16日周六', '协调世界时:', '07:00、2019年3月16日周六', '来源:', '周期文件', '趋势:', '无重要变化', '露点:', '10°C', '其他云层:', '部分多云 (1,219米)', '原始:', 'ZUUU 160700Z 15003MPS 020V180 9999 SCT023 SCT040 15/10 Q1021 NOSIG', '下午4:00', '15°C', '1,020毫巴', '每小时7.20公里, 东南', '10.00公里', '大部分晴天 (701米)', '本地:', '16:00、2019年3月16日周六', '协调世界时:', '08:00、2019年3月16日周六', '来源:', '周期文件', '趋势:', '无重要变化', '露点:', '10°C', '原始:', 'ZUUU 160800Z 12002MPS 070V170 9999 FEW023 15/10 Q1020 NOSIG', '下午4:00', '15.0°C', '1,020毫巴', '每小时7.20公里, 东南', '10.00公里', '大部分晴天 (701米)', '本地:', '16:00、2019年3月16日周六', '协调世界时:', '08:00、2019年3月16日周六', '来源:', 'USAF 每小时地面观测', '报告类型:', 'METAR 航空例行天气报告', '露点:', '10.0°C', '下午5:00', '15°C', '1,020毫巴', '每小时7.20公里, 东', '≥ 10.00公里', '晴空万里', '本地:', '17:00、2019年3月16日周六', '协调世界时:', '09:00、2019年3月16日周六', '来源:', '周期文件', '趋势:', '无重要变化', '露点:', '10°C', '晴空万里:', '真', '原始:', 'ZUUU 160900Z 11002MPS 010V160 CAVOK 15/10 Q1020 NOSIG', '下午5:00', '15.0°C', '1,020毫巴', '每小时7.20公里, 东', '-', '晴空万里', '本地:', '17:00、2019年3月16日周六', '协调世界时:', '09:00、2019年3月16日周六', '来源:', 'USAF 每小时地面观测', '报告类型:', 'METAR 航空例行天气报告', '露点:', '10.0°C', '晴空万里:', '真', '下午6:00', '14°C', '1,020毫巴', '每小时10.8公里, 东南', '≥ 10.00公里', '晴空万里', '本地:', '18:00、2019年3月16日周六', '协调世界时:', '10:00、2019年3月16日周六', '来源:', '周期文件', '趋势:', '无重要变化', '露点:', '9°C', '晴空万里:', '真', '原始:', 'ZUUU 161000Z 13003MPS 060V150 CAVOK 14/09 Q1020 NOSIG', '下午6:00', '14.0°C', '1,020毫巴', '每小时10.8公里, 东南', '-', '晴空万里', '本地:', '18:00、2019年3月16日周六', '协调世界时:', '10:00、2019年3月16日周六', '来源:', 'USAF 每小时地面观测', '报告类型:', 'METAR 航空例行天气报告', '露点:', '9.0°C', '晴空万里:', '真', '下午7:00', '14°C', '1,021毫巴', '每小时3.60公里', '7.00公里', '部分多云 (1,524米)', '本地:', '19:00、2019年3月16日周六', '协调世界时:', '11:00、2019年3月16日周六', '来源:', '周期文件', '趋势:', '无重要变化', '露点:', '10°C', '其他云层:', '大部分晴天 (792米)', '天气:', 'Showers of Light Rain', '原始:', 'ZUUU 161100Z VRB01MPS 7000 -SHRA FEW026 SCT050 14/10 Q1021 NOSIG', '下午7:00', '14.0°C', '1,021毫巴', '每小时3.60公里', '7.00公里', '部分多云 (1,524米)', '本地:', '19:00、2019年3月16日周六', '协调世界时:', '11:00、2019年3月16日周六', '来源:', 'USAF 每小时地面观测', '报告类型:', 'METAR 航空例行天气报告', '露点:', '10.0°C', '其他云层:', '大部分晴天 (792米)', '天气:', 'Showers of Light Rain', '下午8:00', '12°C', '1,022毫巴', '每小时3.60公里, 西南', '6.00公里', '大部分多云 (1,524米)', '本地:', '20:00、2019年3月16日周六', '协调世界时:', '12:00、2019年3月16日周六', '来源:', '周期文件', '趋势:', '无重要变化', '露点:', '11°C', '其他云层:', '大部分晴天 (335米)、部分多云 (792米)', '天气:', 'Showers of Light Rain', '原始:', 'ZUUU 161200Z 24001MPS 6000 -SHRA FEW011 SCT026 BKN050 12/11 Q1022 NOSIG', '下午8:00', '12.0°C', '1,022毫巴', '每小时3.60公里, 西南', '6.00公里', '大部分多云 (1,524米)', '本地:', '20:00、2019年3月16日周六', '协调世界时:', '12:00、2019年3月16日周六', '来源:', 'USAF 每小时地面观测', '报告类型:', 'METAR 航空例行天气报告', '露点:', '11.0°C', '其他云层:', '大部分晴天 (335米)、部分多云 (792米)', '天气:', 'Showers of Light Rain', '下午9:00', '12°C', '1,023毫巴', '每小时0公里', '4.50公里', '大部分多云 (1,524米)', '本地:', '21:00、2019年3月16日周六', '协调世界时:', '13:00、2019年3月16日周六', '来源:', '周期文件', '趋势:', '无重要变化', '露点:', '11°C', '其他云层:', '大部分晴天 (335米)、部分多云 (792米)', '天气:', 'Showers of Light Rain、Mist', '原始:', 'ZUUU 161300Z 00000MPS 4500 -SHRA BR FEW011 SCT026 BKN050 12/11 Q1023 NOSIG', '下午9:00', '12.0°C', '1,023毫巴', '每小时0公里', '4.50公里', '大部分多云 (1,524米)', '本地:', '21:00、2019年3月16日周六', '协调世界时:', '13:00、2019年3月16日周六', '来源:', 'USAF 每小时地面观测', '报告类型:', 'METAR 航空例行天气报告', '露点:', '11.0°C', '其他云层:', '大部分晴天 (335米)、部分多云 (792米)', '天气:', 'Mist、Showers of Light Rain', '下午10:00', '12°C', '1,023毫巴', '每小时0公里', '4.50公里', '大部分多云 (1,524米)', '本地:', '22:00、2019年3月16日周六', '协调世界时:', '14:00、2019年3月16日周六', '来源:', '周期文件', '趋势:', '无重要变化', '露点:', '12°C', '其他云层:', '部分多云 (305米)、部分多云 (792米)', '天气:', 'Showers of Light Rain、Mist', '原始:', 'ZUUU 161400Z 00000MPS 4500 -SHRA BR SCT010 SCT026 BKN050 12/12 Q1023 NOSIG', '下午10:00', '12.0°C', '1,023毫巴', '每小时0公里', '4.50公里', '大部分多云 (1,524米)', '本地:', '22:00、2019年3月16日周六', '协调世界时:', '14:00、2019年3月16日周六', '来源:', 'USAF 每小时地面观测', '报告类型:', 'METAR 航空例行天气报告', '露点:', '12.0°C', '其他云层:', '部分多云 (305米)、部分多云 (792米)', '天气:', 'Mist、Showers of Light Rain', '下午11:00', '12°C', '1,024毫巴', '每小时3.60公里', '4.00公里', '大部分多云 (1,524米)', '本地:', '23:00、2019年3月16日周六', '协调世界时:', '15:00、2019年3月16日周六', '来源:', '周期文件', '趋势:', '无重要变化', '露点:', '11°C', '其他云层:', '部分多云 (305米)、部分多云 (792米)', '天气:', 'Showers of Light Rain、Mist', '原始:', 'ZUUU 161500Z VRB01MPS 4000 -SHRA BR SCT010 SCT026 BKN050 12/11 Q1024 NOSIG', '下午11:00', '12.0°C', '1,024毫巴', '每小时3.60公里', '4.00公里', '大部分多云 (1,524米)', '本地:', '23:00、2019年3月16日周六', '协调世界时:', '15:00、2019年3月16日周六', '来源:', 'USAF 每小时地面观测', '报告类型:', 'METAR 航空例行天气报告', '露点:', '11.0°C', '其他云层:', '部分多云 (305米)、部分多云 (792米)', '天气:', 'Mist、Showers of Light Rain']