['Light Rain', '-RA、IWC61', 'Light Rain、Mist', '-RA、IWC61、BR、IWC10', 'Light Rain、Mist', '-RA、IWC61、BR、IWC10', 'Light Rain', '-RA、IWC61', 'Light Rain', '-RA、IWC61', 'Light Rain', '-RA、IWC61', 'Light Rain、Mist', '-RA、IWC61、BR', 'Light Rain、Mist', '-RA、IWC61、BR、IWC10', 'Light Rain、Mist', '-RA、IWC61、BR、IWC10', 'Light Rain', '-RA、IWC61', 'Light Rain', '-RA、IWC61', 'Light Rain、Mist', '-RA、IWC61、BR、IWC10', 'Light Rain、Mist', '-RA、IWC61、BR、IWC10', 'Light Rain、Mist', '-RA、IWC61、BR、IWC10', 'Light Rain、Mist', '-RA、IWC61、BR、IWC10', 'Light Rain、Mist', '-RA、IWC61、BR、IWC10', 'Light Rain', '-RA、IWC61', 'Light Rain', '-RA、IWC61', 'Light Rain', '-RA、IWC61', 'Light Rain', '-RA、IWC61', 'Light Rain', '-RA、IWC61', '上午12:00', '10°C', '1,024毫巴', '每小时0公里', '6.00公里', '大部分多云 (610米)', '本地:', '00:00、2019年11月29日周五', '协调世界时:', '16:00、2019年11月28日周四', '来源:', '周期文件', '趋势:', '无重要变化', '露点:', '9°C', '其他云层:', '大部分晴天 (183米)、部分多云 (305米)', '天气:', 'Light Rain', '原始:', 'ZUUU 281600Z 00000MPS 6000 -RA FEW006 SCT010 BKN020 10/09 Q1024 NOSIG', '上午12:00', '10.0°C', '1,024毫巴', '每小时0公里', '6.00公里', '大部分多云 (610米)', '本地:', '00:00、2019年11月29日周五', '协调世界时:', '16:00、2019年11月28日周四', '来源:', 'USAF 每小时地面观测', '报告类型:', 'METAR 航空例行天气报告', '露点:', '9.0°C', '其他云层:', '大部分晴天 (183米)、部分多云 (305米)', '天气:', 'Light Rain', '上午1:00', '9°C', '1,023毫巴', '每小时3.60公里', '5.00公里', '大部分多云 (610米)', '本地:', '01:00、2019年11月29日周五', '协调世界时:', '17:00、2019年11月28日周四', '来源:', '周期文件', '趋势:', '无重要变化', '露点:', '9°C', '其他云层:', '大部分晴天 (183米)、部分多云 (305米)', '天气:', 'Light Rain、Mist', '原始:', 'ZUUU 281700Z VRB01MPS 5000 -RA BR FEW006 SCT010 BKN020 09/09 Q1023 NOSIG', '上午1:00', '9.0°C', '1,023毫巴', '每小时3.60公里', '5.00公里', '大部分多云 (610米)', '本地:', '01:00、2019年11月29日周五', '协调世界时:', '17:00、2019年11月28日周四', '来源:', 'USAF 每小时地面观测', '报告类型:', 'METAR 航空例行天气报告', '露点:', '9.0°C', '其他云层:', '大部分晴天 (183米)、部分多云 (305米)', '天气:', 'Mist、Light Rain', '上午2:00', '9°C', '1,023毫巴', '每小时7.20公里, 北', '4.50公里', '大部分多云 (610米)', '本地:', '02:00、2019年11月29日周五', '协调世界时:', '18:00、2019年11月28日周四', '来源:', '周期文件', '趋势:', '无重要变化', '露点:', '9°C', '其他云层:', '部分多云 (305米)', '天气:', 'Light Rain、Mist', '原始:', 'ZUUU 281800Z 36002MPS 330V030 4500 -RA BR SCT010 BKN020 09/09 Q1023 NOSIG', '上午2:00', '9.0°C', '1,023毫巴', '每小时7.20公里, 北', '4.50公里', '大部分多云 (610米)', '本地:', '02:00、2019年11月29日周五', '协调世界时:', '18:00、2019年11月28日周四', '来源:', 'USAF 每小时地面观测', '报告类型:', 'METAR 航空例行天气报告', '露点:', '9.0°C', '其他云层:', '部分多云 (305米)', '天气:', 'Mist、Light Rain', '上午3:00', '9°C', '1,022毫巴', '每小时3.60公里', '6.00公里', '大部分多云 (701米)', '本地:', '03:00、2019年11月29日周五', '协调世界时:', '19:00、2019年11月28日周四', '来源:', '周期文件', '趋势:', '无重要变化', '露点:', '9°C', '其他云层:', '大部分晴天 (274米)', '天气:', 'Light Rain', '原始:', 'ZUUU 281900Z VRB01MPS 6000 -RA FEW009 BKN023 09/09 Q1022 NOSIG', '上午3:00', '9.0°C', '1,022毫巴', '每小时3.60公里', '6.00公里', '大部分多云 (701米)', '本地:', '03:00、2019年11月29日周五', '协调世界时:', '19:00、2019年11月28日周四', '来源:', 'USAF 每小时地面观测', '报告类型:', 'METAR 航空例行天气报告', '露点:', '9.0°C', '其他云层:', '大部分晴天 (274米)', '天气:', 'Light Rain', '上午4:00', '9°C', '1,022毫巴', '每小时3.60公里', '6.00公里', '大部分多云 (701米)', '本地:', '04:00、2019年11月29日周五', '协调世界时:', '20:00、2019年11月28日周四', '来源:', '周期文件', '趋势:', '无重要变化', '露点:', '9°C', '其他云层:', '大部分晴天 (274米)', '天气:', 'Light Rain', '原始:', 'ZUUU 282000Z VRB01MPS 6000 -RA FEW009 BKN023 09/09 Q1022 NOSIG', '上午4:00', '9.0°C', '1,022毫巴', '每小时3.60公里', '6.00公里', '大部分多云 (701米)', '本地:', '04:00、2019年11月29日周五', '协调世界时:', '20:00、2019年11月28日周四', '来源:', 'USAF 每小时地面观测', '报告类型:', 'METAR 航空例行天气报告', '露点:', '9.0°C', '其他云层:', '大部分晴天 (274米)', '天气:', 'Light Rain', '上午5:00', '9°C', '1,022毫巴', '每小时3.60公里', '6.00公里', '大部分多云 (701米)', '本地:', '05:00、2019年11月29日周五', '协调世界时:', '21:00、2019年11月28日周四', '来源:', '周期文件', '趋势:', '无重要变化', '露点:', '9°C', '其他云层:', '大部分晴天 (274米)', '天气:', 'Light Rain', '原始:', 'ZUUU 282100Z VRB01MPS 6000 -RA FEW009 BKN023 09/09 Q1022 NOSIG', '上午5:00', '9.0°C', '1,022毫巴', '每小时3.60公里', '6.00公里', '大部分多云 (701米)', '本地:', '05:00、2019年11月29日周五', '协调世界时:', '21:00、2019年11月28日周四', '来源:', 'USAF 每小时地面观测', '报告类型:', 'METAR 航空例行天气报告', '露点:', '9.0°C', '其他云层:', '大部分晴天 (274米)', '天气:', 'Light Rain', '上午6:00', '9°C', '1,022毫巴', '每小时0公里', '6.00公里', '大部分多云 (701米)', '本地:', '06:00、2019年11月29日周五', '协调世界时:', '22:00、2019年11月28日周四', '来源:', '周期文件', '趋势:', '变化为', '露点:', '9°C', '其他云层:', '大部分晴天 (183米)、部分多云 (244米)', '天气:', 'Light Rain、Mist', '原始:', 'ZUUU 282200Z 00000MPS 6000 -RA FEW006 SCT008 BKN023 09/09 Q1022 BECMG TL2330 2700 BR', '上午6:00', '9.0°C', '1,022毫巴', '每小时0公里', '6.00公里', '大部分多云 (701米)', '本地:', '06:00、2019年11月29日周五', '协调世界时:', '22:00、2019年11月28日周四', '来源:', 'USAF 每小时地面观测', '报告类型:', 'METAR 航空例行天气报告', '露点:', '9.0°C', '其他云层:', '大部分晴天 (183米)、部分多云 (244米)', '天气:', 'Light Rain', '上午7:00', '9°C', '1,022毫巴', '每小时0公里', '4.50公里', '大部分多云 (610米)', '本地:', '07:00、2019年11月29日周五', '协调世界时:', '23:00、2019年11月28日周四', '来源:', '周期文件', '趋势:', '变化为', '露点:', '9°C', '其他云层:', '大部分晴天 (91米)、部分多云 (183米)', '天气:', 'Light Rain、Mist、Mist', '原始:', 'ZUUU 282300Z 00000MPS 4500 -RA BR FEW003 SCT006 BKN020 09/09 Q1022 BECMG TL2330 2700 BR', '上午7:00', '9.0°C', '1,022毫巴', '每小时0公里', '4.50公里', '大部分多云 (610米)', '本地:', '07:00、2019年11月29日周五', '协调世界时:', '23:00、2019年11月28日周四', '来源:', 'USAF 每小时地面观测', '报告类型:', 'METAR 航空例行天气报告', '露点:', '9.0°C', '其他云层:', '大部分晴天 (91米)、部分多云 (183米)', '天气:', 'Mist、Light Rain', '上午8:00', '9°C', '1,023毫巴', '每小时7.20公里, 东南', '2.70公里', '大部分多云 (610米)', '本地:', '08:00、2019年11月29日周五', '协调世界时:', '00:00、2019年11月29日周五', '来源:', '周期文件', '趋势:', '变化为', '露点:', '9°C', '其他云层:', '大部分晴天 (91米)、部分多云 (152米)', '天气:', 'Light Rain、Mist', '原始:', 'ZUUU 290000Z 12002MPS 040V170 2700 -RA BR FEW003 SCT005 BKN020 09/09 Q1023 BECMG TL0130 3000', '上午8:00', '9.0°C', '1,023毫巴', '每小时7.20公里, 东南', '2.70公里', '大部分多云 (610米)', '本地:', '08:00、2019年11月29日周五', '协调世界时:', '00:00、2019年11月29日周五', '来源:', 'USAF 每小时地面观测', '报告类型:', 'METAR 航空例行天气报告', '露点:', '9.0°C', '其他云层:', '大部分晴天 (91米)、部分多云 (152米)', '天气:', 'Mist、Light Rain', '上午9:00', '10°C', '1,023毫巴', '每小时7.20公里, 东南', '6.00公里', '大部分多云 (610米)', '本地:', '09:00、2019年11月29日周五', '协调世界时:', '01:00、2019年11月29日周五', '来源:', '周期文件', '趋势:', '无重要变化', '露点:', '9°C', '其他云层:', '大部分晴天 (122米)、部分多云 (274米)', '天气:', 'Light Rain', '原始:', 'ZUUU 290100Z 14002MPS 070V190 6000 -RA FEW004 SCT009 BKN020 10/09 Q1023 NOSIG', '上午9:00', '10.0°C', '1,023毫巴', '每小时7.20公里, 东南', '6.00公里', '大部分多云 (610米)', '本地:', '09:00、2019年11月29日周五', '协调世界时:', '01:00、2019年11月29日周五', '来源:', 'USAF 每小时地面观测', '报告类型:', 'METAR 航空例行天气报告', '露点:', '9.0°C', '其他云层:', '大部分晴天 (122米)、部分多云 (274米)', '天气:', 'Light Rain', '上午10:00', '10°C', '1,023毫巴', '每小时7.20公里, 东南', '6.00公里', '大部分多云 (1,006米)', '本地:', '10:00、2019年11月29日周五', '协调世界时:', '02:00、2019年11月29日周五', '来源:', '周期文件', '趋势:', '无重要变化', '露点:', '9°C', '其他云层:', '大部分晴天 (152米)、部分多云 (305米)', '原始:', 'ZUUU 290200Z 12002MPS 060V170 6000 FEW005 SCT010 BKN033 10/09 Q1023 NOSIG', '上午10:00', '10.0°C', '1,023毫巴', '每小时7.20公里, 东南', '6.00公里', '大部分多云 (1,006米)', '本地:', '10:00、2019年11月29日周五', '协调世界时:', '02:00、2019年11月29日周五', '来源:', 'USAF 每小时地面观测', '报告类型:', 'METAR 航空例行天气报告', '露点:', '9.0°C', '其他云层:', '大部分晴天 (152米)、部分多云 (305米)', '上午11:00', '10°C', '1,023毫巴', '每小时3.60公里', '6.00公里', '大部分多云 (1,006米)', '本地:', '11:00、2019年11月29日周五', '协调世界时:', '03:00、2019年11月29日周五', '来源:', '周期文件', '趋势:', '无重要变化', '露点:', '8°C', '其他云层:', '部分多云 (305米)', '原始:', 'ZUUU 290300Z VRB01MPS 6000 SCT010 BKN033 10/08 Q1023 NOSIG', '上午11:00', '10.0°C', '1,023毫巴', '每小时3.60公里', '6.00公里', '大部分多云 (1,006米)', '本地:', '11:00、2019年11月29日周五', '协调世界时:', '03:00、2019年11月29日周五', '来源:', 'USAF 每小时地面观测', '报告类型:', 'METAR 航空例行天气报告', '露点:', '8.0°C', '其他云层:', '部分多云 (305米)', '下午12:00', '10°C', '1,023毫巴', '每小时3.60公里, 西', '7.00公里', '大部分多云 (1,006米)', '本地:', '12:00、2019年11月29日周五', '协调世界时:', '04:00、2019年11月29日周五', '来源:', '周期文件', '趋势:', '无重要变化', '露点:', '9°C', '其他云层:', '部分多云 (305米)', '原始:', 'ZUUU 290400Z 27001MPS 7000 SCT010 BKN033 10/09 Q1023 NOSIG', '下午12:00', '10.0°C', '1,023毫巴', '每小时3.60公里, 西', '7.00公里', '大部分多云 (1,006米)', '本地:', '12:00、2019年11月29日周五', '协调世界时:', '04:00、2019年11月29日周五', '来源:', 'USAF 每小时地面观测', '报告类型:', 'METAR 航空例行天气报告', '露点:', '9.0°C', '其他云层:', '部分多云 (305米)', '下午1:00', '10°C', '1,021毫巴', '每小时3.60公里', '8.00公里', '大部分多云 (1,006米)', '本地:', '13:00、2019年11月29日周五', '协调世界时:', '05:00、2019年11月29日周五', '来源:', '周期文件', '趋势:', '无重要变化', '露点:', '9°C', '其他云层:', '部分多云 (305米)', '天气:', 'Light Rain', '原始:', 'ZUUU 290500Z VRB01MPS 8000 -RA SCT010 BKN033 10/09 Q1021 NOSIG', '下午1:00', '10.0°C', '1,021毫巴', '每小时3.60公里', '8.00公里', '大部分多云 (1,006米)', '本地:', '13:00、2019年11月29日周五', '协调世界时:', '05:00、2019年11月29日周五', '来源:', 'USAF 每小时地面观测', '报告类型:', 'METAR 航空例行天气报告', '露点:', '9.0°C', '其他云层:', '部分多云 (305米)', '天气:', 'Light Rain', '下午2:00', '10°C', '1,020毫巴', '每小时7.20公里, 北', '4.00公里', '大部分多云 (1,006米)', '本地:', '14:00、2019年11月29日周五', '协调世界时:', '06:00、2019年11月29日周五', '来源:', '周期文件', '趋势:', '无重要变化', '露点:', '9°C', '其他云层:', '部分多云 (244米)', '天气:', 'Light Rain、Mist', '原始:', 'ZUUU 290600Z 01002MPS 330V060 4000 -RA BR SCT008 BKN033 10/09 Q1020 NOSIG', '下午2:00', '10.0°C', '1,020毫巴', '每小时7.20公里, 北', '4.00公里', '大部分多云 (1,006米)', '本地:', '14:00、2019年11月29日周五', '协调世界时:', '06:00、2019年11月29日周五', '来源:', 'USAF 每小时地面观测', '报告类型:', 'METAR 航空例行天气报告', '露点:', '9.0°C', '其他云层:', '部分多云 (244米)', '天气:', 'Mist、Light Rain', '下午3:00', '10°C', '1,020毫巴', '每小时3.60公里', '2.50公里', '大部分多云 (701米)', '本地:', '15:00、2019年11月29日周五', '协调世界时:', '07:00、2019年11月29日周五', '来源:', '周期文件', '趋势:', '变化为', '露点:', '9°C', '其他云层:', '大部分晴天 (152米)、部分多云 (244米)', '天气:', 'Light Rain、Mist', '原始:', 'ZUUU 290700Z VRB01MPS 2500 -RA BR FEW005 SCT008 BKN023 10/09 Q1020 BECMG TL0840 3000', '下午3:00', '10.0°C', '1,020毫巴', '每小时3.60公里', '2.50公里', '大部分多云 (701米)', '本地:', '15:00、2019年11月29日周五', '协调世界时:', '07:00、2019年11月29日周五', '来源:', 'USAF 每小时地面观测', '报告类型:', 'METAR 航空例行天气报告', '露点:', '9.0°C', '其他云层:', '大部分晴天 (152米)、部分多云 (244米)', '天气:', 'Mist、Light Rain', '下午4:00', '10°C', '1,020毫巴', '每小时3.60公里', '3.50公里', '大部分多云 (701米)', '本地:', '16:00、2019年11月29日周五', '协调世界时:', '08:00、2019年11月29日周五', '来源:', '周期文件', '趋势:', '无重要变化', '露点:', '9°C', '其他云层:', '部分多云 (244米)', '天气:', 'Light Rain、Mist', '原始:', 'ZUUU 290800Z VRB01MPS 3500 -RA BR SCT008 BKN023 10/09 Q1020 NOSIG', '下午4:00', '10.0°C', '1,020毫巴', '每小时3.60公里', '3.50公里', '大部分多云 (701米)', '本地:', '16:00、2019年11月29日周五', '协调世界时:', '08:00、2019年11月29日周五', '来源:', 'USAF 每小时地面观测', '报告类型:', 'METAR 航空例行天气报告', '露点:', '9.0°C', '其他云层:', '部分多云 (244米)', '天气:', 'Mist、Light Rain', '下午5:00', '10°C', '1,020毫巴', '每小时10.8公里, 东', '3.50公里', '大部分多云 (701米)', '本地:', '17:00、2019年11月29日周五', '协调世界时:', '09:00、2019年11月29日周五', '来源:', '周期文件', '趋势:', '无重要变化', '露点:', '9°C', '其他云层:', '部分多云 (244米)', '天气:', 'Light Rain、Mist', '原始:', 'ZUUU 290900Z 09003MPS 040V130 3500 -RA BR SCT008 BKN023 10/09 Q1020 NOSIG', '下午5:00', '10.0°C', '1,020毫巴', '每小时10.8公里, 东', '3.50公里', '大部分多云 (701米)', '本地:', '17:00、2019年11月29日周五', '协调世界时:', '09:00、2019年11月29日周五', '来源:', 'USAF 每小时地面观测', '报告类型:', 'METAR 航空例行天气报告', '露点:', '9.0°C', '其他云层:', '部分多云 (244米)', '天气:', 'Mist、Light Rain', '下午6:00', '10°C', '1,020毫巴', '每小时10.8公里, 东', '4.50公里', '大部分多云 (701米)', '本地:', '18:00、2019年11月29日周五', '协调世界时:', '10:00、2019年11月29日周五', '来源:', '周期文件', '趋势:', '无重要变化', '露点:', '9°C', '其他云层:', '部分多云 (244米)', '天气:', 'Light Rain、Mist', '原始:', 'ZUUU 291000Z 08003MPS 040V110 4500 -RA BR SCT008 BKN023 10/09 Q1020 NOSIG', '下午6:00', '10.0°C', '1,020毫巴', '每小时10.8公里, 东', '4.50公里', '大部分多云 (701米)', '本地:', '18:00、2019年11月29日周五', '协调世界时:', '10:00、2019年11月29日周五', '来源:', 'USAF 每小时地面观测', '报告类型:', 'METAR 航空例行天气报告', '露点:', '9.0°C', '其他云层:', '部分多云 (244米)', '天气:', 'Mist、Light Rain', '下午7:00', '10°C', '1,021毫巴', '每小时10.8公里, 东北', '7.00公里', '大部分多云 (701米)', '本地:', '19:00、2019年11月29日周五', '协调世界时:', '11:00、2019年11月29日周五', '来源:', '周期文件', '趋势:', '无重要变化', '露点:', '9°C', '其他云层:', '部分多云 (244米)', '天气:', 'Light Rain', '原始:', 'ZUUU 291100Z 05003MPS 7000 -RA SCT008 BKN023 10/09 Q1021 NOSIG', '下午7:00', '10.0°C', '1,021毫巴', '每小时10.8公里, 东北', '7.00公里', '大部分多云 (701米)', '本地:', '19:00、2019年11月29日周五', '协调世界时:', '11:00、2019年11月29日周五', '来源:', 'USAF 每小时地面观测', '报告类型:', 'METAR 航空例行天气报告', '露点:', '9.0°C', '其他云层:', '部分多云 (244米)', '天气:', 'Light Rain', '下午8:00', '9°C', '1,022毫巴', '每小时7.20公里, 东北', '7.00公里', '大部分多云 (701米)', '本地:', '20:00、2019年11月29日周五', '协调世界时:', '12:00、2019年11月29日周五', '来源:', '周期文件', '趋势:', '无重要变化', '露点:', '9°C', '其他云层:', '部分多云 (244米)', '天气:', 'Light Rain', '原始:', 'ZUUU 291200Z 06002MPS 7000 -RA SCT008 BKN023 09/09 Q1022 NOSIG', '下午8:00', '9.0°C', '1,022毫巴', '每小时7.20公里, 东北', '7.00公里', '大部分多云 (701米)', '本地:', '20:00、2019年11月29日周五', '协调世界时:', '12:00、2019年11月29日周五', '来源:', 'USAF 每小时地面观测', '报告类型:', 'METAR 航空例行天气报告', '露点:', '9.0°C', '其他云层:', '部分多云 (244米)', '天气:', 'Light Rain', '下午9:00', '9°C', '1,023毫巴', '每小时10.8公里, 东北', '7.00公里', '大部分多云 (701米)', '本地:', '21:00、2019年11月29日周五', '协调世界时:', '13:00、2019年11月29日周五', '来源:', '周期文件', '趋势:', '无重要变化', '露点:', '9°C', '其他云层:', '部分多云 (244米)', '天气:', 'Light Rain', '原始:', 'ZUUU 291300Z 06003MPS 040V100 7000 -RA SCT008 BKN023 09/09 Q1023 NOSIG', '下午9:00', '9.0°C', '1,023毫巴', '每小时10.8公里, 东北', '7.00公里', '大部分多云 (701米)', '本地:', '21:00、2019年11月29日周五', '协调世界时:', '13:00、2019年11月29日周五', '来源:', 'USAF 每小时地面观测', '报告类型:', 'METAR 航空例行天气报告', '露点:', '9.0°C', '其他云层:', '部分多云 (244米)', '天气:', 'Light Rain', '下午10:00', '9°C', '1,023毫巴', '每小时10.8公里, 东北', '7.00公里', '大部分多云 (701米)', '本地:', '22:00、2019年11月29日周五', '协调世界时:', '14:00、2019年11月29日周五', '来源:', '周期文件', '趋势:', '无重要变化', '露点:', '8°C', '其他云层:', '部分多云 (244米)', '天气:', 'Light Rain', '原始:', 'ZUUU 291400Z 06003MPS 030V100 7000 -RA SCT008 BKN023 09/08 Q1023 NOSIG', '下午10:00', '9.0°C', '1,023毫巴', '每小时10.8公里, 东北', '7.00公里', '大部分多云 (701米)', '本地:', '22:00、2019年11月29日周五', '协调世界时:', '14:00、2019年11月29日周五', '来源:', 'USAF 每小时地面观测', '报告类型:', 'METAR 航空例行天气报告', '露点:', '8.0°C', '其他云层:', '部分多云 (244米)', '天气:', 'Light Rain', '下午11:00', '9°C', '1,024毫巴', '每小时10.8公里, 东', '7.00公里', '大部分多云 (701米)', '本地:', '23:00、2019年11月29日周五', '协调世界时:', '15:00、2019年11月29日周五', '来源:', '周期文件', '趋势:', '无重要变化', '露点:', '8°C', '其他云层:', '部分多云 (244米)', '天气:', 'Light Rain', '原始:', 'ZUUU 291500Z 08003MPS 030V110 7000 -RA SCT008 BKN023 09/08 Q1024 NOSIG', '下午11:00', '9.0°C', '1,024毫巴', '每小时10.8公里, 东', '7.00公里', '大部分多云 (701米)', '本地:', '23:00、2019年11月29日周五', '协调世界时:', '15:00、2019年11月29日周五', '来源:', 'USAF 每小时地面观测', '报告类型:', 'METAR 航空例行天气报告', '露点:', '8.0°C', '其他云层:', '部分多云 (244米)', '天气:', 'Light Rain']