['Mist', 'BR、IWC10', 'Mist', 'BR、IWC10', 'Mist', 'BR、IWC10', 'Mist', 'BR、IWC10', 'Mist', 'BR、IWC10', 'Mist', 'BR、IWC10', 'Mist', 'BR、IWC10', 'Mist', 'BR、IWC10', 'Mist', 'BR、IWC10', 'Mist', 'BR、IWC10', 'Mist', 'BR、IWC10', 'Haze', 'HZ、IWC05', 'Haze', 'HZ、IWC05', 'Haze', 'HZ、IWC05', 'Haze', 'HZ、IWC05', 'Haze', 'HZ、IWC05', '上午12:00', '6°C', '1,023毫巴', '每小时0公里', '5.00公里', '无重要云', '本地:', '00:00、2019年1月23日周三', '协调世界时:', '16:00、2019年1月22日周二', '来源:', '周期文件', '趋势:', '无重要变化', '露点:', '3°C', '天气:', 'Mist', '原始:', 'ZUUU 221600Z 00000MPS 5000 BR NSC 06/03 Q1023 NOSIG', '上午12:00', '6.0°C', '1,023毫巴', '每小时0公里', '5.00公里', '未检测到云', '本地:', '00:00、2019年1月23日周三', '协调世界时:', '16:00、2019年1月22日周二', '来源:', 'USAF 每小时地面观测', '报告类型:', 'METAR 航空例行天气报告', '露点:', '3.0°C', '天气:', 'Mist', '上午1:00', '5°C', '1,023毫巴', '每小时0公里', '5.00公里', '无重要云', '本地:', '01:00、2019年1月23日周三', '协调世界时:', '17:00、2019年1月22日周二', '来源:', '周期文件', '趋势:', '无重要变化', '露点:', '4°C', '天气:', 'Mist', '原始:', 'ZUUU 221700Z 00000MPS 5000 BR NSC 05/04 Q1023 NOSIG', '上午1:00', '5.0°C', '1,023毫巴', '每小时0公里', '5.00公里', '未检测到云', '本地:', '01:00、2019年1月23日周三', '协调世界时:', '17:00、2019年1月22日周二', '来源:', 'USAF 每小时地面观测', '报告类型:', 'METAR 航空例行天气报告', '露点:', '4.0°C', '天气:', 'Mist', '上午2:00', '5°C', '1,023毫巴', '每小时0公里', '4.50公里', '无重要云', '本地:', '02:00、2019年1月23日周三', '协调世界时:', '18:00、2019年1月22日周二', '来源:', '周期文件', '趋势:', '无重要变化', '露点:', '3°C', '天气:', 'Mist', '原始:', 'ZUUU 221800Z 00000MPS 4500 BR NSC 05/03 Q1023 NOSIG', '上午2:00', '5.0°C', '1,023毫巴', '每小时0公里', '4.50公里', '未检测到云', '本地:', '02:00、2019年1月23日周三', '协调世界时:', '18:00、2019年1月22日周二', '来源:', 'USAF 每小时地面观测', '报告类型:', 'METAR 航空例行天气报告', '露点:', '3.0°C', '天气:', 'Mist', '上午3:00', '5°C', '1,023毫巴', '每小时0公里', '4.50公里', '无重要云', '本地:', '03:00、2019年1月23日周三', '协调世界时:', '19:00、2019年1月22日周二', '来源:', '周期文件', '趋势:', '无重要变化', '露点:', '4°C', '天气:', 'Mist', '原始:', 'ZUUU 221900Z 00000MPS 4500 BR NSC 05/04 Q1023 NOSIG', '上午3:00', '5.0°C', '1,023毫巴', '每小时0公里', '4.50公里', '未检测到云', '本地:', '03:00、2019年1月23日周三', '协调世界时:', '19:00、2019年1月22日周二', '来源:', 'USAF 每小时地面观测', '报告类型:', 'METAR 航空例行天气报告', '露点:', '4.0°C', '天气:', 'Mist', '上午4:00', '5°C', '1,022毫巴', '每小时0公里', '4.50公里', '无重要云', '本地:', '04:00、2019年1月23日周三', '协调世界时:', '20:00、2019年1月22日周二', '来源:', '周期文件', '趋势:', '无重要变化', '露点:', '4°C', '天气:', 'Mist', '原始:', 'ZUUU 222000Z 00000MPS 4500 BR NSC 05/04 Q1022 NOSIG', '上午4:00', '5.0°C', '1,022毫巴', '每小时0公里', '4.50公里', '未检测到云', '本地:', '04:00、2019年1月23日周三', '协调世界时:', '20:00、2019年1月22日周二', '来源:', 'USAF 每小时地面观测', '报告类型:', 'METAR 航空例行天气报告', '露点:', '4.0°C', '天气:', 'Mist', '上午5:00', '5°C', '1,022毫巴', '每小时0公里', '4.00公里', '无重要云', '本地:', '05:00、2019年1月23日周三', '协调世界时:', '21:00、2019年1月22日周二', '来源:', '周期文件', '趋势:', '无重要变化', '露点:', '4°C', '天气:', 'Mist', '原始:', 'ZUUU 222100Z 00000MPS 4000 BR NSC 05/04 Q1022 NOSIG', '上午5:00', '5.0°C', '1,022毫巴', '每小时0公里', '4.00公里', '未检测到云', '本地:', '05:00、2019年1月23日周三', '协调世界时:', '21:00、2019年1月22日周二', '来源:', 'USAF 每小时地面观测', '报告类型:', 'METAR 航空例行天气报告', '露点:', '4.0°C', '天气:', 'Mist', '上午6:00', '6°C', '1,021毫巴', '每小时0公里', '4.00公里', '无重要云', '本地:', '06:00、2019年1月23日周三', '协调世界时:', '22:00、2019年1月22日周二', '来源:', '周期文件', '趋势:', '无重要变化', '露点:', '4°C', '天气:', 'Mist', '原始:', 'ZUUU 222200Z 00000MPS 4000 BR NSC 06/04 Q1021 NOSIG', '上午6:00', '6.0°C', '1,021毫巴', '每小时0公里', '4.00公里', '未检测到云', '本地:', '06:00、2019年1月23日周三', '协调世界时:', '22:00、2019年1月22日周二', '来源:', 'USAF 每小时地面观测', '报告类型:', 'METAR 航空例行天气报告', '露点:', '4.0°C', '天气:', 'Mist', '上午7:00', '7°C', '1,021毫巴', '每小时0公里', '4.00公里', '无重要云', '本地:', '07:00、2019年1月23日周三', '协调世界时:', '23:00、2019年1月22日周二', '来源:', '周期文件', '趋势:', '无重要变化', '露点:', '3°C', '天气:', 'Mist', '原始:', 'ZUUU 222300Z 00000MPS 4000 BR NSC 07/03 Q1021 NOSIG', '上午7:00', '7.0°C', '1,021毫巴', '每小时0公里', '4.00公里', '未检测到云', '本地:', '07:00、2019年1月23日周三', '协调世界时:', '23:00、2019年1月22日周二', '来源:', 'USAF 每小时地面观测', '报告类型:', 'METAR 航空例行天气报告', '露点:', '3.0°C', '天气:', 'Mist', '上午8:00', '7°C', '1,022毫巴', '每小时0公里', '3.00公里', '无重要云', '本地:', '08:00、2019年1月23日周三', '协调世界时:', '00:00、2019年1月23日周三', '来源:', '周期文件', '趋势:', '变化为', '露点:', '3°C', '天气:', 'Mist、Mist', '原始:', 'ZUUU 230000Z 00000MPS 3000 BR NSC 07/03 Q1022 BECMG TL0030 2700 BR', '上午8:00', '7.0°C', '1,022毫巴', '每小时0公里', '3.00公里', '未检测到云', '本地:', '08:00、2019年1月23日周三', '协调世界时:', '00:00、2019年1月23日周三', '来源:', 'USAF 每小时地面观测', '报告类型:', 'METAR 航空例行天气报告', '露点:', '3.0°C', '天气:', 'Mist', '上午9:00', '8°C', '1,022毫巴', '每小时7.20公里, 东北', '2.40公里', '无重要云', '本地:', '09:00、2019年1月23日周三', '协调世界时:', '01:00、2019年1月23日周三', '来源:', '周期文件', '趋势:', '变化为', '露点:', '3°C', '天气:', 'Mist', '原始:', 'ZUUU 230100Z 06002MPS 020V110 2400 BR NSC 08/03 Q1022 BECMG TL0250 3000', '上午9:00', '8.0°C', '1,022毫巴', '每小时7.20公里, 东北', '2.40公里', '未检测到云', '本地:', '09:00、2019年1月23日周三', '协调世界时:', '01:00、2019年1月23日周三', '来源:', 'USAF 每小时地面观测', '报告类型:', 'METAR 航空例行天气报告', '露点:', '3.0°C', '天气:', 'Mist', '上午10:00', '9°C', '1,023毫巴', '每小时0公里', '2.40公里', '无重要云', '本地:', '10:00、2019年1月23日周三', '协调世界时:', '02:00、2019年1月23日周三', '来源:', '周期文件', '趋势:', '变化为', '露点:', '4°C', '天气:', 'Mist', '原始:', 'ZUUU 230200Z 00000MPS 2400 BR NSC 09/04 Q1023 BECMG TL0310 3000', '上午10:00', '9.0°C', '1,023毫巴', '每小时0公里', '2.40公里', '未检测到云', '本地:', '10:00、2019年1月23日周三', '协调世界时:', '02:00、2019年1月23日周三', '来源:', 'USAF 每小时地面观测', '报告类型:', 'METAR 航空例行天气报告', '露点:', '4.0°C', '天气:', 'Mist', '上午11:00', '10°C', '1,023毫巴', '每小时3.60公里', '2.40公里', '无重要云', '本地:', '11:00、2019年1月23日周三', '协调世界时:', '03:00、2019年1月23日周三', '来源:', '周期文件', '趋势:', '变化为', '露点:', '3°C', '天气:', 'Haze', '原始:', 'ZUUU 230300Z VRB01MPS 2400 HZ NSC 10/03 Q1023 BECMG TL0410 3000', '上午11:00', '10.0°C', '1,023毫巴', '每小时3.60公里', '2.40公里', '未检测到云', '本地:', '11:00、2019年1月23日周三', '协调世界时:', '03:00、2019年1月23日周三', '来源:', 'USAF 每小时地面观测', '报告类型:', 'METAR 航空例行天气报告', '露点:', '3.0°C', '天气:', 'Haze', '下午12:00', '11°C', '1,022毫巴', '每小时0公里', '3.00公里', '无重要云', '本地:', '12:00、2019年1月23日周三', '协调世界时:', '04:00、2019年1月23日周三', '来源:', '周期文件', '趋势:', '无重要变化', '露点:', '4°C', '天气:', 'Haze', '原始:', 'ZUUU 230400Z 00000MPS 3000 HZ NSC 11/04 Q1022 NOSIG', '下午12:00', '11.0°C', '1,022毫巴', '每小时0公里', '3.00公里', '未检测到云', '本地:', '12:00、2019年1月23日周三', '协调世界时:', '04:00、2019年1月23日周三', '来源:', 'USAF 每小时地面观测', '报告类型:', 'METAR 航空例行天气报告', '露点:', '4.0°C', '天气:', 'Haze', '下午1:00', '12°C', '1,021毫巴', '每小时0公里', '3.50公里', '无重要云', '本地:', '13:00、2019年1月23日周三', '协调世界时:', '05:00、2019年1月23日周三', '来源:', '周期文件', '趋势:', '无重要变化', '露点:', '3°C', '天气:', 'Haze', '原始:', 'ZUUU 230500Z 00000MPS 3500 HZ NSC 12/03 Q1021 NOSIG', '下午1:00', '12.0°C', '1,021毫巴', '每小时0公里', '3.50公里', '未检测到云', '本地:', '13:00、2019年1月23日周三', '协调世界时:', '05:00、2019年1月23日周三', '来源:', 'USAF 每小时地面观测', '报告类型:', 'METAR 航空例行天气报告', '露点:', '3.0°C', '天气:', 'Haze', '下午2:00', '13°C', '1,019毫巴', '每小时3.60公里', '4.00公里', '无重要云', '本地:', '14:00、2019年1月23日周三', '协调世界时:', '06:00、2019年1月23日周三', '来源:', '周期文件', '趋势:', '无重要变化', '露点:', '3°C', '天气:', 'Haze', '原始:', 'ZUUU 230600Z VRB01MPS 4000 HZ NSC 13/03 Q1019 NOSIG', '下午2:00', '13.0°C', '1,019毫巴', '每小时3.60公里', '4.00公里', '未检测到云', '本地:', '14:00、2019年1月23日周三', '协调世界时:', '06:00、2019年1月23日周三', '来源:', 'USAF 每小时地面观测', '报告类型:', 'METAR 航空例行天气报告', '露点:', '3.0°C', '天气:', 'Haze', '下午3:00', '13°C', '1,018毫巴', '每小时3.60公里', '5.00公里', '无重要云', '本地:', '15:00、2019年1月23日周三', '协调世界时:', '07:00、2019年1月23日周三', '来源:', '周期文件', '趋势:', '无重要变化', '露点:', '2°C', '阵风风速:', '每小时21.6公里', '天气:', 'Haze', '原始:', 'ZUUU 230700Z VRB01G06MPS 5000 HZ NSC 13/02 Q1018 NOSIG', '下午3:00', '13.0°C', '1,018毫巴', '每小时3.60公里', '5.00公里', '未检测到云', '本地:', '15:00、2019年1月23日周三', '协调世界时:', '07:00、2019年1月23日周三', '来源:', 'USAF 每小时地面观测', '报告类型:', 'METAR 航空例行天气报告', '露点:', '2.0°C', '阵风风速:', '每小时21.6公里', '天气:', 'Haze', '下午4:00', '13°C', '1,018毫巴', '每小时7.20公里, 东', '7.00公里', '无重要云', '本地:', '16:00、2019年1月23日周三', '协调世界时:', '08:00、2019年1月23日周三', '来源:', '周期文件', '趋势:', '无重要变化', '露点:', '2°C', '原始:', 'ZUUU 230800Z 09002MPS 010V170 7000 NSC 13/02 Q1018 NOSIG', '下午4:00', '13.0°C', '1,018毫巴', '每小时7.20公里, 东', '7.00公里', '未检测到云', '本地:', '16:00、2019年1月23日周三', '协调世界时:', '08:00、2019年1月23日周三', '来源:', 'USAF 每小时地面观测', '报告类型:', 'METAR 航空例行天气报告', '露点:', '2.0°C', '下午5:00', '13°C', '1,018毫巴', '每小时7.20公里, 东南', '8.00公里', '无重要云', '本地:', '17:00、2019年1月23日周三', '协调世界时:', '09:00、2019年1月23日周三', '来源:', '周期文件', '趋势:', '无重要变化', '露点:', '2°C', '原始:', 'ZUUU 230900Z 13002MPS 060V220 8000 NSC 13/02 Q1018 NOSIG', '下午5:00', '13.0°C', '1,018毫巴', '每小时7.20公里, 东南', '8.00公里', '未检测到云', '本地:', '17:00、2019年1月23日周三', '协调世界时:', '09:00、2019年1月23日周三', '来源:', 'USAF 每小时地面观测', '报告类型:', 'METAR 航空例行天气报告', '露点:', '2.0°C', '下午6:00', '12°C', '1,019毫巴', '每小时14.4公里, 东南', '8.00公里', '无重要云', '本地:', '18:00、2019年1月23日周三', '协调世界时:', '10:00、2019年1月23日周三', '来源:', '周期文件', '趋势:', '无重要变化', '露点:', '2°C', '原始:', 'ZUUU 231000Z 13004MPS 090V170 8000 NSC 12/02 Q1019 NOSIG', '下午6:00', '12.0°C', '1,019毫巴', '每小时14.4公里, 东南', '8.00公里', '未检测到云', '本地:', '18:00、2019年1月23日周三', '协调世界时:', '10:00、2019年1月23日周三', '来源:', 'USAF 每小时地面观测', '报告类型:', 'METAR 航空例行天气报告', '露点:', '2.0°C', '下午7:00', '11°C', '1,019毫巴', '每小时10.8公里, 东', '8.00公里', '无重要云', '本地:', '19:00、2019年1月23日周三', '协调世界时:', '11:00、2019年1月23日周三', '来源:', '周期文件', '趋势:', '无重要变化', '露点:', '2°C', '原始:', 'ZUUU 231100Z 10003MPS 050V140 8000 NSC 11/02 Q1019 NOSIG', '下午7:00', '11.0°C', '1,019毫巴', '每小时10.8公里, 东', '8.00公里', '未检测到云', '本地:', '19:00、2019年1月23日周三', '协调世界时:', '11:00、2019年1月23日周三', '来源:', 'USAF 每小时地面观测', '报告类型:', 'METAR 航空例行天气报告', '露点:', '2.0°C', '下午8:00', '11°C', '1,020毫巴', '每小时7.20公里, 东南', '8.00公里', '无重要云', '本地:', '20:00、2019年1月23日周三', '协调世界时:', '12:00、2019年1月23日周三', '来源:', '周期文件', '趋势:', '无重要变化', '露点:', '2°C', '阵风风速:', '每小时25.2公里', '原始:', 'ZUUU 231200Z 12002G07MPS 040V150 8000 NSC 11/02 Q1020 NOSIG', '下午8:00', '11.0°C', '1,020毫巴', '每小时7.20公里, 东南', '8.00公里', '未检测到云', '本地:', '20:00、2019年1月23日周三', '协调世界时:', '12:00、2019年1月23日周三', '来源:', 'USAF 每小时地面观测', '报告类型:', 'METAR 航空例行天气报告', '露点:', '2.0°C', '阵风风速:', '每小时25.2公里', '下午9:00', '11°C', '1,020毫巴', '每小时3.60公里', '8.00公里', '无重要云', '本地:', '21:00、2019年1月23日周三', '协调世界时:', '13:00、2019年1月23日周三', '来源:', '周期文件', '趋势:', '无重要变化', '露点:', '2°C', '原始:', 'ZUUU 231300Z VRB01MPS 8000 NSC 11/02 Q1020 NOSIG', '下午9:00', '11.0°C', '1,020毫巴', '每小时3.60公里', '8.00公里', '未检测到云', '本地:', '21:00、2019年1月23日周三', '协调世界时:', '13:00、2019年1月23日周三', '来源:', 'USAF 每小时地面观测', '报告类型:', 'METAR 航空例行天气报告', '露点:', '2.0°C', '下午10:00', '10°C', '1,020毫巴', '每小时0公里', '8.00公里', '无重要云', '本地:', '22:00、2019年1月23日周三', '协调世界时:', '14:00、2019年1月23日周三', '来源:', '周期文件', '趋势:', '无重要变化', '露点:', '2°C', '原始:', 'ZUUU 231400Z 00000MPS 8000 NSC 10/02 Q1020 NOSIG', '下午10:00', '10.0°C', '1,020毫巴', '每小时0公里', '8.00公里', '未检测到云', '本地:', '22:00、2019年1月23日周三', '协调世界时:', '14:00、2019年1月23日周三', '来源:', 'USAF 每小时地面观测', '报告类型:', 'METAR 航空例行天气报告', '露点:', '2.0°C', '下午11:00', '10°C', '1,020毫巴', '每小时0公里', '8.00公里', '无重要云', '本地:', '23:00、2019年1月23日周三', '协调世界时:', '15:00、2019年1月23日周三', '来源:', '周期文件', '趋势:', '无重要变化', '露点:', '2°C', '原始:', 'ZUUU 231500Z 00000MPS 8000 NSC 10/02 Q1020 NOSIG', '下午11:00', '10.0°C', '1,020毫巴', '每小时0公里', '8.00公里', '未检测到云', '本地:', '23:00、2019年1月23日周三', '协调世界时:', '15:00、2019年1月23日周三', '来源:', 'USAF 每小时地面观测', '报告类型:', 'METAR 航空例行天气报告', '露点:', '2.0°C']