['Light Rain', '-RA、IWC61', 'Light Rain', '-RA、IWC61', 'Light Rain、Mist', '-RA、IWC61、BR、IWC10', 'Light Rain、Mist', '-RA、IWC61、BR、IWC10', 'Light Rain、Mist', '-RA、IWC61、BR、IWC10', 'Light Rain、Mist', '-RA、IWC61、BR、IWC10', 'Light Rain、Mist', '-RA、IWC61、BR、IWC10', 'Light Rain、Mist', '-RA、IWC61、BR、IWC10', 'Light Rain、Mist', '-RA、IWC61、BR、IWC10', 'Light Rain、Mist', '-RA、IWC61、BR、IWC10', 'Light Rain', '-RA、IWC61', 'Light Rain', '-RA、IWC61', 'Light Rain', '-RA、IWC61', 'Light Rain', '-RA、IWC61', 'Light Rain', '-RA、IWC61', 'Light Rain、Mist', '-RA、IWC61、BR、IWC10', 'Light Rain', '-RA、IWC61', 'Light Rain', '-RA、IWC61', 'Light Rain、Mist', '-RA、IWC61、BR、IWC10', 'Light Rain', '-RA、IWC61', 'Light Rain', '-RA、IWC61', 'Light Rain', '-RA、IWC61', 'Light Rain', '-RA、IWC61', '上午12:00', '9°C', '1,020毫巴', '每小时7.20公里, 北', '10.00公里', '大部分多云 (1,219米)', '本地:', '00:00、2019年2月17日周日', '协调世界时:', '16:00、2019年2月16日周六', '来源:', '周期文件', '趋势:', '无重要变化', '露点:', '2°C', '其他云层:', '部分多云 (914米)', '天气:', 'Light Rain', '原始:', 'ZUUU 161600Z 35002MPS 320V030 9999 -RA SCT030 BKN040 09/02 Q1020 NOSIG', '上午12:00', '9.0°C', '1,020毫巴', '每小时7.20公里, 北', '10.00公里', '大部分多云 (1,219米)', '本地:', '00:00、2019年2月17日周日', '协调世界时:', '16:00、2019年2月16日周六', '来源:', 'USAF 每小时地面观测', '报告类型:', 'METAR 航空例行天气报告', '露点:', '2.0°C', '其他云层:', '部分多云 (914米)', '天气:', 'Light Rain', '上午1:00', '8°C', '1,020毫巴', '每小时7.20公里, 北', '8.00公里', '部分多云 (1,524米)', '本地:', '01:00、2019年2月17日周日', '协调世界时:', '17:00、2019年2月16日周六', '来源:', '周期文件', '趋势:', '无重要变化', '露点:', '3°C', '其他云层:', '大部分晴天 (914米)', '原始:', 'ZUUU 161700Z 36002MPS 310V030 8000 FEW030 SCT050 08/03 Q1020 NOSIG', '上午1:00', '8.0°C', '1,020毫巴', '每小时7.20公里, 北', '8.00公里', '部分多云 (1,524米)', '本地:', '01:00、2019年2月17日周日', '协调世界时:', '17:00、2019年2月16日周六', '来源:', 'USAF 每小时地面观测', '报告类型:', 'METAR 航空例行天气报告', '露点:', '3.0°C', '其他云层:', '大部分晴天 (914米)', '上午2:00', '8°C', '1,020毫巴', '每小时10.8公里, 北', '8.00公里', '部分多云 (1,524米)', '本地:', '02:00、2019年2月17日周日', '协调世界时:', '18:00、2019年2月16日周六', '来源:', '周期文件', '趋势:', '无重要变化', '露点:', '4°C', '其他云层:', '大部分晴天 (792米)', '天气:', 'Light Rain', '原始:', 'ZUUU 161800Z 36003MPS 340V040 8000 -RA FEW026 SCT050 08/04 Q1020 NOSIG', '上午2:00', '8.0°C', '1,020毫巴', '每小时10.8公里, 北', '8.00公里', '部分多云 (1,524米)', '本地:', '02:00、2019年2月17日周日', '协调世界时:', '18:00、2019年2月16日周六', '来源:', 'USAF 每小时地面观测', '报告类型:', 'METAR 航空例行天气报告', '露点:', '4.0°C', '其他云层:', '大部分晴天 (792米)', '天气:', 'Light Rain', '上午3:00', '7°C', '1,020毫巴', '每小时7.20公里, 北', '5.00公里', '部分多云 (701米)', '本地:', '03:00、2019年2月17日周日', '协调世界时:', '19:00、2019年2月16日周六', '来源:', '周期文件', '趋势:', '无重要变化', '露点:', '6°C', '其他云层:', '大部分晴天 (305米)', '天气:', 'Light Rain、Mist', '原始:', 'ZUUU 161900Z 36002MPS 320V040 5000 -RA BR FEW010 SCT023 07/06 Q1020 NOSIG', '上午3:00', '7.0°C', '1,020毫巴', '每小时7.20公里, 北', '5.00公里', '部分多云 (701米)', '本地:', '03:00、2019年2月17日周日', '协调世界时:', '19:00、2019年2月16日周六', '来源:', 'USAF 每小时地面观测', '报告类型:', 'METAR 航空例行天气报告', '露点:', '6.0°C', '其他云层:', '大部分晴天 (305米)', '天气:', 'Mist、Light Rain', '上午4:00', '7°C', '1,020毫巴', '每小时14.4公里, 北', '4.00公里', '部分多云 (701米)', '本地:', '04:00、2019年2月17日周日', '协调世界时:', '20:00、2019年2月16日周六', '来源:', '周期文件', '趋势:', '无重要变化', '露点:', '6°C', '其他云层:', '大部分晴天 (244米)', '天气:', 'Light Rain、Mist', '原始:', 'ZUUU 162000Z 02004MPS 4000 -RA BR FEW008 SCT023 07/06 Q1020 NOSIG', '上午4:00', '7.0°C', '1,020毫巴', '每小时14.4公里, 北', '4.00公里', '部分多云 (701米)', '本地:', '04:00、2019年2月17日周日', '协调世界时:', '20:00、2019年2月16日周六', '来源:', 'USAF 每小时地面观测', '报告类型:', 'METAR 航空例行天气报告', '露点:', '6.0°C', '其他云层:', '大部分晴天 (244米)', '天气:', 'Mist、Light Rain', '上午5:00', '6°C', '1,019毫巴', '每小时14.4公里, 北', '3.50公里', '部分多云 (701米)', '本地:', '05:00、2019年2月17日周日', '协调世界时:', '21:00、2019年2月16日周六', '来源:', '周期文件', '趋势:', '无重要变化', '露点:', '6°C', '其他云层:', '大部分晴天 (183米)', '天气:', 'Light Rain、Mist', '原始:', 'ZUUU 162100Z 01004MPS 3500 -RA BR FEW006 SCT023 06/06 Q1019 NOSIG', '上午5:00', '6.0°C', '1,019毫巴', '每小时14.4公里, 北', '3.50公里', '部分多云 (701米)', '本地:', '05:00、2019年2月17日周日', '协调世界时:', '21:00、2019年2月16日周六', '来源:', 'USAF 每小时地面观测', '报告类型:', 'METAR 航空例行天气报告', '露点:', '6.0°C', '其他云层:', '大部分晴天 (183米)', '天气:', 'Mist、Light Rain', '上午6:00', '6°C', '1,020毫巴', '每小时14.4公里, 北', '3.50公里', '部分多云 (701米)', '本地:', '06:00、2019年2月17日周日', '协调世界时:', '22:00、2019年2月16日周六', '来源:', '周期文件', '趋势:', '无重要变化', '露点:', '6°C', '其他云层:', '大部分晴天 (183米)', '天气:', 'Light Rain、Mist', '原始:', 'ZUUU 162200Z 02004MPS 3500 -RA BR FEW006 SCT023 06/06 Q1020 NOSIG', '上午6:00', '6.0°C', '1,020毫巴', '每小时14.4公里, 北', '3.50公里', '部分多云 (701米)', '本地:', '06:00、2019年2月17日周日', '协调世界时:', '22:00、2019年2月16日周六', '来源:', 'USAF 每小时地面观测', '报告类型:', 'METAR 航空例行天气报告', '露点:', '6.0°C', '其他云层:', '大部分晴天 (183米)', '天气:', 'Mist、Light Rain', '上午7:00', '6°C', '1,020毫巴', '每小时10.8公里, 北', '3.50公里', '大部分多云 (701米)', '本地:', '07:00、2019年2月17日周日', '协调世界时:', '23:00、2019年2月16日周六', '来源:', '周期文件', '趋势:', '无重要变化', '露点:', '5°C', '其他云层:', '大部分晴天 (183米)、部分多云 (366米)', '天气:', 'Light Rain、Mist', '原始:', 'ZUUU 162300Z 01003MPS 340V040 3500 -RA BR FEW006 SCT012 BKN023 06/05 Q1020 NOSIG', '上午7:00', '6.0°C', '1,020毫巴', '每小时10.8公里, 北', '3.50公里', '大部分多云 (701米)', '本地:', '07:00、2019年2月17日周日', '协调世界时:', '23:00、2019年2月16日周六', '来源:', 'USAF 每小时地面观测', '报告类型:', 'METAR 航空例行天气报告', '露点:', '5.0°C', '其他云层:', '大部分晴天 (183米)、部分多云 (366米)', '天气:', 'Mist、Light Rain', '上午8:00', '6°C', '1,021毫巴', '每小时7.20公里, 北', '3.00公里', '大部分多云 (701米)', '本地:', '08:00、2019年2月17日周日', '协调世界时:', '00:00、2019年2月17日周日', '来源:', '周期文件', '趋势:', '无重要变化', '露点:', '6°C', '其他云层:', '大部分晴天 (183米)、部分多云 (366米)', '天气:', 'Light Rain、Mist', '原始:', 'ZUUU 170000Z 01002MPS 320V040 3000 -RA BR FEW006 SCT012 BKN023 06/06 Q1021 NOSIG', '上午8:00', '6.0°C', '1,021毫巴', '每小时7.20公里, 北', '3.00公里', '大部分多云 (701米)', '本地:', '08:00、2019年2月17日周日', '协调世界时:', '00:00、2019年2月17日周日', '来源:', 'USAF 每小时地面观测', '报告类型:', 'METAR 航空例行天气报告', '露点:', '6.0°C', '其他云层:', '大部分晴天 (183米)、部分多云 (366米)', '天气:', 'Mist、Light Rain', '上午9:00', '6°C', '1,021毫巴', '每小时10.8公里, 北', '3.50公里', '大部分多云 (701米)', '本地:', '09:00、2019年2月17日周日', '协调世界时:', '01:00、2019年2月17日周日', '来源:', '周期文件', '趋势:', '无重要变化', '露点:', '5°C', '其他云层:', '大部分晴天 (183米)、部分多云 (366米)', '天气:', 'Light Rain、Mist', '原始:', 'ZUUU 170100Z 01003MPS 3500 -RA BR FEW006 SCT012 BKN023 06/05 Q1021 NOSIG', '上午9:00', '6.0°C', '1,021毫巴', '每小时10.8公里, 北', '3.50公里', '大部分多云 (701米)', '本地:', '09:00、2019年2月17日周日', '协调世界时:', '01:00、2019年2月17日周日', '来源:', 'USAF 每小时地面观测', '报告类型:', 'METAR 航空例行天气报告', '露点:', '5.0°C', '其他云层:', '大部分晴天 (183米)、部分多云 (366米)', '天气:', 'Mist、Light Rain', '上午10:00', '6°C', '1,021毫巴', '每小时10.8公里, 北', '3.50公里', '大部分多云 (701米)', '本地:', '10:00、2019年2月17日周日', '协调世界时:', '02:00、2019年2月17日周日', '来源:', '周期文件', '趋势:', '无重要变化', '露点:', '5°C', '其他云层:', '大部分晴天 (183米)、部分多云 (366米)', '天气:', 'Light Rain、Mist', '原始:', 'ZUUU 170200Z 01003MPS 340V040 3500 -RA BR FEW006 SCT012 BKN023 06/05 Q1021 NOSIG', '上午10:00', '6.0°C', '1,021毫巴', '每小时10.8公里, 北', '3.50公里', '大部分多云 (701米)', '本地:', '10:00、2019年2月17日周日', '协调世界时:', '02:00、2019年2月17日周日', '来源:', 'USAF 每小时地面观测', '报告类型:', 'METAR 航空例行天气报告', '露点:', '5.0°C', '其他云层:', '大部分晴天 (183米)、部分多云 (366米)', '天气:', 'Mist、Light Rain', '上午11:00', '6°C', '1,021毫巴', '每小时10.8公里, 东北', '8.00公里', '大部分多云 (701米)', '本地:', '11:00、2019年2月17日周日', '协调世界时:', '03:00、2019年2月17日周日', '来源:', '周期文件', '趋势:', '无重要变化', '露点:', '6°C', '其他云层:', '大部分晴天 (183米)', '天气:', 'Light Rain', '原始:', 'ZUUU 170300Z 04003MPS 010V080 8000 -RA FEW006 BKN023 06/06 Q1021 NOSIG', '上午11:00', '6.0°C', '1,021毫巴', '每小时10.8公里, 东北', '8.00公里', '大部分多云 (701米)', '本地:', '11:00、2019年2月17日周日', '协调世界时:', '03:00、2019年2月17日周日', '来源:', 'USAF 每小时地面观测', '报告类型:', 'METAR 航空例行天气报告', '露点:', '6.0°C', '其他云层:', '大部分晴天 (183米)', '天气:', 'Light Rain', '下午12:00', '6°C', '1,021毫巴', '每小时14.4公里, 东北', '8.00公里', '大部分多云 (701米)', '本地:', '12:00、2019年2月17日周日', '协调世界时:', '04:00、2019年2月17日周日', '来源:', '周期文件', '趋势:', '无重要变化', '露点:', '5°C', '其他云层:', '大部分晴天 (183米)', '天气:', 'Light Rain', '原始:', 'ZUUU 170400Z 05004MPS 020V080 8000 -RA FEW006 BKN023 06/05 Q1021 NOSIG', '下午12:00', '6.0°C', '1,021毫巴', '每小时14.4公里, 东北', '8.00公里', '大部分多云 (701米)', '本地:', '12:00、2019年2月17日周日', '协调世界时:', '04:00、2019年2月17日周日', '来源:', 'USAF 每小时地面观测', '报告类型:', 'METAR 航空例行天气报告', '露点:', '5.0°C', '其他云层:', '大部分晴天 (183米)', '天气:', 'Light Rain', '下午1:00', '6°C', '1,020毫巴', '每小时10.8公里, 北', '7.00公里', '大部分多云 (701米)', '本地:', '13:00、2019年2月17日周日', '协调世界时:', '05:00、2019年2月17日周日', '来源:', '周期文件', '趋势:', '无重要变化', '露点:', '5°C', '其他云层:', '大部分晴天 (244米)', '天气:', 'Light Rain', '原始:', 'ZUUU 170500Z 01003MPS 330V040 7000 -RA FEW008 BKN023 06/05 Q1020 NOSIG', '下午1:00', '6.0°C', '1,020毫巴', '每小时10.8公里, 北', '7.00公里', '大部分多云 (701米)', '本地:', '13:00、2019年2月17日周日', '协调世界时:', '05:00、2019年2月17日周日', '来源:', 'USAF 每小时地面观测', '报告类型:', 'METAR 航空例行天气报告', '露点:', '5.0°C', '其他云层:', '大部分晴天 (244米)', '天气:', 'Light Rain', '下午2:00', '6°C', '1,018毫巴', '每小时14.4公里, 北', '6.00公里', '大部分多云 (701米)', '本地:', '14:00、2019年2月17日周日', '协调世界时:', '06:00、2019年2月17日周日', '来源:', '周期文件', '趋势:', '无重要变化', '露点:', '5°C', '其他云层:', '部分多云 (244米)', '天气:', 'Light Rain', '原始:', 'ZUUU 170600Z 02004MPS 340V050 6000 -RA SCT008 BKN023 06/05 Q1018 NOSIG', '下午2:00', '6.0°C', '1,018毫巴', '每小时14.4公里, 北', '6.00公里', '大部分多云 (701米)', '本地:', '14:00、2019年2月17日周日', '协调世界时:', '06:00、2019年2月17日周日', '来源:', 'USAF 每小时地面观测', '报告类型:', 'METAR 航空例行天气报告', '露点:', '5.0°C', '其他云层:', '部分多云 (244米)', '天气:', 'Light Rain', '下午3:00', '6°C', '1,017毫巴', '每小时10.8公里, 北', '7.00公里', '大部分多云 (701米)', '本地:', '15:00、2019年2月17日周日', '协调世界时:', '07:00、2019年2月17日周日', '来源:', '周期文件', '趋势:', '无重要变化', '露点:', '5°C', '其他云层:', '部分多云 (305米)', '天气:', 'Light Rain', '原始:', 'ZUUU 170700Z 01003MPS 340V040 7000 -RA SCT010 BKN023 06/05 Q1017 NOSIG', '下午3:00', '6.0°C', '1,017毫巴', '每小时10.8公里, 北', '7.00公里', '大部分多云 (701米)', '本地:', '15:00、2019年2月17日周日', '协调世界时:', '07:00、2019年2月17日周日', '来源:', 'USAF 每小时地面观测', '报告类型:', 'METAR 航空例行天气报告', '露点:', '5.0°C', '其他云层:', '部分多云 (305米)', '天气:', 'Light Rain', '下午4:00', '6°C', '1,016毫巴', '每小时14.4公里, 东北', '4.00公里', '大部分多云 (701米)', '本地:', '16:00、2019年2月17日周日', '协调世界时:', '08:00、2019年2月17日周日', '来源:', '周期文件', '趋势:', '无重要变化', '露点:', '5°C', '其他云层:', '部分多云 (305米)', '天气:', 'Light Rain、Mist', '原始:', 'ZUUU 170800Z 06004MPS 020V080 4000 -RA BR SCT010 BKN023 06/05 Q1016 NOSIG', '下午4:00', '6.0°C', '1,016毫巴', '每小时14.4公里, 东北', '4.00公里', '大部分多云 (701米)', '本地:', '16:00、2019年2月17日周日', '协调世界时:', '08:00、2019年2月17日周日', '来源:', 'USAF 每小时地面观测', '报告类型:', 'METAR 航空例行天气报告', '露点:', '5.0°C', '其他云层:', '部分多云 (305米)', '天气:', 'Mist、Light Rain', '下午5:00', '6°C', '1,016毫巴', '每小时14.4公里, 东北', '8.00公里', '大部分多云 (701米)', '本地:', '17:00、2019年2月17日周日', '协调世界时:', '09:00、2019年2月17日周日', '来源:', '周期文件', '趋势:', '无重要变化', '露点:', '5°C', '其他云层:', '大部分晴天 (152米)、部分多云 (305米)', '天气:', 'Light Rain', '原始:', 'ZUUU 170900Z 03004MPS 8000 -RA FEW005 SCT010 BKN023 06/05 Q1016 NOSIG', '下午5:00', '6.0°C', '1,016毫巴', '每小时14.4公里, 东北', '8.00公里', '大部分多云 (701米)', '本地:', '17:00、2019年2月17日周日', '协调世界时:', '09:00、2019年2月17日周日', '来源:', 'USAF 每小时地面观测', '报告类型:', 'METAR 航空例行天气报告', '露点:', '5.0°C', '其他云层:', '大部分晴天 (152米)、部分多云 (305米)', '天气:', 'Light Rain', '下午6:00', '6°C', '1,016毫巴', '每小时10.8公里, 北', '6.00公里', '大部分多云 (701米)', '本地:', '18:00、2019年2月17日周日', '协调世界时:', '10:00、2019年2月17日周日', '来源:', '周期文件', '趋势:', '无重要变化', '露点:', '5°C', '其他云层:', '大部分晴天 (152米)、部分多云 (305米)', '天气:', 'Light Rain', '原始:', 'ZUUU 171000Z 02003MPS 6000 -RA FEW005 SCT010 BKN023 06/05 Q1016 NOSIG', '下午6:00', '6.0°C', '1,016毫巴', '每小时10.8公里, 北', '6.00公里', '大部分多云 (701米)', '本地:', '18:00、2019年2月17日周日', '协调世界时:', '10:00、2019年2月17日周日', '来源:', 'USAF 每小时地面观测', '报告类型:', 'METAR 航空例行天气报告', '露点:', '5.0°C', '其他云层:', '大部分晴天 (152米)、部分多云 (305米)', '天气:', 'Light Rain', '下午7:00', '5°C', '1,016毫巴', '每小时7.20公里, 北', '4.00公里', '大部分多云 (701米)', '本地:', '19:00、2019年2月17日周日', '协调世界时:', '11:00、2019年2月17日周日', '来源:', '周期文件', '趋势:', '无重要变化', '露点:', '5°C', '其他云层:', '大部分晴天 (152米)、部分多云 (274米)', '天气:', 'Light Rain、Mist', '原始:', 'ZUUU 171100Z 01002MPS 4000 -RA BR FEW005 SCT009 BKN023 05/05 Q1016 NOSIG', '下午7:00', '5.0°C', '1,016毫巴', '每小时7.20公里, 北', '4.00公里', '大部分多云 (701米)', '本地:', '19:00、2019年2月17日周日', '协调世界时:', '11:00、2019年2月17日周日', '来源:', 'USAF 每小时地面观测', '报告类型:', 'METAR 航空例行天气报告', '露点:', '5.0°C', '其他云层:', '大部分晴天 (152米)、部分多云 (274米)', '天气:', 'Mist、Light Rain', '下午8:00', '5°C', '1,017毫巴', '每小时10.8公里, 北', '6.00公里', '大部分多云 (701米)', '本地:', '20:00、2019年2月17日周日', '协调世界时:', '12:00、2019年2月17日周日', '来源:', '周期文件', '趋势:', '无重要变化', '露点:', '5°C', '其他云层:', '大部分晴天 (152米)、部分多云 (274米)', '天气:', 'Light Rain', '原始:', 'ZUUU 171200Z 02003MPS 6000 -RA FEW005 SCT009 BKN023 05/05 Q1017 NOSIG', '下午8:00', '5.0°C', '1,017毫巴', '每小时10.8公里, 北', '6.00公里', '大部分多云 (701米)', '本地:', '20:00、2019年2月17日周日', '协调世界时:', '12:00、2019年2月17日周日', '来源:', 'USAF 每小时地面观测', '报告类型:', 'METAR 航空例行天气报告', '露点:', '5.0°C', '其他云层:', '大部分晴天 (152米)、部分多云 (274米)', '天气:', 'Light Rain', '下午9:00', '5°C', '1,017毫巴', '每小时18.0公里, 东北', '7.00公里', '大部分多云 (701米)', '本地:', '21:00、2019年2月17日周日', '协调世界时:', '13:00、2019年2月17日周日', '来源:', '周期文件', '趋势:', '无重要变化', '露点:', '5°C', '其他云层:', '大部分晴天 (183米)、部分多云 (305米)', '天气:', 'Light Rain', '原始:', 'ZUUU 171300Z 04005MPS 7000 -RA FEW006 SCT010 BKN023 05/05 Q1017 NOSIG', '下午9:00', '5.0°C', '1,017毫巴', '每小时18.0公里, 东北', '7.00公里', '大部分多云 (701米)', '本地:', '21:00、2019年2月17日周日', '协调世界时:', '13:00、2019年2月17日周日', '来源:', 'USAF 每小时地面观测', '报告类型:', 'METAR 航空例行天气报告', '露点:', '5.0°C', '其他云层:', '大部分晴天 (183米)、部分多云 (305米)', '天气:', 'Light Rain', '下午10:00', '5°C', '1,018毫巴', '每小时10.8公里, 北', '7.00公里', '大部分多云 (792米)', '本地:', '22:00、2019年2月17日周日', '协调世界时:', '14:00、2019年2月17日周日', '来源:', '周期文件', '趋势:', '无重要变化', '露点:', '4°C', '其他云层:', '部分多云 (213米)', '天气:', 'Light Rain', '原始:', 'ZUUU 171400Z 01003MPS 7000 -RA SCT007 BKN026 05/04 Q1018 NOSIG', '下午10:00', '5.0°C', '1,018毫巴', '每小时10.8公里, 北', '7.00公里', '大部分多云 (792米)', '本地:', '22:00、2019年2月17日周日', '协调世界时:', '14:00、2019年2月17日周日', '来源:', 'USAF 每小时地面观测', '报告类型:', 'METAR 航空例行天气报告', '露点:', '4.0°C', '其他云层:', '部分多云 (213米)', '天气:', 'Light Rain', '下午11:00', '5°C', '1,018毫巴', '每小时10.8公里, 北', '8.00公里', '部分多云 (305米)', '本地:', '23:00、2019年2月17日周日', '协调世界时:', '15:00、2019年2月17日周日', '来源:', '周期文件', '趋势:', '无重要变化', '露点:', '4°C', '其他云层:', '部分多云 (792米)', '天气:', 'Light Rain', '原始:', 'ZUUU 171500Z 02003MPS 340V050 8000 -RA SCT010 SCT026 05/04 Q1018 NOSIG', '下午11:00', '5.0°C', '1,018毫巴', '每小时10.8公里, 北', '8.00公里', '部分多云 (305米)', '本地:', '23:00、2019年2月17日周日', '协调世界时:', '15:00、2019年2月17日周日', '来源:', 'USAF 每小时地面观测', '报告类型:', 'METAR 航空例行天气报告', '露点:', '4.0°C', '其他云层:', '部分多云 (792米)', '天气:', 'Light Rain']