['Mist', 'BR、IWC10', 'Mist', 'BR、IWC10', 'Mist', 'BR、IWC10', 'Mist', 'BR、IWC10', 'Mist', 'BR、IWC10', 'Mist', 'BR、IWC10', 'Mist', 'BR、IWC10', 'Mist', 'BR、IWC10', 'Mist', 'BR、IWC10', 'Mist', 'BR、IWC10', 'Mist', 'BR、IWC10', 'Mist', 'BR、IWC10', 'Haze', 'HZ、IWC05', 'Haze', 'HZ、IWC05', '上午12:00', '14°C', '1,013毫巴', '每小时0公里', '5.00公里', '部分多云 (1,524米)', '本地:', '00:00、2019年3月19日周二', '协调世界时:', '16:00、2019年3月18日周一', '来源:', '周期文件', '趋势:', '无重要变化', '露点:', '11°C', '天气:', 'Mist', '原始:', 'ZUUU 181600Z 00000MPS 5000 BR SCT050 14/11 Q1013 NOSIG', '上午12:00', '14.0°C', '1,013毫巴', '每小时0公里', '5.00公里', '部分多云 (1,524米)', '本地:', '00:00、2019年3月19日周二', '协调世界时:', '16:00、2019年3月18日周一', '来源:', 'USAF 每小时地面观测', '报告类型:', 'METAR 航空例行天气报告', '露点:', '11.0°C', '天气:', 'Mist', '上午1:00', '13°C', '1,012毫巴', '每小时3.60公里, 西南', '4.00公里', '部分多云 (1,524米)', '本地:', '01:00、2019年3月19日周二', '协调世界时:', '17:00、2019年3月18日周一', '来源:', '周期文件', '趋势:', '无重要变化', '露点:', '11°C', '天气:', 'Mist', '原始:', 'ZUUU 181700Z 21001MPS 4000 BR SCT050 13/11 Q1012 NOSIG', '上午1:00', '13.0°C', '1,012毫巴', '每小时3.60公里, 西南', '4.00公里', '部分多云 (1,524米)', '本地:', '01:00、2019年3月19日周二', '协调世界时:', '17:00、2019年3月18日周一', '来源:', 'USAF 每小时地面观测', '报告类型:', 'METAR 航空例行天气报告', '露点:', '11.0°C', '天气:', 'Mist', '上午2:00', '14°C', '1,011毫巴', '每小时3.60公里', '4.00公里', '部分多云 (1,524米)', '本地:', '02:00、2019年3月19日周二', '协调世界时:', '18:00、2019年3月18日周一', '来源:', '周期文件', '趋势:', '无重要变化', '露点:', '11°C', '天气:', 'Mist', '原始:', 'ZUUU 181800Z VRB01MPS 4000 BR SCT050 14/11 Q1011 NOSIG', '上午2:00', '14.0°C', '1,011毫巴', '每小时3.60公里', '4.00公里', '部分多云 (1,524米)', '本地:', '02:00、2019年3月19日周二', '协调世界时:', '18:00、2019年3月18日周一', '来源:', 'USAF 每小时地面观测', '报告类型:', 'METAR 航空例行天气报告', '露点:', '11.0°C', '天气:', 'Mist', '上午3:00', '13°C', '1,010毫巴', '每小时0公里', '4.00公里', '大部分多云 (1,524米)', '本地:', '03:00、2019年3月19日周二', '协调世界时:', '19:00、2019年3月18日周一', '来源:', '周期文件', '趋势:', '无重要变化', '露点:', '11°C', '天气:', 'Mist', '原始:', 'ZUUU 181900Z 00000MPS 4000 BR BKN050 13/11 Q1010 NOSIG', '上午3:00', '13.0°C', '1,010毫巴', '每小时0公里', '4.00公里', '大部分多云 (1,524米)', '本地:', '03:00、2019年3月19日周二', '协调世界时:', '19:00、2019年3月18日周一', '来源:', 'USAF 每小时地面观测', '报告类型:', 'METAR 航空例行天气报告', '露点:', '11.0°C', '天气:', 'Mist', '上午4:00', '13°C', '1,009毫巴', '每小时3.60公里', '4.00公里', '大部分多云 (1,524米)', '本地:', '04:00、2019年3月19日周二', '协调世界时:', '20:00、2019年3月18日周一', '来源:', '周期文件', '趋势:', '无重要变化', '露点:', '11°C', '天气:', 'Mist', '原始:', 'ZUUU 182000Z VRB01MPS 4000 BR BKN050 13/11 Q1009 NOSIG', '上午4:00', '13.0°C', '1,009毫巴', '每小时3.60公里', '4.00公里', '大部分多云 (1,524米)', '本地:', '04:00、2019年3月19日周二', '协调世界时:', '20:00、2019年3月18日周一', '来源:', 'USAF 每小时地面观测', '报告类型:', 'METAR 航空例行天气报告', '露点:', '11.0°C', '天气:', 'Mist', '上午5:00', '13°C', '1,008毫巴', '每小时0公里', '4.00公里', '大部分多云 (1,524米)', '本地:', '05:00、2019年3月19日周二', '协调世界时:', '21:00、2019年3月18日周一', '来源:', '周期文件', '趋势:', '无重要变化', '露点:', '11°C', '天气:', 'Mist', '原始:', 'ZUUU 182100Z 00000MPS 4000 BR BKN050 13/11 Q1008 NOSIG', '上午5:00', '13.0°C', '1,008毫巴', '每小时0公里', '4.00公里', '大部分多云 (1,524米)', '本地:', '05:00、2019年3月19日周二', '协调世界时:', '21:00、2019年3月18日周一', '来源:', 'USAF 每小时地面观测', '报告类型:', 'METAR 航空例行天气报告', '露点:', '11.0°C', '天气:', 'Mist', '上午6:00', '12°C', '1,008毫巴', '每小时3.60公里, 西南', '4.00公里', '大部分多云 (1,524米)', '本地:', '06:00、2019年3月19日周二', '协调世界时:', '22:00、2019年3月18日周一', '来源:', '周期文件', '趋势:', '无重要变化', '露点:', '11°C', '天气:', 'Mist', '原始:', 'ZUUU 182200Z 21001MPS 4000 BR BKN050 12/11 Q1008 NOSIG', '上午6:00', '12.0°C', '1,008毫巴', '每小时3.60公里, 西南', '4.00公里', '大部分多云 (1,524米)', '本地:', '06:00、2019年3月19日周二', '协调世界时:', '22:00、2019年3月18日周一', '来源:', 'USAF 每小时地面观测', '报告类型:', 'METAR 航空例行天气报告', '露点:', '11.0°C', '天气:', 'Mist', '上午7:00', '13°C', '1,008毫巴', '每小时3.60公里, 西南', '4.00公里', '部分多云 (1,524米)', '本地:', '07:00、2019年3月19日周二', '协调世界时:', '23:00、2019年3月18日周一', '来源:', '周期文件', '趋势:', '无重要变化', '露点:', '11°C', '天气:', 'Mist', '原始:', 'ZUUU 182300Z 21001MPS 4000 BR SCT050 13/11 Q1008 NOSIG', '上午7:00', '13.0°C', '1,008毫巴', '每小时3.60公里, 西南', '4.00公里', '部分多云 (1,524米)', '本地:', '07:00、2019年3月19日周二', '协调世界时:', '23:00、2019年3月18日周一', '来源:', 'USAF 每小时地面观测', '报告类型:', 'METAR 航空例行天气报告', '露点:', '11.0°C', '天气:', 'Mist', '上午8:00', '13°C', '1,008毫巴', '每小时3.60公里, 西南', '2.80公里', '部分多云 (1,524米)', '本地:', '08:00、2019年3月19日周二', '协调世界时:', '00:00、2019年3月19日周二', '来源:', '周期文件', '趋势:', '变化为', '露点:', '12°C', '天气:', 'Mist', '原始:', 'ZUUU 190000Z 23001MPS 2800 BR SCT050 13/12 Q1008 BECMG TL0110 3000', '上午8:00', '13.0°C', '1,008毫巴', '每小时3.60公里, 西南', '2.80公里', '部分多云 (1,524米)', '本地:', '08:00、2019年3月19日周二', '协调世界时:', '00:00、2019年3月19日周二', '来源:', 'USAF 每小时地面观测', '报告类型:', 'METAR 航空例行天气报告', '露点:', '12.0°C', '天气:', 'Mist', '上午9:00', '14°C', '1,008毫巴', '每小时3.60公里, 西南', '2.80公里', '部分多云 (1,524米)', '本地:', '09:00、2019年3月19日周二', '协调世界时:', '01:00、2019年3月19日周二', '来源:', '周期文件', '趋势:', '变化为', '露点:', '12°C', '天气:', 'Mist', '原始:', 'ZUUU 190100Z 22001MPS 2800 BR SCT050 14/12 Q1008 BECMG TL0130 3000', '上午9:00', '14.0°C', '1,008毫巴', '每小时3.60公里, 西南', '2.80公里', '部分多云 (1,524米)', '本地:', '09:00、2019年3月19日周二', '协调世界时:', '01:00、2019年3月19日周二', '来源:', 'USAF 每小时地面观测', '报告类型:', 'METAR 航空例行天气报告', '露点:', '12.0°C', '天气:', 'Mist', '上午10:00', '15°C', '1,008毫巴', '每小时0公里', '3.00公里', '无重要云', '本地:', '10:00、2019年3月19日周二', '协调世界时:', '02:00、2019年3月19日周二', '来源:', '周期文件', '趋势:', '无重要变化', '露点:', '11°C', '天气:', 'Mist', '原始:', 'ZUUU 190200Z 00000MPS 3000 BR NSC 15/11 Q1008 NOSIG', '上午10:00', '15.0°C', '1,008毫巴', '每小时0公里', '3.00公里', '未检测到云', '本地:', '10:00、2019年3月19日周二', '协调世界时:', '02:00、2019年3月19日周二', '来源:', 'USAF 每小时地面观测', '报告类型:', 'METAR 航空例行天气报告', '露点:', '11.0°C', '天气:', 'Mist', '上午11:00', '16°C', '1,007毫巴', '每小时7.20公里', '4.00公里', '无重要云', '本地:', '11:00、2019年3月19日周二', '协调世界时:', '03:00、2019年3月19日周二', '来源:', '周期文件', '趋势:', '无重要变化', '露点:', '11°C', '天气:', 'Mist', '原始:', 'ZUUU 190300Z VRB02MPS 4000 BR NSC 16/11 Q1007 NOSIG', '上午11:00', '16.0°C', '1,007毫巴', '每小时7.20公里', '4.00公里', '未检测到云', '本地:', '11:00、2019年3月19日周二', '协调世界时:', '03:00、2019年3月19日周二', '来源:', 'USAF 每小时地面观测', '报告类型:', 'METAR 航空例行天气报告', '露点:', '11.0°C', '天气:', 'Mist', '下午12:00', '18°C', '1,006毫巴', '每小时3.60公里', '4.00公里', '部分多云 (701米)', '本地:', '12:00、2019年3月19日周二', '协调世界时:', '04:00、2019年3月19日周二', '来源:', '周期文件', '趋势:', '无重要变化', '露点:', '11°C', '其他云层:', '大部分晴天 (701米)', '天气:', 'Haze', '原始:', 'ZUUU 190400Z VRB01MPS 4000 HZ FEW023TCU SCT023 18/11 Q1006 NOSIG', '下午12:00', '18.0°C', '1,006毫巴', '每小时3.60公里', '4.00公里', '部分多云 (701米)', '本地:', '12:00、2019年3月19日周二', '协调世界时:', '04:00、2019年3月19日周二', '来源:', 'USAF 每小时地面观测', '报告类型:', 'METAR 航空例行天气报告', '露点:', '11.0°C', '其他云层:', '大部分晴天 (701米)', '天气:', 'Haze', '下午1:00', '17°C', '1,004毫巴', '每小时7.20公里, 东南', '4.00公里', '部分多云 (701米)', '本地:', '13:00、2019年3月19日周二', '协调世界时:', '05:00、2019年3月19日周二', '来源:', '周期文件', '趋势:', '无重要变化', '露点:', '11°C', '其他云层:', '大部分晴天 (701米)', '天气:', 'Haze', '原始:', 'ZUUU 190500Z 14002MPS 090V170 4000 HZ FEW023TCU SCT023 17/11 Q1004 NOSIG', '下午1:00', '17.0°C', '1,004毫巴', '每小时7.20公里, 东南', '4.00公里', '部分多云 (701米)', '本地:', '13:00、2019年3月19日周二', '协调世界时:', '05:00、2019年3月19日周二', '来源:', 'USAF 每小时地面观测', '报告类型:', 'METAR 航空例行天气报告', '露点:', '11.0°C', '其他云层:', '大部分晴天 (701米)', '天气:', 'Haze', '下午2:00', '18°C', '1,003毫巴', '每小时10.8公里, 东南', '8.00公里', '部分多云 (1,524米)', '本地:', '14:00、2019年3月19日周二', '协调世界时:', '06:00、2019年3月19日周二', '来源:', '周期文件', '趋势:', '无重要变化', '露点:', '10°C', '其他云层:', '大部分晴天 (701米)', '原始:', 'ZUUU 190600Z 12003MPS 040V160 8000 FEW023 SCT050 18/10 Q1003 NOSIG', '下午2:00', '18.0°C', '1,003毫巴', '每小时10.8公里, 东南', '8.00公里', '部分多云 (1,524米)', '本地:', '14:00、2019年3月19日周二', '协调世界时:', '06:00、2019年3月19日周二', '来源:', 'USAF 每小时地面观测', '报告类型:', 'METAR 航空例行天气报告', '露点:', '10.0°C', '其他云层:', '大部分晴天 (701米)', '下午3:00', '19°C', '1,001毫巴', '每小时10.8公里, 东', '8.00公里', '部分多云 (1,524米)', '本地:', '15:00、2019年3月19日周二', '协调世界时:', '07:00、2019年3月19日周二', '来源:', '周期文件', '趋势:', '无重要变化', '露点:', '10°C', '阵风风速:', '每小时28.8公里', '其他云层:', '大部分晴天 (701米)', '原始:', 'ZUUU 190700Z 09003G08MPS 030V140 8000 FEW023 SCT050 19/10 Q1001 NOSIG', '下午3:00', '19.0°C', '1,001毫巴', '每小时10.8公里, 东', '8.00公里', '部分多云 (1,524米)', '本地:', '15:00、2019年3月19日周二', '协调世界时:', '07:00、2019年3月19日周二', '来源:', 'USAF 每小时地面观测', '报告类型:', 'METAR 航空例行天气报告', '露点:', '10.0°C', '阵风风速:', '每小时28.8公里', '其他云层:', '大部分晴天 (701米)', '下午4:00', '19°C', '1,000毫巴', '每小时10.8公里, 东', '8.00公里', '部分多云 (1,524米)', '本地:', '16:00、2019年3月19日周二', '协调世界时:', '08:00、2019年3月19日周二', '来源:', '周期文件', '趋势:', '无重要变化', '露点:', '10°C', '其他云层:', '大部分晴天 (701米)', '原始:', 'ZUUU 190800Z 09003MPS 040V150 8000 FEW023 SCT050 19/10 Q1000 NOSIG', '下午4:00', '19.0°C', '1,000毫巴', '每小时10.8公里, 东', '8.00公里', '部分多云 (1,524米)', '本地:', '16:00、2019年3月19日周二', '协调世界时:', '08:00、2019年3月19日周二', '来源:', 'USAF 每小时地面观测', '报告类型:', 'METAR 航空例行天气报告', '露点:', '10.0°C', '其他云层:', '大部分晴天 (701米)', '下午5:00', '18°C', '1,000毫巴', '每小时3.60公里', '10.00公里', '部分多云 (1,524米)', '本地:', '17:00、2019年3月19日周二', '协调世界时:', '09:00、2019年3月19日周二', '来源:', '周期文件', '趋势:', '无重要变化', '露点:', '10°C', '其他云层:', '大部分晴天 (701米)', '原始:', 'ZUUU 190900Z VRB01MPS 9999 FEW023 SCT050 18/10 Q1000 NOSIG', '下午5:00', '18.0°C', '1,000毫巴', '每小时3.60公里', '10.00公里', '部分多云 (1,524米)', '本地:', '17:00、2019年3月19日周二', '协调世界时:', '09:00、2019年3月19日周二', '来源:', 'USAF 每小时地面观测', '报告类型:', 'METAR 航空例行天气报告', '露点:', '10.0°C', '其他云层:', '大部分晴天 (701米)', '下午6:00', '18°C', '1,000毫巴', '每小时3.60公里, 北', '10.00公里', '部分多云 (1,524米)', '本地:', '18:00、2019年3月19日周二', '协调世界时:', '10:00、2019年3月19日周二', '来源:', '周期文件', '趋势:', '无重要变化', '露点:', '10°C', '其他云层:', '大部分晴天 (701米)', '原始:', 'ZUUU 191000Z 02001MPS 9999 FEW023 SCT050 18/10 Q1000 NOSIG', '下午6:00', '18.0°C', '1,000毫巴', '每小时3.60公里, 北', '10.00公里', '部分多云 (1,524米)', '本地:', '18:00、2019年3月19日周二', '协调世界时:', '10:00、2019年3月19日周二', '来源:', 'USAF 每小时地面观测', '报告类型:', 'METAR 航空例行天气报告', '露点:', '10.0°C', '其他云层:', '大部分晴天 (701米)', '下午7:00', '17°C', '1,000毫巴', '每小时7.20公里, 北', '10.00公里', '大部分多云 (1,524米)', '本地:', '19:00、2019年3月19日周二', '协调世界时:', '11:00、2019年3月19日周二', '来源:', '周期文件', '趋势:', '无重要变化', '露点:', '10°C', '原始:', 'ZUUU 191100Z 35002MPS 320V020 9999 BKN050 17/10 Q1000 NOSIG', '下午7:00', '17.0°C', '1,000毫巴', '每小时7.20公里, 北', '10.00公里', '大部分多云 (1,524米)', '本地:', '19:00、2019年3月19日周二', '协调世界时:', '11:00、2019年3月19日周二', '来源:', 'USAF 每小时地面观测', '报告类型:', 'METAR 航空例行天气报告', '露点:', '10.0°C', '下午8:00', '17°C', '1,001毫巴', '每小时3.60公里', '10.00公里', '部分多云 (1,524米)', '本地:', '20:00、2019年3月19日周二', '协调世界时:', '12:00、2019年3月19日周二', '来源:', '周期文件', '趋势:', '无重要变化', '露点:', '11°C', '原始:', 'ZUUU 191200Z VRB01MPS 9999 SCT050 17/11 Q1001 NOSIG', '下午8:00', '17.0°C', '1,001毫巴', '每小时3.60公里', '10.00公里', '部分多云 (1,524米)', '本地:', '20:00、2019年3月19日周二', '协调世界时:', '12:00、2019年3月19日周二', '来源:', 'USAF 每小时地面观测', '报告类型:', 'METAR 航空例行天气报告', '露点:', '11.0°C', '下午9:00', '16°C', '1,002毫巴', '每小时7.20公里, 北', '8.00公里', '无重要云', '本地:', '21:00、2019年3月19日周二', '协调世界时:', '13:00、2019年3月19日周二', '来源:', '周期文件', '趋势:', '无重要变化', '露点:', '10°C', '原始:', 'ZUUU 191300Z 35002MPS 330V030 8000 NSC 16/10 Q1002 NOSIG', '下午9:00', '16.0°C', '1,002毫巴', '每小时7.20公里, 北', '8.00公里', '未检测到云', '本地:', '21:00、2019年3月19日周二', '协调世界时:', '13:00、2019年3月19日周二', '来源:', 'USAF 每小时地面观测', '报告类型:', 'METAR 航空例行天气报告', '露点:', '10.0°C', '下午10:00', '16°C', '1,004毫巴', '每小时7.20公里, 西北', '6.00公里', '无重要云', '本地:', '22:00、2019年3月19日周二', '协调世界时:', '14:00、2019年3月19日周二', '来源:', '周期文件', '趋势:', '无重要变化', '露点:', '11°C', '原始:', 'ZUUU 191400Z 30002MPS 270V340 6000 NSC 16/11 Q1004 NOSIG', '下午10:00', '16.0°C', '1,004毫巴', '每小时7.20公里, 西北', '6.00公里', '未检测到云', '本地:', '22:00、2019年3月19日周二', '协调世界时:', '14:00、2019年3月19日周二', '来源:', 'USAF 每小时地面观测', '报告类型:', 'METAR 航空例行天气报告', '露点:', '11.0°C', '下午11:00', '15°C', '1,004毫巴', '每小时3.60公里', '6.00公里', '无重要云', '本地:', '23:00、2019年3月19日周二', '协调世界时:', '15:00、2019年3月19日周二', '来源:', '周期文件', '趋势:', '无重要变化', '露点:', '11°C', '原始:', 'ZUUU 191500Z VRB01MPS 6000 NSC 15/11 Q1004 NOSIG', '下午11:00', '15.0°C', '1,004毫巴', '每小时3.60公里', '6.00公里', '未检测到云', '本地:', '23:00、2019年3月19日周二', '协调世界时:', '15:00、2019年3月19日周二', '来源:', 'USAF 每小时地面观测', '报告类型:', 'METAR 航空例行天气报告', '露点:', '11.0°C']