['Mist', 'BR、IWC10', 'Mist', 'BR、IWC10', 'Mist', 'BR、IWC10', 'Mist', 'BR、IWC10', 'Mist', 'BR、IWC10', 'Mist', 'BR、IWC10', 'Showers of Light Rain、Mist', '-SHRA、IWC80、BR、IWC10', 'Thunderstorm with Rain、Showers of Rain、Mist', 'TSRA、SHRA、IWC81、BR、IWC10', 'Thunderstorm with Light Rain、Thunderstorm with Rain、Recent Showers of Rain、Showers of Light Rain', '-TSRA、IWC95、RESHRA、-SHRA', 'Thunderstorm with Light Rain、Thunderstorm with Rain', '-TSRA、TSRA、IWC95', 'Thunderstorm with Light Rain、Thunderstorm with Rain', '-TSRA、TSRA、IWC95', 'Recent Thunderstorm with Rain、Showers of Light Rain', 'RETSRA、-SHRA、IWC80', 'Showers of Light Rain', '-SHRA、IWC80', 'Showers of Light Rain', '-SHRA、IWC80', 'Showers of Light Rain', '-SHRA、IWC80', '上午12:00', '23°C', '1,005毫巴', '每小时3.60公里, 北', '5.00公里', '无重要云', '本地:', '00:00、2019年4月20日周六', '协调世界时:', '16:00、2019年4月19日周五', '来源:', '周期文件', '趋势:', '无重要变化', '露点:', '19°C', '天气:', 'Mist', '原始:', 'ZUUU 191600Z 35001MPS 5000 BR NSC 23/19 Q1005 NOSIG', '上午12:00', '23.0°C', '1,005毫巴', '每小时3.60公里, 北', '5.00公里', '未检测到云', '本地:', '00:00、2019年4月20日周六', '协调世界时:', '16:00、2019年4月19日周五', '来源:', 'USAF 每小时地面观测', '报告类型:', 'METAR 航空例行天气报告', '露点:', '19.0°C', '天气:', 'Mist', '上午1:00', '23°C', '1,004毫巴', '每小时7.20公里, 西北', '5.00公里', '无重要云', '本地:', '01:00、2019年4月20日周六', '协调世界时:', '17:00、2019年4月19日周五', '来源:', '周期文件', '趋势:', '无重要变化', '露点:', '19°C', '天气:', 'Mist', '原始:', 'ZUUU 191700Z 31002MPS 280V010 5000 BR NSC 23/19 Q1004 NOSIG', '上午1:00', '23.0°C', '1,004毫巴', '每小时7.20公里, 西北', '5.00公里', '未检测到云', '本地:', '01:00、2019年4月20日周六', '协调世界时:', '17:00、2019年4月19日周五', '来源:', 'USAF 每小时地面观测', '报告类型:', 'METAR 航空例行天气报告', '露点:', '19.0°C', '天气:', 'Mist', '上午2:00', '23°C', '1,004毫巴', '每小时0公里', '5.00公里', '无重要云', '本地:', '02:00、2019年4月20日周六', '协调世界时:', '18:00、2019年4月19日周五', '来源:', '周期文件', '趋势:', '无重要变化', '露点:', '20°C', '天气:', 'Mist', '原始:', 'ZUUU 191800Z 00000MPS 5000 BR NSC 23/20 Q1004 NOSIG', '上午2:00', '23.0°C', '1,004毫巴', '每小时0公里', '5.00公里', '未检测到云', '本地:', '02:00、2019年4月20日周六', '协调世界时:', '18:00、2019年4月19日周五', '来源:', 'USAF 每小时地面观测', '报告类型:', 'METAR 航空例行天气报告', '露点:', '20.0°C', '天气:', 'Mist', '上午3:00', '23°C', '1,003毫巴', '每小时7.20公里, 东南', '5.00公里', '无重要云', '本地:', '03:00、2019年4月20日周六', '协调世界时:', '19:00、2019年4月19日周五', '来源:', '周期文件', '趋势:', '无重要变化', '露点:', '19°C', '天气:', 'Mist', '原始:', 'ZUUU 191900Z 13002MPS 040V200 5000 BR NSC 23/19 Q1003 NOSIG', '上午3:00', '23.0°C', '1,003毫巴', '每小时7.20公里, 东南', '5.00公里', '未检测到云', '本地:', '03:00、2019年4月20日周六', '协调世界时:', '19:00、2019年4月19日周五', '来源:', 'USAF 每小时地面观测', '报告类型:', 'METAR 航空例行天气报告', '露点:', '19.0°C', '天气:', 'Mist', '上午4:00', '23°C', '1,003毫巴', '每小时3.60公里', '6.00公里', '无重要云', '本地:', '04:00、2019年4月20日周六', '协调世界时:', '20:00、2019年4月19日周五', '来源:', '周期文件', '趋势:', '无重要变化', '露点:', '19°C', '原始:', 'ZUUU 192000Z VRB01MPS 6000 NSC 23/19 Q1003 NOSIG', '上午4:00', '23.0°C', '1,003毫巴', '每小时3.60公里', '6.00公里', '未检测到云', '本地:', '04:00、2019年4月20日周六', '协调世界时:', '20:00、2019年4月19日周五', '来源:', 'USAF 每小时地面观测', '报告类型:', 'METAR 航空例行天气报告', '露点:', '19.0°C', '上午5:00', '23°C', '1,003毫巴', '每小时3.60公里', '6.00公里', '大部分晴天 (1,524米)', '本地:', '05:00、2019年4月20日周六', '协调世界时:', '21:00、2019年4月19日周五', '来源:', '周期文件', '趋势:', '无重要变化', '露点:', '19°C', '原始:', 'ZUUU 192100Z VRB01MPS 6000 FEW050 23/19 Q1003 NOSIG', '上午5:00', '23.0°C', '1,003毫巴', '每小时3.60公里', '6.00公里', '大部分晴天 (1,524米)', '本地:', '05:00、2019年4月20日周六', '协调世界时:', '21:00、2019年4月19日周五', '来源:', 'USAF 每小时地面观测', '报告类型:', 'METAR 航空例行天气报告', '露点:', '19.0°C', '上午6:00', '22°C', '1,003毫巴', '每小时0公里', '5.00公里', '大部分晴天 (1,219米)', '本地:', '06:00、2019年4月20日周六', '协调世界时:', '22:00、2019年4月19日周五', '来源:', '周期文件', '趋势:', '无重要变化', '露点:', '20°C', '天气:', 'Mist', '原始:', 'ZUUU 192200Z 00000MPS 5000 BR FEW040 22/20 Q1003 NOSIG', '上午6:00', '22.0°C', '1,003毫巴', '每小时0公里', '5.00公里', '大部分晴天 (1,219米)', '本地:', '06:00、2019年4月20日周六', '协调世界时:', '22:00、2019年4月19日周五', '来源:', 'USAF 每小时地面观测', '报告类型:', 'METAR 航空例行天气报告', '露点:', '20.0°C', '天气:', 'Mist', '上午7:00', '23°C', '1,004毫巴', '每小时7.20公里, 北', '5.00公里', '大部分晴天 (1,219米)', '本地:', '07:00、2019年4月20日周六', '协调世界时:', '23:00、2019年4月19日周五', '来源:', '周期文件', '趋势:', '无重要变化', '露点:', '20°C', '天气:', 'Mist', '原始:', 'ZUUU 192300Z 02002MPS 340V050 5000 BR FEW040 23/20 Q1004 NOSIG', '上午7:00', '23.0°C', '1,004毫巴', '每小时7.20公里, 北', '5.00公里', '大部分晴天 (1,219米)', '本地:', '07:00、2019年4月20日周六', '协调世界时:', '23:00、2019年4月19日周五', '来源:', 'USAF 每小时地面观测', '报告类型:', 'METAR 航空例行天气报告', '露点:', '20.0°C', '天气:', 'Mist', '上午8:00', '22°C', '1,005毫巴', '每小时3.60公里', '5.00公里', '大部分晴天 (1,219米)', '本地:', '08:00、2019年4月20日周六', '协调世界时:', '00:00、2019年4月20日周六', '来源:', '周期文件', '趋势:', '无重要变化', '露点:', '20°C', '天气:', 'Showers of Light Rain、Mist', '原始:', 'ZUUU 200000Z VRB01MPS 5000 -SHRA BR FEW040 22/20 Q1005 NOSIG', '上午8:00', '22.0°C', '1,005毫巴', '每小时3.60公里', '5.00公里', '大部分晴天 (1,219米)', '本地:', '08:00、2019年4月20日周六', '协调世界时:', '00:00、2019年4月20日周六', '来源:', 'USAF 每小时地面观测', '报告类型:', 'METAR 航空例行天气报告', '露点:', '20.0°C', '天气:', 'Mist、Showers of Light Rain', '上午9:00', '18°C', '1,007毫巴', '每小时28.8公里, 东北', '3.00公里', '部分多云 (305米)', '本地:', '09:00、2019年4月20日周六', '协调世界时:', '01:00、2019年4月20日周六', '来源:', '周期文件', '趋势:', '变化为', '露点:', '16°C', '其他云层:', '大部分晴天 (792米)、部分多云 (792米)', '天气:', 'Showers of Rain、Mist、Thunderstorm with Rain', '原始:', 'ZUUU 200100Z 06008MPS 030V090 3000 SHRA BR SCT010 FEW026TCU SCT026 18/16 Q1007 BECMG TL0130 2500 TSRA', '上午9:00', '18.0°C', '1,007毫巴', '每小时28.8公里, 东北', '3.00公里', '部分多云 (305米)', '本地:', '09:00、2019年4月20日周六', '协调世界时:', '01:00、2019年4月20日周六', '来源:', 'USAF 每小时地面观测', '报告类型:', 'METAR 航空例行天气报告', '露点:', '16.0°C', '其他云层:', '大部分晴天 (792米)、部分多云 (792米)', '天气:', 'Mist、Showers of Rain', '上午10:00', '18°C', '1,008毫巴', '每小时21.6公里, 东北', '8.00公里', '部分多云 (305米)', '本地:', '10:00、2019年4月20日周六', '协调世界时:', '02:00、2019年4月20日周六', '来源:', '周期文件', '趋势:', '变化为', '露点:', '15°C', '其他云层:', '部分多云 (792米)', '天气:', 'Thunderstorm with Light Rain、Recent Showers of Rain、Showers of Light Rain', '原始:', 'ZUUU 200200Z 05006MPS 030V090 8000 -TSRA SCT010 SCT026CB SCT026 18/15 Q1008 RESHRA BECMG TL0300 -SHRA', '上午10:00', '18.0°C', '1,008毫巴', '每小时21.6公里, 东北', '8.00公里', '部分多云 (305米)', '本地:', '10:00、2019年4月20日周六', '协调世界时:', '02:00、2019年4月20日周六', '来源:', 'USAF 每小时地面观测', '报告类型:', 'METAR 航空例行天气报告', '露点:', '15.0°C', '其他云层:', '部分多云 (792米)', '天气:', 'Thunderstorm with Rain', '上午11:00', '17°C', '1,009毫巴', '每小时14.4公里, 北', '7.00公里', '部分多云 (305米)', '本地:', '11:00、2019年4月20日周六', '协调世界时:', '03:00、2019年4月20日周六', '来源:', '周期文件', '趋势:', '变化为', '露点:', '15°C', '其他云层:', '部分多云 (792米)', '天气:', 'Thunderstorm with Rain、Thunderstorm with Light Rain', '原始:', 'ZUUU 200300Z 01004MPS 300V050 7000 TSRA SCT010 SCT026CB SCT026 17/15 Q1009 BECMG TL0400 -TSRA', '上午11:00', '17.0°C', '1,009毫巴', '每小时14.4公里, 北', '7.00公里', '部分多云 (305米)', '本地:', '11:00、2019年4月20日周六', '协调世界时:', '03:00、2019年4月20日周六', '来源:', 'USAF 每小时地面观测', '报告类型:', 'METAR 航空例行天气报告', '露点:', '15.0°C', '其他云层:', '部分多云 (792米)', '天气:', 'Thunderstorm with Rain', '下午12:00', '17°C', '1,010毫巴', '每小时14.4公里, 北', '8.00公里', '部分多云 (305米)', '本地:', '12:00、2019年4月20日周六', '协调世界时:', '04:00、2019年4月20日周六', '来源:', '周期文件', '趋势:', '变化为', '露点:', '16°C', '其他云层:', '部分多云 (792米)', '天气:', 'Thunderstorm with Rain、Thunderstorm with Light Rain', '原始:', 'ZUUU 200400Z 02004MPS 330V060 8000 TSRA SCT010 SCT026CB SCT026 17/16 Q1010 BECMG TL0430 -TSRA', '下午12:00', '17.0°C', '1,010毫巴', '每小时14.4公里, 北', '8.00公里', '部分多云 (305米)', '本地:', '12:00、2019年4月20日周六', '协调世界时:', '04:00、2019年4月20日周六', '来源:', 'USAF 每小时地面观测', '报告类型:', 'METAR 航空例行天气报告', '露点:', '16.0°C', '其他云层:', '部分多云 (792米)', '天气:', 'Thunderstorm with Rain', '下午1:00', '16°C', '1,010毫巴', '每小时7.20公里, 北', '10.00公里', '部分多云 (305米)', '本地:', '13:00、2019年4月20日周六', '协调世界时:', '05:00、2019年4月20日周六', '来源:', '周期文件', '趋势:', '无重要变化', '露点:', '15°C', '其他云层:', '大部分晴天 (792米)、部分多云 (792米)', '天气:', 'Showers of Light Rain、Recent Thunderstorm with Rain', '原始:', 'ZUUU 200500Z 36002MPS 320V040 9999 -SHRA SCT010 FEW026CB SCT026 16/15 Q1010 RETSRA NOSIG', '下午1:00', '16.0°C', '1,010毫巴', '每小时7.20公里, 北', '10.00公里', '部分多云 (305米)', '本地:', '13:00、2019年4月20日周六', '协调世界时:', '05:00、2019年4月20日周六', '来源:', 'USAF 每小时地面观测', '报告类型:', 'METAR 航空例行天气报告', '露点:', '15.0°C', '其他云层:', '大部分晴天 (792米)、部分多云 (792米)', '天气:', 'Showers of Light Rain', '下午2:00', '18°C', '1,010毫巴', '每小时10.8公里, 西', '10.00公里', '部分多云 (1,006米)', '本地:', '14:00、2019年4月20日周六', '协调世界时:', '06:00、2019年4月20日周六', '来源:', '周期文件', '趋势:', '无重要变化', '露点:', '16°C', '其他云层:', '大部分晴天 (305米)、大部分晴天 (1,006米)', '天气:', 'Showers of Light Rain', '原始:', 'ZUUU 200600Z 29003MPS 230V330 9999 -SHRA FEW010 FEW033CB SCT033 18/16 Q1010 NOSIG', '下午2:00', '18.0°C', '1,010毫巴', '每小时10.8公里, 西', '10.00公里', '部分多云 (1,006米)', '本地:', '14:00、2019年4月20日周六', '协调世界时:', '06:00、2019年4月20日周六', '来源:', 'USAF 每小时地面观测', '报告类型:', 'METAR 航空例行天气报告', '露点:', '16.0°C', '其他云层:', '大部分晴天 (305米)、大部分晴天 (1,006米)', '天气:', 'Showers of Light Rain', '下午3:00', '18°C', '1,010毫巴', '每小时10.8公里, 西', '10.00公里', '部分多云 (1,006米)', '本地:', '15:00、2019年4月20日周六', '协调世界时:', '07:00、2019年4月20日周六', '来源:', '周期文件', '趋势:', '无重要变化', '露点:', '16°C', '其他云层:', '大部分晴天 (366米)、大部分晴天 (1,006米)', '天气:', 'Showers of Light Rain', '原始:', 'ZUUU 200700Z 25003MPS 220V280 9999 -SHRA FEW012 FEW033CB SCT033 18/16 Q1010 NOSIG', '下午3:00', '18.0°C', '1,010毫巴', '每小时10.8公里, 西', '10.00公里', '部分多云 (1,006米)', '本地:', '15:00、2019年4月20日周六', '协调世界时:', '07:00、2019年4月20日周六', '来源:', 'USAF 每小时地面观测', '报告类型:', 'METAR 航空例行天气报告', '露点:', '16.0°C', '其他云层:', '大部分晴天 (366米)、大部分晴天 (1,006米)', '天气:', 'Showers of Light Rain', '下午4:00', '19°C', '1,009毫巴', '每小时10.8公里, 西南', '10.00公里', '部分多云 (1,219米)', '本地:', '16:00、2019年4月20日周六', '协调世界时:', '08:00、2019年4月20日周六', '来源:', '周期文件', '趋势:', '无重要变化', '露点:', '16°C', '其他云层:', '大部分晴天 (366米)、大部分晴天 (1,219米)', '天气:', 'Showers of Light Rain', '原始:', 'ZUUU 200800Z 24003MPS 210V270 9999 -SHRA FEW012 FEW040CB SCT040 19/16 Q1009 NOSIG', '下午4:00', '19.0°C', '1,009毫巴', '每小时10.8公里, 西南', '10.00公里', '部分多云 (1,219米)', '本地:', '16:00、2019年4月20日周六', '协调世界时:', '08:00、2019年4月20日周六', '来源:', 'USAF 每小时地面观测', '报告类型:', 'METAR 航空例行天气报告', '露点:', '16.0°C', '其他云层:', '大部分晴天 (366米)、大部分晴天 (1,219米)', '天气:', 'Showers of Light Rain', '下午5:00', '19°C', '1,009毫巴', '每小时14.4公里, 西', '10.00公里', '部分多云 (1,219米)', '本地:', '17:00、2019年4月20日周六', '协调世界时:', '09:00、2019年4月20日周六', '来源:', '周期文件', '趋势:', '无重要变化', '露点:', '17°C', '其他云层:', '大部分晴天 (488米)、大部分晴天 (1,219米)', '原始:', 'ZUUU 200900Z 25004MPS 220V280 9999 FEW016 FEW040CB SCT040 19/17 Q1009 NOSIG', '下午5:00', '19.0°C', '1,009毫巴', '每小时14.4公里, 西', '10.00公里', '部分多云 (1,219米)', '本地:', '17:00、2019年4月20日周六', '协调世界时:', '09:00、2019年4月20日周六', '来源:', 'USAF 每小时地面观测', '报告类型:', 'METAR 航空例行天气报告', '露点:', '17.0°C', '其他云层:', '大部分晴天 (488米)、大部分晴天 (1,219米)', '下午6:00', '19°C', '1,009毫巴', '每小时14.4公里, 西南', '10.00公里', '部分多云 (1,524米)', '本地:', '18:00、2019年4月20日周六', '协调世界时:', '10:00、2019年4月20日周六', '来源:', '周期文件', '趋势:', '无重要变化', '露点:', '16°C', '原始:', 'ZUUU 201000Z 24004MPS 210V270 9999 SCT050 19/16 Q1009 NOSIG', '下午6:00', '19.0°C', '1,009毫巴', '每小时14.4公里, 西南', '10.00公里', '部分多云 (1,524米)', '本地:', '18:00、2019年4月20日周六', '协调世界时:', '10:00、2019年4月20日周六', '来源:', 'USAF 每小时地面观测', '报告类型:', 'METAR 航空例行天气报告', '露点:', '16.0°C', '下午7:00', '19°C', '1,010毫巴', '每小时7.20公里, 西南', '10.00公里', '部分多云 (1,524米)', '本地:', '19:00、2019年4月20日周六', '协调世界时:', '11:00、2019年4月20日周六', '来源:', '周期文件', '趋势:', '无重要变化', '露点:', '16°C', '原始:', 'ZUUU 201100Z 23002MPS 210V280 9999 SCT050 19/16 Q1010 NOSIG', '下午7:00', '19.0°C', '1,010毫巴', '每小时7.20公里, 西南', '10.00公里', '部分多云 (1,524米)', '本地:', '19:00、2019年4月20日周六', '协调世界时:', '11:00、2019年4月20日周六', '来源:', 'USAF 每小时地面观测', '报告类型:', 'METAR 航空例行天气报告', '露点:', '16.0°C', '下午8:00', '19°C', '1,011毫巴', '每小时14.4公里, 西南', '10.00公里', '部分多云 (1,524米)', '本地:', '20:00、2019年4月20日周六', '协调世界时:', '12:00、2019年4月20日周六', '来源:', '周期文件', '趋势:', '无重要变化', '露点:', '16°C', '原始:', 'ZUUU 201200Z 24004MPS 9999 SCT050 19/16 Q1011 NOSIG', '下午8:00', '19.0°C', '1,011毫巴', '每小时14.4公里, 西南', '10.00公里', '部分多云 (1,524米)', '本地:', '20:00、2019年4月20日周六', '协调世界时:', '12:00、2019年4月20日周六', '来源:', 'USAF 每小时地面观测', '报告类型:', 'METAR 航空例行天气报告', '露点:', '16.0°C', '下午9:00', '19°C', '1,011毫巴', '每小时7.20公里, 西', '10.00公里', '大部分多云 (1,524米)', '本地:', '21:00、2019年4月20日周六', '协调世界时:', '13:00、2019年4月20日周六', '来源:', '周期文件', '趋势:', '无重要变化', '露点:', '16°C', '原始:', 'ZUUU 201300Z 26002MPS 220V310 9999 BKN050 19/16 Q1011 NOSIG', '下午9:00', '19.0°C', '1,011毫巴', '每小时7.20公里, 西', '10.00公里', '大部分多云 (1,524米)', '本地:', '21:00、2019年4月20日周六', '协调世界时:', '13:00、2019年4月20日周六', '来源:', 'USAF 每小时地面观测', '报告类型:', 'METAR 航空例行天气报告', '露点:', '16.0°C', '下午10:00', '19°C', '1,012毫巴', '每小时7.20公里, 西', '10.00公里', '大部分多云 (1,311米)', '本地:', '22:00、2019年4月20日周六', '协调世界时:', '14:00、2019年4月20日周六', '来源:', '周期文件', '趋势:', '无重要变化', '露点:', '16°C', '原始:', 'ZUUU 201400Z 27002MPS 240V310 9999 BKN043 19/16 Q1012 NOSIG', '下午10:00', '19.0°C', '1,012毫巴', '每小时7.20公里, 西', '10.00公里', '大部分多云 (1,311米)', '本地:', '22:00、2019年4月20日周六', '协调世界时:', '14:00、2019年4月20日周六', '来源:', 'USAF 每小时地面观测', '报告类型:', 'METAR 航空例行天气报告', '露点:', '16.0°C', '下午11:00', '18°C', '1,012毫巴', '每小时3.60公里', '10.00公里', '大部分多云 (1,311米)', '本地:', '23:00、2019年4月20日周六', '协调世界时:', '15:00、2019年4月20日周六', '来源:', '周期文件', '趋势:', '无重要变化', '露点:', '16°C', '原始:', 'ZUUU 201500Z VRB01MPS 9999 BKN043 18/16 Q1012 NOSIG', '下午11:00', '18.0°C', '1,012毫巴', '每小时3.60公里', '10.00公里', '大部分多云 (1,311米)', '本地:', '23:00、2019年4月20日周六', '协调世界时:', '15:00、2019年4月20日周六', '来源:', 'USAF 每小时地面观测', '报告类型:', 'METAR 航空例行天气报告', '露点:', '16.0°C']