['Showers of Light Rain', '-SHRA、IWC80', 'Showers of Light Rain', '-SHRA、IWC80', '上午12:00', '17°C', '1,015毫巴', '每小时3.60公里', '10.00公里', '部分多云 (1,006米)', '本地:', '00:00、2019年4月11日周四', '协调世界时:', '16:00、2019年4月10日周三', '来源:', '周期文件', '趋势:', '无重要变化', '露点:', '15°C', '天气:', 'Showers of Light Rain', '原始:', 'ZUUU 101600Z VRB01MPS 9999 -SHRA SCT033 17/15 Q1015 NOSIG', '上午12:00', '17.0°C', '1,015毫巴', '每小时3.60公里', '10.00公里', '部分多云 (1,006米)', '本地:', '00:00、2019年4月11日周四', '协调世界时:', '16:00、2019年4月10日周三', '来源:', 'USAF 每小时地面观测', '报告类型:', 'METAR 航空例行天气报告', '露点:', '15.0°C', '天气:', 'Showers of Light Rain', '上午1:00', '16°C', '1,014毫巴', '每小时0公里', '10.00公里', '部分多云 (1,006米)', '本地:', '01:00、2019年4月11日周四', '协调世界时:', '17:00、2019年4月10日周三', '来源:', '周期文件', '趋势:', '无重要变化', '露点:', '15°C', '原始:', 'ZUUU 101700Z 00000MPS 9999 SCT033 16/15 Q1014 NOSIG', '上午1:00', '16.0°C', '1,014毫巴', '每小时0公里', '10.00公里', '部分多云 (1,006米)', '本地:', '01:00、2019年4月11日周四', '协调世界时:', '17:00、2019年4月10日周三', '来源:', 'USAF 每小时地面观测', '报告类型:', 'METAR 航空例行天气报告', '露点:', '15.0°C', '上午2:00', '16°C', '1,014毫巴', '每小时0公里', '10.00公里', '部分多云 (1,006米)', '本地:', '02:00、2019年4月11日周四', '协调世界时:', '18:00、2019年4月10日周三', '来源:', '周期文件', '趋势:', '无重要变化', '露点:', '15°C', '原始:', 'ZUUU 101800Z 00000MPS 9999 SCT033 16/15 Q1014 NOSIG', '上午2:00', '16.0°C', '1,014毫巴', '每小时0公里', '10.00公里', '部分多云 (1,006米)', '本地:', '02:00、2019年4月11日周四', '协调世界时:', '18:00、2019年4月10日周三', '来源:', 'USAF 每小时地面观测', '报告类型:', 'METAR 航空例行天气报告', '露点:', '15.0°C', '上午3:00', '16°C', '1,014毫巴', '每小时3.60公里', '10.00公里', '部分多云 (1,006米)', '本地:', '03:00、2019年4月11日周四', '协调世界时:', '19:00、2019年4月10日周三', '来源:', '周期文件', '趋势:', '无重要变化', '露点:', '15°C', '原始:', 'ZUUU 101900Z VRB01MPS 9999 SCT033 16/15 Q1014 NOSIG', '上午3:00', '16.0°C', '1,014毫巴', '每小时3.60公里', '10.00公里', '部分多云 (1,006米)', '本地:', '03:00、2019年4月11日周四', '协调世界时:', '19:00、2019年4月10日周三', '来源:', 'USAF 每小时地面观测', '报告类型:', 'METAR 航空例行天气报告', '露点:', '15.0°C', '上午4:00', '16°C', '1,013毫巴', '每小时3.60公里, 南', '10.00公里', '部分多云 (792米)', '本地:', '04:00、2019年4月11日周四', '协调世界时:', '20:00、2019年4月10日周三', '来源:', '周期文件', '趋势:', '无重要变化', '露点:', '15°C', '原始:', 'ZUUU 102000Z 18001MPS 9999 SCT026 16/15 Q1013 NOSIG', '上午4:00', '16.0°C', '1,013毫巴', '每小时3.60公里, 南', '10.00公里', '部分多云 (792米)', '本地:', '04:00、2019年4月11日周四', '协调世界时:', '20:00、2019年4月10日周三', '来源:', 'USAF 每小时地面观测', '报告类型:', 'METAR 航空例行天气报告', '露点:', '15.0°C', '上午5:00', '16°C', '1,013毫巴', '每小时3.60公里, 西南', '10.00公里', '部分多云 (792米)', '本地:', '05:00、2019年4月11日周四', '协调世界时:', '21:00、2019年4月10日周三', '来源:', '周期文件', '趋势:', '无重要变化', '露点:', '15°C', '其他云层:', '大部分晴天 (396米)', '原始:', 'ZUUU 102100Z 21001MPS 9999 FEW013 SCT026 16/15 Q1013 NOSIG', '上午5:00', '16.0°C', '1,013毫巴', '每小时3.60公里, 西南', '10.00公里', '部分多云 (792米)', '本地:', '05:00、2019年4月11日周四', '协调世界时:', '21:00、2019年4月10日周三', '来源:', 'USAF 每小时地面观测', '报告类型:', 'METAR 航空例行天气报告', '露点:', '15.0°C', '其他云层:', '大部分晴天 (396米)', '上午6:00', '16°C', '1,013毫巴', '每小时3.60公里, 南', '10.00公里', '部分多云 (792米)', '本地:', '06:00、2019年4月11日周四', '协调世界时:', '22:00、2019年4月10日周三', '来源:', '周期文件', '趋势:', '无重要变化', '露点:', '15°C', '原始:', 'ZUUU 102200Z 20001MPS 9999 SCT026 16/15 Q1013 NOSIG', '上午6:00', '16.0°C', '1,013毫巴', '每小时3.60公里, 南', '10.00公里', '部分多云 (792米)', '本地:', '06:00、2019年4月11日周四', '协调世界时:', '22:00、2019年4月10日周三', '来源:', 'USAF 每小时地面观测', '报告类型:', 'METAR 航空例行天气报告', '露点:', '15.0°C', '上午7:00', '16°C', '1,014毫巴', '每小时7.20公里, 西南', '10.00公里', '部分多云 (1,006米)', '本地:', '07:00、2019年4月11日周四', '协调世界时:', '23:00、2019年4月10日周三', '来源:', '周期文件', '趋势:', '无重要变化', '露点:', '15°C', '原始:', 'ZUUU 102300Z 22002MPS 9999 SCT033 16/15 Q1014 NOSIG', '上午7:00', '16.0°C', '1,014毫巴', '每小时7.20公里, 西南', '10.00公里', '部分多云 (1,006米)', '本地:', '07:00、2019年4月11日周四', '协调世界时:', '23:00、2019年4月10日周三', '来源:', 'USAF 每小时地面观测', '报告类型:', 'METAR 航空例行天气报告', '露点:', '15.0°C', '上午8:00', '16°C', '1,015毫巴', '每小时3.60公里, 西南', '10.00公里', '部分多云 (1,219米)', '本地:', '08:00、2019年4月11日周四', '协调世界时:', '00:00、2019年4月11日周四', '来源:', '周期文件', '趋势:', '无重要变化', '露点:', '15°C', '其他云层:', '大部分晴天 (396米)', '原始:', 'ZUUU 110000Z 23001MPS 9999 FEW013 SCT040 16/15 Q1015 NOSIG', '上午8:00', '16.0°C', '1,015毫巴', '每小时3.60公里, 西南', '10.00公里', '部分多云 (1,219米)', '本地:', '08:00、2019年4月11日周四', '协调世界时:', '00:00、2019年4月11日周四', '来源:', 'USAF 每小时地面观测', '报告类型:', 'METAR 航空例行天气报告', '露点:', '15.0°C', '其他云层:', '大部分晴天 (396米)', '上午9:00', '16°C', '1,015毫巴', '每小时7.20公里, 西南', '10.00公里', '部分多云 (1,219米)', '本地:', '09:00、2019年4月11日周四', '协调世界时:', '01:00、2019年4月11日周四', '来源:', '周期文件', '趋势:', '无重要变化', '露点:', '15°C', '其他云层:', '大部分晴天 (396米)', '天气:', 'Showers of Light Rain', '原始:', 'ZUUU 110100Z 22002MPS 9999 -SHRA FEW013 SCT040 16/15 Q1015 NOSIG', '上午9:00', '16.0°C', '1,015毫巴', '每小时7.20公里, 西南', '10.00公里', '部分多云 (1,219米)', '本地:', '09:00、2019年4月11日周四', '协调世界时:', '01:00、2019年4月11日周四', '来源:', 'USAF 每小时地面观测', '报告类型:', 'METAR 航空例行天气报告', '露点:', '15.0°C', '其他云层:', '大部分晴天 (396米)', '天气:', 'Showers of Light Rain', '上午10:00', '17°C', '1,016毫巴', '每小时3.60公里', '10.00公里', '部分多云 (1,219米)', '本地:', '10:00、2019年4月11日周四', '协调世界时:', '02:00、2019年4月11日周四', '来源:', '周期文件', '趋势:', '无重要变化', '露点:', '15°C', '其他云层:', '大部分晴天 (792米)', '原始:', 'ZUUU 110200Z VRB01MPS 9999 FEW026 SCT040 17/15 Q1016 NOSIG', '上午10:00', '17.0°C', '1,016毫巴', '每小时3.60公里', '10.00公里', '部分多云 (1,219米)', '本地:', '10:00、2019年4月11日周四', '协调世界时:', '02:00、2019年4月11日周四', '来源:', 'USAF 每小时地面观测', '报告类型:', 'METAR 航空例行天气报告', '露点:', '15.0°C', '其他云层:', '大部分晴天 (792米)', '上午11:00', '18°C', '1,016毫巴', '每小时7.20公里, 北', '10.00公里', '大部分多云 (1,219米)', '本地:', '11:00、2019年4月11日周四', '协调世界时:', '03:00、2019年4月11日周四', '来源:', '周期文件', '趋势:', '无重要变化', '露点:', '14°C', '其他云层:', '部分多云 (792米)', '原始:', 'ZUUU 110300Z 02002MPS 330V100 9999 SCT026 BKN040 18/14 Q1016 NOSIG', '上午11:00', '18.0°C', '1,016毫巴', '每小时7.20公里, 北', '10.00公里', '大部分多云 (1,219米)', '本地:', '11:00、2019年4月11日周四', '协调世界时:', '03:00、2019年4月11日周四', '来源:', 'USAF 每小时地面观测', '报告类型:', 'METAR 航空例行天气报告', '露点:', '14.0°C', '其他云层:', '部分多云 (792米)', '下午12:00', '19°C', '1,015毫巴', '每小时7.20公里, 东', '10.00公里', '部分多云 (1,219米)', '本地:', '12:00、2019年4月11日周四', '协调世界时:', '04:00、2019年4月11日周四', '来源:', '周期文件', '趋势:', '无重要变化', '露点:', '14°C', '原始:', 'ZUUU 110400Z 10002MPS 040V200 9999 SCT040 19/14 Q1015 NOSIG', '下午12:00', '19.0°C', '1,015毫巴', '每小时7.20公里, 东', '10.00公里', '部分多云 (1,219米)', '本地:', '12:00、2019年4月11日周四', '协调世界时:', '04:00、2019年4月11日周四', '来源:', 'USAF 每小时地面观测', '报告类型:', 'METAR 航空例行天气报告', '露点:', '14.0°C', '下午1:00', '19°C', '1,014毫巴', '每小时7.20公里', '10.00公里', '部分多云 (1,219米)', '本地:', '13:00、2019年4月11日周四', '协调世界时:', '05:00、2019年4月11日周四', '来源:', '周期文件', '趋势:', '无重要变化', '露点:', '14°C', '原始:', 'ZUUU 110500Z VRB02MPS 9999 SCT040 19/14 Q1014 NOSIG', '下午1:00', '19.0°C', '1,014毫巴', '每小时7.20公里', '10.00公里', '部分多云 (1,219米)', '本地:', '13:00、2019年4月11日周四', '协调世界时:', '05:00、2019年4月11日周四', '来源:', 'USAF 每小时地面观测', '报告类型:', 'METAR 航空例行天气报告', '露点:', '14.0°C', '下午2:00', '21°C', '1,013毫巴', '每小时7.20公里, 东', '10.00公里', '部分多云 (1,219米)', '本地:', '14:00、2019年4月11日周四', '协调世界时:', '06:00、2019年4月11日周四', '来源:', '周期文件', '趋势:', '无重要变化', '露点:', '14°C', '原始:', 'ZUUU 110600Z 10002MPS 050V150 9999 SCT040 21/14 Q1013 NOSIG', '下午2:00', '21.0°C', '1,013毫巴', '每小时7.20公里, 东', '10.00公里', '部分多云 (1,219米)', '本地:', '14:00、2019年4月11日周四', '协调世界时:', '06:00、2019年4月11日周四', '来源:', 'USAF 每小时地面观测', '报告类型:', 'METAR 航空例行天气报告', '露点:', '14.0°C', '下午3:00', '20°C', '1,013毫巴', '每小时10.8公里, 南', '10.00公里', '部分多云 (1,219米)', '本地:', '15:00、2019年4月11日周四', '协调世界时:', '07:00、2019年4月11日周四', '来源:', '周期文件', '趋势:', '无重要变化', '露点:', '15°C', '原始:', 'ZUUU 110700Z 18003MPS 130V230 9999 SCT040 20/15 Q1013 NOSIG', '下午3:00', '20.0°C', '1,013毫巴', '每小时10.8公里, 南', '10.00公里', '部分多云 (1,219米)', '本地:', '15:00、2019年4月11日周四', '协调世界时:', '07:00、2019年4月11日周四', '来源:', 'USAF 每小时地面观测', '报告类型:', 'METAR 航空例行天气报告', '露点:', '15.0°C', '下午4:00', '21°C', '1,012毫巴', '每小时3.60公里', '10.00公里', '部分多云 (1,219米)', '本地:', '16:00、2019年4月11日周四', '协调世界时:', '08:00、2019年4月11日周四', '来源:', '周期文件', '趋势:', '无重要变化', '露点:', '14°C', '原始:', 'ZUUU 110800Z VRB01MPS 9999 SCT040 21/14 Q1012 NOSIG', '下午4:00', '21.0°C', '1,012毫巴', '每小时3.60公里', '10.00公里', '部分多云 (1,219米)', '本地:', '16:00、2019年4月11日周四', '协调世界时:', '08:00、2019年4月11日周四', '来源:', 'USAF 每小时地面观测', '报告类型:', 'METAR 航空例行天气报告', '露点:', '14.0°C', '下午5:00', '20°C', '1,012毫巴', '每小时7.20公里, 南', '10.00公里', '部分多云 (1,219米)', '本地:', '17:00、2019年4月11日周四', '协调世界时:', '09:00、2019年4月11日周四', '来源:', '周期文件', '趋势:', '无重要变化', '露点:', '15°C', '其他云层:', '大部分晴天 (792米)', '原始:', 'ZUUU 110900Z 16002MPS 060V210 9999 FEW026 SCT040 20/15 Q1012 NOSIG', '下午5:00', '20.0°C', '1,012毫巴', '每小时7.20公里, 南', '10.00公里', '部分多云 (1,219米)', '本地:', '17:00、2019年4月11日周四', '协调世界时:', '09:00、2019年4月11日周四', '来源:', 'USAF 每小时地面观测', '报告类型:', 'METAR 航空例行天气报告', '露点:', '15.0°C', '其他云层:', '大部分晴天 (792米)', '下午6:00', '20°C', '1,011毫巴', '每小时3.60公里', '10.00公里', '部分多云 (1,219米)', '本地:', '18:00、2019年4月11日周四', '协调世界时:', '10:00、2019年4月11日周四', '来源:', '周期文件', '趋势:', '无重要变化', '露点:', '15°C', '其他云层:', '大部分晴天 (792米)', '原始:', 'ZUUU 111000Z VRB01MPS 9999 FEW026 SCT040 20/15 Q1011 NOSIG', '下午6:00', '20.0°C', '1,011毫巴', '每小时3.60公里', '10.00公里', '部分多云 (1,219米)', '本地:', '18:00、2019年4月11日周四', '协调世界时:', '10:00、2019年4月11日周四', '来源:', 'USAF 每小时地面观测', '报告类型:', 'METAR 航空例行天气报告', '露点:', '15.0°C', '其他云层:', '大部分晴天 (792米)', '下午7:00', '20°C', '1,012毫巴', '每小时0公里', '10.00公里', '部分多云 (1,524米)', '本地:', '19:00、2019年4月11日周四', '协调世界时:', '11:00、2019年4月11日周四', '来源:', '周期文件', '趋势:', '无重要变化', '露点:', '14°C', '其他云层:', '大部分晴天 (1,006米)', '原始:', 'ZUUU 111100Z 00000MPS 9999 FEW033 SCT050 20/14 Q1012 NOSIG', '下午7:00', '20.0°C', '1,012毫巴', '每小时0公里', '10.00公里', '部分多云 (1,524米)', '本地:', '19:00、2019年4月11日周四', '协调世界时:', '11:00、2019年4月11日周四', '来源:', 'USAF 每小时地面观测', '报告类型:', 'METAR 航空例行天气报告', '露点:', '14.0°C', '其他云层:', '大部分晴天 (1,006米)', '下午8:00', '19°C', '1,012毫巴', '每小时3.60公里', '10.00公里', '部分多云 (1,524米)', '本地:', '20:00、2019年4月11日周四', '协调世界时:', '12:00、2019年4月11日周四', '来源:', '周期文件', '趋势:', '无重要变化', '露点:', '15°C', '其他云层:', '大部分晴天 (1,006米)', '原始:', 'ZUUU 111200Z VRB01MPS 9999 FEW033 SCT050 19/15 Q1012 NOSIG', '下午8:00', '19.0°C', '1,012毫巴', '每小时3.60公里', '10.00公里', '部分多云 (1,524米)', '本地:', '20:00、2019年4月11日周四', '协调世界时:', '12:00、2019年4月11日周四', '来源:', 'USAF 每小时地面观测', '报告类型:', 'METAR 航空例行天气报告', '露点:', '15.0°C', '其他云层:', '大部分晴天 (1,006米)', '下午9:00', '19°C', '1,013毫巴', '每小时7.20公里, 西北', '10.00公里', '部分多云 (1,524米)', '本地:', '21:00、2019年4月11日周四', '协调世界时:', '13:00、2019年4月11日周四', '来源:', '周期文件', '趋势:', '无重要变化', '露点:', '15°C', '其他云层:', '大部分晴天 (1,006米)', '原始:', 'ZUUU 111300Z 30002MPS 260V350 9999 FEW033 SCT050 19/15 Q1013 NOSIG', '下午9:00', '19.0°C', '1,013毫巴', '每小时7.20公里, 西北', '10.00公里', '部分多云 (1,524米)', '本地:', '21:00、2019年4月11日周四', '协调世界时:', '13:00、2019年4月11日周四', '来源:', 'USAF 每小时地面观测', '报告类型:', 'METAR 航空例行天气报告', '露点:', '15.0°C', '其他云层:', '大部分晴天 (1,006米)', '下午10:00', '19°C', '1,013毫巴', '每小时3.60公里, 北', '7.00公里', '部分多云 (1,524米)', '本地:', '22:00、2019年4月11日周四', '协调世界时:', '14:00、2019年4月11日周四', '来源:', '周期文件', '趋势:', '无重要变化', '露点:', '16°C', '其他云层:', '大部分晴天 (792米)', '原始:', 'ZUUU 111400Z 01001MPS 7000 FEW026 SCT050 19/16 Q1013 NOSIG', '下午10:00', '19.0°C', '1,013毫巴', '每小时3.60公里, 北', '7.00公里', '部分多云 (1,524米)', '本地:', '22:00、2019年4月11日周四', '协调世界时:', '14:00、2019年4月11日周四', '来源:', 'USAF 每小时地面观测', '报告类型:', 'METAR 航空例行天气报告', '露点:', '16.0°C', '其他云层:', '大部分晴天 (792米)', '下午11:00', '18°C', '1,013毫巴', '每小时7.20公里, 西南', '7.00公里', '部分多云 (792米)', '本地:', '23:00、2019年4月11日周四', '协调世界时:', '15:00、2019年4月11日周四', '来源:', '周期文件', '趋势:', '无重要变化', '露点:', '16°C', '原始:', 'ZUUU 111500Z 21002MPS 7000 SCT026 18/16 Q1013 NOSIG', '下午11:00', '18.0°C', '1,013毫巴', '每小时7.20公里, 西南', '7.00公里', '部分多云 (792米)', '本地:', '23:00、2019年4月11日周四', '协调世界时:', '15:00、2019年4月11日周四', '来源:', 'USAF 每小时地面观测', '报告类型:', 'METAR 航空例行天气报告', '露点:', '16.0°C']