['上午12:00', '20°C', '1,001毫巴', '每小时0公里', '≥ 10.00公里', '晴空万里', '本地:', '00:00、2019年4月8日周一', '协调世界时:', '16:00、2019年4月7日周日', '来源:', '周期文件', '趋势:', '无重要变化', '露点:', '15°C', '晴空万里:', '真', '原始:', 'ZUUU 071600Z 00000MPS CAVOK 20/15 Q1001 NOSIG', '上午12:00', '20.0°C', '1,001毫巴', '每小时0公里', '-', '晴空万里', '本地:', '00:00、2019年4月8日周一', '协调世界时:', '16:00、2019年4月7日周日', '来源:', 'USAF 每小时地面观测', '报告类型:', 'METAR 航空例行天气报告', '露点:', '15.0°C', '晴空万里:', '真', '上午1:00', '19°C', '1,000毫巴', '每小时0公里', '8.00公里', '无重要云', '本地:', '01:00、2019年4月8日周一', '协调世界时:', '17:00、2019年4月7日周日', '来源:', '周期文件', '趋势:', '无重要变化', '露点:', '15°C', '原始:', 'ZUUU 071700Z 00000MPS 8000 NSC 19/15 Q1000 NOSIG', '上午1:00', '19.0°C', '1,000毫巴', '每小时0公里', '8.00公里', '未检测到云', '本地:', '01:00、2019年4月8日周一', '协调世界时:', '17:00、2019年4月7日周日', '来源:', 'USAF 每小时地面观测', '报告类型:', 'METAR 航空例行天气报告', '露点:', '15.0°C', '上午2:00', '18°C', '1,000毫巴', '每小时0公里', '8.00公里', '无重要云', '本地:', '02:00、2019年4月8日周一', '协调世界时:', '18:00、2019年4月7日周日', '来源:', '周期文件', '趋势:', '无重要变化', '露点:', '15°C', '原始:', 'ZUUU 071800Z 00000MPS 8000 NSC 18/15 Q1000 NOSIG', '上午2:00', '18.0°C', '1,000毫巴', '每小时0公里', '8.00公里', '未检测到云', '本地:', '02:00、2019年4月8日周一', '协调世界时:', '18:00、2019年4月7日周日', '来源:', 'USAF 每小时地面观测', '报告类型:', 'METAR 航空例行天气报告', '露点:', '15.0°C', '上午3:00', '17°C', '999.0毫巴', '每小时3.60公里', '7.00公里', '无重要云', '本地:', '03:00、2019年4月8日周一', '协调世界时:', '19:00、2019年4月7日周日', '来源:', '周期文件', '趋势:', '无重要变化', '露点:', '14°C', '原始:', 'ZUUU 071900Z VRB01MPS 7000 NSC 17/14 Q0999 NOSIG', '上午3:00', '17.0°C', '999.0毫巴', '每小时3.60公里', '7.00公里', '未检测到云', '本地:', '03:00、2019年4月8日周一', '协调世界时:', '19:00、2019年4月7日周日', '来源:', 'USAF 每小时地面观测', '报告类型:', 'METAR 航空例行天气报告', '露点:', '14.0°C', '上午4:00', '17°C', '999.0毫巴', '每小时0公里', '7.00公里', '无重要云', '本地:', '04:00、2019年4月8日周一', '协调世界时:', '20:00、2019年4月7日周日', '来源:', '周期文件', '趋势:', '无重要变化', '露点:', '15°C', '原始:', 'ZUUU 072000Z 00000MPS 7000 NSC 17/15 Q0999 NOSIG', '上午4:00', '17.0°C', '999.0毫巴', '每小时0公里', '7.00公里', '未检测到云', '本地:', '04:00、2019年4月8日周一', '协调世界时:', '20:00、2019年4月7日周日', '来源:', 'USAF 每小时地面观测', '报告类型:', 'METAR 航空例行天气报告', '露点:', '15.0°C', '上午5:00', '16°C', '999.0毫巴', '每小时0公里', '7.00公里', '无重要云', '本地:', '05:00、2019年4月8日周一', '协调世界时:', '21:00、2019年4月7日周日', '来源:', '周期文件', '趋势:', '无重要变化', '露点:', '14°C', '原始:', 'ZUUU 072100Z 00000MPS 7000 NSC 16/14 Q0999 NOSIG', '上午5:00', '16.0°C', '999.0毫巴', '每小时0公里', '7.00公里', '未检测到云', '本地:', '05:00、2019年4月8日周一', '协调世界时:', '21:00、2019年4月7日周日', '来源:', 'USAF 每小时地面观测', '报告类型:', 'METAR 航空例行天气报告', '露点:', '14.0°C', '上午6:00', '16°C', '999.0毫巴', '每小时7.20公里, 西南', '7.00公里', '无重要云', '本地:', '06:00、2019年4月8日周一', '协调世界时:', '22:00、2019年4月7日周日', '来源:', '周期文件', '趋势:', '无重要变化', '露点:', '14°C', '原始:', 'ZUUU 072200Z 24002MPS 220V280 7000 NSC 16/14 Q0999 NOSIG', '上午6:00', '16.0°C', '999.0毫巴', '每小时7.20公里, 西南', '7.00公里', '未检测到云', '本地:', '06:00、2019年4月8日周一', '协调世界时:', '22:00、2019年4月7日周日', '来源:', 'USAF 每小时地面观测', '报告类型:', 'METAR 航空例行天气报告', '露点:', '14.0°C', '上午7:00', '16°C', '999.0毫巴', '每小时7.20公里, 西南', '6.00公里', '无重要云', '本地:', '07:00、2019年4月8日周一', '协调世界时:', '23:00、2019年4月7日周日', '来源:', '周期文件', '趋势:', '无重要变化', '露点:', '14°C', '原始:', 'ZUUU 072300Z 23002MPS 6000 NSC 16/14 Q0999 NOSIG', '上午7:00', '16.0°C', '999.0毫巴', '每小时7.20公里, 西南', '6.00公里', '未检测到云', '本地:', '07:00、2019年4月8日周一', '协调世界时:', '23:00、2019年4月7日周日', '来源:', 'USAF 每小时地面观测', '报告类型:', 'METAR 航空例行天气报告', '露点:', '14.0°C', '上午8:00', '18°C', '1,000毫巴', '每小时0公里', '7.00公里', '无重要云', '本地:', '08:00、2019年4月8日周一', '协调世界时:', '00:00、2019年4月8日周一', '来源:', '周期文件', '趋势:', '无重要变化', '露点:', '15°C', '原始:', 'ZUUU 080000Z 00000MPS 7000 NSC 18/15 Q1000 NOSIG', '上午8:00', '18.0°C', '1,000毫巴', '每小时0公里', '7.00公里', '未检测到云', '本地:', '08:00、2019年4月8日周一', '协调世界时:', '00:00、2019年4月8日周一', '来源:', 'USAF 每小时地面观测', '报告类型:', 'METAR 航空例行天气报告', '露点:', '15.0°C', '上午9:00', '20°C', '1,000毫巴', '每小时3.60公里', '8.00公里', '无重要云', '本地:', '09:00、2019年4月8日周一', '协调世界时:', '01:00、2019年4月8日周一', '来源:', '周期文件', '趋势:', '无重要变化', '露点:', '16°C', '原始:', 'ZUUU 080100Z VRB01MPS 8000 NSC 20/16 Q1000 NOSIG', '上午9:00', '20.0°C', '1,000毫巴', '每小时3.60公里', '8.00公里', '未检测到云', '本地:', '09:00、2019年4月8日周一', '协调世界时:', '01:00、2019年4月8日周一', '来源:', 'USAF 每小时地面观测', '报告类型:', 'METAR 航空例行天气报告', '露点:', '16.0°C', '上午10:00', '23°C', '1,001毫巴', '每小时7.20公里, 西', '7.00公里', '无重要云', '本地:', '10:00、2019年4月8日周一', '协调世界时:', '02:00、2019年4月8日周一', '来源:', '周期文件', '趋势:', '无重要变化', '露点:', '15°C', '原始:', 'ZUUU 080200Z 29002MPS 230V330 7000 NSC 23/15 Q1001 NOSIG', '上午10:00', '23.0°C', '1,001毫巴', '每小时7.20公里, 西', '7.00公里', '未检测到云', '本地:', '10:00、2019年4月8日周一', '协调世界时:', '02:00、2019年4月8日周一', '来源:', 'USAF 每小时地面观测', '报告类型:', 'METAR 航空例行天气报告', '露点:', '15.0°C', '上午11:00', '25°C', '1,000毫巴', '每小时7.20公里, 北', '8.00公里', '无重要云', '本地:', '11:00、2019年4月8日周一', '协调世界时:', '03:00、2019年4月8日周一', '来源:', '周期文件', '趋势:', '无重要变化', '露点:', '12°C', '原始:', 'ZUUU 080300Z 01002MPS 280V080 8000 NSC 25/12 Q1000 NOSIG', '上午11:00', '25.0°C', '1,000毫巴', '每小时7.20公里, 北', '8.00公里', '未检测到云', '本地:', '11:00、2019年4月8日周一', '协调世界时:', '03:00、2019年4月8日周一', '来源:', 'USAF 每小时地面观测', '报告类型:', 'METAR 航空例行天气报告', '露点:', '12.0°C', '下午12:00', '28°C', '999.0毫巴', '每小时10.8公里, 东北', '≥ 10.00公里', '晴空万里', '本地:', '12:00、2019年4月8日周一', '协调世界时:', '04:00、2019年4月8日周一', '来源:', '周期文件', '趋势:', '无重要变化', '露点:', '10°C', '晴空万里:', '真', '原始:', 'ZUUU 080400Z 03003MPS 340V080 CAVOK 28/10 Q0999 NOSIG', '下午12:00', '28.0°C', '999.0毫巴', '每小时10.8公里, 东北', '-', '晴空万里', '本地:', '12:00、2019年4月8日周一', '协调世界时:', '04:00、2019年4月8日周一', '来源:', 'USAF 每小时地面观测', '报告类型:', 'METAR 航空例行天气报告', '露点:', '10.0°C', '晴空万里:', '真', '下午1:00', '28°C', '998.0毫巴', '每小时14.4公里, 东北', '≥ 10.00公里', '晴空万里', '本地:', '13:00、2019年4月8日周一', '协调世界时:', '05:00、2019年4月8日周一', '来源:', '周期文件', '趋势:', '无重要变化', '露点:', '10°C', '晴空万里:', '真', '原始:', 'ZUUU 080500Z 03004MPS 320V070 CAVOK 28/10 Q0998 NOSIG', '下午1:00', '28.0°C', '998.0毫巴', '每小时14.4公里, 东北', '-', '晴空万里', '本地:', '13:00、2019年4月8日周一', '协调世界时:', '05:00、2019年4月8日周一', '来源:', 'USAF 每小时地面观测', '报告类型:', 'METAR 航空例行天气报告', '露点:', '10.0°C', '晴空万里:', '真', '下午2:00', '29°C', '998.0毫巴', '每小时14.4公里, 北', '≥ 10.00公里', '晴空万里', '本地:', '14:00、2019年4月8日周一', '协调世界时:', '06:00、2019年4月8日周一', '来源:', '周期文件', '趋势:', '无重要变化', '露点:', '9°C', '晴空万里:', '真', '原始:', 'ZUUU 080600Z 01004MPS CAVOK 29/09 Q0998 NOSIG', '下午2:00', '29.0°C', '998.0毫巴', '每小时14.4公里, 北', '-', '晴空万里', '本地:', '14:00、2019年4月8日周一', '协调世界时:', '06:00、2019年4月8日周一', '来源:', 'USAF 每小时地面观测', '报告类型:', 'METAR 航空例行天气报告', '露点:', '9.0°C', '晴空万里:', '真', '下午3:00', '30°C', '996.0毫巴', '每小时14.4公里, 东北', '≥ 10.00公里', '晴空万里', '本地:', '15:00、2019年4月8日周一', '协调世界时:', '07:00、2019年4月8日周一', '来源:', '周期文件', '趋势:', '无重要变化', '露点:', '11°C', '晴空万里:', '真', '原始:', 'ZUUU 080700Z 05004MPS 360V080 CAVOK 30/11 Q0996 NOSIG', '下午3:00', '30.0°C', '996.0毫巴', '每小时14.4公里, 东北', '-', '晴空万里', '本地:', '15:00、2019年4月8日周一', '协调世界时:', '07:00、2019年4月8日周一', '来源:', 'USAF 每小时地面观测', '报告类型:', 'METAR 航空例行天气报告', '露点:', '11.0°C', '晴空万里:', '真', '下午4:00', '30°C', '996.0毫巴', '每小时10.8公里, 东北', '≥ 10.00公里', '晴空万里', '本地:', '16:00、2019年4月8日周一', '协调世界时:', '08:00、2019年4月8日周一', '来源:', '周期文件', '趋势:', '无重要变化', '露点:', '10°C', '晴空万里:', '真', '原始:', 'ZUUU 080800Z 05003MPS 360V100 CAVOK 30/10 Q0996 NOSIG', '下午4:00', '30.0°C', '996.0毫巴', '每小时10.8公里, 东北', '-', '晴空万里', '本地:', '16:00、2019年4月8日周一', '协调世界时:', '08:00、2019年4月8日周一', '来源:', 'USAF 每小时地面观测', '报告类型:', 'METAR 航空例行天气报告', '露点:', '10.0°C', '晴空万里:', '真', '下午5:00', '30°C', '996.0毫巴', '每小时7.20公里, 北', '≥ 10.00公里', '晴空万里', '本地:', '17:00、2019年4月8日周一', '协调世界时:', '09:00、2019年4月8日周一', '来源:', '周期文件', '趋势:', '无重要变化', '露点:', '10°C', '晴空万里:', '真', '原始:', 'ZUUU 080900Z 01002MPS 320V060 CAVOK 30/10 Q0996 NOSIG', '下午5:00', '30.0°C', '996.0毫巴', '每小时7.20公里, 北', '-', '晴空万里', '本地:', '17:00、2019年4月8日周一', '协调世界时:', '09:00、2019年4月8日周一', '来源:', 'USAF 每小时地面观测', '报告类型:', 'METAR 航空例行天气报告', '露点:', '10.0°C', '晴空万里:', '真', '下午6:00', '29°C', '995.0毫巴', '每小时14.4公里, 东北', '≥ 10.00公里', '晴空万里', '本地:', '18:00、2019年4月8日周一', '协调世界时:', '10:00、2019年4月8日周一', '来源:', '周期文件', '趋势:', '无重要变化', '露点:', '11°C', '晴空万里:', '真', '原始:', 'ZUUU 081000Z 04004MPS 350V080 CAVOK 29/11 Q0995 NOSIG', '下午6:00', '29.0°C', '995.0毫巴', '每小时14.4公里, 东北', '-', '晴空万里', '本地:', '18:00、2019年4月8日周一', '协调世界时:', '10:00、2019年4月8日周一', '来源:', 'USAF 每小时地面观测', '报告类型:', 'METAR 航空例行天气报告', '露点:', '11.0°C', '晴空万里:', '真', '下午7:00', '28°C', '996.0毫巴', '每小时7.20公里, 东北', '≥ 10.00公里', '晴空万里', '本地:', '19:00、2019年4月8日周一', '协调世界时:', '11:00、2019年4月8日周一', '来源:', '周期文件', '趋势:', '无重要变化', '露点:', '12°C', '晴空万里:', '真', '原始:', 'ZUUU 081100Z 06002MPS 010V090 CAVOK 28/12 Q0996 NOSIG', '下午7:00', '28.0°C', '996.0毫巴', '每小时7.20公里, 东北', '-', '晴空万里', '本地:', '19:00、2019年4月8日周一', '协调世界时:', '11:00、2019年4月8日周一', '来源:', 'USAF 每小时地面观测', '报告类型:', 'METAR 航空例行天气报告', '露点:', '12.0°C', '晴空万里:', '真', '下午8:00', '25°C', '997.0毫巴', '每小时7.20公里, 北', '≥ 10.00公里', '晴空万里', '本地:', '20:00、2019年4月8日周一', '协调世界时:', '12:00、2019年4月8日周一', '来源:', '周期文件', '趋势:', '无重要变化', '露点:', '14°C', '晴空万里:', '真', '原始:', 'ZUUU 081200Z 34002MPS CAVOK 25/14 Q0997 NOSIG', '下午8:00', '25.0°C', '997.0毫巴', '每小时7.20公里, 北', '-', '晴空万里', '本地:', '20:00、2019年4月8日周一', '协调世界时:', '12:00、2019年4月8日周一', '来源:', 'USAF 每小时地面观测', '报告类型:', 'METAR 航空例行天气报告', '露点:', '14.0°C', '晴空万里:', '真', '下午9:00', '22°C', '998.0毫巴', '每小时0公里', '≥ 10.00公里', '晴空万里', '本地:', '21:00、2019年4月8日周一', '协调世界时:', '13:00、2019年4月8日周一', '来源:', '周期文件', '趋势:', '无重要变化', '露点:', '15°C', '晴空万里:', '真', '原始:', 'ZUUU 081300Z 00000MPS CAVOK 22/15 Q0998 NOSIG', '下午9:00', '22.0°C', '998.0毫巴', '每小时0公里', '-', '晴空万里', '本地:', '21:00、2019年4月8日周一', '协调世界时:', '13:00、2019年4月8日周一', '来源:', 'USAF 每小时地面观测', '报告类型:', 'METAR 航空例行天气报告', '露点:', '15.0°C', '晴空万里:', '真', '下午10:00', '22°C', '999.0毫巴', '每小时0公里', '≥ 10.00公里', '晴空万里', '本地:', '22:00、2019年4月8日周一', '协调世界时:', '14:00、2019年4月8日周一', '来源:', '周期文件', '趋势:', '无重要变化', '露点:', '16°C', '晴空万里:', '真', '原始:', 'ZUUU 081400Z 00000MPS CAVOK 22/16 Q0999 NOSIG', '下午10:00', '22.0°C', '999.0毫巴', '每小时0公里', '-', '晴空万里', '本地:', '22:00、2019年4月8日周一', '协调世界时:', '14:00、2019年4月8日周一', '来源:', 'USAF 每小时地面观测', '报告类型:', 'METAR 航空例行天气报告', '露点:', '16.0°C', '晴空万里:', '真', '下午11:00', '24°C', '1,000毫巴', '每小时7.20公里, 西北', '10.00公里', '部分多云 (1,524米)', '本地:', '23:00、2019年4月8日周一', '协调世界时:', '15:00、2019年4月8日周一', '来源:', '周期文件', '趋势:', '无重要变化', '露点:', '15°C', '原始:', 'ZUUU 081500Z 31002MPS 9999 SCT050 24/15 Q1000 NOSIG', '下午11:00', '24.0°C', '1,000毫巴', '每小时7.20公里, 西北', '10.00公里', '部分多云 (1,524米)', '本地:', '23:00、2019年4月8日周一', '协调世界时:', '15:00、2019年4月8日周一', '来源:', 'USAF 每小时地面观测', '报告类型:', 'METAR 航空例行天气报告', '露点:', '15.0°C']