['Mist', 'BR、IWC10', 'Mist', 'BR、IWC10', 'Mist', 'BR、IWC10', 'Mist', 'BR、IWC10', 'Mist', 'BR、IWC10', 'Mist', 'BR、IWC10', 'Light Rain、Mist', '-RA、IWC61、BR、IWC10', 'Light Rain、Mist', '-RA、IWC61、BR、IWC10', 'Light Rain、Mist', '-RA、IWC61、BR、IWC10', 'Mist', 'BR、IWC10', 'Light Rain、Mist', '-RA、IWC61、BR、IWC10', 'Mist', 'BR、IWC10', 'Mist', 'BR、IWC10', 'Mist', 'BR、IWC10', 'Light Rain、Mist', '-RA、IWC61、BR、IWC10', 'Light Rain、Mist', '-RA、IWC61、BR、IWC10', 'Light Rain、Mist', '-RA、IWC61、BR、IWC10', 'Light Rain、Mist', '-RA、IWC61、BR、IWC10', 'Light Rain、Mist', '-RA、IWC61、BR、IWC10', 'Light Rain、Mist', '-RA、IWC61、BR、IWC10', '上午12:00', '9°C', '1,023毫巴', '每小时7.20公里, 北', '2.50公里', '大部分晴天 (1,524米)', '本地:', '00:00、2019年1月27日周日', '协调世界时:', '16:00、2019年1月26日周六', '来源:', '周期文件', '趋势:', '无重要变化', '露点:', '7°C', '天气:', 'Mist', '原始:', 'ZUUU 261600Z 36002MPS 330V030 2500 BR FEW050 09/07 Q1023 NOSIG', '上午12:00', '9.0°C', '1,023毫巴', '每小时7.20公里, 北', '2.50公里', '大部分晴天 (1,524米)', '本地:', '00:00、2019年1月27日周日', '协调世界时:', '16:00、2019年1月26日周六', '来源:', 'USAF 每小时地面观测', '报告类型:', 'METAR 航空例行天气报告', '露点:', '7.0°C', '天气:', 'Mist', '上午1:00', '9°C', '1,023毫巴', '每小时3.60公里', '4.50公里', '部分多云 (1,524米)', '本地:', '01:00、2019年1月27日周日', '协调世界时:', '17:00、2019年1月26日周六', '来源:', '周期文件', '趋势:', '无重要变化', '露点:', '6°C', '天气:', 'Mist', '原始:', 'ZUUU 261700Z VRB01MPS 4500 BR SCT050 09/06 Q1023 NOSIG', '上午1:00', '9.0°C', '1,023毫巴', '每小时3.60公里', '4.50公里', '部分多云 (1,524米)', '本地:', '01:00、2019年1月27日周日', '协调世界时:', '17:00、2019年1月26日周六', '来源:', 'USAF 每小时地面观测', '报告类型:', 'METAR 航空例行天气报告', '露点:', '6.0°C', '天气:', 'Mist', '上午2:00', '8°C', '1,023毫巴', '每小时3.60公里, 北', '4.50公里', '部分多云 (1,524米)', '本地:', '02:00、2019年1月27日周日', '协调世界时:', '18:00、2019年1月26日周六', '来源:', '周期文件', '趋势:', '无重要变化', '露点:', '6°C', '天气:', 'Mist', '原始:', 'ZUUU 261800Z 36001MPS 4500 BR SCT050 08/06 Q1023 NOSIG', '上午2:00', '8.0°C', '1,023毫巴', '每小时3.60公里, 北', '4.50公里', '部分多云 (1,524米)', '本地:', '02:00、2019年1月27日周日', '协调世界时:', '18:00、2019年1月26日周六', '来源:', 'USAF 每小时地面观测', '报告类型:', 'METAR 航空例行天气报告', '露点:', '6.0°C', '天气:', 'Mist', '上午3:00', '8°C', '1,023毫巴', '每小时7.20公里, 北', '4.00公里', '部分多云 (1,524米)', '本地:', '03:00、2019年1月27日周日', '协调世界时:', '19:00、2019年1月26日周六', '来源:', '周期文件', '趋势:', '无重要变化', '露点:', '7°C', '天气:', 'Mist', '原始:', 'ZUUU 261900Z 01002MPS 330V050 4000 BR SCT050 08/07 Q1023 NOSIG', '上午3:00', '8.0°C', '1,023毫巴', '每小时7.20公里, 北', '4.00公里', '部分多云 (1,524米)', '本地:', '03:00、2019年1月27日周日', '协调世界时:', '19:00、2019年1月26日周六', '来源:', 'USAF 每小时地面观测', '报告类型:', 'METAR 航空例行天气报告', '露点:', '7.0°C', '天气:', 'Mist', '上午4:00', '8°C', '1,023毫巴', '每小时7.20公里, 北', '4.00公里', '部分多云 (1,219米)', '本地:', '04:00、2019年1月27日周日', '协调世界时:', '20:00、2019年1月26日周六', '来源:', '周期文件', '趋势:', '无重要变化', '露点:', '7°C', '天气:', 'Mist', '原始:', 'ZUUU 262000Z 36002MPS 320V040 4000 BR SCT040 08/07 Q1023 NOSIG', '上午4:00', '8.0°C', '1,023毫巴', '每小时7.20公里, 北', '4.00公里', '部分多云 (1,219米)', '本地:', '04:00、2019年1月27日周日', '协调世界时:', '20:00、2019年1月26日周六', '来源:', 'USAF 每小时地面观测', '报告类型:', 'METAR 航空例行天气报告', '露点:', '7.0°C', '天气:', 'Mist', '上午5:00', '8°C', '1,023毫巴', '每小时7.20公里, 北', '4.00公里', '部分多云 (1,219米)', '本地:', '05:00、2019年1月27日周日', '协调世界时:', '21:00、2019年1月26日周六', '来源:', '周期文件', '趋势:', '无重要变化', '露点:', '7°C', '天气:', 'Mist', '原始:', 'ZUUU 262100Z 36002MPS 330V040 4000 BR SCT040 08/07 Q1023 NOSIG', '上午5:00', '8.0°C', '1,023毫巴', '每小时7.20公里, 北', '4.00公里', '部分多云 (1,219米)', '本地:', '05:00、2019年1月27日周日', '协调世界时:', '21:00、2019年1月26日周六', '来源:', 'USAF 每小时地面观测', '报告类型:', 'METAR 航空例行天气报告', '露点:', '7.0°C', '天气:', 'Mist', '上午6:00', '8°C', '1,023毫巴', '每小时3.60公里', '4.00公里', '部分多云 (1,006米)', '本地:', '06:00、2019年1月27日周日', '协调世界时:', '22:00、2019年1月26日周六', '来源:', '周期文件', '趋势:', '无重要变化', '露点:', '7°C', '天气:', 'Light Rain、Mist', '原始:', 'ZUUU 262200Z VRB01MPS 4000 -RA BR SCT033 08/07 Q1023 NOSIG', '上午6:00', '8.0°C', '1,023毫巴', '每小时3.60公里', '4.00公里', '部分多云 (1,006米)', '本地:', '06:00、2019年1月27日周日', '协调世界时:', '22:00、2019年1月26日周六', '来源:', 'USAF 每小时地面观测', '报告类型:', 'METAR 航空例行天气报告', '露点:', '7.0°C', '天气:', 'Mist、Light Rain', '上午7:00', '8°C', '1,024毫巴', '每小时3.60公里', '3.50公里', '部分多云 (1,006米)', '本地:', '07:00、2019年1月27日周日', '协调世界时:', '23:00、2019年1月26日周六', '来源:', '周期文件', '趋势:', '变化为', '露点:', '7°C', '天气:', 'Light Rain、Mist、Mist', '原始:', 'ZUUU 262300Z VRB01MPS 3500 -RA BR SCT033 08/07 Q1024 BECMG TL0030 2700 BR', '上午7:00', '8.0°C', '1,024毫巴', '每小时3.60公里', '3.50公里', '部分多云 (1,006米)', '本地:', '07:00、2019年1月27日周日', '协调世界时:', '23:00、2019年1月26日周六', '来源:', 'USAF 每小时地面观测', '报告类型:', 'METAR 航空例行天气报告', '露点:', '7.0°C', '天气:', 'Mist、Light Rain', '上午8:00', '8°C', '1,024毫巴', '每小时7.20公里, 北', '3.00公里', '大部分多云 (1,006米)', '本地:', '08:00、2019年1月27日周日', '协调世界时:', '00:00、2019年1月27日周日', '来源:', '周期文件', '趋势:', '变化为', '露点:', '7°C', '天气:', 'Light Rain、Mist、Mist', '原始:', 'ZUUU 270000Z 35002MPS 320V020 3000 -RA BR BKN033 08/07 Q1024 BECMG TL0030 2700 BR', '上午8:00', '8.0°C', '1,024毫巴', '每小时7.20公里, 北', '3.00公里', '大部分多云 (1,006米)', '本地:', '08:00、2019年1月27日周日', '协调世界时:', '00:00、2019年1月27日周日', '来源:', 'USAF 每小时地面观测', '报告类型:', 'METAR 航空例行天气报告', '露点:', '7.0°C', '天气:', 'Mist、Light Rain', '上午9:00', '8°C', '1,025毫巴', '每小时7.20公里, 北', '4.00公里', '大部分多云 (792米)', '本地:', '09:00、2019年1月27日周日', '协调世界时:', '01:00、2019年1月27日周日', '来源:', '周期文件', '趋势:', '无重要变化', '露点:', '7°C', '其他云层:', '大部分晴天 (213米)', '天气:', 'Mist', '原始:', 'ZUUU 270100Z 36002MPS 310V040 4000 BR FEW007 BKN026 08/07 Q1025 NOSIG', '上午9:00', '8.0°C', '1,025毫巴', '每小时7.20公里, 北', '4.00公里', '大部分多云 (792米)', '本地:', '09:00、2019年1月27日周日', '协调世界时:', '01:00、2019年1月27日周日', '来源:', 'USAF 每小时地面观测', '报告类型:', 'METAR 航空例行天气报告', '露点:', '7.0°C', '其他云层:', '大部分晴天 (213米)', '天气:', 'Mist', '上午10:00', '8°C', '1,025毫巴', '每小时7.20公里, 北', '7.00公里', '部分多云 (1,006米)', '本地:', '10:00、2019年1月27日周日', '协调世界时:', '02:00、2019年1月27日周日', '来源:', '周期文件', '趋势:', '无重要变化', '露点:', '7°C', '其他云层:', '大部分晴天 (305米)', '原始:', 'ZUUU 270200Z 01002MPS 330V050 7000 FEW010 SCT033 08/07 Q1025 NOSIG', '上午10:00', '8.0°C', '1,025毫巴', '每小时7.20公里, 北', '7.00公里', '部分多云 (1,006米)', '本地:', '10:00、2019年1月27日周日', '协调世界时:', '02:00、2019年1月27日周日', '来源:', 'USAF 每小时地面观测', '报告类型:', 'METAR 航空例行天气报告', '露点:', '7.0°C', '其他云层:', '大部分晴天 (305米)', '上午11:00', '9°C', '1,025毫巴', '每小时10.8公里, 北', '8.00公里', '部分多云 (1,006米)', '本地:', '11:00、2019年1月27日周日', '协调世界时:', '03:00、2019年1月27日周日', '来源:', '周期文件', '趋势:', '无重要变化', '露点:', '7°C', '其他云层:', '大部分晴天 (305米)', '原始:', 'ZUUU 270300Z 02003MPS 8000 FEW010 SCT033 09/07 Q1025 NOSIG', '上午11:00', '9.0°C', '1,025毫巴', '每小时10.8公里, 北', '8.00公里', '部分多云 (1,006米)', '本地:', '11:00、2019年1月27日周日', '协调世界时:', '03:00、2019年1月27日周日', '来源:', 'USAF 每小时地面观测', '报告类型:', 'METAR 航空例行天气报告', '露点:', '7.0°C', '其他云层:', '大部分晴天 (305米)', '下午12:00', '9°C', '1,024毫巴', '每小时10.8公里, 北', '8.00公里', '部分多云 (305米)', '本地:', '12:00、2019年1月27日周日', '协调世界时:', '04:00、2019年1月27日周日', '来源:', '周期文件', '趋势:', '无重要变化', '露点:', '7°C', '其他云层:', '部分多云 (1,006米)', '原始:', 'ZUUU 270400Z 01003MPS 340V040 8000 SCT010 SCT033 09/07 Q1024 NOSIG', '下午12:00', '9.0°C', '1,024毫巴', '每小时10.8公里, 北', '8.00公里', '部分多云 (305米)', '本地:', '12:00、2019年1月27日周日', '协调世界时:', '04:00、2019年1月27日周日', '来源:', 'USAF 每小时地面观测', '报告类型:', 'METAR 航空例行天气报告', '露点:', '7.0°C', '其他云层:', '部分多云 (1,006米)', '下午1:00', '8°C', '1,023毫巴', '每小时7.20公里, 北', '5.00公里', '部分多云 (305米)', '本地:', '13:00、2019年1月27日周日', '协调世界时:', '05:00、2019年1月27日周日', '来源:', '周期文件', '趋势:', '无重要变化', '露点:', '7°C', '其他云层:', '部分多云 (1,006米)', '天气:', 'Light Rain、Mist', '原始:', 'ZUUU 270500Z 01002MPS 350V060 5000 -RA BR SCT010 SCT033 08/07 Q1023 NOSIG', '下午1:00', '8.0°C', '1,023毫巴', '每小时7.20公里, 北', '5.00公里', '部分多云 (305米)', '本地:', '13:00、2019年1月27日周日', '协调世界时:', '05:00、2019年1月27日周日', '来源:', 'USAF 每小时地面观测', '报告类型:', 'METAR 航空例行天气报告', '露点:', '7.0°C', '其他云层:', '部分多云 (1,006米)', '天气:', 'Mist、Light Rain', '下午2:00', '9°C', '1,022毫巴', '每小时14.4公里, 东北', '5.00公里', '部分多云 (1,006米)', '本地:', '14:00、2019年1月27日周日', '协调世界时:', '06:00、2019年1月27日周日', '来源:', '周期文件', '趋势:', '无重要变化', '露点:', '7°C', '其他云层:', '大部分晴天 (305米)', '天气:', 'Mist', '原始:', 'ZUUU 270600Z 04004MPS 5000 BR FEW010 SCT033 09/07 Q1022 NOSIG', '下午2:00', '9.0°C', '1,022毫巴', '每小时14.4公里, 东北', '5.00公里', '部分多云 (1,006米)', '本地:', '14:00、2019年1月27日周日', '协调世界时:', '06:00、2019年1月27日周日', '来源:', 'USAF 每小时地面观测', '报告类型:', 'METAR 航空例行天气报告', '露点:', '7.0°C', '其他云层:', '大部分晴天 (305米)', '天气:', 'Mist', '下午3:00', '9°C', '1,020毫巴', '每小时14.4公里, 东北', '5.00公里', '部分多云 (914米)', '本地:', '15:00、2019年1月27日周日', '协调世界时:', '07:00、2019年1月27日周日', '来源:', '周期文件', '趋势:', '无重要变化', '露点:', '6°C', '其他云层:', '大部分晴天 (305米)', '天气:', 'Mist', '原始:', 'ZUUU 270700Z 03004MPS 5000 BR FEW010 SCT030 09/06 Q1020 NOSIG', '下午3:00', '9.0°C', '1,020毫巴', '每小时14.4公里, 东北', '5.00公里', '部分多云 (914米)', '本地:', '15:00、2019年1月27日周日', '协调世界时:', '07:00、2019年1月27日周日', '来源:', 'USAF 每小时地面观测', '报告类型:', 'METAR 航空例行天气报告', '露点:', '6.0°C', '其他云层:', '大部分晴天 (305米)', '天气:', 'Mist', '下午4:00', '9°C', '1,020毫巴', '每小时10.8公里, 北', '6.00公里', '部分多云 (914米)', '本地:', '16:00、2019年1月27日周日', '协调世界时:', '08:00、2019年1月27日周日', '来源:', '周期文件', '趋势:', '无重要变化', '露点:', '6°C', '其他云层:', '大部分晴天 (305米)', '原始:', 'ZUUU 270800Z 02003MPS 350V060 6000 FEW010 SCT030 09/06 Q1020 NOSIG', '下午4:00', '9.0°C', '1,020毫巴', '每小时10.8公里, 北', '6.00公里', '部分多云 (914米)', '本地:', '16:00、2019年1月27日周日', '协调世界时:', '08:00、2019年1月27日周日', '来源:', 'USAF 每小时地面观测', '报告类型:', 'METAR 航空例行天气报告', '露点:', '6.0°C', '其他云层:', '大部分晴天 (305米)', '下午5:00', '8°C', '1,020毫巴', '每小时14.4公里, 北', '5.00公里', '部分多云 (914米)', '本地:', '17:00、2019年1月27日周日', '协调世界时:', '09:00、2019年1月27日周日', '来源:', '周期文件', '趋势:', '无重要变化', '露点:', '6°C', '其他云层:', '大部分晴天 (305米)', '天气:', 'Mist', '原始:', 'ZUUU 270900Z 02004MPS 5000 BR FEW010 SCT030 08/06 Q1020 NOSIG', '下午5:00', '8.0°C', '1,020毫巴', '每小时14.4公里, 北', '5.00公里', '部分多云 (914米)', '本地:', '17:00、2019年1月27日周日', '协调世界时:', '09:00、2019年1月27日周日', '来源:', 'USAF 每小时地面观测', '报告类型:', 'METAR 航空例行天气报告', '露点:', '6.0°C', '其他云层:', '大部分晴天 (305米)', '天气:', 'Mist', '下午6:00', '8°C', '1,020毫巴', '每小时10.8公里, 北', '4.00公里', '部分多云 (914米)', '本地:', '18:00、2019年1月27日周日', '协调世界时:', '10:00、2019年1月27日周日', '来源:', '周期文件', '趋势:', '无重要变化', '露点:', '7°C', '其他云层:', '大部分晴天 (305米)', '天气:', 'Light Rain、Mist', '原始:', 'ZUUU 271000Z 02003MPS 4000 -RA BR FEW010 SCT030 08/07 Q1020 NOSIG', '下午6:00', '8.0°C', '1,020毫巴', '每小时10.8公里, 北', '4.00公里', '部分多云 (914米)', '本地:', '18:00、2019年1月27日周日', '协调世界时:', '10:00、2019年1月27日周日', '来源:', 'USAF 每小时地面观测', '报告类型:', 'METAR 航空例行天气报告', '露点:', '7.0°C', '其他云层:', '大部分晴天 (305米)', '天气:', 'Mist、Light Rain', '下午7:00', '8°C', '1,021毫巴', '每小时7.20公里, 北', '4.50公里', '部分多云 (914米)', '本地:', '19:00、2019年1月27日周日', '协调世界时:', '11:00、2019年1月27日周日', '来源:', '周期文件', '趋势:', '无重要变化', '露点:', '7°C', '其他云层:', '大部分晴天 (305米)', '天气:', 'Light Rain、Mist', '原始:', 'ZUUU 271100Z 36002MPS 330V030 4500 -RA BR FEW010 SCT030 08/07 Q1021 NOSIG', '下午7:00', '8.0°C', '1,021毫巴', '每小时7.20公里, 北', '4.50公里', '部分多云 (914米)', '本地:', '19:00、2019年1月27日周日', '协调世界时:', '11:00、2019年1月27日周日', '来源:', 'USAF 每小时地面观测', '报告类型:', 'METAR 航空例行天气报告', '露点:', '7.0°C', '其他云层:', '大部分晴天 (305米)', '天气:', 'Mist、Light Rain', '下午8:00', '8°C', '1,021毫巴', '每小时10.8公里, 北', '4.50公里', '部分多云 (914米)', '本地:', '20:00、2019年1月27日周日', '协调世界时:', '12:00、2019年1月27日周日', '来源:', '周期文件', '趋势:', '无重要变化', '露点:', '6°C', '其他云层:', '大部分晴天 (305米)', '天气:', 'Light Rain、Mist', '原始:', 'ZUUU 271200Z 02003MPS 4500 -RA BR FEW010 SCT030 08/06 Q1021 NOSIG', '下午8:00', '8.0°C', '1,021毫巴', '每小时10.8公里, 北', '4.50公里', '部分多云 (914米)', '本地:', '20:00、2019年1月27日周日', '协调世界时:', '12:00、2019年1月27日周日', '来源:', 'USAF 每小时地面观测', '报告类型:', 'METAR 航空例行天气报告', '露点:', '6.0°C', '其他云层:', '大部分晴天 (305米)', '天气:', 'Mist、Light Rain', '下午9:00', '8°C', '1,022毫巴', '每小时10.8公里, 北', '4.50公里', '部分多云 (914米)', '本地:', '21:00、2019年1月27日周日', '协调世界时:', '13:00、2019年1月27日周日', '来源:', '周期文件', '趋势:', '无重要变化', '露点:', '6°C', '其他云层:', '大部分晴天 (305米)', '天气:', 'Light Rain、Mist', '原始:', 'ZUUU 271300Z 01003MPS 330V040 4500 -RA BR FEW010 SCT030 08/06 Q1022 NOSIG', '下午9:00', '8.0°C', '1,022毫巴', '每小时10.8公里, 北', '4.50公里', '部分多云 (914米)', '本地:', '21:00、2019年1月27日周日', '协调世界时:', '13:00、2019年1月27日周日', '来源:', 'USAF 每小时地面观测', '报告类型:', 'METAR 航空例行天气报告', '露点:', '6.0°C', '其他云层:', '大部分晴天 (305米)', '天气:', 'Mist、Light Rain', '下午10:00', '8°C', '1,023毫巴', '每小时7.20公里, 北', '4.50公里', '部分多云 (914米)', '本地:', '22:00、2019年1月27日周日', '协调世界时:', '14:00、2019年1月27日周日', '来源:', '周期文件', '趋势:', '无重要变化', '露点:', '6°C', '其他云层:', '大部分晴天 (305米)', '天气:', 'Light Rain、Mist', '原始:', 'ZUUU 271400Z 36002MPS 320V040 4500 -RA BR FEW010 SCT030 08/06 Q1023 NOSIG', '下午10:00', '8.0°C', '1,023毫巴', '每小时7.20公里, 北', '4.50公里', '部分多云 (914米)', '本地:', '22:00、2019年1月27日周日', '协调世界时:', '14:00、2019年1月27日周日', '来源:', 'USAF 每小时地面观测', '报告类型:', 'METAR 航空例行天气报告', '露点:', '6.0°C', '其他云层:', '大部分晴天 (305米)', '天气:', 'Mist、Light Rain', '下午11:00', '8°C', '1,023毫巴', '每小时10.8公里, 北', '5.00公里', '部分多云 (914米)', '本地:', '23:00、2019年1月27日周日', '协调世界时:', '15:00、2019年1月27日周日', '来源:', '周期文件', '趋势:', '无重要变化', '露点:', '6°C', '其他云层:', '大部分晴天 (305米)', '天气:', 'Light Rain、Mist', '原始:', 'ZUUU 271500Z 01003MPS 340V040 5000 -RA BR FEW010 SCT030 08/06 Q1023 NOSIG', '下午11:00', '8.0°C', '1,023毫巴', '每小时10.8公里, 北', '5.00公里', '部分多云 (914米)', '本地:', '23:00、2019年1月27日周日', '协调世界时:', '15:00、2019年1月27日周日', '来源:', 'USAF 每小时地面观测', '报告类型:', 'METAR 航空例行天气报告', '露点:', '6.0°C', '其他云层:', '大部分晴天 (305米)', '天气:', 'Mist、Light Rain']