['Mist', 'BR、IWC10', 'Mist', 'BR、IWC10', 'Mist', 'BR、IWC10', 'Mist', 'BR、IWC10', 'Mist', 'BR、IWC10', 'Mist', 'BR、IWC10', 'Mist', 'BR、IWC10', 'Mist', 'BR、IWC10', 'Showers of Light Rain、Mist', '-SHRA、IWC80、BR、IWC10', 'Mist', 'BR、IWC10', 'Mist', 'BR、IWC10', '上午12:00', '18°C', '1,013毫巴', '每小时3.60公里, 西南', '6.00公里', '大部分多云 (792米)', '本地:', '00:00、2019年4月12日周五', '协调世界时:', '16:00、2019年4月11日周四', '来源:', '周期文件', '趋势:', '无重要变化', '露点:', '16°C', '原始:', 'ZUUU 111600Z 22001MPS 6000 BKN026 18/16 Q1013 NOSIG', '上午12:00', '18.0°C', '1,013毫巴', '每小时3.60公里, 西南', '6.00公里', '大部分多云 (792米)', '本地:', '00:00、2019年4月12日周五', '协调世界时:', '16:00、2019年4月11日周四', '来源:', 'USAF 每小时地面观测', '报告类型:', 'METAR 航空例行天气报告', '露点:', '16.0°C', '上午1:00', '18°C', '1,012毫巴', '每小时0公里', '6.00公里', '大部分多云 (792米)', '本地:', '01:00、2019年4月12日周五', '协调世界时:', '17:00、2019年4月11日周四', '来源:', '周期文件', '趋势:', '无重要变化', '露点:', '15°C', '原始:', 'ZUUU 111700Z 00000MPS 6000 BKN026 18/15 Q1012 NOSIG', '上午1:00', '18.0°C', '1,012毫巴', '每小时0公里', '6.00公里', '大部分多云 (792米)', '本地:', '01:00、2019年4月12日周五', '协调世界时:', '17:00、2019年4月11日周四', '来源:', 'USAF 每小时地面观测', '报告类型:', 'METAR 航空例行天气报告', '露点:', '15.0°C', '上午2:00', '17°C', '1,011毫巴', '每小时3.60公里, 西南', '6.00公里', '大部分多云 (792米)', '本地:', '02:00、2019年4月12日周五', '协调世界时:', '18:00、2019年4月11日周四', '来源:', '周期文件', '趋势:', '无重要变化', '露点:', '15°C', '原始:', 'ZUUU 111800Z 23001MPS 6000 BKN026 17/15 Q1011 NOSIG', '上午2:00', '17.0°C', '1,011毫巴', '每小时3.60公里, 西南', '6.00公里', '大部分多云 (792米)', '本地:', '02:00、2019年4月12日周五', '协调世界时:', '18:00、2019年4月11日周四', '来源:', 'USAF 每小时地面观测', '报告类型:', 'METAR 航空例行天气报告', '露点:', '15.0°C', '上午3:00', '17°C', '1,011毫巴', '每小时3.60公里, 西南', '5.00公里', '大部分多云 (1,219米)', '本地:', '03:00、2019年4月12日周五', '协调世界时:', '19:00、2019年4月11日周四', '来源:', '周期文件', '趋势:', '无重要变化', '露点:', '15°C', '天气:', 'Mist', '原始:', 'ZUUU 111900Z 22001MPS 5000 BR BKN040 17/15 Q1011 NOSIG', '上午3:00', '17.0°C', '1,011毫巴', '每小时3.60公里, 西南', '5.00公里', '大部分多云 (1,219米)', '本地:', '03:00、2019年4月12日周五', '协调世界时:', '19:00、2019年4月11日周四', '来源:', 'USAF 每小时地面观测', '报告类型:', 'METAR 航空例行天气报告', '露点:', '15.0°C', '天气:', 'Mist', '上午4:00', '17°C', '1,010毫巴', '每小时0公里', '4.00公里', '部分多云 (1,219米)', '本地:', '04:00、2019年4月12日周五', '协调世界时:', '20:00、2019年4月11日周四', '来源:', '周期文件', '趋势:', '无重要变化', '露点:', '16°C', '天气:', 'Mist', '原始:', 'ZUUU 112000Z 00000MPS 4000 BR SCT040 17/16 Q1010 NOSIG', '上午4:00', '17.0°C', '1,010毫巴', '每小时0公里', '4.00公里', '部分多云 (1,219米)', '本地:', '04:00、2019年4月12日周五', '协调世界时:', '20:00、2019年4月11日周四', '来源:', 'USAF 每小时地面观测', '报告类型:', 'METAR 航空例行天气报告', '露点:', '16.0°C', '天气:', 'Mist', '上午5:00', '17°C', '1,010毫巴', '每小时7.20公里, 西南', '4.00公里', '部分多云 (1,524米)', '本地:', '05:00、2019年4月12日周五', '协调世界时:', '21:00、2019年4月11日周四', '来源:', '周期文件', '趋势:', '无重要变化', '露点:', '16°C', '天气:', 'Mist', '原始:', 'ZUUU 112100Z 24002MPS 4000 BR SCT050 17/16 Q1010 NOSIG', '上午5:00', '17.0°C', '1,010毫巴', '每小时7.20公里, 西南', '4.00公里', '部分多云 (1,524米)', '本地:', '05:00、2019年4月12日周五', '协调世界时:', '21:00、2019年4月11日周四', '来源:', 'USAF 每小时地面观测', '报告类型:', 'METAR 航空例行天气报告', '露点:', '16.0°C', '天气:', 'Mist', '上午6:00', '17°C', '1,009毫巴', '每小时3.60公里', '4.00公里', '部分多云 (1,524米)', '本地:', '06:00、2019年4月12日周五', '协调世界时:', '22:00、2019年4月11日周四', '来源:', '周期文件', '趋势:', '无重要变化', '露点:', '15°C', '天气:', 'Mist', '原始:', 'ZUUU 112200Z VRB01MPS 4000 BR SCT050 17/15 Q1009 NOSIG', '上午6:00', '17.0°C', '1,009毫巴', '每小时3.60公里', '4.00公里', '部分多云 (1,524米)', '本地:', '06:00、2019年4月12日周五', '协调世界时:', '22:00、2019年4月11日周四', '来源:', 'USAF 每小时地面观测', '报告类型:', 'METAR 航空例行天气报告', '露点:', '15.0°C', '天气:', 'Mist', '上午7:00', '17°C', '1,010毫巴', '每小时0公里', '4.00公里', '部分多云 (1,219米)', '本地:', '07:00、2019年4月12日周五', '协调世界时:', '23:00、2019年4月11日周四', '来源:', '周期文件', '趋势:', '无重要变化', '露点:', '16°C', '天气:', 'Mist', '原始:', 'ZUUU 112300Z 00000MPS 4000 BR SCT040 17/16 Q1010 NOSIG', '上午7:00', '17.0°C', '1,010毫巴', '每小时0公里', '4.00公里', '部分多云 (1,219米)', '本地:', '07:00、2019年4月12日周五', '协调世界时:', '23:00、2019年4月11日周四', '来源:', 'USAF 每小时地面观测', '报告类型:', 'METAR 航空例行天气报告', '露点:', '16.0°C', '天气:', 'Mist', '上午8:00', '17°C', '1,010毫巴', '每小时0公里', '4.00公里', '部分多云 (1,219米)', '本地:', '08:00、2019年4月12日周五', '协调世界时:', '00:00、2019年4月12日周五', '来源:', '周期文件', '趋势:', '无重要变化', '露点:', '16°C', '天气:', 'Mist', '原始:', 'ZUUU 120000Z 00000MPS 4000 BR SCT040 17/16 Q1010 NOSIG', '上午8:00', '17.0°C', '1,010毫巴', '每小时0公里', '4.00公里', '部分多云 (1,219米)', '本地:', '08:00、2019年4月12日周五', '协调世界时:', '00:00、2019年4月12日周五', '来源:', 'USAF 每小时地面观测', '报告类型:', 'METAR 航空例行天气报告', '露点:', '16.0°C', '天气:', 'Mist', '上午9:00', '18°C', '1,010毫巴', '每小时3.60公里', '4.00公里', '部分多云 (1,219米)', '本地:', '09:00、2019年4月12日周五', '协调世界时:', '01:00、2019年4月12日周五', '来源:', '周期文件', '趋势:', '无重要变化', '露点:', '16°C', '天气:', 'Mist', '原始:', 'ZUUU 120100Z VRB01MPS 4000 BR SCT040 18/16 Q1010 NOSIG', '上午9:00', '18.0°C', '1,010毫巴', '每小时3.60公里', '4.00公里', '部分多云 (1,219米)', '本地:', '09:00、2019年4月12日周五', '协调世界时:', '01:00、2019年4月12日周五', '来源:', 'USAF 每小时地面观测', '报告类型:', 'METAR 航空例行天气报告', '露点:', '16.0°C', '天气:', 'Mist', '上午10:00', '19°C', '1,010毫巴', '每小时0公里', '5.00公里', '部分多云 (1,311米)', '本地:', '10:00、2019年4月12日周五', '协调世界时:', '02:00、2019年4月12日周五', '来源:', '周期文件', '趋势:', '无重要变化', '露点:', '15°C', '天气:', 'Mist', '原始:', 'ZUUU 120200Z 00000MPS 5000 BR SCT043 19/15 Q1010 NOSIG', '上午10:00', '19.0°C', '1,010毫巴', '每小时0公里', '5.00公里', '部分多云 (1,311米)', '本地:', '10:00、2019年4月12日周五', '协调世界时:', '02:00、2019年4月12日周五', '来源:', 'USAF 每小时地面观测', '报告类型:', 'METAR 航空例行天气报告', '露点:', '15.0°C', '天气:', 'Mist', '上午11:00', '19°C', '1,011毫巴', '每小时7.20公里, 北', '6.00公里', '部分多云 (1,311米)', '本地:', '11:00、2019年4月12日周五', '协调世界时:', '03:00、2019年4月12日周五', '来源:', '周期文件', '趋势:', '无重要变化', '露点:', '15°C', '原始:', 'ZUUU 120300Z 35002MPS 310V030 6000 SCT043 19/15 Q1011 NOSIG', '上午11:00', '19.0°C', '1,011毫巴', '每小时7.20公里, 北', '6.00公里', '部分多云 (1,311米)', '本地:', '11:00、2019年4月12日周五', '协调世界时:', '03:00、2019年4月12日周五', '来源:', 'USAF 每小时地面观测', '报告类型:', 'METAR 航空例行天气报告', '露点:', '15.0°C', '下午12:00', '19°C', '1,011毫巴', '每小时14.4公里, 北', '3.50公里', '部分多云 (914米)', '本地:', '12:00、2019年4月12日周五', '协调世界时:', '04:00、2019年4月12日周五', '来源:', '周期文件', '趋势:', '无重要变化', '露点:', '15°C', '其他云层:', '大部分晴天 (610米)、大部分晴天 (914米)', '天气:', 'Showers of Light Rain、Mist', '原始:', 'ZUUU 120400Z 02004MPS 350V050 3500 -SHRA BR FEW020 FEW030TCU SCT030 19/15 Q1011 NOSIG', '下午12:00', '19.0°C', '1,011毫巴', '每小时14.4公里, 北', '3.50公里', '部分多云 (914米)', '本地:', '12:00、2019年4月12日周五', '协调世界时:', '04:00、2019年4月12日周五', '来源:', 'USAF 每小时地面观测', '报告类型:', 'METAR 航空例行天气报告', '露点:', '15.0°C', '其他云层:', '大部分晴天 (610米)、大部分晴天 (914米)', '天气:', 'Mist、Showers of Light Rain', '下午1:00', '20°C', '1,011毫巴', '每小时18.0公里, 北', '5.00公里', '部分多云 (914米)', '本地:', '13:00、2019年4月12日周五', '协调世界时:', '05:00、2019年4月12日周五', '来源:', '周期文件', '趋势:', '无重要变化', '露点:', '15°C', '其他云层:', '大部分晴天 (610米)', '天气:', 'Mist', '原始:', 'ZUUU 120500Z 02005MPS 5000 BR FEW020 SCT030 20/15 Q1011 NOSIG', '下午1:00', '20.0°C', '1,011毫巴', '每小时18.0公里, 北', '5.00公里', '部分多云 (914米)', '本地:', '13:00、2019年4月12日周五', '协调世界时:', '05:00、2019年4月12日周五', '来源:', 'USAF 每小时地面观测', '报告类型:', 'METAR 航空例行天气报告', '露点:', '15.0°C', '其他云层:', '大部分晴天 (610米)', '天气:', 'Mist', '下午2:00', '20°C', '1,010毫巴', '每小时14.4公里, 东北', '6.00公里', '部分多云 (914米)', '本地:', '14:00、2019年4月12日周五', '协调世界时:', '06:00、2019年4月12日周五', '来源:', '周期文件', '趋势:', '无重要变化', '露点:', '15°C', '其他云层:', '大部分晴天 (610米)、大部分晴天 (914米)', '原始:', 'ZUUU 120600Z 03004MPS 6000 FEW020 FEW030TCU SCT030 20/15 Q1010 NOSIG', '下午2:00', '20.0°C', '1,010毫巴', '每小时14.4公里, 东北', '6.00公里', '部分多云 (914米)', '本地:', '14:00、2019年4月12日周五', '协调世界时:', '06:00、2019年4月12日周五', '来源:', 'USAF 每小时地面观测', '报告类型:', 'METAR 航空例行天气报告', '露点:', '15.0°C', '其他云层:', '大部分晴天 (610米)、大部分晴天 (914米)', '下午3:00', '21°C', '1,010毫巴', '每小时14.4公里, 东北', '8.00公里', '部分多云 (1,524米)', '本地:', '15:00、2019年4月12日周五', '协调世界时:', '07:00、2019年4月12日周五', '来源:', '周期文件', '趋势:', '无重要变化', '露点:', '15°C', '其他云层:', '大部分晴天 (701米)', '原始:', 'ZUUU 120700Z 06004MPS 020V100 8000 FEW023 SCT050 21/15 Q1010 NOSIG', '下午3:00', '21.0°C', '1,010毫巴', '每小时14.4公里, 东北', '8.00公里', '部分多云 (1,524米)', '本地:', '15:00、2019年4月12日周五', '协调世界时:', '07:00、2019年4月12日周五', '来源:', 'USAF 每小时地面观测', '报告类型:', 'METAR 航空例行天气报告', '露点:', '15.0°C', '其他云层:', '大部分晴天 (701米)', '下午4:00', '21°C', '1,009毫巴', '每小时14.4公里, 东', '8.00公里', '大部分晴天 (701米)', '本地:', '16:00、2019年4月12日周五', '协调世界时:', '08:00、2019年4月12日周五', '来源:', '周期文件', '趋势:', '无重要变化', '露点:', '16°C', '原始:', 'ZUUU 120800Z 09004MPS 040V140 8000 FEW023 21/16 Q1009 NOSIG', '下午4:00', '21.0°C', '1,009毫巴', '每小时14.4公里, 东', '8.00公里', '大部分晴天 (701米)', '本地:', '16:00、2019年4月12日周五', '协调世界时:', '08:00、2019年4月12日周五', '来源:', 'USAF 每小时地面观测', '报告类型:', 'METAR 航空例行天气报告', '露点:', '16.0°C', '下午5:00', '21°C', '1,011毫巴', '每小时10.8公里, 东北', '10.00公里', '部分多云 (1,524米)', '本地:', '17:00、2019年4月12日周五', '协调世界时:', '09:00、2019年4月12日周五', '来源:', '周期文件', '趋势:', '无重要变化', '露点:', '16°C', '其他云层:', '大部分晴天 (701米)', '原始:', 'ZUUU 120900Z 05003MPS 020V090 9999 FEW023 SCT050 21/16 Q1011 NOSIG', '下午5:00', '21.0°C', '1,011毫巴', '每小时10.8公里, 东北', '10.00公里', '部分多云 (1,524米)', '本地:', '17:00、2019年4月12日周五', '协调世界时:', '09:00、2019年4月12日周五', '来源:', 'USAF 每小时地面观测', '报告类型:', 'METAR 航空例行天气报告', '露点:', '16.0°C', '其他云层:', '大部分晴天 (701米)', '下午6:00', '21°C', '1,011毫巴', '每小时14.4公里, 东北', '10.00公里', '部分多云 (1,524米)', '本地:', '18:00、2019年4月12日周五', '协调世界时:', '10:00、2019年4月12日周五', '来源:', '周期文件', '趋势:', '无重要变化', '露点:', '16°C', '原始:', 'ZUUU 121000Z 06004MPS 030V090 9999 SCT050 21/16 Q1011 NOSIG', '下午6:00', '21.0°C', '1,011毫巴', '每小时14.4公里, 东北', '10.00公里', '部分多云 (1,524米)', '本地:', '18:00、2019年4月12日周五', '协调世界时:', '10:00、2019年4月12日周五', '来源:', 'USAF 每小时地面观测', '报告类型:', 'METAR 航空例行天气报告', '露点:', '16.0°C', '下午7:00', '19°C', '1,011毫巴', '每小时10.8公里, 南', '10.00公里', '部分多云 (1,524米)', '本地:', '19:00、2019年4月12日周五', '协调世界时:', '11:00、2019年4月12日周五', '来源:', '周期文件', '趋势:', '无重要变化', '露点:', '16°C', '其他云层:', '大部分晴天 (792米)', '原始:', 'ZUUU 121100Z 20003MPS 090V230 9999 FEW026 SCT050 19/16 Q1011 NOSIG', '下午7:00', '19.0°C', '1,011毫巴', '每小时10.8公里, 南', '10.00公里', '部分多云 (1,524米)', '本地:', '19:00、2019年4月12日周五', '协调世界时:', '11:00、2019年4月12日周五', '来源:', 'USAF 每小时地面观测', '报告类型:', 'METAR 航空例行天气报告', '露点:', '16.0°C', '其他云层:', '大部分晴天 (792米)', '下午8:00', '19°C', '1,012毫巴', '每小时7.20公里, 西南', '6.00公里', '部分多云 (1,524米)', '本地:', '20:00、2019年4月12日周五', '协调世界时:', '12:00、2019年4月12日周五', '来源:', '周期文件', '趋势:', '无重要变化', '露点:', '16°C', '其他云层:', '大部分晴天 (792米)', '原始:', 'ZUUU 121200Z 23002MPS 6000 FEW026 SCT050 19/16 Q1012 NOSIG', '下午8:00', '19.0°C', '1,012毫巴', '每小时7.20公里, 西南', '6.00公里', '部分多云 (1,524米)', '本地:', '20:00、2019年4月12日周五', '协调世界时:', '12:00、2019年4月12日周五', '来源:', 'USAF 每小时地面观测', '报告类型:', 'METAR 航空例行天气报告', '露点:', '16.0°C', '其他云层:', '大部分晴天 (792米)', '下午9:00', '19°C', '1,013毫巴', '每小时7.20公里, 西南', '6.00公里', '部分多云 (1,219米)', '本地:', '21:00、2019年4月12日周五', '协调世界时:', '13:00、2019年4月12日周五', '来源:', '周期文件', '趋势:', '无重要变化', '露点:', '16°C', '原始:', 'ZUUU 121300Z 22002MPS 6000 SCT040 19/16 Q1013 NOSIG', '下午9:00', '19.0°C', '1,013毫巴', '每小时7.20公里, 西南', '6.00公里', '部分多云 (1,219米)', '本地:', '21:00、2019年4月12日周五', '协调世界时:', '13:00、2019年4月12日周五', '来源:', 'USAF 每小时地面观测', '报告类型:', 'METAR 航空例行天气报告', '露点:', '16.0°C', '下午10:00', '18°C', '1,014毫巴', '每小时7.20公里, 西南', '6.00公里', '部分多云 (1,219米)', '本地:', '22:00、2019年4月12日周五', '协调世界时:', '14:00、2019年4月12日周五', '来源:', '周期文件', '趋势:', '无重要变化', '露点:', '17°C', '原始:', 'ZUUU 121400Z 23002MPS 6000 SCT040 18/17 Q1014 NOSIG', '下午10:00', '18.0°C', '1,014毫巴', '每小时7.20公里, 西南', '6.00公里', '部分多云 (1,219米)', '本地:', '22:00、2019年4月12日周五', '协调世界时:', '14:00、2019年4月12日周五', '来源:', 'USAF 每小时地面观测', '报告类型:', 'METAR 航空例行天气报告', '露点:', '17.0°C', '下午11:00', '17°C', '1,014毫巴', '每小时3.60公里, 西', '4.00公里', '大部分晴天 (1,219米)', '本地:', '23:00、2019年4月12日周五', '协调世界时:', '15:00、2019年4月12日周五', '来源:', '周期文件', '趋势:', '无重要变化', '露点:', '16°C', '天气:', 'Mist', '原始:', 'ZUUU 121500Z 25001MPS 4000 BR FEW040 17/16 Q1014 NOSIG', '下午11:00', '17.0°C', '1,014毫巴', '每小时3.60公里, 西', '4.00公里', '大部分晴天 (1,219米)', '本地:', '23:00、2019年4月12日周五', '协调世界时:', '15:00、2019年4月12日周五', '来源:', 'USAF 每小时地面观测', '报告类型:', 'METAR 航空例行天气报告', '露点:', '16.0°C', '天气:', 'Mist']