['Showers of Light Rain', '-SHRA、IWC80', 'Thunderstorm with Light Rain、Thunderstorm with Rain、Showers of Light Rain', '-TSRA、IWC95、-SHRA', 'Showers of Light Rain', '-SHRA、IWC80', 'Showers of Light Rain', '-SHRA、IWC80', 'Showers of Light Rain', '-SHRA、IWC80', 'Showers of Light Rain', '-SHRA、IWC80', '上午12:00', '25°C', '1,009毫巴', '每小时0公里', '≥ 10.00公里', '晴空万里', '本地:', '00:00、2019年4月10日周三', '协调世界时:', '16:00、2019年4月9日周二', '来源:', '周期文件', '趋势:', '无重要变化', '露点:', '12°C', '晴空万里:', '真', '原始:', 'ZUUU 091600Z 00000MPS CAVOK 25/12 Q1009 NOSIG', '上午12:00', '25.0°C', '1,009毫巴', '每小时0公里', '-', '晴空万里', '本地:', '00:00、2019年4月10日周三', '协调世界时:', '16:00、2019年4月9日周二', '来源:', 'USAF 每小时地面观测', '报告类型:', 'METAR 航空例行天气报告', '露点:', '12.0°C', '晴空万里:', '真', '上午1:00', '23°C', '1,009毫巴', '每小时0公里', '≥ 10.00公里', '晴空万里', '本地:', '01:00、2019年4月10日周三', '协调世界时:', '17:00、2019年4月9日周二', '来源:', '周期文件', '趋势:', '无重要变化', '露点:', '15°C', '晴空万里:', '真', '原始:', 'ZUUU 091700Z 00000MPS CAVOK 23/15 Q1009 NOSIG', '上午1:00', '23.0°C', '1,009毫巴', '每小时0公里', '-', '晴空万里', '本地:', '01:00、2019年4月10日周三', '协调世界时:', '17:00、2019年4月9日周二', '来源:', 'USAF 每小时地面观测', '报告类型:', 'METAR 航空例行天气报告', '露点:', '15.0°C', '晴空万里:', '真', '上午2:00', '23°C', '1,009毫巴', '每小时7.20公里, 南', '≥ 10.00公里', '晴空万里', '本地:', '02:00、2019年4月10日周三', '协调世界时:', '18:00、2019年4月9日周二', '来源:', '周期文件', '趋势:', '无重要变化', '露点:', '14°C', '晴空万里:', '真', '原始:', 'ZUUU 091800Z 19002MPS 150V220 CAVOK 23/14 Q1009 NOSIG', '上午2:00', '23.0°C', '1,009毫巴', '每小时7.20公里, 南', '-', '晴空万里', '本地:', '02:00、2019年4月10日周三', '协调世界时:', '18:00、2019年4月9日周二', '来源:', 'USAF 每小时地面观测', '报告类型:', 'METAR 航空例行天气报告', '露点:', '14.0°C', '晴空万里:', '真', '上午3:00', '21°C', '1,010毫巴', '每小时10.8公里, 西南', '10.00公里', '大部分晴天 (1,006米)', '本地:', '03:00、2019年4月10日周三', '协调世界时:', '19:00、2019年4月9日周二', '来源:', '周期文件', '趋势:', '无重要变化', '露点:', '15°C', '天气:', 'Showers of Light Rain', '原始:', 'ZUUU 091900Z 22003MPS 9999 -SHRA FEW033CB 21/15 Q1010 NOSIG', '上午3:00', '21.0°C', '1,010毫巴', '每小时10.8公里, 西南', '10.00公里', '大部分晴天 (1,006米)', '本地:', '03:00、2019年4月10日周三', '协调世界时:', '19:00、2019年4月9日周二', '来源:', 'USAF 每小时地面观测', '报告类型:', 'METAR 航空例行天气报告', '露点:', '15.0°C', '天气:', 'Showers of Light Rain', '上午4:00', '20°C', '1,009毫巴', '每小时7.20公里, 北', '10.00公里', '大部分晴天 (1,006米)', '本地:', '04:00、2019年4月10日周三', '协调世界时:', '20:00、2019年4月9日周二', '来源:', '周期文件', '趋势:', '变化为', '露点:', '17°C', '天气:', 'Thunderstorm with Light Rain、Showers of Light Rain', '原始:', 'ZUUU 092000Z 01002MPS 330V030 9999 -TSRA FEW033CB 20/17 Q1009 BECMG TL2030 -SHRA', '上午4:00', '20.0°C', '1,009毫巴', '每小时7.20公里, 北', '10.00公里', '大部分晴天 (1,006米)', '本地:', '04:00、2019年4月10日周三', '协调世界时:', '20:00、2019年4月9日周二', '来源:', 'USAF 每小时地面观测', '报告类型:', 'METAR 航空例行天气报告', '露点:', '17.0°C', '天气:', 'Thunderstorm with Rain', '上午5:00', '20°C', '1,009毫巴', '每小时0公里', '≥ 10.00公里', '晴空万里', '本地:', '05:00、2019年4月10日周三', '协调世界时:', '21:00、2019年4月9日周二', '来源:', '周期文件', '趋势:', '无重要变化', '露点:', '17°C', '晴空万里:', '真', '原始:', 'ZUUU 092100Z 00000MPS CAVOK 20/17 Q1009 NOSIG', '上午5:00', '20.0°C', '1,009毫巴', '每小时0公里', '-', '晴空万里', '本地:', '05:00、2019年4月10日周三', '协调世界时:', '21:00、2019年4月9日周二', '来源:', 'USAF 每小时地面观测', '报告类型:', 'METAR 航空例行天气报告', '露点:', '17.0°C', '晴空万里:', '真', '上午6:00', '20°C', '1,009毫巴', '每小时3.60公里', '≥ 10.00公里', '晴空万里', '本地:', '06:00、2019年4月10日周三', '协调世界时:', '22:00、2019年4月9日周二', '来源:', '周期文件', '趋势:', '无重要变化', '露点:', '17°C', '晴空万里:', '真', '原始:', 'ZUUU 092200Z VRB01MPS CAVOK 20/17 Q1009 NOSIG', '上午6:00', '20.0°C', '1,009毫巴', '每小时3.60公里', '-', '晴空万里', '本地:', '06:00、2019年4月10日周三', '协调世界时:', '22:00、2019年4月9日周二', '来源:', 'USAF 每小时地面观测', '报告类型:', 'METAR 航空例行天气报告', '露点:', '17.0°C', '晴空万里:', '真', '上午7:00', '20°C', '1,010毫巴', '每小时3.60公里, 北', '≥ 10.00公里', '晴空万里', '本地:', '07:00、2019年4月10日周三', '协调世界时:', '23:00、2019年4月9日周二', '来源:', '周期文件', '趋势:', '无重要变化', '露点:', '17°C', '晴空万里:', '真', '原始:', 'ZUUU 092300Z 36001MPS CAVOK 20/17 Q1010 NOSIG', '上午7:00', '20.0°C', '1,010毫巴', '每小时3.60公里, 北', '-', '晴空万里', '本地:', '07:00、2019年4月10日周三', '协调世界时:', '23:00、2019年4月9日周二', '来源:', 'USAF 每小时地面观测', '报告类型:', 'METAR 航空例行天气报告', '露点:', '17.0°C', '晴空万里:', '真', '上午8:00', '20°C', '1,011毫巴', '每小时10.8公里, 北', '10.00公里', '大部分晴天 (1,219米)', '本地:', '08:00、2019年4月10日周三', '协调世界时:', '00:00、2019年4月10日周三', '来源:', '周期文件', '趋势:', '无重要变化', '露点:', '17°C', '原始:', 'ZUUU 100000Z 02003MPS 9999 FEW040 20/17 Q1011 NOSIG', '上午8:00', '20.0°C', '1,011毫巴', '每小时10.8公里, 北', '10.00公里', '大部分晴天 (1,219米)', '本地:', '08:00、2019年4月10日周三', '协调世界时:', '00:00、2019年4月10日周三', '来源:', 'USAF 每小时地面观测', '报告类型:', 'METAR 航空例行天气报告', '露点:', '17.0°C', '上午9:00', '19°C', '1,012毫巴', '每小时21.6公里, 北', '10.00公里', '大部分晴天 (1,219米)', '本地:', '09:00、2019年4月10日周三', '协调世界时:', '01:00、2019年4月10日周三', '来源:', '周期文件', '趋势:', '无重要变化', '露点:', '15°C', '原始:', 'ZUUU 100100Z 02006MPS 360V060 9999 FEW040 19/15 Q1012 NOSIG', '上午9:00', '19.0°C', '1,012毫巴', '每小时21.6公里, 北', '10.00公里', '大部分晴天 (1,219米)', '本地:', '09:00、2019年4月10日周三', '协调世界时:', '01:00、2019年4月10日周三', '来源:', 'USAF 每小时地面观测', '报告类型:', 'METAR 航空例行天气报告', '露点:', '15.0°C', '上午10:00', '20°C', '1,012毫巴', '每小时28.8公里, 东北', '10.00公里', '部分多云 (1,006米)', '本地:', '10:00、2019年4月10日周三', '协调世界时:', '02:00、2019年4月10日周三', '来源:', '周期文件', '趋势:', '无重要变化', '露点:', '14°C', '原始:', 'ZUUU 100200Z 04008MPS 010V080 9999 SCT033 20/14 Q1012 NOSIG', '上午10:00', '20.0°C', '1,012毫巴', '每小时28.8公里, 东北', '10.00公里', '部分多云 (1,006米)', '本地:', '10:00、2019年4月10日周三', '协调世界时:', '02:00、2019年4月10日周三', '来源:', 'USAF 每小时地面观测', '报告类型:', 'METAR 航空例行天气报告', '露点:', '14.0°C', '上午11:00', '19°C', '1,012毫巴', '每小时25.2公里, 东北', '10.00公里', '部分多云 (1,006米)', '本地:', '11:00、2019年4月10日周三', '协调世界时:', '03:00、2019年4月10日周三', '来源:', '周期文件', '趋势:', '无重要变化', '露点:', '15°C', '其他云层:', '大部分晴天 (335米)', '原始:', 'ZUUU 100300Z 04007MPS 9999 FEW011 SCT033 19/15 Q1012 NOSIG', '上午11:00', '19.0°C', '1,012毫巴', '每小时25.2公里, 东北', '10.00公里', '部分多云 (1,006米)', '本地:', '11:00、2019年4月10日周三', '协调世界时:', '03:00、2019年4月10日周三', '来源:', 'USAF 每小时地面观测', '报告类型:', 'METAR 航空例行天气报告', '露点:', '15.0°C', '其他云层:', '大部分晴天 (335米)', '下午12:00', '19°C', '1,012毫巴', '每小时32.4公里, 东北', '10.00公里', '部分多云 (701米)', '本地:', '12:00、2019年4月10日周三', '协调世界时:', '04:00、2019年4月10日周三', '来源:', '周期文件', '趋势:', '无重要变化', '露点:', '14°C', '其他云层:', '大部分晴天 (335米)', '原始:', 'ZUUU 100400Z 04009MPS 9999 FEW011 SCT023 19/14 Q1012 NOSIG', '下午12:00', '19.0°C', '1,012毫巴', '每小时32.4公里, 东北', '10.00公里', '部分多云 (701米)', '本地:', '12:00、2019年4月10日周三', '协调世界时:', '04:00、2019年4月10日周三', '来源:', 'USAF 每小时地面观测', '报告类型:', 'METAR 航空例行天气报告', '露点:', '14.0°C', '其他云层:', '大部分晴天 (335米)', '下午1:00', '19°C', '1,011毫巴', '每小时25.2公里, 北', '10.00公里', '大部分多云 (701米)', '本地:', '13:00、2019年4月10日周三', '协调世界时:', '05:00、2019年4月10日周三', '来源:', '周期文件', '趋势:', '无重要变化', '露点:', '15°C', '其他云层:', '大部分晴天 (335米)', '原始:', 'ZUUU 100500Z 02007MPS 9999 FEW011 BKN023 19/15 Q1011 NOSIG', '下午1:00', '19.0°C', '1,011毫巴', '每小时25.2公里, 北', '10.00公里', '大部分多云 (701米)', '本地:', '13:00、2019年4月10日周三', '协调世界时:', '05:00、2019年4月10日周三', '来源:', 'USAF 每小时地面观测', '报告类型:', 'METAR 航空例行天气报告', '露点:', '15.0°C', '其他云层:', '大部分晴天 (335米)', '下午2:00', '18°C', '1,010毫巴', '每小时28.8公里, 东北', '10.00公里', '部分多云 (701米)', '本地:', '14:00、2019年4月10日周三', '协调世界时:', '06:00、2019年4月10日周三', '来源:', '周期文件', '趋势:', '无重要变化', '露点:', '14°C', '其他云层:', '大部分晴天 (335米)', '原始:', 'ZUUU 100600Z 03008MPS 9999 FEW011 SCT023 18/14 Q1010 NOSIG', '下午2:00', '18.0°C', '1,010毫巴', '每小时28.8公里, 东北', '10.00公里', '部分多云 (701米)', '本地:', '14:00、2019年4月10日周三', '协调世界时:', '06:00、2019年4月10日周三', '来源:', 'USAF 每小时地面观测', '报告类型:', 'METAR 航空例行天气报告', '露点:', '14.0°C', '其他云层:', '大部分晴天 (335米)', '下午3:00', '18°C', '1,010毫巴', '每小时25.2公里, 东北', '10.00公里', '部分多云 (701米)', '本地:', '15:00、2019年4月10日周三', '协调世界时:', '07:00、2019年4月10日周三', '来源:', '周期文件', '趋势:', '无重要变化', '露点:', '14°C', '其他云层:', '大部分晴天 (335米)', '天气:', 'Showers of Light Rain', '原始:', 'ZUUU 100700Z 03007MPS 9999 -SHRA FEW011 SCT023 18/14 Q1010 NOSIG', '下午3:00', '18.0°C', '1,010毫巴', '每小时25.2公里, 东北', '10.00公里', '部分多云 (701米)', '本地:', '15:00、2019年4月10日周三', '协调世界时:', '07:00、2019年4月10日周三', '来源:', 'USAF 每小时地面观测', '报告类型:', 'METAR 航空例行天气报告', '露点:', '14.0°C', '其他云层:', '大部分晴天 (335米)', '天气:', 'Showers of Light Rain', '下午4:00', '17°C', '1,010毫巴', '每小时21.6公里, 北', '10.00公里', '部分多云 (792米)', '本地:', '16:00、2019年4月10日周三', '协调世界时:', '08:00、2019年4月10日周三', '来源:', '周期文件', '趋势:', '无重要变化', '露点:', '14°C', '天气:', 'Showers of Light Rain', '原始:', 'ZUUU 100800Z 02006MPS 9999 -SHRA SCT026 17/14 Q1010 NOSIG', '下午4:00', '17.0°C', '1,010毫巴', '每小时21.6公里, 北', '10.00公里', '部分多云 (792米)', '本地:', '16:00、2019年4月10日周三', '协调世界时:', '08:00、2019年4月10日周三', '来源:', 'USAF 每小时地面观测', '报告类型:', 'METAR 航空例行天气报告', '露点:', '14.0°C', '天气:', 'Showers of Light Rain', '下午5:00', '17°C', '1,010毫巴', '每小时18.0公里, 北', '10.00公里', '大部分多云 (701米)', '本地:', '17:00、2019年4月10日周三', '协调世界时:', '09:00、2019年4月10日周三', '来源:', '周期文件', '趋势:', '无重要变化', '露点:', '14°C', '其他云层:', '大部分晴天 (396米)', '天气:', 'Showers of Light Rain', '原始:', 'ZUUU 100900Z 01005MPS 340V040 9999 -SHRA FEW013 BKN023 17/14 Q1010 NOSIG', '下午5:00', '17.0°C', '1,010毫巴', '每小时18.0公里, 北', '10.00公里', '大部分多云 (701米)', '本地:', '17:00、2019年4月10日周三', '协调世界时:', '09:00、2019年4月10日周三', '来源:', 'USAF 每小时地面观测', '报告类型:', 'METAR 航空例行天气报告', '露点:', '14.0°C', '其他云层:', '大部分晴天 (396米)', '天气:', 'Showers of Light Rain', '下午6:00', '16°C', '1,010毫巴', '每小时10.8公里, 北', '10.00公里', '部分多云 (701米)', '本地:', '18:00、2019年4月10日周三', '协调世界时:', '10:00、2019年4月10日周三', '来源:', '周期文件', '趋势:', '无重要变化', '露点:', '15°C', '其他云层:', '大部分晴天 (396米)、大部分晴天 (701米)', '天气:', 'Showers of Light Rain', '原始:', 'ZUUU 101000Z 01003MPS 9999 -SHRA FEW013 FEW023TCU SCT023 16/15 Q1010 NOSIG', '下午6:00', '16.0°C', '1,010毫巴', '每小时10.8公里, 北', '10.00公里', '部分多云 (701米)', '本地:', '18:00、2019年4月10日周三', '协调世界时:', '10:00、2019年4月10日周三', '来源:', 'USAF 每小时地面观测', '报告类型:', 'METAR 航空例行天气报告', '露点:', '15.0°C', '其他云层:', '大部分晴天 (396米)、大部分晴天 (701米)', '天气:', 'Showers of Light Rain', '下午7:00', '16°C', '1,011毫巴', '每小时21.6公里, 东北', '10.00公里', '部分多云 (914米)', '本地:', '19:00、2019年4月10日周三', '协调世界时:', '11:00、2019年4月10日周三', '来源:', '周期文件', '趋势:', '无重要变化', '露点:', '15°C', '其他云层:', '大部分晴天 (335米)、大部分晴天 (914米)', '原始:', 'ZUUU 101100Z 03006MPS 9999 FEW011 FEW030TCU SCT030 16/15 Q1011 NOSIG', '下午7:00', '16.0°C', '1,011毫巴', '每小时21.6公里, 东北', '10.00公里', '部分多云 (914米)', '本地:', '19:00、2019年4月10日周三', '协调世界时:', '11:00、2019年4月10日周三', '来源:', 'USAF 每小时地面观测', '报告类型:', 'METAR 航空例行天气报告', '露点:', '15.0°C', '其他云层:', '大部分晴天 (335米)、大部分晴天 (914米)', '下午8:00', '17°C', '1,011毫巴', '每小时14.4公里, 东', '10.00公里', '部分多云 (1,006米)', '本地:', '20:00、2019年4月10日周三', '协调世界时:', '12:00、2019年4月10日周三', '来源:', '周期文件', '趋势:', '无重要变化', '露点:', '14°C', '其他云层:', '大部分晴天 (335米)、大部分晴天 (1,006米)', '原始:', 'ZUUU 101200Z 08004MPS 050V110 9999 FEW011 FEW033TCU SCT033 17/14 Q1011 NOSIG', '下午8:00', '17.0°C', '1,011毫巴', '每小时14.4公里, 东', '10.00公里', '部分多云 (1,006米)', '本地:', '20:00、2019年4月10日周三', '协调世界时:', '12:00、2019年4月10日周三', '来源:', 'USAF 每小时地面观测', '报告类型:', 'METAR 航空例行天气报告', '露点:', '14.0°C', '其他云层:', '大部分晴天 (335米)、大部分晴天 (1,006米)', '下午9:00', '16°C', '1,013毫巴', '每小时7.20公里, 北', '10.00公里', '部分多云 (1,219米)', '本地:', '21:00、2019年4月10日周三', '协调世界时:', '13:00、2019年4月10日周三', '来源:', '周期文件', '趋势:', '无重要变化', '露点:', '15°C', '原始:', 'ZUUU 101300Z 36002MPS 320V030 9999 SCT040 16/15 Q1013 NOSIG', '下午9:00', '16.0°C', '1,013毫巴', '每小时7.20公里, 北', '10.00公里', '部分多云 (1,219米)', '本地:', '21:00、2019年4月10日周三', '协调世界时:', '13:00、2019年4月10日周三', '来源:', 'USAF 每小时地面观测', '报告类型:', 'METAR 航空例行天气报告', '露点:', '15.0°C', '下午10:00', '17°C', '1,014毫巴', '每小时7.20公里, 北', '10.00公里', '部分多云 (1,006米)', '本地:', '22:00、2019年4月10日周三', '协调世界时:', '14:00、2019年4月10日周三', '来源:', '周期文件', '趋势:', '无重要变化', '露点:', '15°C', '原始:', 'ZUUU 101400Z 36002MPS 310V020 9999 SCT033 17/15 Q1014 NOSIG', '下午10:00', '17.0°C', '1,014毫巴', '每小时7.20公里, 北', '10.00公里', '部分多云 (1,006米)', '本地:', '22:00、2019年4月10日周三', '协调世界时:', '14:00、2019年4月10日周三', '来源:', 'USAF 每小时地面观测', '报告类型:', 'METAR 航空例行天气报告', '露点:', '15.0°C', '下午11:00', '17°C', '1,014毫巴', '每小时7.20公里, 北', '10.00公里', '部分多云 (1,006米)', '本地:', '23:00、2019年4月10日周三', '协调世界时:', '15:00、2019年4月10日周三', '来源:', '周期文件', '趋势:', '无重要变化', '露点:', '14°C', '原始:', 'ZUUU 101500Z 36002MPS 320V030 9999 SCT033 17/14 Q1014 NOSIG', '下午11:00', '17.0°C', '1,014毫巴', '每小时7.20公里, 北', '10.00公里', '部分多云 (1,006米)', '本地:', '23:00、2019年4月10日周三', '协调世界时:', '15:00、2019年4月10日周三', '来源:', 'USAF 每小时地面观测', '报告类型:', 'METAR 航空例行天气报告', '露点:', '14.0°C']