['Light Rain', '-RA、IWC61', 'Light Rain', '-RA、IWC61', '上午12:00', '9°C', '1,016毫巴', '每小时7.20公里, 北', '10.00公里', '部分多云 (610米)', '本地:', '00:00、2019年3月2日周六', '协调世界时:', '16:00、2019年3月1日周五', '来源:', '周期文件', '趋势:', '无重要变化', '露点:', '7°C', '其他云层:', '大部分晴天 (366米)', '原始:', 'ZUUU 011600Z 01002MPS 340V060 9999 FEW012 SCT020 09/07 Q1016 NOSIG', '上午12:00', '9.0°C', '1,016毫巴', '每小时7.20公里, 北', '10.00公里', '部分多云 (610米)', '本地:', '00:00、2019年3月2日周六', '协调世界时:', '16:00、2019年3月1日周五', '来源:', 'USAF 每小时地面观测', '报告类型:', 'METAR 航空例行天气报告', '露点:', '7.0°C', '其他云层:', '大部分晴天 (366米)', '上午1:00', '9°C', '1,016毫巴', '每小时3.60公里', '10.00公里', '部分多云 (610米)', '本地:', '01:00、2019年3月2日周六', '协调世界时:', '17:00、2019年3月1日周五', '来源:', '周期文件', '趋势:', '无重要变化', '露点:', '7°C', '其他云层:', '大部分晴天 (366米)', '原始:', 'ZUUU 011700Z VRB01MPS 9999 FEW012 SCT020 09/07 Q1016 NOSIG', '上午1:00', '9.0°C', '1,016毫巴', '每小时3.60公里', '10.00公里', '部分多云 (610米)', '本地:', '01:00、2019年3月2日周六', '协调世界时:', '17:00、2019年3月1日周五', '来源:', 'USAF 每小时地面观测', '报告类型:', 'METAR 航空例行天气报告', '露点:', '7.0°C', '其他云层:', '大部分晴天 (366米)', '上午2:00', '8°C', '1,016毫巴', '每小时3.60公里', '10.00公里', '部分多云 (610米)', '本地:', '02:00、2019年3月2日周六', '协调世界时:', '18:00、2019年3月1日周五', '来源:', '周期文件', '趋势:', '无重要变化', '露点:', '7°C', '其他云层:', '大部分晴天 (366米)', '原始:', 'ZUUU 011800Z VRB01MPS 9999 FEW012 SCT020 08/07 Q1016 NOSIG', '上午2:00', '8.0°C', '1,016毫巴', '每小时3.60公里', '10.00公里', '部分多云 (610米)', '本地:', '02:00、2019年3月2日周六', '协调世界时:', '18:00、2019年3月1日周五', '来源:', 'USAF 每小时地面观测', '报告类型:', 'METAR 航空例行天气报告', '露点:', '7.0°C', '其他云层:', '大部分晴天 (366米)', '上午3:00', '8°C', '1,016毫巴', '每小时10.8公里, 东北', '10.00公里', '大部分多云 (1,219米)', '本地:', '03:00、2019年3月2日周六', '协调世界时:', '19:00、2019年3月1日周五', '来源:', '周期文件', '趋势:', '无重要变化', '露点:', '7°C', '其他云层:', '部分多云 (610米)', '天气:', 'Light Rain', '原始:', 'ZUUU 011900Z 03003MPS 9999 -RA SCT020 BKN040 08/07 Q1016 NOSIG', '上午3:00', '8.0°C', '1,016毫巴', '每小时10.8公里, 东北', '10.00公里', '大部分多云 (1,219米)', '本地:', '03:00、2019年3月2日周六', '协调世界时:', '19:00、2019年3月1日周五', '来源:', 'USAF 每小时地面观测', '报告类型:', 'METAR 航空例行天气报告', '露点:', '7.0°C', '其他云层:', '部分多云 (610米)', '天气:', 'Light Rain', '上午4:00', '8°C', '1,015毫巴', '每小时0公里', '10.00公里', '大部分多云 (1,219米)', '本地:', '04:00、2019年3月2日周六', '协调世界时:', '20:00、2019年3月1日周五', '来源:', '周期文件', '趋势:', '无重要变化', '露点:', '7°C', '其他云层:', '大部分晴天 (610米)', '天气:', 'Light Rain', '原始:', 'ZUUU 012000Z 00000MPS 9999 -RA FEW020 BKN040 08/07 Q1015 NOSIG', '上午4:00', '8.0°C', '1,015毫巴', '每小时0公里', '10.00公里', '大部分多云 (1,219米)', '本地:', '04:00、2019年3月2日周六', '协调世界时:', '20:00、2019年3月1日周五', '来源:', 'USAF 每小时地面观测', '报告类型:', 'METAR 航空例行天气报告', '露点:', '7.0°C', '其他云层:', '大部分晴天 (610米)', '天气:', 'Light Rain', '上午5:00', '8°C', '1,015毫巴', '每小时0公里', '10.00公里', '大部分多云 (1,524米)', '本地:', '05:00、2019年3月2日周六', '协调世界时:', '21:00、2019年3月1日周五', '来源:', '周期文件', '趋势:', '无重要变化', '露点:', '7°C', '其他云层:', '大部分晴天 (792米)', '原始:', 'ZUUU 012100Z 00000MPS 9999 FEW026 BKN050 08/07 Q1015 NOSIG', '上午5:00', '8.0°C', '1,015毫巴', '每小时0公里', '10.00公里', '大部分多云 (1,524米)', '本地:', '05:00、2019年3月2日周六', '协调世界时:', '21:00、2019年3月1日周五', '来源:', 'USAF 每小时地面观测', '报告类型:', 'METAR 航空例行天气报告', '露点:', '7.0°C', '其他云层:', '大部分晴天 (792米)', '上午6:00', '8°C', '1,016毫巴', '每小时0公里', '10.00公里', '部分多云 (1,524米)', '本地:', '06:00、2019年3月2日周六', '协调世界时:', '22:00、2019年3月1日周五', '来源:', '周期文件', '趋势:', '无重要变化', '露点:', '7°C', '原始:', 'ZUUU 012200Z 00000MPS 9999 SCT050 08/07 Q1016 NOSIG', '上午6:00', '8.0°C', '1,016毫巴', '每小时0公里', '10.00公里', '部分多云 (1,524米)', '本地:', '06:00、2019年3月2日周六', '协调世界时:', '22:00、2019年3月1日周五', '来源:', 'USAF 每小时地面观测', '报告类型:', 'METAR 航空例行天气报告', '露点:', '7.0°C', '上午7:00', '8°C', '1,016毫巴', '每小时0公里', '10.00公里', '部分多云 (1,524米)', '本地:', '07:00、2019年3月2日周六', '协调世界时:', '23:00、2019年3月1日周五', '来源:', '周期文件', '趋势:', '无重要变化', '露点:', '7°C', '原始:', 'ZUUU 012300Z 00000MPS 9999 SCT050 08/07 Q1016 NOSIG', '上午7:00', '8.0°C', '1,016毫巴', '每小时0公里', '10.00公里', '部分多云 (1,524米)', '本地:', '07:00、2019年3月2日周六', '协调世界时:', '23:00、2019年3月1日周五', '来源:', 'USAF 每小时地面观测', '报告类型:', 'METAR 航空例行天气报告', '露点:', '7.0°C', '上午8:00', '8°C', '1,017毫巴', '每小时3.60公里, 西南', '≥ 10.00公里', '晴空万里', '本地:', '08:00、2019年3月2日周六', '协调世界时:', '00:00、2019年3月2日周六', '来源:', '周期文件', '趋势:', '无重要变化', '露点:', '7°C', '晴空万里:', '真', '原始:', 'ZUUU 020000Z 24001MPS CAVOK 08/07 Q1017 NOSIG', '上午8:00', '8.0°C', '1,017毫巴', '每小时3.60公里, 西南', '-', '晴空万里', '本地:', '08:00、2019年3月2日周六', '协调世界时:', '00:00、2019年3月2日周六', '来源:', 'USAF 每小时地面观测', '报告类型:', 'METAR 航空例行天气报告', '露点:', '7.0°C', '晴空万里:', '真', '上午9:00', '9°C', '1,017毫巴', '每小时3.60公里', '≥ 10.00公里', '晴空万里', '本地:', '09:00、2019年3月2日周六', '协调世界时:', '01:00、2019年3月2日周六', '来源:', '周期文件', '趋势:', '无重要变化', '露点:', '8°C', '晴空万里:', '真', '原始:', 'ZUUU 020100Z VRB01MPS CAVOK 09/08 Q1017 NOSIG', '上午9:00', '9.0°C', '1,017毫巴', '每小时3.60公里', '-', '晴空万里', '本地:', '09:00、2019年3月2日周六', '协调世界时:', '01:00、2019年3月2日周六', '来源:', 'USAF 每小时地面观测', '报告类型:', 'METAR 航空例行天气报告', '露点:', '8.0°C', '晴空万里:', '真', '上午10:00', '12°C', '1,017毫巴', '每小时3.60公里', '≥ 10.00公里', '晴空万里', '本地:', '10:00、2019年3月2日周六', '协调世界时:', '02:00、2019年3月2日周六', '来源:', '周期文件', '趋势:', '无重要变化', '露点:', '6°C', '晴空万里:', '真', '原始:', 'ZUUU 020200Z VRB01MPS CAVOK 12/06 Q1017 NOSIG', '上午10:00', '12.0°C', '1,017毫巴', '每小时3.60公里', '-', '晴空万里', '本地:', '10:00、2019年3月2日周六', '协调世界时:', '02:00、2019年3月2日周六', '来源:', 'USAF 每小时地面观测', '报告类型:', 'METAR 航空例行天气报告', '露点:', '6.0°C', '晴空万里:', '真', '上午11:00', '13°C', '1,017毫巴', '每小时7.20公里, 东北', '10.00公里', '大部分晴天 (792米)', '本地:', '11:00、2019年3月2日周六', '协调世界时:', '03:00、2019年3月2日周六', '来源:', '周期文件', '趋势:', '无重要变化', '露点:', '5°C', '原始:', 'ZUUU 020300Z 05002MPS 350V150 9999 FEW026 13/05 Q1017 NOSIG', '上午11:00', '13.0°C', '1,017毫巴', '每小时7.20公里, 东北', '10.00公里', '大部分晴天 (792米)', '本地:', '11:00、2019年3月2日周六', '协调世界时:', '03:00、2019年3月2日周六', '来源:', 'USAF 每小时地面观测', '报告类型:', 'METAR 航空例行天气报告', '露点:', '5.0°C', '下午12:00', '14°C', '1,016毫巴', '每小时3.60公里', '10.00公里', '大部分晴天 (792米)', '本地:', '12:00、2019年3月2日周六', '协调世界时:', '04:00、2019年3月2日周六', '来源:', '周期文件', '趋势:', '无重要变化', '露点:', '5°C', '原始:', 'ZUUU 020400Z VRB01MPS 9999 FEW026 14/05 Q1016 NOSIG', '下午12:00', '14.0°C', '1,016毫巴', '每小时3.60公里', '10.00公里', '大部分晴天 (792米)', '本地:', '12:00、2019年3月2日周六', '协调世界时:', '04:00、2019年3月2日周六', '来源:', 'USAF 每小时地面观测', '报告类型:', 'METAR 航空例行天气报告', '露点:', '5.0°C', '下午1:00', '15°C', '1,015毫巴', '每小时7.20公里', '10.00公里', '大部分晴天 (792米)', '本地:', '13:00、2019年3月2日周六', '协调世界时:', '05:00、2019年3月2日周六', '来源:', '周期文件', '趋势:', '无重要变化', '露点:', '5°C', '原始:', 'ZUUU 020500Z VRB02MPS 9999 FEW026 15/05 Q1015 NOSIG', '下午1:00', '15.0°C', '1,015毫巴', '每小时7.20公里', '10.00公里', '大部分晴天 (792米)', '本地:', '13:00、2019年3月2日周六', '协调世界时:', '05:00、2019年3月2日周六', '来源:', 'USAF 每小时地面观测', '报告类型:', 'METAR 航空例行天气报告', '露点:', '5.0°C', '下午2:00', '15°C', '1,014毫巴', '每小时7.20公里', '10.00公里', '部分多云 (792米)', '本地:', '14:00、2019年3月2日周六', '协调世界时:', '06:00、2019年3月2日周六', '来源:', '周期文件', '趋势:', '无重要变化', '露点:', '5°C', '原始:', 'ZUUU 020600Z VRB02MPS 9999 SCT026 15/05 Q1014 NOSIG', '下午2:00', '15.0°C', '1,014毫巴', '每小时7.20公里', '10.00公里', '部分多云 (792米)', '本地:', '14:00、2019年3月2日周六', '协调世界时:', '06:00、2019年3月2日周六', '来源:', 'USAF 每小时地面观测', '报告类型:', 'METAR 航空例行天气报告', '露点:', '5.0°C', '下午3:00', '17°C', '1,013毫巴', '每小时7.20公里, 西南', '10.00公里', '部分多云 (914米)', '本地:', '15:00、2019年3月2日周六', '协调世界时:', '07:00、2019年3月2日周六', '来源:', '周期文件', '趋势:', '无重要变化', '露点:', '5°C', '原始:', 'ZUUU 020700Z 24002MPS 190V320 9999 SCT030 17/05 Q1013 NOSIG', '下午3:00', '17.0°C', '1,013毫巴', '每小时7.20公里, 西南', '10.00公里', '部分多云 (914米)', '本地:', '15:00、2019年3月2日周六', '协调世界时:', '07:00、2019年3月2日周六', '来源:', 'USAF 每小时地面观测', '报告类型:', 'METAR 航空例行天气报告', '露点:', '5.0°C', '下午4:00', '16°C', '1,013毫巴', '每小时3.60公里', '10.00公里', '部分多云 (914米)', '本地:', '16:00、2019年3月2日周六', '协调世界时:', '08:00、2019年3月2日周六', '来源:', '周期文件', '趋势:', '无重要变化', '露点:', '5°C', '原始:', 'ZUUU 020800Z VRB01MPS 9999 SCT030 16/05 Q1013 NOSIG', '下午4:00', '16.0°C', '1,013毫巴', '每小时3.60公里', '10.00公里', '部分多云 (914米)', '本地:', '16:00、2019年3月2日周六', '协调世界时:', '08:00、2019年3月2日周六', '来源:', 'USAF 每小时地面观测', '报告类型:', 'METAR 航空例行天气报告', '露点:', '5.0°C', '下午5:00', '16°C', '1,013毫巴', '每小时7.20公里, 东', '10.00公里', '部分多云 (914米)', '本地:', '17:00、2019年3月2日周六', '协调世界时:', '09:00、2019年3月2日周六', '来源:', '周期文件', '趋势:', '无重要变化', '露点:', '4°C', '原始:', 'ZUUU 020900Z 08002MPS 020V160 9999 SCT030 16/04 Q1013 NOSIG', '下午5:00', '16.0°C', '1,013毫巴', '每小时7.20公里, 东', '10.00公里', '部分多云 (914米)', '本地:', '17:00、2019年3月2日周六', '协调世界时:', '09:00、2019年3月2日周六', '来源:', 'USAF 每小时地面观测', '报告类型:', 'METAR 航空例行天气报告', '露点:', '4.0°C', '下午6:00', '16°C', '1,013毫巴', '每小时3.60公里', '10.00公里', '大部分晴天 (914米)', '本地:', '18:00、2019年3月2日周六', '协调世界时:', '10:00、2019年3月2日周六', '来源:', '周期文件', '趋势:', '无重要变化', '露点:', '5°C', '原始:', 'ZUUU 021000Z VRB01MPS 9999 FEW030 16/05 Q1013 NOSIG', '下午6:00', '16.0°C', '1,013毫巴', '每小时3.60公里', '10.00公里', '大部分晴天 (914米)', '本地:', '18:00、2019年3月2日周六', '协调世界时:', '10:00、2019年3月2日周六', '来源:', 'USAF 每小时地面观测', '报告类型:', 'METAR 航空例行天气报告', '露点:', '5.0°C', '下午7:00', '15°C', '1,014毫巴', '每小时7.20公里, 东南', '10.00公里', '部分多云 (1,524米)', '本地:', '19:00、2019年3月2日周六', '协调世界时:', '11:00、2019年3月2日周六', '来源:', '周期文件', '趋势:', '无重要变化', '露点:', '5°C', '原始:', 'ZUUU 021100Z 13002MPS 070V190 9999 SCT050 15/05 Q1014 NOSIG', '下午7:00', '15.0°C', '1,014毫巴', '每小时7.20公里, 东南', '10.00公里', '部分多云 (1,524米)', '本地:', '19:00、2019年3月2日周六', '协调世界时:', '11:00、2019年3月2日周六', '来源:', 'USAF 每小时地面观测', '报告类型:', 'METAR 航空例行天气报告', '露点:', '5.0°C', '下午8:00', '14°C', '1,016毫巴', '每小时7.20公里, 东南', '10.00公里', '部分多云 (1,524米)', '本地:', '20:00、2019年3月2日周六', '协调世界时:', '12:00、2019年3月2日周六', '来源:', '周期文件', '趋势:', '无重要变化', '露点:', '5°C', '原始:', 'ZUUU 021200Z 13002MPS 040V160 9999 SCT050 14/05 Q1016 NOSIG', '下午8:00', '14.0°C', '1,016毫巴', '每小时7.20公里, 东南', '10.00公里', '部分多云 (1,524米)', '本地:', '20:00、2019年3月2日周六', '协调世界时:', '12:00、2019年3月2日周六', '来源:', 'USAF 每小时地面观测', '报告类型:', 'METAR 航空例行天气报告', '露点:', '5.0°C', '下午9:00', '13°C', '1,016毫巴', '每小时3.60公里', '10.00公里', '大部分晴天 (1,524米)', '本地:', '21:00、2019年3月2日周六', '协调世界时:', '13:00、2019年3月2日周六', '来源:', '周期文件', '趋势:', '无重要变化', '露点:', '6°C', '原始:', 'ZUUU 021300Z VRB01MPS 9999 FEW050 13/06 Q1016 NOSIG', '下午9:00', '13.0°C', '1,016毫巴', '每小时3.60公里', '10.00公里', '大部分晴天 (1,524米)', '本地:', '21:00、2019年3月2日周六', '协调世界时:', '13:00、2019年3月2日周六', '来源:', 'USAF 每小时地面观测', '报告类型:', 'METAR 航空例行天气报告', '露点:', '6.0°C', '下午10:00', '11°C', '1,017毫巴', '每小时3.60公里', '≥ 10.00公里', '晴空万里', '本地:', '22:00、2019年3月2日周六', '协调世界时:', '14:00、2019年3月2日周六', '来源:', '周期文件', '趋势:', '无重要变化', '露点:', '6°C', '晴空万里:', '真', '原始:', 'ZUUU 021400Z VRB01MPS CAVOK 11/06 Q1017 NOSIG', '下午10:00', '11.0°C', '1,017毫巴', '每小时3.60公里', '-', '晴空万里', '本地:', '22:00、2019年3月2日周六', '协调世界时:', '14:00、2019年3月2日周六', '来源:', 'USAF 每小时地面观测', '报告类型:', 'METAR 航空例行天气报告', '露点:', '6.0°C', '晴空万里:', '真', '下午11:00', '10°C', '1,017毫巴', '每小时3.60公里', '≥ 10.00公里', '晴空万里', '本地:', '23:00、2019年3月2日周六', '协调世界时:', '15:00、2019年3月2日周六', '来源:', '周期文件', '趋势:', '无重要变化', '露点:', '6°C', '晴空万里:', '真', '原始:', 'ZUUU 021500Z VRB01MPS CAVOK 10/06 Q1017 NOSIG', '下午11:00', '10.0°C', '1,017毫巴', '每小时3.60公里', '-', '晴空万里', '本地:', '23:00、2019年3月2日周六', '协调世界时:', '15:00、2019年3月2日周六', '来源:', 'USAF 每小时地面观测', '报告类型:', 'METAR 航空例行天气报告', '露点:', '6.0°C', '晴空万里:', '真']