['Showers of Light Rain', '-SHRA、IWC80', 'Showers of Light Rain', '-SHRA、IWC80', 'Showers of Light Rain', '-SHRA、IWC80', 'Showers of Light Rain', '-SHRA、IWC80', 'Showers of Light Rain', '-SHRA、IWC80', 'Showers of Light Rain、Mist', '-SHRA、BR', 'Showers of Light Rain', '-SHRA、IWC80', 'Showers of Light Rain', '-SHRA、IWC80', 'Showers of Light Rain、Mist', '-SHRA、IWC80、BR、IWC10', 'Showers of Light Rain', '-SHRA、IWC80', '上午12:00', '17°C', '1,016毫巴', '每小时7.20公里, 东', '8.00公里', '部分多云 (244米)', '本地:', '00:00、2019年9月14日周六', '协调世界时:', '16:00、2019年9月13日周五', '来源:', '周期文件', '趋势:', '无重要变化', '露点:', '16°C', '其他云层:', '大部分晴天 (152米)、大部分晴天 (792米)', '天气:', 'Showers of Light Rain', '原始:', 'ZUUU 131600Z 08002MPS 050V120 8000 -SHRA FEW005 SCT008 FEW026CB 17/16 Q1016 NOSIG', '上午12:00', '17.0°C', '1,016毫巴', '每小时7.20公里, 东', '8.00公里', '部分多云 (244米)', '本地:', '00:00、2019年9月14日周六', '协调世界时:', '16:00、2019年9月13日周五', '来源:', 'USAF 每小时地面观测', '报告类型:', 'METAR 航空例行天气报告', '露点:', '16.0°C', '其他云层:', '大部分晴天 (152米)、大部分晴天 (792米)', '天气:', 'Showers of Light Rain', '上午1:00', '17°C', '1,016毫巴', '每小时10.8公里, 东', '10.00公里', '部分多云 (305米)', '本地:', '01:00、2019年9月14日周六', '协调世界时:', '17:00、2019年9月13日周五', '来源:', '周期文件', '趋势:', '无重要变化', '露点:', '15°C', '其他云层:', '大部分晴天 (792米)、部分多云 (792米)', '天气:', 'Showers of Light Rain', '原始:', 'ZUUU 131700Z 07003MPS 040V120 9999 -SHRA SCT010 FEW026CB SCT026 17/15 Q1016 NOSIG', '上午1:00', '17.0°C', '1,016毫巴', '每小时10.8公里, 东', '10.00公里', '部分多云 (305米)', '本地:', '01:00、2019年9月14日周六', '协调世界时:', '17:00、2019年9月13日周五', '来源:', 'USAF 每小时地面观测', '报告类型:', 'METAR 航空例行天气报告', '露点:', '15.0°C', '其他云层:', '大部分晴天 (792米)、部分多云 (792米)', '天气:', 'Showers of Light Rain', '上午2:00', '17°C', '1,016毫巴', '每小时7.20公里, 东', '10.00公里', '部分多云 (305米)', '本地:', '02:00、2019年9月14日周六', '协调世界时:', '18:00、2019年9月13日周五', '来源:', '周期文件', '趋势:', '无重要变化', '露点:', '15°C', '其他云层:', '部分多云 (792米)', '天气:', 'Showers of Light Rain', '原始:', 'ZUUU 131800Z 07002MPS 040V100 9999 -SHRA SCT010 SCT026 17/15 Q1016 NOSIG', '上午2:00', '17.0°C', '1,016毫巴', '每小时7.20公里, 东', '10.00公里', '部分多云 (305米)', '本地:', '02:00、2019年9月14日周六', '协调世界时:', '18:00、2019年9月13日周五', '来源:', 'USAF 每小时地面观测', '报告类型:', 'METAR 航空例行天气报告', '露点:', '15.0°C', '其他云层:', '部分多云 (792米)', '天气:', 'Showers of Light Rain', '上午3:00', '17°C', '1,015毫巴', '每小时7.20公里, 东北', '10.00公里', '部分多云 (274米)', '本地:', '03:00、2019年9月14日周六', '协调世界时:', '19:00、2019年9月13日周五', '来源:', '周期文件', '趋势:', '无重要变化', '露点:', '15°C', '其他云层:', '部分多云 (792米)', '天气:', 'Showers of Light Rain', '原始:', 'ZUUU 131900Z 05002MPS 360V100 9999 -SHRA SCT009 SCT026 17/15 Q1015 NOSIG', '上午3:00', '17.0°C', '1,015毫巴', '每小时7.20公里, 东北', '10.00公里', '部分多云 (274米)', '本地:', '03:00、2019年9月14日周六', '协调世界时:', '19:00、2019年9月13日周五', '来源:', 'USAF 每小时地面观测', '报告类型:', 'METAR 航空例行天气报告', '露点:', '15.0°C', '其他云层:', '部分多云 (792米)', '天气:', 'Showers of Light Rain', '上午4:00', '17°C', '1,015毫巴', '每小时7.20公里, 东', '6.00公里', '部分多云 (274米)', '本地:', '04:00、2019年9月14日周六', '协调世界时:', '20:00、2019年9月13日周五', '来源:', '周期文件', '趋势:', '无重要变化', '露点:', '15°C', '其他云层:', '大部分晴天 (792米)、部分多云 (792米)', '天气:', 'Showers of Light Rain', '原始:', 'ZUUU 132000Z 07002MPS 040V100 6000 -SHRA SCT009 FEW026TCU SCT026 17/15 Q1015 NOSIG', '上午4:00', '17.0°C', '1,015毫巴', '每小时7.20公里, 东', '6.00公里', '部分多云 (274米)', '本地:', '04:00、2019年9月14日周六', '协调世界时:', '20:00、2019年9月13日周五', '来源:', 'USAF 每小时地面观测', '报告类型:', 'METAR 航空例行天气报告', '露点:', '15.0°C', '其他云层:', '大部分晴天 (792米)、部分多云 (792米)', '天气:', 'Showers of Light Rain', '上午5:00', '17°C', '1,015毫巴', '每小时3.60公里', '6.00公里', '部分多云 (274米)', '本地:', '05:00、2019年9月14日周六', '协调世界时:', '21:00、2019年9月13日周五', '来源:', '周期文件', '趋势:', '变化为', '露点:', '16°C', '其他云层:', '大部分晴天 (152米)', '天气:', 'Showers of Light Rain、Mist', '原始:', 'ZUUU 132100Z VRB01MPS 6000 -SHRA FEW005 SCT009 17/16 Q1015 BECMG TL2240 2500 BR', '上午6:00', '17°C', '1,016毫巴', '每小时0公里', '10.00公里', '部分多云 (244米)', '本地:', '06:00、2019年9月14日周六', '协调世界时:', '22:00、2019年9月13日周五', '来源:', '周期文件', '趋势:', '无重要变化', '露点:', '16°C', '其他云层:', '大部分晴天 (122米)', '天气:', 'Showers of Light Rain', '原始:', 'ZUUU 132200Z 00000MPS 9999 -SHRA FEW004 SCT008 17/16 Q1016 NOSIG', '上午6:00', '17.0°C', '1,016毫巴', '每小时0公里', '10.00公里', '部分多云 (244米)', '本地:', '06:00、2019年9月14日周六', '协调世界时:', '22:00、2019年9月13日周五', '来源:', 'USAF 每小时地面观测', '报告类型:', 'METAR 航空例行天气报告', '露点:', '16.0°C', '其他云层:', '大部分晴天 (122米)', '天气:', 'Showers of Light Rain', '上午7:00', '17°C', '1,016毫巴', '每小时0公里', '6.00公里', '部分多云 (183米)', '本地:', '07:00、2019年9月14日周六', '协调世界时:', '23:00、2019年9月13日周五', '来源:', '周期文件', '趋势:', '无重要变化', '露点:', '16°C', '其他云层:', '大部分晴天 (91米)', '天气:', 'Showers of Light Rain', '原始:', 'ZUUU 132300Z 00000MPS 6000 -SHRA FEW003 SCT006 17/16 Q1016 NOSIG', '上午7:00', '17.0°C', '1,016毫巴', '每小时0公里', '6.00公里', '部分多云 (183米)', '本地:', '07:00、2019年9月14日周六', '协调世界时:', '23:00、2019年9月13日周五', '来源:', 'USAF 每小时地面观测', '报告类型:', 'METAR 航空例行天气报告', '露点:', '16.0°C', '其他云层:', '大部分晴天 (91米)', '天气:', 'Showers of Light Rain', '上午8:00', '17°C', '1,017毫巴', '每小时3.60公里', '4.00公里', '大部分多云 (792米)', '本地:', '08:00、2019年9月14日周六', '协调世界时:', '00:00、2019年9月14日周六', '来源:', '周期文件', '趋势:', '无重要变化', '露点:', '16°C', '其他云层:', '大部分晴天 (91米)、部分多云 (183米)、大部分晴天 (792米)', '天气:', 'Showers of Light Rain、Mist', '原始:', 'ZUUU 140000Z VRB01MPS 4000 -SHRA BR FEW003 SCT006 FEW026TCU BKN026 17/16 Q1017 NOSIG', '上午8:00', '17.0°C', '1,017毫巴', '每小时3.60公里', '4.00公里', '大部分多云 (792米)', '本地:', '08:00、2019年9月14日周六', '协调世界时:', '00:00、2019年9月14日周六', '来源:', 'USAF 每小时地面观测', '报告类型:', 'METAR 航空例行天气报告', '露点:', '16.0°C', '其他云层:', '大部分晴天 (91米)、部分多云 (183米)、大部分晴天 (792米)', '天气:', 'Mist、Showers of Light Rain', '上午9:00', '18°C', '1,017毫巴', '每小时0公里', '8.00公里', '大部分多云 (792米)', '本地:', '09:00、2019年9月14日周六', '协调世界时:', '01:00、2019年9月14日周六', '来源:', '周期文件', '趋势:', '无重要变化', '露点:', '16°C', '其他云层:', '部分多云 (91米)、大部分晴天 (792米)', '天气:', 'Showers of Light Rain', '原始:', 'ZUUU 140100Z 00000MPS 8000 -SHRA SCT003 FEW026TCU BKN026 18/16 Q1017 NOSIG', '上午9:00', '18.0°C', '1,017毫巴', '每小时0公里', '8.00公里', '大部分多云 (792米)', '本地:', '09:00、2019年9月14日周六', '协调世界时:', '01:00、2019年9月14日周六', '来源:', 'USAF 每小时地面观测', '报告类型:', 'METAR 航空例行天气报告', '露点:', '16.0°C', '其他云层:', '部分多云 (91米)、大部分晴天 (792米)', '天气:', 'Showers of Light Rain', '上午10:00', '18°C', '1,017毫巴', '每小时7.20公里, 西南', '10.00公里', '大部分多云 (792米)', '本地:', '10:00、2019年9月14日周六', '协调世界时:', '02:00、2019年9月14日周六', '来源:', '周期文件', '趋势:', '无重要变化', '露点:', '17°C', '其他云层:', '部分多云 (183米)', '原始:', 'ZUUU 140200Z 21002MPS 190V250 9999 SCT006 BKN026 18/17 Q1017 NOSIG', '上午10:00', '18.0°C', '1,017毫巴', '每小时7.20公里, 西南', '10.00公里', '大部分多云 (792米)', '本地:', '10:00、2019年9月14日周六', '协调世界时:', '02:00、2019年9月14日周六', '来源:', 'USAF 每小时地面观测', '报告类型:', 'METAR 航空例行天气报告', '露点:', '17.0°C', '其他云层:', '部分多云 (183米)', '上午11:00', '19°C', '1,017毫巴', '每小时7.20公里, 西南', '10.00公里', '大部分多云 (792米)', '本地:', '11:00、2019年9月14日周六', '协调世界时:', '03:00、2019年9月14日周六', '来源:', '周期文件', '趋势:', '无重要变化', '露点:', '17°C', '其他云层:', '部分多云 (183米)', '原始:', 'ZUUU 140300Z 23002MPS 190V270 9999 SCT006 BKN026 19/17 Q1017 NOSIG', '上午11:00', '19.0°C', '1,017毫巴', '每小时7.20公里, 西南', '10.00公里', '大部分多云 (792米)', '本地:', '11:00、2019年9月14日周六', '协调世界时:', '03:00、2019年9月14日周六', '来源:', 'USAF 每小时地面观测', '报告类型:', 'METAR 航空例行天气报告', '露点:', '17.0°C', '其他云层:', '部分多云 (183米)', '下午12:00', '20°C', '1,016毫巴', '每小时3.60公里', '10.00公里', '大部分多云 (762米)', '本地:', '12:00、2019年9月14日周六', '协调世界时:', '04:00、2019年9月14日周六', '来源:', '周期文件', '趋势:', '无重要变化', '露点:', '17°C', '其他云层:', '部分多云 (213米)', '原始:', 'ZUUU 140400Z VRB01MPS 9999 SCT007 BKN025 20/17 Q1016 NOSIG', '下午12:00', '20.0°C', '1,016毫巴', '每小时3.60公里', '10.00公里', '大部分多云 (762米)', '本地:', '12:00、2019年9月14日周六', '协调世界时:', '04:00、2019年9月14日周六', '来源:', 'USAF 每小时地面观测', '报告类型:', 'METAR 航空例行天气报告', '露点:', '17.0°C', '其他云层:', '部分多云 (213米)', '下午1:00', '20°C', '1,016毫巴', '每小时0公里', '10.00公里', '大部分多云 (762米)', '本地:', '13:00、2019年9月14日周六', '协调世界时:', '05:00、2019年9月14日周六', '来源:', '周期文件', '趋势:', '无重要变化', '露点:', '17°C', '其他云层:', '部分多云 (213米)', '原始:', 'ZUUU 140500Z 00000MPS 9999 SCT007 BKN025 20/17 Q1016 NOSIG', '下午1:00', '20.0°C', '1,016毫巴', '每小时0公里', '10.00公里', '大部分多云 (762米)', '本地:', '13:00、2019年9月14日周六', '协调世界时:', '05:00、2019年9月14日周六', '来源:', 'USAF 每小时地面观测', '报告类型:', 'METAR 航空例行天气报告', '露点:', '17.0°C', '其他云层:', '部分多云 (213米)', '下午2:00', '22°C', '1,015毫巴', '每小时3.60公里', '10.00公里', '大部分多云 (762米)', '本地:', '14:00、2019年9月14日周六', '协调世界时:', '06:00、2019年9月14日周六', '来源:', '周期文件', '趋势:', '无重要变化', '露点:', '17°C', '其他云层:', '大部分晴天 (305米)', '原始:', 'ZUUU 140600Z VRB01MPS 9999 FEW010 BKN025 22/17 Q1015 NOSIG', '下午2:00', '22.0°C', '1,015毫巴', '每小时3.60公里', '10.00公里', '大部分多云 (762米)', '本地:', '14:00、2019年9月14日周六', '协调世界时:', '06:00、2019年9月14日周六', '来源:', 'USAF 每小时地面观测', '报告类型:', 'METAR 航空例行天气报告', '露点:', '17.0°C', '其他云层:', '大部分晴天 (305米)', '下午3:00', '22°C', '1,014毫巴', '每小时3.60公里', '10.00公里', '大部分多云 (762米)', '本地:', '15:00、2019年9月14日周六', '协调世界时:', '07:00、2019年9月14日周六', '来源:', '周期文件', '趋势:', '无重要变化', '露点:', '16°C', '其他云层:', '大部分晴天 (305米)', '原始:', 'ZUUU 140700Z VRB01MPS 9999 FEW010 BKN025 22/16 Q1014 NOSIG', '下午3:00', '22.0°C', '1,014毫巴', '每小时3.60公里', '10.00公里', '大部分多云 (762米)', '本地:', '15:00、2019年9月14日周六', '协调世界时:', '07:00、2019年9月14日周六', '来源:', 'USAF 每小时地面观测', '报告类型:', 'METAR 航空例行天气报告', '露点:', '16.0°C', '其他云层:', '大部分晴天 (305米)', '下午4:00', '22°C', '1,014毫巴', '每小时7.20公里, 北', '10.00公里', '部分多云 (762米)', '本地:', '16:00、2019年9月14日周六', '协调世界时:', '08:00、2019年9月14日周六', '来源:', '周期文件', '趋势:', '无重要变化', '露点:', '16°C', '原始:', 'ZUUU 140800Z 35002MPS 290V060 9999 SCT025 22/16 Q1014 NOSIG', '下午4:00', '22.0°C', '1,014毫巴', '每小时7.20公里, 北', '10.00公里', '部分多云 (762米)', '本地:', '16:00、2019年9月14日周六', '协调世界时:', '08:00、2019年9月14日周六', '来源:', 'USAF 每小时地面观测', '报告类型:', 'METAR 航空例行天气报告', '露点:', '16.0°C', '下午5:00', '22°C', '1,014毫巴', '每小时14.4公里, 东北', '10.00公里', '大部分多云 (762米)', '本地:', '17:00、2019年9月14日周六', '协调世界时:', '09:00、2019年9月14日周六', '来源:', '周期文件', '趋势:', '无重要变化', '露点:', '15°C', '原始:', 'ZUUU 140900Z 04004MPS 360V070 9999 BKN025 22/15 Q1014 NOSIG', '下午5:00', '22.0°C', '1,014毫巴', '每小时14.4公里, 东北', '10.00公里', '大部分多云 (762米)', '本地:', '17:00、2019年9月14日周六', '协调世界时:', '09:00、2019年9月14日周六', '来源:', 'USAF 每小时地面观测', '报告类型:', 'METAR 航空例行天气报告', '露点:', '15.0°C', '下午6:00', '22°C', '1,014毫巴', '每小时18.0公里, 东北', '10.00公里', '部分多云 (1,006米)', '本地:', '18:00、2019年9月14日周六', '协调世界时:', '10:00、2019年9月14日周六', '来源:', '周期文件', '趋势:', '无重要变化', '露点:', '15°C', '其他云层:', '大部分晴天 (610米)', '原始:', 'ZUUU 141000Z 05005MPS 9999 FEW020 SCT033 22/15 Q1014 NOSIG', '下午6:00', '22.0°C', '1,014毫巴', '每小时18.0公里, 东北', '10.00公里', '部分多云 (1,006米)', '本地:', '18:00、2019年9月14日周六', '协调世界时:', '10:00、2019年9月14日周六', '来源:', 'USAF 每小时地面观测', '报告类型:', 'METAR 航空例行天气报告', '露点:', '15.0°C', '其他云层:', '大部分晴天 (610米)', '下午7:00', '21°C', '1,014毫巴', '每小时10.8公里, 东北', '10.00公里', '部分多云 (1,006米)', '本地:', '19:00、2019年9月14日周六', '协调世界时:', '11:00、2019年9月14日周六', '来源:', '周期文件', '趋势:', '无重要变化', '露点:', '14°C', '其他云层:', '大部分晴天 (610米)', '原始:', 'ZUUU 141100Z 03003MPS 360V070 9999 FEW020 SCT033 21/14 Q1014 NOSIG', '下午7:00', '21.0°C', '1,014毫巴', '每小时10.8公里, 东北', '10.00公里', '部分多云 (1,006米)', '本地:', '19:00、2019年9月14日周六', '协调世界时:', '11:00、2019年9月14日周六', '来源:', 'USAF 每小时地面观测', '报告类型:', 'METAR 航空例行天气报告', '露点:', '14.0°C', '其他云层:', '大部分晴天 (610米)', '下午8:00', '20°C', '1,015毫巴', '每小时0公里', '10.00公里', '部分多云 (1,219米)', '本地:', '20:00、2019年9月14日周六', '协调世界时:', '12:00、2019年9月14日周六', '来源:', '周期文件', '趋势:', '无重要变化', '露点:', '15°C', '其他云层:', '大部分晴天 (701米)', '原始:', 'ZUUU 141200Z 00000MPS 9999 FEW023 SCT040 20/15 Q1015 NOSIG', '下午8:00', '20.0°C', '1,015毫巴', '每小时0公里', '10.00公里', '部分多云 (1,219米)', '本地:', '20:00、2019年9月14日周六', '协调世界时:', '12:00、2019年9月14日周六', '来源:', 'USAF 每小时地面观测', '报告类型:', 'METAR 航空例行天气报告', '露点:', '15.0°C', '其他云层:', '大部分晴天 (701米)', '下午9:00', '20°C', '1,016毫巴', '每小时0公里', '10.00公里', '部分多云 (1,524米)', '本地:', '21:00、2019年9月14日周六', '协调世界时:', '13:00、2019年9月14日周六', '来源:', '周期文件', '趋势:', '无重要变化', '露点:', '15°C', '原始:', 'ZUUU 141300Z 00000MPS 9999 SCT050 20/15 Q1016 NOSIG', '下午9:00', '20.0°C', '1,016毫巴', '每小时0公里', '10.00公里', '部分多云 (1,524米)', '本地:', '21:00、2019年9月14日周六', '协调世界时:', '13:00、2019年9月14日周六', '来源:', 'USAF 每小时地面观测', '报告类型:', 'METAR 航空例行天气报告', '露点:', '15.0°C', '下午10:00', '20°C', '1,016毫巴', '每小时7.20公里, 东北', '10.00公里', '部分多云 (1,524米)', '本地:', '22:00、2019年9月14日周六', '协调世界时:', '14:00、2019年9月14日周六', '来源:', '周期文件', '趋势:', '无重要变化', '露点:', '14°C', '原始:', 'ZUUU 141400Z 06002MPS 030V100 9999 SCT050 20/14 Q1016 NOSIG', '下午10:00', '20.0°C', '1,016毫巴', '每小时7.20公里, 东北', '10.00公里', '部分多云 (1,524米)', '本地:', '22:00、2019年9月14日周六', '协调世界时:', '14:00、2019年9月14日周六', '来源:', 'USAF 每小时地面观测', '报告类型:', 'METAR 航空例行天气报告', '露点:', '14.0°C', '下午11:00', '21°C', '1,017毫巴', '每小时7.20公里, 东北', '10.00公里', '部分多云 (1,524米)', '本地:', '23:00、2019年9月14日周六', '协调世界时:', '15:00、2019年9月14日周六', '来源:', '周期文件', '趋势:', '无重要变化', '露点:', '14°C', '原始:', 'ZUUU 141500Z 06002MPS 030V090 9999 SCT050 21/14 Q1017 NOSIG', '下午11:00', '21.0°C', '1,017毫巴', '每小时7.20公里, 东北', '10.00公里', '部分多云 (1,524米)', '本地:', '23:00、2019年9月14日周六', '协调世界时:', '15:00、2019年9月14日周六', '来源:', 'USAF 每小时地面观测', '报告类型:', 'METAR 航空例行天气报告', '露点:', '14.0°C']