['Mist', 'BR、IWC10', 'Mist', 'BR、IWC10', 'Mist', 'BR、IWC10', 'Mist', 'BR、IWC10', 'Mist', 'BR、IWC10', 'Fog、Mist、Partial Fog、Patches of Fog', 'FG、BR、IWC10、PRFG、IWC11', 'Fog、Mist、Partial Fog、Patches of Fog', 'FG、BR、IWC10、PRFG、IWC11', 'Fog', 'FG、IWC44', 'Fog', 'FG、IWC44', 'Fog', 'FG、IWC44', 'Fog', 'FG、IWC44', 'Fog', 'FG、IWC44', 'Mist', 'BR、IWC10', 'Mist', 'BR、IWC10', 'Haze', 'HZ、IWC05', 'Haze', 'HZ、IWC05', 'Mist', 'BR、IWC10', '上午12:00', '9°C', '1,029毫巴', '每小时3.60公里', '3.50公里', '无重要云', '本地:', '00:00、2019年12月9日周一', '协调世界时:', '16:00、2019年12月8日周日', '来源:', '周期文件', '趋势:', '变化为', '露点:', '7°C', '天气:', 'Mist、Mist', '原始:', 'ZUUU 081600Z VRB01MPS 3500 BR NSC 09/07 Q1029 BECMG TL1730 2700 BR', '上午12:00', '9.0°C', '1,029毫巴', '每小时3.60公里', '3.50公里', '未检测到云', '本地:', '00:00、2019年12月9日周一', '协调世界时:', '16:00、2019年12月8日周日', '来源:', 'USAF 每小时地面观测', '报告类型:', 'METAR 航空例行天气报告', '露点:', '7.0°C', '天气:', 'Mist', '上午1:00', '8°C', '1,028毫巴', '每小时3.60公里', '3.00公里', '无重要云', '本地:', '01:00、2019年12月9日周一', '协调世界时:', '17:00、2019年12月8日周日', '来源:', '周期文件', '趋势:', '变化为', '露点:', '7°C', '天气:', 'Mist、Mist', '原始:', 'ZUUU 081700Z VRB01MPS 3000 BR NSC 08/07 Q1028 BECMG TL1800 2700 BR', '上午1:00', '8.0°C', '1,028毫巴', '每小时3.60公里', '3.00公里', '未检测到云', '本地:', '01:00、2019年12月9日周一', '协调世界时:', '17:00、2019年12月8日周日', '来源:', 'USAF 每小时地面观测', '报告类型:', 'METAR 航空例行天气报告', '露点:', '7.0°C', '天气:', 'Mist', '上午2:00', '8°C', '1,027毫巴', '每小时3.60公里', '2.30公里', '无重要云', '本地:', '02:00、2019年12月9日周一', '协调世界时:', '18:00、2019年12月8日周日', '来源:', '周期文件', '趋势:', '变化为', '露点:', '7°C', '天气:', 'Mist、Mist', '原始:', 'ZUUU 081800Z VRB01MPS 2300 BR NSC 08/07 Q1027 BECMG TL1930 1400 BR', '上午2:00', '8.0°C', '1,027毫巴', '每小时3.60公里', '2.30公里', '未检测到云', '本地:', '02:00、2019年12月9日周一', '协调世界时:', '18:00、2019年12月8日周日', '来源:', 'USAF 每小时地面观测', '报告类型:', 'METAR 航空例行天气报告', '露点:', '7.0°C', '天气:', 'Mist', '上午3:00', '7°C', '1,027毫巴', '每小时0公里', '1.80公里', '无重要云', '本地:', '03:00、2019年12月9日周一', '协调世界时:', '19:00、2019年12月8日周日', '来源:', '周期文件', '趋势:', '变化为', '露点:', '6°C', '天气:', 'Mist、Mist', '原始:', 'ZUUU 081900Z 00000MPS 1800 R02L/2000D R02R/0200N BR NSC 07/06 Q1027 BECMG TL2000 1400 BR', '上午3:00', '7.0°C', '1,027毫巴', '每小时0公里', '1.80公里', '未检测到云', '本地:', '03:00、2019年12月9日周一', '协调世界时:', '19:00、2019年12月8日周日', '来源:', 'USAF 每小时地面观测', '报告类型:', 'METAR 航空例行天气报告', '露点:', '6.0°C', '天气:', 'Mist', '上午4:00', '6°C', '1,026毫巴', '每小时0公里', '1.70公里', '无重要云', '本地:', '04:00、2019年12月9日周一', '协调世界时:', '20:00、2019年12月8日周日', '来源:', '周期文件', '趋势:', '变化为', '露点:', '6°C', '天气:', 'Mist、Mist', '原始:', 'ZUUU 082000Z 00000MPS 1700 R02L/1600D R02R/0175N BR NSC 06/06 Q1026 BECMG TL2100 1400 BR', '上午4:00', '6.0°C', '1,026毫巴', '每小时0公里', '1.70公里', '未检测到云', '本地:', '04:00、2019年12月9日周一', '协调世界时:', '20:00、2019年12月8日周日', '来源:', 'USAF 每小时地面观测', '报告类型:', 'METAR 航空例行天气报告', '露点:', '6.0°C', '天气:', 'Mist', '上午5:00', '4°C', '1,026毫巴', '每小时0公里', '1.10公里', '无重要云', '本地:', '05:00、2019年12月9日周一', '协调世界时:', '21:00、2019年12月8日周日', '来源:', '周期文件', '趋势:', '变化为', '露点:', '4°C', '天气:', 'Partial Fog、Mist、Fog', '原始:', 'ZUUU 082100Z 00000MPS 1100 R02L/0200N R02R/0225N R20R/1400U PRFG BR NSC 04/04 Q1026 BECMG TL2130 0700 FG', '上午5:00', '4.0°C', '1,026毫巴', '每小时0公里', '1.10公里', '未检测到云', '本地:', '05:00、2019年12月9日周一', '协调世界时:', '21:00、2019年12月8日周日', '来源:', 'USAF 每小时地面观测', '报告类型:', 'METAR 航空例行天气报告', '露点:', '4.0°C', '天气:', 'Mist、Patches of Fog', '上午6:00', '3°C', '1,025毫巴', '每小时0公里', '1.10公里', '无重要云', '本地:', '06:00、2019年12月9日周一', '协调世界时:', '22:00、2019年12月8日周日', '来源:', '周期文件', '趋势:', '变化为', '露点:', '3°C', '天气:', 'Partial Fog、Mist、Fog', '原始:', 'ZUUU 082200Z 00000MPS 1100 R02L/1300D R02R/0225N PRFG BR NSC 03/03 Q1025 BECMG TL2250 0700 FG', '上午6:00', '3.0°C', '1,025毫巴', '每小时0公里', '1.10公里', '未检测到云', '本地:', '06:00、2019年12月9日周一', '协调世界时:', '22:00、2019年12月8日周日', '来源:', 'USAF 每小时地面观测', '报告类型:', 'METAR 航空例行天气报告', '露点:', '3.0°C', '天气:', 'Mist、Patches of Fog', '上午7:00', '6°C', '1,025毫巴', '每小时0公里', '0.15公里', '无重要云', '本地:', '07:00、2019年12月9日周一', '协调世界时:', '23:00、2019年12月8日周日', '来源:', '周期文件', '趋势:', '变化为', '露点:', '6°C', '天气:', 'Fog', '原始:', 'ZUUU 082300Z 00000MPS 0150 R02L/0175N R02R/0200N FG NSC 06/06 Q1025 BECMG TL0100 0400', '上午7:00', '6.0°C', '1,025毫巴', '每小时0公里', '0.15公里', '未检测到云', '本地:', '07:00、2019年12月9日周一', '协调世界时:', '23:00、2019年12月8日周日', '来源:', 'USAF 每小时地面观测', '报告类型:', 'METAR 航空例行天气报告', '露点:', '6.0°C', '天气:', 'Fog', '上午8:00', '6°C', '1,026毫巴', '每小时7.20公里, 西南', '0.15公里', '无重要云', '本地:', '08:00、2019年12月9日周一', '协调世界时:', '00:00、2019年12月9日周一', '来源:', '周期文件', '趋势:', '变化为', '露点:', '6°C', '天气:', 'Fog', '原始:', 'ZUUU 090000Z 21002MPS 0150 R02L/0200N R02R/0175N FG NSC 06/06 Q1026 BECMG TL0130 0400', '上午8:00', '6.0°C', '1,026毫巴', '每小时7.20公里, 西南', '0.15公里', '未检测到云', '本地:', '08:00、2019年12月9日周一', '协调世界时:', '00:00、2019年12月9日周一', '来源:', 'USAF 每小时地面观测', '报告类型:', 'METAR 航空例行天气报告', '露点:', '6.0°C', '天气:', 'Fog', '上午9:00', '6°C', '1,026毫巴', '每小时0公里', '0.100公里', '阴天 (91米)', '本地:', '09:00、2019年12月9日周一', '协调世界时:', '01:00、2019年12月9日周一', '来源:', '周期文件', '趋势:', '变化为', '露点:', '6°C', '天气:', 'Fog', '原始:', 'ZUUU 090100Z 00000MPS 0100 R02L/0150N R02R/0150N FG VV003 06/06 Q1026 BECMG TL0150 0400', '上午9:00', '6.0°C', '1,026毫巴', '每小时0公里', '0.100公里', '阴天 (91米)', '本地:', '09:00、2019年12月9日周一', '协调世界时:', '01:00、2019年12月9日周一', '来源:', 'USAF 每小时地面观测', '报告类型:', 'METAR 航空例行天气报告', '露点:', '6.0°C', '其他云层:', '阴天', '天气:', 'Fog', '上午10:00', '7°C', '1,027毫巴', '每小时0公里', '0.35公里', '阴天 (122米)', '本地:', '10:00、2019年12月9日周一', '协调世界时:', '02:00、2019年12月9日周一', '来源:', '周期文件', '趋势:', '变化为', '露点:', '7°C', '天气:', 'Fog', '原始:', 'ZUUU 090200Z 00000MPS 0350 R02L/0200N R02R/0150N FG VV004 07/07 Q1027 BECMG TL0330 0600', '上午10:00', '7.0°C', '1,027毫巴', '每小时0公里', '0.35公里', '阴天 (122米)', '本地:', '10:00、2019年12月9日周一', '协调世界时:', '02:00、2019年12月9日周一', '来源:', 'USAF 每小时地面观测', '报告类型:', 'METAR 航空例行天气报告', '露点:', '7.0°C', '其他云层:', '阴天', '天气:', 'Fog', '上午11:00', '8°C', '1,027毫巴', '每小时0公里', '0.80公里', '大部分多云 (213米)', '本地:', '11:00、2019年12月9日周一', '协调世界时:', '03:00、2019年12月9日周一', '来源:', '周期文件', '趋势:', '变化为', '露点:', '8°C', '天气:', 'Fog', '原始:', 'ZUUU 090300Z 00000MPS 0800 R02L/0450N R02R/0175N FG BKN007 08/08 Q1027 BECMG TL0430 1500', '上午11:00', '8.0°C', '1,027毫巴', '每小时0公里', '0.80公里', '大部分多云 (213米)', '本地:', '11:00、2019年12月9日周一', '协调世界时:', '03:00、2019年12月9日周一', '来源:', 'USAF 每小时地面观测', '报告类型:', 'METAR 航空例行天气报告', '露点:', '8.0°C', '天气:', 'Fog', '下午12:00', '8°C', '1,026毫巴', '每小时7.20公里, 南', '1.00公里', '部分多云 (244米)', '本地:', '12:00、2019年12月9日周一', '协调世界时:', '04:00、2019年12月9日周一', '来源:', '周期文件', '趋势:', '变化为', '露点:', '8°C', '其他云层:', '大部分晴天 (61米)', '天气:', 'Mist', '原始:', 'ZUUU 090400Z 18002MPS 140V220 1000 R02L/0550N R02R/0500N BR FEW002 SCT008 08/08 Q1026 BECMG TL0430 1500', '下午12:00', '8.0°C', '1,026毫巴', '每小时7.20公里, 南', '1.00公里', '部分多云 (244米)', '本地:', '12:00、2019年12月9日周一', '协调世界时:', '04:00、2019年12月9日周一', '来源:', 'USAF 每小时地面观测', '报告类型:', 'METAR 航空例行天气报告', '露点:', '8.0°C', '其他云层:', '大部分晴天 (61米)', '天气:', 'Mist', '下午1:00', '11°C', '1,024毫巴', '每小时3.60公里', '1.50公里', '部分多云 (244米)', '本地:', '13:00、2019年12月9日周一', '协调世界时:', '05:00、2019年12月9日周一', '来源:', '周期文件', '趋势:', '变化为', '露点:', '10°C', '天气:', 'Mist', '原始:', 'ZUUU 090500Z VRB01MPS 1500 R02L/1600U R02R/1400U BR SCT008 11/10 Q1024 BECMG TL0600 3000', '下午1:00', '11.0°C', '1,024毫巴', '每小时3.60公里', '1.50公里', '部分多云 (244米)', '本地:', '13:00、2019年12月9日周一', '协调世界时:', '05:00、2019年12月9日周一', '来源:', 'USAF 每小时地面观测', '报告类型:', 'METAR 航空例行天气报告', '露点:', '10.0°C', '天气:', 'Mist', '下午2:00', '13°C', '1,022毫巴', '每小时0公里', '2.50公里', '大部分晴天 (457米)', '本地:', '14:00、2019年12月9日周一', '协调世界时:', '06:00、2019年12月9日周一', '来源:', '周期文件', '趋势:', '变化为', '露点:', '8°C', '天气:', 'Haze', '原始:', 'ZUUU 090600Z 00000MPS 2500 HZ FEW015 13/08 Q1022 BECMG TL0630 3000', '下午2:00', '13.0°C', '1,022毫巴', '每小时0公里', '2.50公里', '大部分晴天 (457米)', '本地:', '14:00、2019年12月9日周一', '协调世界时:', '06:00、2019年12月9日周一', '来源:', 'USAF 每小时地面观测', '报告类型:', 'METAR 航空例行天气报告', '露点:', '8.0°C', '天气:', 'Haze', '下午3:00', '15°C', '1,021毫巴', '每小时7.20公里', '6.00公里', '无重要云', '本地:', '15:00、2019年12月9日周一', '协调世界时:', '07:00、2019年12月9日周一', '来源:', '周期文件', '趋势:', '无重要变化', '露点:', '4°C', '原始:', 'ZUUU 090700Z VRB02MPS 6000 NSC 15/04 Q1021 NOSIG', '下午3:00', '15.0°C', '1,021毫巴', '每小时7.20公里', '6.00公里', '未检测到云', '本地:', '15:00、2019年12月9日周一', '协调世界时:', '07:00、2019年12月9日周一', '来源:', 'USAF 每小时地面观测', '报告类型:', 'METAR 航空例行天气报告', '露点:', '4.0°C', '下午4:00', '15°C', '1,020毫巴', '每小时10.8公里, 东', '6.00公里', '无重要云', '本地:', '16:00、2019年12月9日周一', '协调世界时:', '08:00、2019年12月9日周一', '来源:', '周期文件', '趋势:', '无重要变化', '露点:', '2°C', '原始:', 'ZUUU 090800Z 10003MPS 040V140 6000 NSC 15/02 Q1020 NOSIG', '下午4:00', '15.0°C', '1,020毫巴', '每小时10.8公里, 东', '6.00公里', '未检测到云', '本地:', '16:00、2019年12月9日周一', '协调世界时:', '08:00、2019年12月9日周一', '来源:', 'USAF 每小时地面观测', '报告类型:', 'METAR 航空例行天气报告', '露点:', '2.0°C', '下午5:00', '14°C', '1,020毫巴', '每小时7.20公里', '6.00公里', '无重要云', '本地:', '17:00、2019年12月9日周一', '协调世界时:', '09:00、2019年12月9日周一', '来源:', '周期文件', '趋势:', '无重要变化', '露点:', '4°C', '原始:', 'ZUUU 090900Z VRB02MPS 6000 NSC 14/04 Q1020 NOSIG', '下午5:00', '14.0°C', '1,020毫巴', '每小时7.20公里', '6.00公里', '未检测到云', '本地:', '17:00、2019年12月9日周一', '协调世界时:', '09:00、2019年12月9日周一', '来源:', 'USAF 每小时地面观测', '报告类型:', 'METAR 航空例行天气报告', '露点:', '4.0°C', '下午6:00', '14°C', '1,021毫巴', '每小时10.8公里, 东北', '4.00公里', '大部分晴天 (1,219米)', '本地:', '18:00、2019年12月9日周一', '协调世界时:', '10:00、2019年12月9日周一', '来源:', '周期文件', '趋势:', '无重要变化', '露点:', '6°C', '天气:', 'Haze', '原始:', 'ZUUU 091000Z 06003MPS 030V090 4000 HZ FEW040 14/06 Q1021 NOSIG', '下午6:00', '14.0°C', '1,021毫巴', '每小时10.8公里, 东北', '4.00公里', '大部分晴天 (1,219米)', '本地:', '18:00、2019年12月9日周一', '协调世界时:', '10:00、2019年12月9日周一', '来源:', 'USAF 每小时地面观测', '报告类型:', 'METAR 航空例行天气报告', '露点:', '6.0°C', '天气:', 'Haze', '下午7:00', '13°C', '1,021毫巴', '每小时10.8公里, 东北', '6.00公里', '大部分晴天 (1,219米)', '本地:', '19:00、2019年12月9日周一', '协调世界时:', '11:00、2019年12月9日周一', '来源:', '周期文件', '趋势:', '无重要变化', '露点:', '6°C', '原始:', 'ZUUU 091100Z 06003MPS 6000 FEW040 13/06 Q1021 NOSIG', '下午7:00', '13.0°C', '1,021毫巴', '每小时10.8公里, 东北', '6.00公里', '大部分晴天 (1,219米)', '本地:', '19:00、2019年12月9日周一', '协调世界时:', '11:00、2019年12月9日周一', '来源:', 'USAF 每小时地面观测', '报告类型:', 'METAR 航空例行天气报告', '露点:', '6.0°C', '下午8:00', '13°C', '1,022毫巴', '每小时10.8公里, 东北', '6.00公里', '部分多云 (1,524米)', '本地:', '20:00、2019年12月9日周一', '协调世界时:', '12:00、2019年12月9日周一', '来源:', '周期文件', '趋势:', '无重要变化', '露点:', '5°C', '原始:', 'ZUUU 091200Z 05003MPS 6000 SCT050 13/05 Q1022 NOSIG', '下午8:00', '13.0°C', '1,022毫巴', '每小时10.8公里, 东北', '6.00公里', '部分多云 (1,524米)', '本地:', '20:00、2019年12月9日周一', '协调世界时:', '12:00、2019年12月9日周一', '来源:', 'USAF 每小时地面观测', '报告类型:', 'METAR 航空例行天气报告', '露点:', '5.0°C', '下午9:00', '9°C', '1,022毫巴', '每小时0公里', '6.00公里', '无重要云', '本地:', '21:00、2019年12月9日周一', '协调世界时:', '13:00、2019年12月9日周一', '来源:', '周期文件', '趋势:', '无重要变化', '露点:', '7°C', '原始:', 'ZUUU 091300Z 00000MPS 6000 NSC 09/07 Q1022 NOSIG', '下午9:00', '9.0°C', '1,022毫巴', '每小时0公里', '6.00公里', '未检测到云', '本地:', '21:00、2019年12月9日周一', '协调世界时:', '13:00、2019年12月9日周一', '来源:', 'USAF 每小时地面观测', '报告类型:', 'METAR 航空例行天气报告', '露点:', '7.0°C', '下午10:00', '10°C', '1,023毫巴', '每小时3.60公里, 北', '6.00公里', '无重要云', '本地:', '22:00、2019年12月9日周一', '协调世界时:', '14:00、2019年12月9日周一', '来源:', '周期文件', '趋势:', '无重要变化', '露点:', '7°C', '原始:', 'ZUUU 091400Z 35001MPS 6000 NSC 10/07 Q1023 NOSIG', '下午10:00', '10.0°C', '1,023毫巴', '每小时3.60公里, 北', '6.00公里', '未检测到云', '本地:', '22:00、2019年12月9日周一', '协调世界时:', '14:00、2019年12月9日周一', '来源:', 'USAF 每小时地面观测', '报告类型:', 'METAR 航空例行天气报告', '露点:', '7.0°C', '下午11:00', '10°C', '1,023毫巴', '每小时3.60公里', '4.00公里', '无重要云', '本地:', '23:00、2019年12月9日周一', '协调世界时:', '15:00、2019年12月9日周一', '来源:', '周期文件', '趋势:', '无重要变化', '露点:', '8°C', '天气:', 'Mist', '原始:', 'ZUUU 091500Z VRB01MPS 4000 BR NSC 10/08 Q1023 NOSIG', '下午11:00', '10.0°C', '1,023毫巴', '每小时3.60公里', '4.00公里', '未检测到云', '本地:', '23:00、2019年12月9日周一', '协调世界时:', '15:00、2019年12月9日周一', '来源:', 'USAF 每小时地面观测', '报告类型:', 'METAR 航空例行天气报告', '露点:', '8.0°C', '天气:', 'Mist']