['Light Rain', '-RA、IWC61', 'Light Rain、Mist', '-RA、IWC61、BR、IWC10', 'Light Rain、Mist', '-RA、IWC61、BR、IWC10', 'Light Rain、Mist', '-RA、IWC61、BR、IWC10', 'Light Rain、Mist', '-RA、IWC61、BR、IWC10', 'Light Rain、Mist', '-RA、IWC61、BR、IWC10', 'Light Rain、Mist', '-RA、IWC61、BR、IWC10', 'Mist', 'BR、IWC10', 'Mist', 'BR、IWC10', 'Mist', 'BR、IWC10', '上午12:00', '10°C', '1,026毫巴', '每小时7.20公里, 北', '6.00公里', '大部分多云 (579米)', '本地:', '00:00、2019年11月20日周三', '协调世界时:', '16:00、2019年11月19日周二', '来源:', '周期文件', '趋势:', '无重要变化', '露点:', '7°C', '其他云层:', '大部分晴天 (396米)', '天气:', 'Light Rain', '原始:', 'ZUUU 191600Z 36002MPS 320V030 6000 -RA FEW013 BKN019 10/07 Q1026 NOSIG', '上午12:00', '10.0°C', '1,026毫巴', '每小时7.20公里, 北', '6.00公里', '大部分多云 (579米)', '本地:', '00:00、2019年11月20日周三', '协调世界时:', '16:00、2019年11月19日周二', '来源:', 'USAF 每小时地面观测', '报告类型:', 'METAR 航空例行天气报告', '露点:', '7.0°C', '其他云层:', '大部分晴天 (396米)', '天气:', 'Light Rain', '上午1:00', '9°C', '1,026毫巴', '每小时3.60公里', '4.00公里', '大部分多云 (579米)', '本地:', '01:00、2019年11月20日周三', '协调世界时:', '17:00、2019年11月19日周二', '来源:', '周期文件', '趋势:', '无重要变化', '露点:', '8°C', '其他云层:', '大部分晴天 (274米)', '天气:', 'Light Rain、Mist', '原始:', 'ZUUU 191700Z VRB01MPS 4000 -RA BR FEW009 BKN019 09/08 Q1026 NOSIG', '上午1:00', '9.0°C', '1,026毫巴', '每小时3.60公里', '4.00公里', '大部分多云 (579米)', '本地:', '01:00、2019年11月20日周三', '协调世界时:', '17:00、2019年11月19日周二', '来源:', 'USAF 每小时地面观测', '报告类型:', 'METAR 航空例行天气报告', '露点:', '8.0°C', '其他云层:', '大部分晴天 (274米)', '天气:', 'Mist、Light Rain', '上午2:00', '9°C', '1,025毫巴', '每小时3.60公里', '3.50公里', '大部分多云 (579米)', '本地:', '02:00、2019年11月20日周三', '协调世界时:', '18:00、2019年11月19日周二', '来源:', '周期文件', '趋势:', '无重要变化', '露点:', '8°C', '其他云层:', '大部分晴天 (274米)', '天气:', 'Light Rain、Mist', '原始:', 'ZUUU 191800Z VRB01MPS 3500 -RA BR FEW009 BKN019 09/08 Q1025 NOSIG', '上午2:00', '9.0°C', '1,025毫巴', '每小时3.60公里', '3.50公里', '大部分多云 (579米)', '本地:', '02:00、2019年11月20日周三', '协调世界时:', '18:00、2019年11月19日周二', '来源:', 'USAF 每小时地面观测', '报告类型:', 'METAR 航空例行天气报告', '露点:', '8.0°C', '其他云层:', '大部分晴天 (274米)', '天气:', 'Mist、Light Rain', '上午3:00', '9°C', '1,025毫巴', '每小时10.8公里, 东北', '4.00公里', '大部分多云 (579米)', '本地:', '03:00、2019年11月20日周三', '协调世界时:', '19:00、2019年11月19日周二', '来源:', '周期文件', '趋势:', '无重要变化', '露点:', '8°C', '其他云层:', '大部分晴天 (274米)', '天气:', 'Light Rain、Mist', '原始:', 'ZUUU 191900Z 06003MPS 4000 -RA BR FEW009 BKN019 09/08 Q1025 NOSIG', '上午3:00', '9.0°C', '1,025毫巴', '每小时10.8公里, 东北', '4.00公里', '大部分多云 (579米)', '本地:', '03:00、2019年11月20日周三', '协调世界时:', '19:00、2019年11月19日周二', '来源:', 'USAF 每小时地面观测', '报告类型:', 'METAR 航空例行天气报告', '露点:', '8.0°C', '其他云层:', '大部分晴天 (274米)', '天气:', 'Mist、Light Rain', '上午4:00', '9°C', '1,024毫巴', '每小时7.20公里, 东', '4.00公里', '大部分多云 (579米)', '本地:', '04:00、2019年11月20日周三', '协调世界时:', '20:00、2019年11月19日周二', '来源:', '周期文件', '趋势:', '无重要变化', '露点:', '8°C', '其他云层:', '大部分晴天 (274米)', '天气:', 'Light Rain、Mist', '原始:', 'ZUUU 192000Z 08002MPS 040V140 4000 -RA BR FEW009 BKN019 09/08 Q1024 NOSIG', '上午4:00', '9.0°C', '1,024毫巴', '每小时7.20公里, 东', '4.00公里', '大部分多云 (579米)', '本地:', '04:00、2019年11月20日周三', '协调世界时:', '20:00、2019年11月19日周二', '来源:', 'USAF 每小时地面观测', '报告类型:', 'METAR 航空例行天气报告', '露点:', '8.0°C', '其他云层:', '大部分晴天 (274米)', '天气:', 'Mist、Light Rain', '上午5:00', '9°C', '1,025毫巴', '每小时3.60公里', '3.50公里', '大部分多云 (579米)', '本地:', '05:00、2019年11月20日周三', '协调世界时:', '21:00、2019年11月19日周二', '来源:', '周期文件', '趋势:', '无重要变化', '露点:', '8°C', '其他云层:', '大部分晴天 (183米)', '天气:', 'Light Rain、Mist', '原始:', 'ZUUU 192100Z VRB01MPS 3500 -RA BR FEW006 BKN019 09/08 Q1025 NOSIG', '上午5:00', '9.0°C', '1,025毫巴', '每小时3.60公里', '3.50公里', '大部分多云 (579米)', '本地:', '05:00、2019年11月20日周三', '协调世界时:', '21:00、2019年11月19日周二', '来源:', 'USAF 每小时地面观测', '报告类型:', 'METAR 航空例行天气报告', '露点:', '8.0°C', '其他云层:', '大部分晴天 (183米)', '天气:', 'Mist、Light Rain', '上午6:00', '8°C', '1,025毫巴', '每小时3.60公里', '3.00公里', '大部分多云 (579米)', '本地:', '06:00、2019年11月20日周三', '协调世界时:', '22:00、2019年11月19日周二', '来源:', '周期文件', '趋势:', '无重要变化', '露点:', '8°C', '其他云层:', '大部分晴天 (183米)', '天气:', 'Light Rain、Mist', '原始:', 'ZUUU 192200Z VRB01MPS 3000 -RA BR FEW006 BKN019 08/08 Q1025 NOSIG', '上午6:00', '8.0°C', '1,025毫巴', '每小时3.60公里', '3.00公里', '大部分多云 (579米)', '本地:', '06:00、2019年11月20日周三', '协调世界时:', '22:00、2019年11月19日周二', '来源:', 'USAF 每小时地面观测', '报告类型:', 'METAR 航空例行天气报告', '露点:', '8.0°C', '其他云层:', '大部分晴天 (183米)', '天气:', 'Mist、Light Rain', '上午7:00', '8°C', '1,025毫巴', '每小时0公里', '4.00公里', '大部分多云 (701米)', '本地:', '07:00、2019年11月20日周三', '协调世界时:', '23:00、2019年11月19日周二', '来源:', '周期文件', '趋势:', '无重要变化', '露点:', '8°C', '其他云层:', '大部分晴天 (274米)', '天气:', 'Mist', '原始:', 'ZUUU 192300Z 00000MPS 4000 BR FEW009 BKN023 08/08 Q1025 NOSIG', '上午7:00', '8.0°C', '1,025毫巴', '每小时0公里', '4.00公里', '大部分多云 (701米)', '本地:', '07:00、2019年11月20日周三', '协调世界时:', '23:00、2019年11月19日周二', '来源:', 'USAF 每小时地面观测', '报告类型:', 'METAR 航空例行天气报告', '露点:', '8.0°C', '其他云层:', '大部分晴天 (274米)', '天气:', 'Mist', '上午8:00', '9°C', '1,025毫巴', '每小时0公里', '4.00公里', '大部分多云 (701米)', '本地:', '08:00、2019年11月20日周三', '协调世界时:', '00:00、2019年11月20日周三', '来源:', '周期文件', '趋势:', '无重要变化', '露点:', '8°C', '其他云层:', '大部分晴天 (183米)、部分多云 (305米)', '天气:', 'Mist', '原始:', 'ZUUU 200000Z 00000MPS 4000 BR FEW006 SCT010 BKN023 09/08 Q1025 NOSIG', '上午8:00', '9.0°C', '1,025毫巴', '每小时0公里', '4.00公里', '大部分多云 (701米)', '本地:', '08:00、2019年11月20日周三', '协调世界时:', '00:00、2019年11月20日周三', '来源:', 'USAF 每小时地面观测', '报告类型:', 'METAR 航空例行天气报告', '露点:', '8.0°C', '其他云层:', '大部分晴天 (183米)、部分多云 (305米)', '天气:', 'Mist', '上午9:00', '9°C', '1,026毫巴', '每小时0公里', '4.50公里', '大部分多云 (701米)', '本地:', '09:00、2019年11月20日周三', '协调世界时:', '01:00、2019年11月20日周三', '来源:', '周期文件', '趋势:', '无重要变化', '露点:', '8°C', '其他云层:', '部分多云 (305米)', '天气:', 'Mist', '原始:', 'ZUUU 200100Z 00000MPS 4500 BR SCT010 BKN023 09/08 Q1026 NOSIG', '上午9:00', '9.0°C', '1,026毫巴', '每小时0公里', '4.50公里', '大部分多云 (701米)', '本地:', '09:00、2019年11月20日周三', '协调世界时:', '01:00、2019年11月20日周三', '来源:', 'USAF 每小时地面观测', '报告类型:', 'METAR 航空例行天气报告', '露点:', '8.0°C', '其他云层:', '部分多云 (305米)', '天气:', 'Mist', '上午10:00', '10°C', '1,026毫巴', '每小时3.60公里', '6.00公里', '大部分多云 (792米)', '本地:', '10:00、2019年11月20日周三', '协调世界时:', '02:00、2019年11月20日周三', '来源:', '周期文件', '趋势:', '无重要变化', '露点:', '8°C', '其他云层:', '部分多云 (305米)', '原始:', 'ZUUU 200200Z VRB01MPS 6000 SCT010 BKN026 10/08 Q1026 NOSIG', '上午10:00', '10.0°C', '1,026毫巴', '每小时3.60公里', '6.00公里', '大部分多云 (792米)', '本地:', '10:00、2019年11月20日周三', '协调世界时:', '02:00、2019年11月20日周三', '来源:', 'USAF 每小时地面观测', '报告类型:', 'METAR 航空例行天气报告', '露点:', '8.0°C', '其他云层:', '部分多云 (305米)', '上午11:00', '10°C', '1,026毫巴', '每小时3.60公里', '6.00公里', '大部分多云 (792米)', '本地:', '11:00、2019年11月20日周三', '协调世界时:', '03:00、2019年11月20日周三', '来源:', '周期文件', '趋势:', '无重要变化', '露点:', '8°C', '其他云层:', '部分多云 (305米)', '原始:', 'ZUUU 200300Z VRB01MPS 6000 SCT010 BKN026 10/08 Q1026 NOSIG', '上午11:00', '10.0°C', '1,026毫巴', '每小时3.60公里', '6.00公里', '大部分多云 (792米)', '本地:', '11:00、2019年11月20日周三', '协调世界时:', '03:00、2019年11月20日周三', '来源:', 'USAF 每小时地面观测', '报告类型:', 'METAR 航空例行天气报告', '露点:', '8.0°C', '其他云层:', '部分多云 (305米)', '下午12:00', '10°C', '1,025毫巴', '每小时0公里', '6.00公里', '大部分多云 (792米)', '本地:', '12:00、2019年11月20日周三', '协调世界时:', '04:00、2019年11月20日周三', '来源:', '周期文件', '趋势:', '无重要变化', '露点:', '8°C', '其他云层:', '部分多云 (305米)', '原始:', 'ZUUU 200400Z 00000MPS 6000 SCT010 BKN026 10/08 Q1025 NOSIG', '下午12:00', '10.0°C', '1,025毫巴', '每小时0公里', '6.00公里', '大部分多云 (792米)', '本地:', '12:00、2019年11月20日周三', '协调世界时:', '04:00、2019年11月20日周三', '来源:', 'USAF 每小时地面观测', '报告类型:', 'METAR 航空例行天气报告', '露点:', '8.0°C', '其他云层:', '部分多云 (305米)', '下午1:00', '11°C', '1,024毫巴', '每小时3.60公里', '6.00公里', '部分多云 (792米)', '本地:', '13:00、2019年11月20日周三', '协调世界时:', '05:00、2019年11月20日周三', '来源:', '周期文件', '趋势:', '无重要变化', '露点:', '8°C', '其他云层:', '大部分晴天 (305米)', '原始:', 'ZUUU 200500Z VRB01MPS 6000 FEW010 SCT026 11/08 Q1024 NOSIG', '下午1:00', '11.0°C', '1,024毫巴', '每小时3.60公里', '6.00公里', '部分多云 (792米)', '本地:', '13:00、2019年11月20日周三', '协调世界时:', '05:00、2019年11月20日周三', '来源:', 'USAF 每小时地面观测', '报告类型:', 'METAR 航空例行天气报告', '露点:', '8.0°C', '其他云层:', '大部分晴天 (305米)', '下午2:00', '11°C', '1,022毫巴', '每小时0公里', '7.00公里', '部分多云 (792米)', '本地:', '14:00、2019年11月20日周三', '协调世界时:', '06:00、2019年11月20日周三', '来源:', '周期文件', '趋势:', '无重要变化', '露点:', '8°C', '其他云层:', '大部分晴天 (396米)', '原始:', 'ZUUU 200600Z 00000MPS 7000 FEW013 SCT026 11/08 Q1022 NOSIG', '下午2:00', '11.0°C', '1,022毫巴', '每小时0公里', '7.00公里', '部分多云 (792米)', '本地:', '14:00、2019年11月20日周三', '协调世界时:', '06:00、2019年11月20日周三', '来源:', 'USAF 每小时地面观测', '报告类型:', 'METAR 航空例行天气报告', '露点:', '8.0°C', '其他云层:', '大部分晴天 (396米)', '下午3:00', '11°C', '1,021毫巴', '每小时0公里', '8.00公里', '部分多云 (792米)', '本地:', '15:00、2019年11月20日周三', '协调世界时:', '07:00、2019年11月20日周三', '来源:', '周期文件', '趋势:', '无重要变化', '露点:', '8°C', '其他云层:', '大部分晴天 (396米)', '原始:', 'ZUUU 200700Z 00000MPS 8000 FEW013 SCT026 11/08 Q1021 NOSIG', '下午3:00', '11.0°C', '1,021毫巴', '每小时0公里', '8.00公里', '部分多云 (792米)', '本地:', '15:00、2019年11月20日周三', '协调世界时:', '07:00、2019年11月20日周三', '来源:', 'USAF 每小时地面观测', '报告类型:', 'METAR 航空例行天气报告', '露点:', '8.0°C', '其他云层:', '大部分晴天 (396米)', '下午4:00', '11°C', '1,021毫巴', '每小时3.60公里', '8.00公里', '部分多云 (792米)', '本地:', '16:00、2019年11月20日周三', '协调世界时:', '08:00、2019年11月20日周三', '来源:', '周期文件', '趋势:', '无重要变化', '露点:', '9°C', '原始:', 'ZUUU 200800Z VRB01MPS 8000 SCT026 11/09 Q1021 NOSIG', '下午4:00', '11.0°C', '1,021毫巴', '每小时3.60公里', '8.00公里', '部分多云 (792米)', '本地:', '16:00、2019年11月20日周三', '协调世界时:', '08:00、2019年11月20日周三', '来源:', 'USAF 每小时地面观测', '报告类型:', 'METAR 航空例行天气报告', '露点:', '9.0°C', '下午5:00', '11°C', '1,022毫巴', '每小时3.60公里, 西南', '7.00公里', '部分多云 (792米)', '本地:', '17:00、2019年11月20日周三', '协调世界时:', '09:00、2019年11月20日周三', '来源:', '周期文件', '趋势:', '无重要变化', '露点:', '9°C', '其他云层:', '大部分晴天 (396米)', '原始:', 'ZUUU 200900Z 22001MPS 7000 FEW013 SCT026 11/09 Q1022 NOSIG', '下午5:00', '11.0°C', '1,022毫巴', '每小时3.60公里, 西南', '7.00公里', '部分多云 (792米)', '本地:', '17:00、2019年11月20日周三', '协调世界时:', '09:00、2019年11月20日周三', '来源:', 'USAF 每小时地面观测', '报告类型:', 'METAR 航空例行天气报告', '露点:', '9.0°C', '其他云层:', '大部分晴天 (396米)', '下午6:00', '11°C', '1,023毫巴', '每小时7.20公里, 西南', '7.00公里', '部分多云 (914米)', '本地:', '18:00、2019年11月20日周三', '协调世界时:', '10:00、2019年11月20日周三', '来源:', '周期文件', '趋势:', '无重要变化', '露点:', '9°C', '原始:', 'ZUUU 201000Z 23002MPS 7000 SCT030 11/09 Q1023 NOSIG', '下午6:00', '11.0°C', '1,023毫巴', '每小时7.20公里, 西南', '7.00公里', '部分多云 (914米)', '本地:', '18:00、2019年11月20日周三', '协调世界时:', '10:00、2019年11月20日周三', '来源:', 'USAF 每小时地面观测', '报告类型:', 'METAR 航空例行天气报告', '露点:', '9.0°C', '下午7:00', '11°C', '1,024毫巴', '每小时3.60公里', '7.00公里', '部分多云 (1,006米)', '本地:', '19:00、2019年11月20日周三', '协调世界时:', '11:00、2019年11月20日周三', '来源:', '周期文件', '趋势:', '无重要变化', '露点:', '9°C', '原始:', 'ZUUU 201100Z VRB01MPS 7000 SCT033 11/09 Q1024 NOSIG', '下午7:00', '11.0°C', '1,024毫巴', '每小时3.60公里', '7.00公里', '部分多云 (1,006米)', '本地:', '19:00、2019年11月20日周三', '协调世界时:', '11:00、2019年11月20日周三', '来源:', 'USAF 每小时地面观测', '报告类型:', 'METAR 航空例行天气报告', '露点:', '9.0°C', '下午8:00', '11°C', '1,025毫巴', '每小时3.60公里', '7.00公里', '部分多云 (1,006米)', '本地:', '20:00、2019年11月20日周三', '协调世界时:', '12:00、2019年11月20日周三', '来源:', '周期文件', '趋势:', '无重要变化', '露点:', '9°C', '原始:', 'ZUUU 201200Z VRB01MPS 7000 SCT033 11/09 Q1025 NOSIG', '下午8:00', '11.0°C', '1,025毫巴', '每小时3.60公里', '7.00公里', '部分多云 (1,006米)', '本地:', '20:00、2019年11月20日周三', '协调世界时:', '12:00、2019年11月20日周三', '来源:', 'USAF 每小时地面观测', '报告类型:', 'METAR 航空例行天气报告', '露点:', '9.0°C', '下午9:00', '11°C', '1,025毫巴', '每小时7.20公里, 西南', '7.00公里', '部分多云 (1,006米)', '本地:', '21:00、2019年11月20日周三', '协调世界时:', '13:00、2019年11月20日周三', '来源:', '周期文件', '趋势:', '无重要变化', '露点:', '9°C', '原始:', 'ZUUU 201300Z 23002MPS 7000 SCT033 11/09 Q1025 NOSIG', '下午9:00', '11.0°C', '1,025毫巴', '每小时7.20公里, 西南', '7.00公里', '部分多云 (1,006米)', '本地:', '21:00、2019年11月20日周三', '协调世界时:', '13:00、2019年11月20日周三', '来源:', 'USAF 每小时地面观测', '报告类型:', 'METAR 航空例行天气报告', '露点:', '9.0°C', '下午10:00', '11°C', '1,026毫巴', '每小时7.20公里, 西南', '8.00公里', '部分多云 (1,006米)', '本地:', '22:00、2019年11月20日周三', '协调世界时:', '14:00、2019年11月20日周三', '来源:', '周期文件', '趋势:', '无重要变化', '露点:', '9°C', '原始:', 'ZUUU 201400Z 22002MPS 8000 SCT033 11/09 Q1026 NOSIG', '下午10:00', '11.0°C', '1,026毫巴', '每小时7.20公里, 西南', '8.00公里', '部分多云 (1,006米)', '本地:', '22:00、2019年11月20日周三', '协调世界时:', '14:00、2019年11月20日周三', '来源:', 'USAF 每小时地面观测', '报告类型:', 'METAR 航空例行天气报告', '露点:', '9.0°C', '下午11:00', '11°C', '1,026毫巴', '每小时7.20公里, 西', '8.00公里', '部分多云 (1,006米)', '本地:', '23:00、2019年11月20日周三', '协调世界时:', '15:00、2019年11月20日周三', '来源:', '周期文件', '趋势:', '无重要变化', '露点:', '9°C', '原始:', 'ZUUU 201500Z 28002MPS 240V340 8000 SCT033 11/09 Q1026 NOSIG', '下午11:00', '11.0°C', '1,026毫巴', '每小时7.20公里, 西', '8.00公里', '部分多云 (1,006米)', '本地:', '23:00、2019年11月20日周三', '协调世界时:', '15:00、2019年11月20日周三', '来源:', 'USAF 每小时地面观测', '报告类型:', 'METAR 航空例行天气报告', '露点:', '9.0°C']