['Showers of Light Rain', '-SHRA、IWC80', '上午12:00', '21°C', '1,016毫巴', '每小时0公里', '10.00公里', '部分多云 (1,524米)', '本地:', '00:00、2019年10月6日周日', '协调世界时:', '16:00、2019年10月5日周六', '来源:', '周期文件', '趋势:', '无重要变化', '露点:', '17°C', '原始:', 'ZUUU 051600Z 00000MPS 9999 SCT050 21/17 Q1016 NOSIG', '上午12:00', '21.0°C', '1,016毫巴', '每小时0公里', '10.00公里', '部分多云 (1,524米)', '本地:', '00:00、2019年10月6日周日', '协调世界时:', '16:00、2019年10月5日周六', '来源:', 'USAF 每小时地面观测', '报告类型:', 'METAR 航空例行天气报告', '露点:', '17.0°C', '上午1:00', '21°C', '1,016毫巴', '每小时0公里', '10.00公里', '部分多云 (1,311米)', '本地:', '01:00、2019年10月6日周日', '协调世界时:', '17:00、2019年10月5日周六', '来源:', '周期文件', '趋势:', '无重要变化', '露点:', '18°C', '原始:', 'ZUUU 051700Z 00000MPS 9999 SCT043 21/18 Q1016 NOSIG', '上午1:00', '21.0°C', '1,016毫巴', '每小时0公里', '10.00公里', '部分多云 (1,311米)', '本地:', '01:00、2019年10月6日周日', '协调世界时:', '17:00、2019年10月5日周六', '来源:', 'USAF 每小时地面观测', '报告类型:', 'METAR 航空例行天气报告', '露点:', '18.0°C', '上午2:00', '21°C', '1,015毫巴', '每小时0公里', '10.00公里', '部分多云 (1,311米)', '本地:', '02:00、2019年10月6日周日', '协调世界时:', '18:00、2019年10月5日周六', '来源:', '周期文件', '趋势:', '无重要变化', '露点:', '18°C', '原始:', 'ZUUU 051800Z 00000MPS 9999 SCT043 21/18 Q1015 NOSIG', '上午2:00', '21.0°C', '1,015毫巴', '每小时0公里', '10.00公里', '部分多云 (1,311米)', '本地:', '02:00、2019年10月6日周日', '协调世界时:', '18:00、2019年10月5日周六', '来源:', 'USAF 每小时地面观测', '报告类型:', 'METAR 航空例行天气报告', '露点:', '18.0°C', '上午3:00', '22°C', '1,015毫巴', '每小时7.20公里, 东', '10.00公里', '部分多云 (1,311米)', '本地:', '03:00、2019年10月6日周日', '协调世界时:', '19:00、2019年10月5日周六', '来源:', '周期文件', '趋势:', '无重要变化', '露点:', '17°C', '原始:', 'ZUUU 051900Z 09002MPS 9999 SCT043 22/17 Q1015 NOSIG', '上午3:00', '22.0°C', '1,015毫巴', '每小时7.20公里, 东', '10.00公里', '部分多云 (1,311米)', '本地:', '03:00、2019年10月6日周日', '协调世界时:', '19:00、2019年10月5日周六', '来源:', 'USAF 每小时地面观测', '报告类型:', 'METAR 航空例行天气报告', '露点:', '17.0°C', '上午4:00', '21°C', '1,015毫巴', '每小时7.20公里, 东', '10.00公里', '部分多云 (1,311米)', '本地:', '04:00、2019年10月6日周日', '协调世界时:', '20:00、2019年10月5日周六', '来源:', '周期文件', '趋势:', '无重要变化', '露点:', '17°C', '原始:', 'ZUUU 052000Z 10002MPS 9999 SCT043 21/17 Q1015 NOSIG', '上午4:00', '21.0°C', '1,015毫巴', '每小时7.20公里, 东', '10.00公里', '部分多云 (1,311米)', '本地:', '04:00、2019年10月6日周日', '协调世界时:', '20:00、2019年10月5日周六', '来源:', 'USAF 每小时地面观测', '报告类型:', 'METAR 航空例行天气报告', '露点:', '17.0°C', '上午5:00', '21°C', '1,015毫巴', '每小时3.60公里', '10.00公里', '部分多云 (1,219米)', '本地:', '05:00、2019年10月6日周日', '协调世界时:', '21:00、2019年10月5日周六', '来源:', '周期文件', '趋势:', '无重要变化', '露点:', '17°C', '原始:', 'ZUUU 052100Z VRB01MPS 9999 SCT040 21/17 Q1015 NOSIG', '上午5:00', '21.0°C', '1,015毫巴', '每小时3.60公里', '10.00公里', '部分多云 (1,219米)', '本地:', '05:00、2019年10月6日周日', '协调世界时:', '21:00、2019年10月5日周六', '来源:', 'USAF 每小时地面观测', '报告类型:', 'METAR 航空例行天气报告', '露点:', '17.0°C', '上午6:00', '21°C', '1,015毫巴', '每小时0公里', '10.00公里', '部分多云 (1,006米)', '本地:', '06:00、2019年10月6日周日', '协调世界时:', '22:00、2019年10月5日周六', '来源:', '周期文件', '趋势:', '无重要变化', '露点:', '18°C', '原始:', 'ZUUU 052200Z 00000MPS 9999 SCT033 21/18 Q1015 NOSIG', '上午6:00', '21.0°C', '1,015毫巴', '每小时0公里', '10.00公里', '部分多云 (1,006米)', '本地:', '06:00、2019年10月6日周日', '协调世界时:', '22:00、2019年10月5日周六', '来源:', 'USAF 每小时地面观测', '报告类型:', 'METAR 航空例行天气报告', '露点:', '18.0°C', '上午7:00', '20°C', '1,015毫巴', '每小时0公里', '10.00公里', '部分多云 (1,219米)', '本地:', '07:00、2019年10月6日周日', '协调世界时:', '23:00、2019年10月5日周六', '来源:', '周期文件', '趋势:', '无重要变化', '露点:', '18°C', '原始:', 'ZUUU 052300Z 00000MPS 9999 SCT040 20/18 Q1015 NOSIG', '上午7:00', '20.0°C', '1,015毫巴', '每小时0公里', '10.00公里', '部分多云 (1,219米)', '本地:', '07:00、2019年10月6日周日', '协调世界时:', '23:00、2019年10月5日周六', '来源:', 'USAF 每小时地面观测', '报告类型:', 'METAR 航空例行天气报告', '露点:', '18.0°C', '上午8:00', '21°C', '1,016毫巴', '每小时0公里', '10.00公里', '部分多云 (1,219米)', '本地:', '08:00、2019年10月6日周日', '协调世界时:', '00:00、2019年10月6日周日', '来源:', '周期文件', '趋势:', '无重要变化', '露点:', '18°C', '原始:', 'ZUUU 060000Z 00000MPS 9999 SCT040 21/18 Q1016 NOSIG', '上午8:00', '21.0°C', '1,016毫巴', '每小时0公里', '10.00公里', '部分多云 (1,219米)', '本地:', '08:00、2019年10月6日周日', '协调世界时:', '00:00、2019年10月6日周日', '来源:', 'USAF 每小时地面观测', '报告类型:', 'METAR 航空例行天气报告', '露点:', '18.0°C', '上午9:00', '21°C', '1,017毫巴', '每小时0公里', '10.00公里', '部分多云 (1,219米)', '本地:', '09:00、2019年10月6日周日', '协调世界时:', '01:00、2019年10月6日周日', '来源:', '周期文件', '趋势:', '无重要变化', '露点:', '18°C', '其他云层:', '大部分晴天 (610米)', '原始:', 'ZUUU 060100Z 00000MPS 9999 FEW020 SCT040 21/18 Q1017 NOSIG', '上午9:00', '21.0°C', '1,017毫巴', '每小时0公里', '10.00公里', '部分多云 (1,219米)', '本地:', '09:00、2019年10月6日周日', '协调世界时:', '01:00、2019年10月6日周日', '来源:', 'USAF 每小时地面观测', '报告类型:', 'METAR 航空例行天气报告', '露点:', '18.0°C', '其他云层:', '大部分晴天 (610米)', '上午10:00', '22°C', '1,017毫巴', '每小时7.20公里, 东北', '10.00公里', '部分多云 (792米)', '本地:', '10:00、2019年10月6日周日', '协调世界时:', '02:00、2019年10月6日周日', '来源:', '周期文件', '趋势:', '无重要变化', '露点:', '18°C', '其他云层:', '大部分晴天 (610米)', '原始:', 'ZUUU 060200Z 06002MPS 360V160 9999 FEW020 SCT026 22/18 Q1017 NOSIG', '上午10:00', '22.0°C', '1,017毫巴', '每小时7.20公里, 东北', '10.00公里', '部分多云 (792米)', '本地:', '10:00、2019年10月6日周日', '协调世界时:', '02:00、2019年10月6日周日', '来源:', 'USAF 每小时地面观测', '报告类型:', 'METAR 航空例行天气报告', '露点:', '18.0°C', '其他云层:', '大部分晴天 (610米)', '上午11:00', '21°C', '1,017毫巴', '每小时7.20公里, 东北', '10.00公里', '部分多云 (1,006米)', '本地:', '11:00、2019年10月6日周日', '协调世界时:', '03:00、2019年10月6日周日', '来源:', '周期文件', '趋势:', '无重要变化', '露点:', '17°C', '其他云层:', '大部分晴天 (610米)', '原始:', 'ZUUU 060300Z 03002MPS 360V090 9999 FEW020 SCT033 21/17 Q1017 NOSIG', '上午11:00', '21.0°C', '1,017毫巴', '每小时7.20公里, 东北', '10.00公里', '部分多云 (1,006米)', '本地:', '11:00、2019年10月6日周日', '协调世界时:', '03:00、2019年10月6日周日', '来源:', 'USAF 每小时地面观测', '报告类型:', 'METAR 航空例行天气报告', '露点:', '17.0°C', '其他云层:', '大部分晴天 (610米)', '下午12:00', '22°C', '1,017毫巴', '每小时14.4公里, 东北', '10.00公里', '部分多云 (1,006米)', '本地:', '12:00、2019年10月6日周日', '协调世界时:', '04:00、2019年10月6日周日', '来源:', '周期文件', '趋势:', '无重要变化', '露点:', '17°C', '其他云层:', '大部分晴天 (610米)', '原始:', 'ZUUU 060400Z 03004MPS 9999 FEW020 SCT033 22/17 Q1017 NOSIG', '下午12:00', '22.0°C', '1,017毫巴', '每小时14.4公里, 东北', '10.00公里', '部分多云 (1,006米)', '本地:', '12:00、2019年10月6日周日', '协调世界时:', '04:00、2019年10月6日周日', '来源:', 'USAF 每小时地面观测', '报告类型:', 'METAR 航空例行天气报告', '露点:', '17.0°C', '其他云层:', '大部分晴天 (610米)', '下午1:00', '22°C', '1,016毫巴', '每小时14.4公里, 北', '10.00公里', '部分多云 (1,006米)', '本地:', '13:00、2019年10月6日周日', '协调世界时:', '05:00、2019年10月6日周日', '来源:', '周期文件', '趋势:', '无重要变化', '露点:', '17°C', '其他云层:', '大部分晴天 (610米)', '原始:', 'ZUUU 060500Z 02004MPS 350V050 9999 FEW020 SCT033 22/17 Q1016 NOSIG', '下午1:00', '22.0°C', '1,016毫巴', '每小时14.4公里, 北', '10.00公里', '部分多云 (1,006米)', '本地:', '13:00、2019年10月6日周日', '协调世界时:', '05:00、2019年10月6日周日', '来源:', 'USAF 每小时地面观测', '报告类型:', 'METAR 航空例行天气报告', '露点:', '17.0°C', '其他云层:', '大部分晴天 (610米)', '下午2:00', '22°C', '1,016毫巴', '每小时7.20公里, 北', '10.00公里', '部分多云 (1,006米)', '本地:', '14:00、2019年10月6日周日', '协调世界时:', '06:00、2019年10月6日周日', '来源:', '周期文件', '趋势:', '无重要变化', '露点:', '17°C', '其他云层:', '大部分晴天 (610米)', '原始:', 'ZUUU 060600Z 36002MPS 320V040 9999 FEW020 SCT033 22/17 Q1016 NOSIG', '下午2:00', '22.0°C', '1,016毫巴', '每小时7.20公里, 北', '10.00公里', '部分多云 (1,006米)', '本地:', '14:00、2019年10月6日周日', '协调世界时:', '06:00、2019年10月6日周日', '来源:', 'USAF 每小时地面观测', '报告类型:', 'METAR 航空例行天气报告', '露点:', '17.0°C', '其他云层:', '大部分晴天 (610米)', '下午3:00', '22°C', '1,015毫巴', '每小时10.8公里, 北', '10.00公里', '大部分多云 (1,006米)', '本地:', '15:00、2019年10月6日周日', '协调世界时:', '07:00、2019年10月6日周日', '来源:', '周期文件', '趋势:', '无重要变化', '露点:', '17°C', '其他云层:', '大部分晴天 (610米)', '原始:', 'ZUUU 060700Z 01003MPS 310V050 9999 FEW020 BKN033 22/17 Q1015 NOSIG', '下午3:00', '22.0°C', '1,015毫巴', '每小时10.8公里, 北', '10.00公里', '大部分多云 (1,006米)', '本地:', '15:00、2019年10月6日周日', '协调世界时:', '07:00、2019年10月6日周日', '来源:', 'USAF 每小时地面观测', '报告类型:', 'METAR 航空例行天气报告', '露点:', '17.0°C', '其他云层:', '大部分晴天 (610米)', '下午4:00', '22°C', '1,015毫巴', '每小时10.8公里, 北', '10.00公里', '大部分多云 (1,006米)', '本地:', '16:00、2019年10月6日周日', '协调世界时:', '08:00、2019年10月6日周日', '来源:', '周期文件', '趋势:', '无重要变化', '露点:', '18°C', '其他云层:', '大部分晴天 (610米)', '原始:', 'ZUUU 060800Z 01003MPS 330V040 9999 FEW020 BKN033 22/18 Q1015 NOSIG', '下午4:00', '22.0°C', '1,015毫巴', '每小时10.8公里, 北', '10.00公里', '大部分多云 (1,006米)', '本地:', '16:00、2019年10月6日周日', '协调世界时:', '08:00、2019年10月6日周日', '来源:', 'USAF 每小时地面观测', '报告类型:', 'METAR 航空例行天气报告', '露点:', '18.0°C', '其他云层:', '大部分晴天 (610米)', '下午5:00', '21°C', '1,016毫巴', '每小时14.4公里, 北', '10.00公里', '大部分多云 (1,006米)', '本地:', '17:00、2019年10月6日周日', '协调世界时:', '09:00、2019年10月6日周日', '来源:', '周期文件', '趋势:', '无重要变化', '露点:', '17°C', '其他云层:', '大部分晴天 (610米)', '原始:', 'ZUUU 060900Z 02004MPS 9999 FEW020 BKN033 21/17 Q1016 NOSIG', '下午5:00', '21.0°C', '1,016毫巴', '每小时14.4公里, 北', '10.00公里', '大部分多云 (1,006米)', '本地:', '17:00、2019年10月6日周日', '协调世界时:', '09:00、2019年10月6日周日', '来源:', 'USAF 每小时地面观测', '报告类型:', 'METAR 航空例行天气报告', '露点:', '17.0°C', '其他云层:', '大部分晴天 (610米)', '下午6:00', '21°C', '1,016毫巴', '每小时10.8公里, 北', '10.00公里', '部分多云 (1,219米)', '本地:', '18:00、2019年10月6日周日', '协调世界时:', '10:00、2019年10月6日周日', '来源:', '周期文件', '趋势:', '无重要变化', '露点:', '17°C', '其他云层:', '大部分晴天 (610米)', '原始:', 'ZUUU 061000Z 01003MPS 320V040 9999 FEW020 SCT040 21/17 Q1016 NOSIG', '下午6:00', '21.0°C', '1,016毫巴', '每小时10.8公里, 北', '10.00公里', '部分多云 (1,219米)', '本地:', '18:00、2019年10月6日周日', '协调世界时:', '10:00、2019年10月6日周日', '来源:', 'USAF 每小时地面观测', '报告类型:', 'METAR 航空例行天气报告', '露点:', '17.0°C', '其他云层:', '大部分晴天 (610米)', '下午7:00', '21°C', '1,017毫巴', '每小时10.8公里, 北', '10.00公里', '部分多云 (1,219米)', '本地:', '19:00、2019年10月6日周日', '协调世界时:', '11:00、2019年10月6日周日', '来源:', '周期文件', '趋势:', '无重要变化', '露点:', '16°C', '原始:', 'ZUUU 061100Z 01003MPS 330V030 9999 SCT040 21/16 Q1017 NOSIG', '下午7:00', '21.0°C', '1,017毫巴', '每小时10.8公里, 北', '10.00公里', '部分多云 (1,219米)', '本地:', '19:00、2019年10月6日周日', '协调世界时:', '11:00、2019年10月6日周日', '来源:', 'USAF 每小时地面观测', '报告类型:', 'METAR 航空例行天气报告', '露点:', '16.0°C', '下午8:00', '21°C', '1,018毫巴', '每小时7.20公里, 北', '10.00公里', '部分多云 (1,219米)', '本地:', '20:00、2019年10月6日周日', '协调世界时:', '12:00、2019年10月6日周日', '来源:', '周期文件', '趋势:', '无重要变化', '露点:', '15°C', '原始:', 'ZUUU 061200Z 36002MPS 320V030 9999 SCT040 21/15 Q1018 NOSIG', '下午8:00', '21.0°C', '1,018毫巴', '每小时7.20公里, 北', '10.00公里', '部分多云 (1,219米)', '本地:', '20:00、2019年10月6日周日', '协调世界时:', '12:00、2019年10月6日周日', '来源:', 'USAF 每小时地面观测', '报告类型:', 'METAR 航空例行天气报告', '露点:', '15.0°C', '下午9:00', '21°C', '1,019毫巴', '每小时7.20公里, 北', '10.00公里', '部分多云 (1,219米)', '本地:', '21:00、2019年10月6日周日', '协调世界时:', '13:00、2019年10月6日周日', '来源:', '周期文件', '趋势:', '无重要变化', '露点:', '15°C', '天气:', 'Showers of Light Rain', '原始:', 'ZUUU 061300Z 01002MPS 9999 -SHRA SCT040 21/15 Q1019 NOSIG', '下午9:00', '21.0°C', '1,019毫巴', '每小时7.20公里, 北', '10.00公里', '部分多云 (1,219米)', '本地:', '21:00、2019年10月6日周日', '协调世界时:', '13:00、2019年10月6日周日', '来源:', 'USAF 每小时地面观测', '报告类型:', 'METAR 航空例行天气报告', '露点:', '15.0°C', '天气:', 'Showers of Light Rain', '下午10:00', '21°C', '1,019毫巴', '每小时0公里', '10.00公里', '部分多云 (1,219米)', '本地:', '22:00、2019年10月6日周日', '协调世界时:', '14:00、2019年10月6日周日', '来源:', '周期文件', '趋势:', '无重要变化', '露点:', '16°C', '原始:', 'ZUUU 061400Z 00000MPS 9999 SCT040 21/16 Q1019 NOSIG', '下午10:00', '21.0°C', '1,019毫巴', '每小时0公里', '10.00公里', '部分多云 (1,219米)', '本地:', '22:00、2019年10月6日周日', '协调世界时:', '14:00、2019年10月6日周日', '来源:', 'USAF 每小时地面观测', '报告类型:', 'METAR 航空例行天气报告', '露点:', '16.0°C', '下午11:00', '20°C', '1,019毫巴', '每小时0公里', '10.00公里', '部分多云 (1,219米)', '本地:', '23:00、2019年10月6日周日', '协调世界时:', '15:00、2019年10月6日周日', '来源:', '周期文件', '趋势:', '无重要变化', '露点:', '16°C', '原始:', 'ZUUU 061500Z 00000MPS 9999 SCT040 20/16 Q1019 NOSIG', '下午11:00', '20.0°C', '1,019毫巴', '每小时0公里', '10.00公里', '部分多云 (1,219米)', '本地:', '23:00、2019年10月6日周日', '协调世界时:', '15:00、2019年10月6日周日', '来源:', 'USAF 每小时地面观测', '报告类型:', 'METAR 航空例行天气报告', '露点:', '16.0°C']