['Recent Thunderstorm', 'RETS', 'Thunderstorm', 'TS、IWC17', 'Thunderstorm、Thunderstorm with Rain', 'TS、IWC17、TSRA', 'Thunderstorm with Light Rain、Thunderstorm with Rain、Mist', '-TSRA、TSRA、IWC95、BR、IWC10', 'Thunderstorm with Heavy Rain、Thunderstorm with Rain、Mist', '+TSRA、IWC97、TSRA、BR、IWC10', 'Thunderstorm with Light Rain、Thunderstorm with Rain、Recent Showers of Rain、Showers of Light Rain', '-TSRA、IWC95、RESHRA、-SHRA', 'Recent Thunderstorm、Showers of Light Rain', 'RETS、-SHRA、IWC80', 'Showers of Light Rain', '-SHRA、IWC80', 'Showers of Light Rain', '-SHRA、IWC80', 'Showers of Light Rain', '-SHRA、IWC80', 'Showers of Light Rain', '-SHRA、IWC80', 'Showers of Light Rain', '-SHRA、IWC80', '上午12:00', '26°C', '1,002毫巴', '每小时7.20公里, 北', '10.00公里', '部分多云 (1,524米)', '本地:', '00:00、2019年7月22日周一', '协调世界时:', '16:00、2019年7月21日周日', '来源:', '周期文件', '趋势:', '无重要变化', '露点:', '24°C', '天气:', 'Recent Thunderstorm', '原始:', 'ZUUU 211600Z 01002MPS 340V040 9999 SCT050 26/24 Q1002 RETS NOSIG', '上午12:00', '26.0°C', '1,002毫巴', '每小时7.20公里, 北', '10.00公里', '部分多云 (1,524米)', '本地:', '00:00、2019年7月22日周一', '协调世界时:', '16:00、2019年7月21日周日', '来源:', 'USAF 每小时地面观测', '报告类型:', 'METAR 航空例行天气报告', '露点:', '24.0°C', '上午1:00', '26°C', '1,002毫巴', '每小时7.20公里, 北', '10.00公里', '部分多云 (1,219米)', '本地:', '01:00、2019年7月22日周一', '协调世界时:', '17:00、2019年7月21日周日', '来源:', '周期文件', '趋势:', '无重要变化', '露点:', '24°C', '其他云层:', '大部分晴天 (1,219米)', '原始:', 'ZUUU 211700Z 02002MPS 9999 FEW040TCU SCT040 26/24 Q1002 NOSIG', '上午1:00', '26.0°C', '1,002毫巴', '每小时7.20公里, 北', '10.00公里', '部分多云 (1,219米)', '本地:', '01:00、2019年7月22日周一', '协调世界时:', '17:00、2019年7月21日周日', '来源:', 'USAF 每小时地面观测', '报告类型:', 'METAR 航空例行天气报告', '露点:', '24.0°C', '其他云层:', '大部分晴天 (1,219米)', '上午2:00', '26°C', '1,002毫巴', '每小时7.20公里, 北', '10.00公里', '部分多云 (1,006米)', '本地:', '02:00、2019年7月22日周一', '协调世界时:', '18:00、2019年7月21日周日', '来源:', '周期文件', '趋势:', '无重要变化', '露点:', '24°C', '其他云层:', '大部分晴天 (1,006米)', '原始:', 'ZUUU 211800Z 35002MPS 310V020 9999 FEW033TCU SCT033 26/24 Q1002 NOSIG', '上午2:00', '26.0°C', '1,002毫巴', '每小时7.20公里, 北', '10.00公里', '部分多云 (1,006米)', '本地:', '02:00、2019年7月22日周一', '协调世界时:', '18:00、2019年7月21日周日', '来源:', 'USAF 每小时地面观测', '报告类型:', 'METAR 航空例行天气报告', '露点:', '24.0°C', '其他云层:', '大部分晴天 (1,006米)', '上午3:00', '26°C', '1,002毫巴', '每小时7.20公里, 北', '10.00公里', '部分多云 (1,006米)', '本地:', '03:00、2019年7月22日周一', '协调世界时:', '19:00、2019年7月21日周日', '来源:', '周期文件', '趋势:', '无重要变化', '露点:', '24°C', '其他云层:', '大部分晴天 (1,006米)', '原始:', 'ZUUU 211900Z 36002MPS 320V030 9999 FEW033TCU SCT033 26/24 Q1002 NOSIG', '上午3:00', '26.0°C', '1,002毫巴', '每小时7.20公里, 北', '10.00公里', '部分多云 (1,006米)', '本地:', '03:00、2019年7月22日周一', '协调世界时:', '19:00、2019年7月21日周日', '来源:', 'USAF 每小时地面观测', '报告类型:', 'METAR 航空例行天气报告', '露点:', '24.0°C', '其他云层:', '大部分晴天 (1,006米)', '上午4:00', '26°C', '1,002毫巴', '每小时7.20公里, 北', '10.00公里', '部分多云 (914米)', '本地:', '04:00、2019年7月22日周一', '协调世界时:', '20:00、2019年7月21日周日', '来源:', '周期文件', '趋势:', '无重要变化', '露点:', '23°C', '其他云层:', '大部分晴天 (914米)', '原始:', 'ZUUU 212000Z 36002MPS 320V040 9999 FEW030TCU SCT030 26/23 Q1002 NOSIG', '上午4:00', '26.0°C', '1,002毫巴', '每小时7.20公里, 北', '10.00公里', '部分多云 (914米)', '本地:', '04:00、2019年7月22日周一', '协调世界时:', '20:00、2019年7月21日周日', '来源:', 'USAF 每小时地面观测', '报告类型:', 'METAR 航空例行天气报告', '露点:', '23.0°C', '其他云层:', '大部分晴天 (914米)', '上午5:00', '26°C', '1,001毫巴', '每小时7.20公里, 北', '10.00公里', '部分多云 (914米)', '本地:', '05:00、2019年7月22日周一', '协调世界时:', '21:00、2019年7月21日周日', '来源:', '周期文件', '趋势:', '无重要变化', '露点:', '23°C', '其他云层:', '大部分晴天 (914米)', '原始:', 'ZUUU 212100Z 36002MPS 330V030 9999 FEW030TCU SCT030 26/23 Q1001 NOSIG', '上午5:00', '26.0°C', '1,001毫巴', '每小时7.20公里, 北', '10.00公里', '部分多云 (914米)', '本地:', '05:00、2019年7月22日周一', '协调世界时:', '21:00、2019年7月21日周日', '来源:', 'USAF 每小时地面观测', '报告类型:', 'METAR 航空例行天气报告', '露点:', '23.0°C', '其他云层:', '大部分晴天 (914米)', '上午6:00', '26°C', '1,001毫巴', '每小时3.60公里', '10.00公里', '大部分晴天 (1,219米)', '本地:', '06:00、2019年7月22日周一', '协调世界时:', '22:00、2019年7月21日周日', '来源:', '周期文件', '趋势:', '无重要变化', '露点:', '23°C', '原始:', 'ZUUU 212200Z VRB01MPS 9999 FEW040TCU FEW040 26/23 Q1001 NOSIG', '上午6:00', '26.0°C', '1,001毫巴', '每小时3.60公里', '10.00公里', '大部分晴天 (1,219米)', '本地:', '06:00、2019年7月22日周一', '协调世界时:', '22:00、2019年7月21日周日', '来源:', 'USAF 每小时地面观测', '报告类型:', 'METAR 航空例行天气报告', '露点:', '23.0°C', '上午7:00', '26°C', '1,002毫巴', '每小时3.60公里', '10.00公里', '部分多云 (1,219米)', '本地:', '07:00、2019年7月22日周一', '协调世界时:', '23:00、2019年7月21日周日', '来源:', '周期文件', '趋势:', '无重要变化', '露点:', '23°C', '原始:', 'ZUUU 212300Z VRB01MPS 9999 SCT040 26/23 Q1002 NOSIG', '上午7:00', '26.0°C', '1,002毫巴', '每小时3.60公里', '10.00公里', '部分多云 (1,219米)', '本地:', '07:00、2019年7月22日周一', '协调世界时:', '23:00、2019年7月21日周日', '来源:', 'USAF 每小时地面观测', '报告类型:', 'METAR 航空例行天气报告', '露点:', '23.0°C', '上午8:00', '26°C', '1,003毫巴', '每小时3.60公里', '10.00公里', '部分多云 (914米)', '本地:', '08:00、2019年7月22日周一', '协调世界时:', '00:00、2019年7月22日周一', '来源:', '周期文件', '趋势:', '无重要变化', '露点:', '24°C', '其他云层:', '大部分晴天 (914米)', '原始:', 'ZUUU 220000Z VRB01MPS 9999 FEW030TCU SCT030 26/24 Q1003 NOSIG', '上午8:00', '26.0°C', '1,003毫巴', '每小时3.60公里', '10.00公里', '部分多云 (914米)', '本地:', '08:00、2019年7月22日周一', '协调世界时:', '00:00、2019年7月22日周一', '来源:', 'USAF 每小时地面观测', '报告类型:', 'METAR 航空例行天气报告', '露点:', '24.0°C', '其他云层:', '大部分晴天 (914米)', '上午9:00', '26°C', '1,003毫巴', '每小时3.60公里', '10.00公里', '部分多云 (914米)', '本地:', '09:00、2019年7月22日周一', '协调世界时:', '01:00、2019年7月22日周一', '来源:', '周期文件', '趋势:', '变化为', '露点:', '24°C', '天气:', 'Thunderstorm', '原始:', 'ZUUU 220100Z VRB01MPS 9999 TS SCT030 SCT030CB 26/24 Q1003 BECMG TL0230 NSW', '上午9:00', '26.0°C', '1,003毫巴', '每小时3.60公里', '10.00公里', '部分多云 (914米)', '本地:', '09:00、2019年7月22日周一', '协调世界时:', '01:00、2019年7月22日周一', '来源:', 'USAF 每小时地面观测', '报告类型:', 'METAR 航空例行天气报告', '露点:', '24.0°C', '天气:', 'Thunderstorm', '上午10:00', '27°C', '1,003毫巴', '每小时7.20公里, 西北', '7.00公里', '部分多云 (701米)', '本地:', '10:00、2019年7月22日周一', '协调世界时:', '02:00、2019年7月22日周一', '来源:', '周期文件', '趋势:', '变化为', '露点:', '24°C', '天气:', 'Thunderstorm、Thunderstorm with Rain', '原始:', 'ZUUU 220200Z 30002MPS 260V350 7000 TS SCT023 SCT023CB 27/24 Q1003 BECMG TL0230 23005MPS TSRA', '上午10:00', '27.0°C', '1,003毫巴', '每小时7.20公里, 西北', '7.00公里', '部分多云 (701米)', '本地:', '10:00、2019年7月22日周一', '协调世界时:', '02:00、2019年7月22日周一', '来源:', 'USAF 每小时地面观测', '报告类型:', 'METAR 航空例行天气报告', '露点:', '24.0°C', '天气:', 'Thunderstorm', '上午11:00', '23°C', '1,003毫巴', '每小时25.2公里, 西', '4.00公里', '部分多云 (183米)', '本地:', '11:00、2019年7月22日周一', '协调世界时:', '03:00、2019年7月22日周一', '来源:', '周期文件', '趋势:', '变化为', '露点:', '22°C', '阵风风速:', '每小时43.2公里', '其他云层:', '部分多云 (610米)', '天气:', 'Thunderstorm with Rain、Mist、Thunderstorm with Light Rain', '原始:', 'ZUUU 220300Z 27007G12MPS 240V310 4000 TSRA BR SCT006 SCT020 SCT020CB 23/22 Q1003 BECMG TL0430 -TSRA', '上午11:00', '23.0°C', '1,003毫巴', '每小时25.2公里, 西', '4.00公里', '部分多云 (183米)', '本地:', '11:00、2019年7月22日周一', '协调世界时:', '03:00、2019年7月22日周一', '来源:', 'USAF 每小时地面观测', '报告类型:', 'METAR 航空例行天气报告', '露点:', '22.0°C', '阵风风速:', '每小时43.2公里', '其他云层:', '部分多云 (610米)', '天气:', 'Mist、Thunderstorm with Rain', '下午12:00', '24°C', '1,004毫巴', '每小时21.6公里, 北', '1.20公里', '大部分多云 (610米)', '本地:', '12:00、2019年7月22日周一', '协调世界时:', '04:00、2019年7月22日周一', '来源:', '周期文件', '趋势:', '变化为', '露点:', '23°C', '阵风风速:', '每小时54.0公里', '其他云层:', '部分多云 (183米)、部分多云 (610米)', '天气:', 'Thunderstorm with Heavy Rain、Mist、Thunderstorm with Rain', '原始:', 'ZUUU 220400Z 01006G15MPS 310V060 1200 R02L/P2000N R02R/P2000N +TSRA BR SCT006 SCT020 BKN020CB 24/23 Q1004 BECMG TL0530 2000 TSRA', '下午12:00', '24.0°C', '1,004毫巴', '每小时21.6公里, 北', '1.20公里', '大部分多云 (610米)', '本地:', '12:00、2019年7月22日周一', '协调世界时:', '04:00、2019年7月22日周一', '来源:', 'USAF 每小时地面观测', '报告类型:', 'METAR 航空例行天气报告', '露点:', '23.0°C', '阵风风速:', '每小时54.0公里', '其他云层:', '部分多云 (183米)、部分多云 (610米)', '天气:', 'Mist、Thunderstorm with Heavy Rain', '下午1:00', '23°C', '1,004毫巴', '每小时28.8公里, 东北', '10.00公里', '部分多云 (305米)', '本地:', '13:00、2019年7月22日周一', '协调世界时:', '05:00、2019年7月22日周一', '来源:', '周期文件', '趋势:', '变化为', '露点:', '20°C', '其他云层:', '大部分晴天 (610米)、部分多云 (610米)', '天气:', 'Thunderstorm with Light Rain、Showers of Light Rain', '原始:', 'ZUUU 220500Z 06008MPS 9999 -TSRA SCT010 FEW020CB SCT020 23/20 Q1004 BECMG TL0600 -SHRA', '下午1:00', '23°C', '1,004毫巴', '每小时28.8公里, 东北', '10.00公里', '部分多云 (305米)', '本地:', '13:00、2019年7月22日周一', '协调世界时:', '05:00、2019年7月22日周一', '来源:', '周期文件', '趋势:', '变化为', '露点:', '20°C', '其他云层:', '大部分晴天 (610米)、部分多云 (610米)', '天气:', 'Thunderstorm with Light Rain、Recent Showers of Rain、Showers of Light Rain', '原始:', 'ZUUU 220500Z 06008MPS 9999 -TSRA SCT010 FEW020CB SCT020 23/20 Q1004 RESHRA BECMG TL0600 -SHRA', '下午1:00', '23.0°C', '1,004毫巴', '每小时28.8公里, 东北', '10.00公里', '部分多云 (305米)', '本地:', '13:00、2019年7月22日周一', '协调世界时:', '05:00、2019年7月22日周一', '来源:', 'USAF 每小时地面观测', '报告类型:', 'METAR 航空例行天气报告', '露点:', '20.0°C', '其他云层:', '大部分晴天 (610米)、部分多云 (610米)', '天气:', 'Thunderstorm with Rain', '下午2:00', '24°C', '1,005毫巴', '每小时10.8公里, 东', '10.00公里', '部分多云 (305米)', '本地:', '14:00、2019年7月22日周一', '协调世界时:', '06:00、2019年7月22日周一', '来源:', '周期文件', '趋势:', '无重要变化', '露点:', '20°C', '其他云层:', '大部分晴天 (610米)', '天气:', 'Showers of Light Rain、Recent Thunderstorm', '原始:', 'ZUUU 220600Z 08003MPS 030V140 9999 -SHRA SCT010 FEW020CB 24/20 Q1005 RETS NOSIG', '下午2:00', '24.0°C', '1,005毫巴', '每小时10.8公里, 东', '10.00公里', '部分多云 (305米)', '本地:', '14:00、2019年7月22日周一', '协调世界时:', '06:00、2019年7月22日周一', '来源:', 'USAF 每小时地面观测', '报告类型:', 'METAR 航空例行天气报告', '露点:', '20.0°C', '其他云层:', '大部分晴天 (610米)', '天气:', 'Showers of Light Rain', '下午3:00', '23°C', '1,004毫巴', '每小时7.20公里, 北', '10.00公里', '部分多云 (305米)', '本地:', '15:00、2019年7月22日周一', '协调世界时:', '07:00、2019年7月22日周一', '来源:', '周期文件', '趋势:', '无重要变化', '露点:', '21°C', '其他云层:', '大部分晴天 (792米)', '天气:', 'Showers of Light Rain', '原始:', 'ZUUU 220700Z 34002MPS 270V040 9999 -SHRA SCT010 FEW026CB 23/21 Q1004 NOSIG', '下午3:00', '23.0°C', '1,004毫巴', '每小时7.20公里, 北', '10.00公里', '部分多云 (305米)', '本地:', '15:00、2019年7月22日周一', '协调世界时:', '07:00、2019年7月22日周一', '来源:', 'USAF 每小时地面观测', '报告类型:', 'METAR 航空例行天气报告', '露点:', '21.0°C', '其他云层:', '大部分晴天 (792米)', '天气:', 'Showers of Light Rain', '下午4:00', '23°C', '1,004毫巴', '每小时10.8公里, 西北', '10.00公里', '大部分多云 (1,219米)', '本地:', '16:00、2019年7月22日周一', '协调世界时:', '08:00、2019年7月22日周一', '来源:', '周期文件', '趋势:', '无重要变化', '露点:', '22°C', '其他云层:', '部分多云 (305米)', '天气:', 'Showers of Light Rain', '原始:', 'ZUUU 220800Z 30003MPS 270V340 9999 -SHRA SCT010 BKN040 23/22 Q1004 NOSIG', '下午4:00', '23.0°C', '1,004毫巴', '每小时10.8公里, 西北', '10.00公里', '大部分多云 (1,219米)', '本地:', '16:00、2019年7月22日周一', '协调世界时:', '08:00、2019年7月22日周一', '来源:', 'USAF 每小时地面观测', '报告类型:', 'METAR 航空例行天气报告', '露点:', '22.0°C', '其他云层:', '部分多云 (305米)', '天气:', 'Showers of Light Rain', '下午5:00', '23°C', '1,003毫巴', '每小时10.8公里, 西南', '10.00公里', '部分多云 (1,524米)', '本地:', '17:00、2019年7月22日周一', '协调世界时:', '09:00、2019年7月22日周一', '来源:', '周期文件', '趋势:', '无重要变化', '露点:', '22°C', '其他云层:', '大部分晴天 (1,219米)', '天气:', 'Showers of Light Rain', '原始:', 'ZUUU 220900Z 24003MPS 210V270 9999 -SHRA FEW040 SCT050 23/22 Q1003 NOSIG', '下午5:00', '23.0°C', '1,003毫巴', '每小时10.8公里, 西南', '10.00公里', '部分多云 (1,524米)', '本地:', '17:00、2019年7月22日周一', '协调世界时:', '09:00、2019年7月22日周一', '来源:', 'USAF 每小时地面观测', '报告类型:', 'METAR 航空例行天气报告', '露点:', '22.0°C', '其他云层:', '大部分晴天 (1,219米)', '天气:', 'Showers of Light Rain', '下午6:00', '23°C', '1,003毫巴', '每小时14.4公里, 西南', '10.00公里', '部分多云 (1,524米)', '本地:', '18:00、2019年7月22日周一', '协调世界时:', '10:00、2019年7月22日周一', '来源:', '周期文件', '趋势:', '无重要变化', '露点:', '22°C', '其他云层:', '大部分晴天 (366米)', '天气:', 'Showers of Light Rain', '原始:', 'ZUUU 221000Z 23004MPS 9999 -SHRA FEW012 SCT050 23/22 Q1003 NOSIG', '下午6:00', '23.0°C', '1,003毫巴', '每小时14.4公里, 西南', '10.00公里', '部分多云 (1,524米)', '本地:', '18:00、2019年7月22日周一', '协调世界时:', '10:00、2019年7月22日周一', '来源:', 'USAF 每小时地面观测', '报告类型:', 'METAR 航空例行天气报告', '露点:', '22.0°C', '其他云层:', '大部分晴天 (366米)', '天气:', 'Showers of Light Rain', '下午7:00', '24°C', '1,004毫巴', '每小时10.8公里, 西', '10.00公里', '部分多云 (1,524米)', '本地:', '19:00、2019年7月22日周一', '协调世界时:', '11:00、2019年7月22日周一', '来源:', '周期文件', '趋势:', '无重要变化', '露点:', '22°C', '天气:', 'Showers of Light Rain', '原始:', 'ZUUU 221100Z 26003MPS 220V300 9999 -SHRA SCT050 24/22 Q1004 NOSIG', '下午7:00', '24.0°C', '1,004毫巴', '每小时10.8公里, 西', '10.00公里', '部分多云 (1,524米)', '本地:', '19:00、2019年7月22日周一', '协调世界时:', '11:00、2019年7月22日周一', '来源:', 'USAF 每小时地面观测', '报告类型:', 'METAR 航空例行天气报告', '露点:', '22.0°C', '天气:', 'Showers of Light Rain', '下午8:00', '24°C', '1,004毫巴', '每小时3.60公里', '≥ 10.00公里', '晴空万里', '本地:', '20:00、2019年7月22日周一', '协调世界时:', '12:00、2019年7月22日周一', '来源:', '周期文件', '趋势:', '无重要变化', '露点:', '22°C', '晴空万里:', '真', '原始:', 'ZUUU 221200Z VRB01MPS CAVOK 24/22 Q1004 NOSIG', '下午8:00', '24.0°C', '1,004毫巴', '每小时3.60公里', '9.90公里', '晴空万里', '本地:', '20:00、2019年7月22日周一', '协调世界时:', '12:00、2019年7月22日周一', '来源:', 'USAF 每小时地面观测', '报告类型:', 'METAR 航空例行天气报告', '露点:', '22.0°C', '晴空万里:', '真', '下午9:00', '24°C', '1,004毫巴', '每小时7.20公里, 南', '≥ 10.00公里', '晴空万里', '本地:', '21:00、2019年7月22日周一', '协调世界时:', '13:00、2019年7月22日周一', '来源:', '周期文件', '趋势:', '无重要变化', '露点:', '21°C', '晴空万里:', '真', '原始:', 'ZUUU 221300Z 20002MPS 140V300 CAVOK 24/21 Q1004 NOSIG', '下午9:00', '24.0°C', '1,004毫巴', '每小时7.20公里, 南', '9.90公里', '晴空万里', '本地:', '21:00、2019年7月22日周一', '协调世界时:', '13:00、2019年7月22日周一', '来源:', 'USAF 每小时地面观测', '报告类型:', 'METAR 航空例行天气报告', '露点:', '21.0°C', '晴空万里:', '真', '下午10:00', '24°C', '1,005毫巴', '每小时7.20公里, 南', '≥ 10.00公里', '晴空万里', '本地:', '22:00、2019年7月22日周一', '协调世界时:', '14:00、2019年7月22日周一', '来源:', '周期文件', '趋势:', '无重要变化', '露点:', '21°C', '晴空万里:', '真', '原始:', 'ZUUU 221400Z 16002MPS 080V210 CAVOK 24/21 Q1005 NOSIG', '下午10:00', '24.0°C', '1,005毫巴', '每小时7.20公里, 南', '9.90公里', '晴空万里', '本地:', '22:00、2019年7月22日周一', '协调世界时:', '14:00、2019年7月22日周一', '来源:', 'USAF 每小时地面观测', '报告类型:', 'METAR 航空例行天气报告', '露点:', '21.0°C', '晴空万里:', '真', '下午11:00', '23°C', '1,005毫巴', '每小时0公里', '≥ 10.00公里', '晴空万里', '本地:', '23:00、2019年7月22日周一', '协调世界时:', '15:00、2019年7月22日周一', '来源:', '周期文件', '趋势:', '无重要变化', '露点:', '21°C', '晴空万里:', '真', '原始:', 'ZUUU 221500Z 00000MPS CAVOK 23/21 Q1005 NOSIG', '下午11:00', '23.0°C', '1,005毫巴', '每小时0公里', '9.90公里', '晴空万里', '本地:', '23:00、2019年7月22日周一', '协调世界时:', '15:00、2019年7月22日周一', '来源:', 'USAF 每小时地面观测', '报告类型:', 'METAR 航空例行天气报告', '露点:', '21.0°C', '晴空万里:', '真']