['上午12:00', '18°C', '1,012毫巴', '每小时3.60公里', '10.00公里', '大部分多云 (1,311米)', '本地:', '00:00、2019年4月21日周日', '协调世界时:', '16:00、2019年4月20日周六', '来源:', '周期文件', '趋势:', '无重要变化', '露点:', '16°C', '原始:', 'ZUUU 201600Z VRB01MPS 9999 BKN043 18/16 Q1012 NOSIG', '上午12:00', '18.0°C', '1,012毫巴', '每小时3.60公里', '10.00公里', '大部分多云 (1,311米)', '本地:', '00:00、2019年4月21日周日', '协调世界时:', '16:00、2019年4月20日周六', '来源:', 'USAF 每小时地面观测', '报告类型:', 'METAR 航空例行天气报告', '露点:', '16.0°C', '上午1:00', '18°C', '1,012毫巴', '每小时7.20公里, 南', '≥ 10.00公里', '晴空万里', '本地:', '01:00、2019年4月21日周日', '协调世界时:', '17:00、2019年4月20日周六', '来源:', '周期文件', '趋势:', '无重要变化', '露点:', '16°C', '晴空万里:', '真', '原始:', 'ZUUU 201700Z 18002MPS 110V240 CAVOK 18/16 Q1012 NOSIG', '上午1:00', '18.0°C', '1,012毫巴', '每小时7.20公里, 南', '-', '晴空万里', '本地:', '01:00、2019年4月21日周日', '协调世界时:', '17:00、2019年4月20日周六', '来源:', 'USAF 每小时地面观测', '报告类型:', 'METAR 航空例行天气报告', '露点:', '16.0°C', '晴空万里:', '真', '上午2:00', '18°C', '1,011毫巴', '每小时3.60公里, 西南', '≥ 10.00公里', '晴空万里', '本地:', '02:00、2019年4月21日周日', '协调世界时:', '18:00、2019年4月20日周六', '来源:', '周期文件', '趋势:', '无重要变化', '露点:', '16°C', '晴空万里:', '真', '原始:', 'ZUUU 201800Z 22001MPS CAVOK 18/16 Q1011 NOSIG', '上午2:00', '18.0°C', '1,011毫巴', '每小时3.60公里, 西南', '-', '晴空万里', '本地:', '02:00、2019年4月21日周日', '协调世界时:', '18:00、2019年4月20日周六', '来源:', 'USAF 每小时地面观测', '报告类型:', 'METAR 航空例行天气报告', '露点:', '16.0°C', '晴空万里:', '真', '上午3:00', '18°C', '1,010毫巴', '每小时3.60公里', '≥ 10.00公里', '晴空万里', '本地:', '03:00、2019年4月21日周日', '协调世界时:', '19:00、2019年4月20日周六', '来源:', '周期文件', '趋势:', '无重要变化', '露点:', '16°C', '晴空万里:', '真', '原始:', 'ZUUU 201900Z VRB01MPS CAVOK 18/16 Q1010 NOSIG', '上午3:00', '18.0°C', '1,010毫巴', '每小时3.60公里', '-', '晴空万里', '本地:', '03:00、2019年4月21日周日', '协调世界时:', '19:00、2019年4月20日周六', '来源:', 'USAF 每小时地面观测', '报告类型:', 'METAR 航空例行天气报告', '露点:', '16.0°C', '晴空万里:', '真', '上午4:00', '17°C', '1,010毫巴', '每小时0公里', '≥ 10.00公里', '晴空万里', '本地:', '04:00、2019年4月21日周日', '协调世界时:', '20:00、2019年4月20日周六', '来源:', '周期文件', '趋势:', '无重要变化', '露点:', '16°C', '晴空万里:', '真', '原始:', 'ZUUU 202000Z 00000MPS CAVOK 17/16 Q1010 NOSIG', '上午4:00', '17.0°C', '1,010毫巴', '每小时0公里', '-', '晴空万里', '本地:', '04:00、2019年4月21日周日', '协调世界时:', '20:00、2019年4月20日周六', '来源:', 'USAF 每小时地面观测', '报告类型:', 'METAR 航空例行天气报告', '露点:', '16.0°C', '晴空万里:', '真', '上午5:00', '17°C', '1,010毫巴', '每小时0公里', '≥ 10.00公里', '晴空万里', '本地:', '05:00、2019年4月21日周日', '协调世界时:', '21:00、2019年4月20日周六', '来源:', '周期文件', '趋势:', '无重要变化', '露点:', '16°C', '晴空万里:', '真', '原始:', 'ZUUU 202100Z 00000MPS CAVOK 17/16 Q1010 NOSIG', '上午5:00', '17.0°C', '1,010毫巴', '每小时0公里', '-', '晴空万里', '本地:', '05:00、2019年4月21日周日', '协调世界时:', '21:00、2019年4月20日周六', '来源:', 'USAF 每小时地面观测', '报告类型:', 'METAR 航空例行天气报告', '露点:', '16.0°C', '晴空万里:', '真', '上午6:00', '17°C', '1,009毫巴', '每小时0公里', '8.00公里', '无重要云', '本地:', '06:00、2019年4月21日周日', '协调世界时:', '22:00、2019年4月20日周六', '来源:', '周期文件', '趋势:', '无重要变化', '露点:', '16°C', '原始:', 'ZUUU 202200Z 00000MPS 8000 NSC 17/16 Q1009 NOSIG', '上午6:00', '17.0°C', '1,009毫巴', '每小时0公里', '8.00公里', '未检测到云', '本地:', '06:00、2019年4月21日周日', '协调世界时:', '22:00、2019年4月20日周六', '来源:', 'USAF 每小时地面观测', '报告类型:', 'METAR 航空例行天气报告', '露点:', '16.0°C', '上午7:00', '17°C', '1,010毫巴', '每小时3.60公里, 西南', '10.00公里', '部分多云 (1,524米)', '本地:', '07:00、2019年4月21日周日', '协调世界时:', '23:00、2019年4月20日周六', '来源:', '周期文件', '趋势:', '无重要变化', '露点:', '16°C', '原始:', 'ZUUU 202300Z 22001MPS 9999 SCT050 17/16 Q1010 NOSIG', '上午7:00', '17.0°C', '1,010毫巴', '每小时3.60公里, 西南', '10.00公里', '部分多云 (1,524米)', '本地:', '07:00、2019年4月21日周日', '协调世界时:', '23:00、2019年4月20日周六', '来源:', 'USAF 每小时地面观测', '报告类型:', 'METAR 航空例行天气报告', '露点:', '16.0°C', '上午8:00', '18°C', '1,010毫巴', '每小时0公里', '10.00公里', '部分多云 (1,615米)', '本地:', '08:00、2019年4月21日周日', '协调世界时:', '00:00、2019年4月21日周日', '来源:', '周期文件', '趋势:', '无重要变化', '露点:', '17°C', '原始:', 'ZUUU 210000Z 00000MPS 9999 SCT053 18/17 Q1010 NOSIG', '上午8:00', '18.0°C', '1,010毫巴', '每小时0公里', '10.00公里', '部分多云 (1,615米)', '本地:', '08:00、2019年4月21日周日', '协调世界时:', '00:00、2019年4月21日周日', '来源:', 'USAF 每小时地面观测', '报告类型:', 'METAR 航空例行天气报告', '露点:', '17.0°C', '上午9:00', '20°C', '1,011毫巴', '每小时7.20公里, 西南', '≥ 10.00公里', '晴空万里', '本地:', '09:00、2019年4月21日周日', '协调世界时:', '01:00、2019年4月21日周日', '来源:', '周期文件', '趋势:', '无重要变化', '露点:', '16°C', '晴空万里:', '真', '原始:', 'ZUUU 210100Z 22002MPS CAVOK 20/16 Q1011 NOSIG', '上午9:00', '20.0°C', '1,011毫巴', '每小时7.20公里, 西南', '-', '晴空万里', '本地:', '09:00、2019年4月21日周日', '协调世界时:', '01:00、2019年4月21日周日', '来源:', 'USAF 每小时地面观测', '报告类型:', 'METAR 航空例行天气报告', '露点:', '16.0°C', '晴空万里:', '真', '上午10:00', '22°C', '1,011毫巴', '每小时3.60公里', '≥ 10.00公里', '晴空万里', '本地:', '10:00、2019年4月21日周日', '协调世界时:', '02:00、2019年4月21日周日', '来源:', '周期文件', '趋势:', '无重要变化', '露点:', '17°C', '晴空万里:', '真', '原始:', 'ZUUU 210200Z VRB01MPS CAVOK 22/17 Q1011 NOSIG', '上午10:00', '22.0°C', '1,011毫巴', '每小时3.60公里', '-', '晴空万里', '本地:', '10:00、2019年4月21日周日', '协调世界时:', '02:00、2019年4月21日周日', '来源:', 'USAF 每小时地面观测', '报告类型:', 'METAR 航空例行天气报告', '露点:', '17.0°C', '晴空万里:', '真', '上午11:00', '24°C', '1,011毫巴', '每小时7.20公里, 西', '≥ 10.00公里', '晴空万里', '本地:', '11:00、2019年4月21日周日', '协调世界时:', '03:00、2019年4月21日周日', '来源:', '周期文件', '趋势:', '无重要变化', '露点:', '15°C', '晴空万里:', '真', '原始:', 'ZUUU 210300Z 25002MPS 180V320 CAVOK 24/15 Q1011 NOSIG', '上午11:00', '24.0°C', '1,011毫巴', '每小时7.20公里, 西', '-', '晴空万里', '本地:', '11:00、2019年4月21日周日', '协调世界时:', '03:00、2019年4月21日周日', '来源:', 'USAF 每小时地面观测', '报告类型:', 'METAR 航空例行天气报告', '露点:', '15.0°C', '晴空万里:', '真', '下午12:00', '27°C', '1,010毫巴', '每小时10.8公里', '≥ 10.00公里', '晴空万里', '本地:', '12:00、2019年4月21日周日', '协调世界时:', '04:00、2019年4月21日周日', '来源:', '周期文件', '趋势:', '无重要变化', '露点:', '14°C', '晴空万里:', '真', '原始:', 'ZUUU 210400Z VRB03MPS CAVOK 27/14 Q1010 NOSIG', '下午12:00', '27.0°C', '1,010毫巴', '每小时10.8公里', '-', '晴空万里', '本地:', '12:00、2019年4月21日周日', '协调世界时:', '04:00、2019年4月21日周日', '来源:', 'USAF 每小时地面观测', '报告类型:', 'METAR 航空例行天气报告', '露点:', '14.0°C', '晴空万里:', '真', '下午1:00', '27°C', '1,010毫巴', '每小时7.20公里', '≥ 10.00公里', '晴空万里', '本地:', '13:00、2019年4月21日周日', '协调世界时:', '05:00、2019年4月21日周日', '来源:', '周期文件', '趋势:', '无重要变化', '露点:', '13°C', '晴空万里:', '真', '原始:', 'ZUUU 210500Z VRB02MPS CAVOK 27/13 Q1010 NOSIG', '下午1:00', '27.0°C', '1,010毫巴', '每小时7.20公里', '-', '晴空万里', '本地:', '13:00、2019年4月21日周日', '协调世界时:', '05:00、2019年4月21日周日', '来源:', 'USAF 每小时地面观测', '报告类型:', 'METAR 航空例行天气报告', '露点:', '13.0°C', '晴空万里:', '真', '下午2:00', '29°C', '1,009毫巴', '每小时7.20公里', '≥ 10.00公里', '晴空万里', '本地:', '14:00、2019年4月21日周日', '协调世界时:', '06:00、2019年4月21日周日', '来源:', '周期文件', '趋势:', '无重要变化', '露点:', '13°C', '晴空万里:', '真', '原始:', 'ZUUU 210600Z VRB02MPS CAVOK 29/13 Q1009 NOSIG', '下午2:00', '29.0°C', '1,009毫巴', '每小时7.20公里', '-', '晴空万里', '本地:', '14:00、2019年4月21日周日', '协调世界时:', '06:00、2019年4月21日周日', '来源:', 'USAF 每小时地面观测', '报告类型:', 'METAR 航空例行天气报告', '露点:', '13.0°C', '晴空万里:', '真', '下午3:00', '29°C', '1,007毫巴', '每小时7.20公里', '≥ 10.00公里', '晴空万里', '本地:', '15:00、2019年4月21日周日', '协调世界时:', '07:00、2019年4月21日周日', '来源:', '周期文件', '趋势:', '无重要变化', '露点:', '11°C', '晴空万里:', '真', '原始:', 'ZUUU 210700Z VRB02MPS CAVOK 29/11 Q1007 NOSIG', '下午3:00', '29.0°C', '1,007毫巴', '每小时7.20公里', '-', '晴空万里', '本地:', '15:00、2019年4月21日周日', '协调世界时:', '07:00、2019年4月21日周日', '来源:', 'USAF 每小时地面观测', '报告类型:', 'METAR 航空例行天气报告', '露点:', '11.0°C', '晴空万里:', '真', '下午4:00', '29°C', '1,006毫巴', '每小时10.8公里, 南', '10.00公里', '大部分晴天 (914米)', '本地:', '16:00、2019年4月21日周日', '协调世界时:', '08:00、2019年4月21日周日', '来源:', '周期文件', '趋势:', '无重要变化', '露点:', '13°C', '原始:', 'ZUUU 210800Z 17003MPS 130V210 9999 FEW030 29/13 Q1006 NOSIG', '下午4:00', '29.0°C', '1,006毫巴', '每小时10.8公里, 南', '10.00公里', '大部分晴天 (914米)', '本地:', '16:00、2019年4月21日周日', '协调世界时:', '08:00、2019年4月21日周日', '来源:', 'USAF 每小时地面观测', '报告类型:', 'METAR 航空例行天气报告', '露点:', '13.0°C', '下午5:00', '29°C', '1,006毫巴', '每小时7.20公里', '10.00公里', '部分多云 (914米)', '本地:', '17:00、2019年4月21日周日', '协调世界时:', '09:00、2019年4月21日周日', '来源:', '周期文件', '趋势:', '无重要变化', '露点:', '12°C', '原始:', 'ZUUU 210900Z VRB02MPS 9999 SCT030 29/12 Q1006 NOSIG', '下午5:00', '29.0°C', '1,006毫巴', '每小时7.20公里', '10.00公里', '部分多云 (914米)', '本地:', '17:00、2019年4月21日周日', '协调世界时:', '09:00、2019年4月21日周日', '来源:', 'USAF 每小时地面观测', '报告类型:', 'METAR 航空例行天气报告', '露点:', '12.0°C', '下午6:00', '29°C', '1,006毫巴', '每小时0公里', '10.00公里', '部分多云 (914米)', '本地:', '18:00、2019年4月21日周日', '协调世界时:', '10:00、2019年4月21日周日', '来源:', '周期文件', '趋势:', '无重要变化', '露点:', '12°C', '原始:', 'ZUUU 211000Z 00000MPS 9999 SCT030 29/12 Q1006 NOSIG', '下午6:00', '29.0°C', '1,006毫巴', '每小时0公里', '10.00公里', '部分多云 (914米)', '本地:', '18:00、2019年4月21日周日', '协调世界时:', '10:00、2019年4月21日周日', '来源:', 'USAF 每小时地面观测', '报告类型:', 'METAR 航空例行天气报告', '露点:', '12.0°C', '下午7:00', '27°C', '1,006毫巴', '每小时0公里', '10.00公里', '部分多云 (1,219米)', '本地:', '19:00、2019年4月21日周日', '协调世界时:', '11:00、2019年4月21日周日', '来源:', '周期文件', '趋势:', '无重要变化', '露点:', '13°C', '原始:', 'ZUUU 211100Z 00000MPS 9999 SCT040 27/13 Q1006 NOSIG', '下午7:00', '27.0°C', '1,006毫巴', '每小时0公里', '10.00公里', '部分多云 (1,219米)', '本地:', '19:00、2019年4月21日周日', '协调世界时:', '11:00、2019年4月21日周日', '来源:', 'USAF 每小时地面观测', '报告类型:', 'METAR 航空例行天气报告', '露点:', '13.0°C', '下午8:00', '26°C', '1,007毫巴', '每小时7.20公里, 北', '10.00公里', '部分多云 (1,219米)', '本地:', '20:00、2019年4月21日周日', '协调世界时:', '12:00、2019年4月21日周日', '来源:', '周期文件', '趋势:', '无重要变化', '露点:', '14°C', '原始:', 'ZUUU 211200Z 36002MPS 320V030 9999 SCT040 26/14 Q1007 NOSIG', '下午8:00', '26.0°C', '1,007毫巴', '每小时7.20公里, 北', '10.00公里', '部分多云 (1,219米)', '本地:', '20:00、2019年4月21日周日', '协调世界时:', '12:00、2019年4月21日周日', '来源:', 'USAF 每小时地面观测', '报告类型:', 'METAR 航空例行天气报告', '露点:', '14.0°C', '下午9:00', '25°C', '1,008毫巴', '每小时3.60公里', '10.00公里', '部分多云 (1,219米)', '本地:', '21:00、2019年4月21日周日', '协调世界时:', '13:00、2019年4月21日周日', '来源:', '周期文件', '趋势:', '无重要变化', '露点:', '16°C', '原始:', 'ZUUU 211300Z VRB01MPS 9999 SCT040 25/16 Q1008 NOSIG', '下午9:00', '25.0°C', '1,008毫巴', '每小时3.60公里', '10.00公里', '部分多云 (1,219米)', '本地:', '21:00、2019年4月21日周日', '协调世界时:', '13:00、2019年4月21日周日', '来源:', 'USAF 每小时地面观测', '报告类型:', 'METAR 航空例行天气报告', '露点:', '16.0°C', '下午10:00', '24°C', '1,008毫巴', '每小时3.60公里, 西北', '10.00公里', '部分多云 (1,006米)', '本地:', '22:00、2019年4月21日周日', '协调世界时:', '14:00、2019年4月21日周日', '来源:', '周期文件', '趋势:', '无重要变化', '露点:', '15°C', '其他云层:', '大部分晴天 (1,006米)', '原始:', 'ZUUU 211400Z 30001MPS 9999 FEW033TCU SCT033 24/15 Q1008 NOSIG', '下午10:00', '24.0°C', '1,008毫巴', '每小时3.60公里, 西北', '10.00公里', '部分多云 (1,006米)', '本地:', '22:00、2019年4月21日周日', '协调世界时:', '14:00、2019年4月21日周日', '来源:', 'USAF 每小时地面观测', '报告类型:', 'METAR 航空例行天气报告', '露点:', '15.0°C', '其他云层:', '大部分晴天 (1,006米)', '下午11:00', '23°C', '1,009毫巴', '每小时7.20公里, 南', '10.00公里', '部分多云 (1,006米)', '本地:', '23:00、2019年4月21日周日', '协调世界时:', '15:00、2019年4月21日周日', '来源:', '周期文件', '趋势:', '无重要变化', '露点:', '15°C', '其他云层:', '大部分晴天 (1,006米)', '原始:', 'ZUUU 211500Z 20002MPS 120V230 9999 FEW033TCU SCT033 23/15 Q1009 NOSIG', '下午11:00', '23.0°C', '1,009毫巴', '每小时7.20公里, 南', '10.00公里', '部分多云 (1,006米)', '本地:', '23:00、2019年4月21日周日', '协调世界时:', '15:00、2019年4月21日周日', '来源:', 'USAF 每小时地面观测', '报告类型:', 'METAR 航空例行天气报告', '露点:', '15.0°C', '其他云层:', '大部分晴天 (1,006米)']