['Light Rain、Mist', '-RA、IWC61、BR', 'Light Rain、Mist', '-RA、IWC61、BR、IWC10', 'Light Rain、Mist', '-RA、IWC61、BR、IWC10', 'Mist', 'BR、IWC10', '上午12:00', '16°C', '1,020毫巴', '每小时3.60公里', '10.00公里', '部分多云 (1,524米)', '本地:', '00:00、2019年11月1日周五', '协调世界时:', '16:00、2019年10月31日周四', '来源:', '周期文件', '趋势:', '无重要变化', '露点:', '13°C', '其他云层:', '大部分晴天 (1,006米)', '原始:', 'ZUUU 311600Z VRB01MPS 9999 FEW033 SCT050 16/13 Q1020 NOSIG', '上午12:00', '16.0°C', '1,020毫巴', '每小时3.60公里', '10.00公里', '部分多云 (1,524米)', '本地:', '00:00、2019年11月1日周五', '协调世界时:', '16:00、2019年10月31日周四', '来源:', 'USAF 每小时地面观测', '报告类型:', 'METAR 航空例行天气报告', '露点:', '13.0°C', '其他云层:', '大部分晴天 (1,006米)', '上午1:00', '16°C', '1,019毫巴', '每小时3.60公里', '10.00公里', '部分多云 (1,524米)', '本地:', '01:00、2019年11月1日周五', '协调世界时:', '17:00、2019年10月31日周四', '来源:', '周期文件', '趋势:', '无重要变化', '露点:', '13°C', '其他云层:', '大部分晴天 (1,006米)', '原始:', 'ZUUU 311700Z VRB01MPS 9999 FEW033 SCT050 16/13 Q1019 NOSIG', '上午1:00', '16.0°C', '1,019毫巴', '每小时3.60公里', '10.00公里', '部分多云 (1,524米)', '本地:', '01:00、2019年11月1日周五', '协调世界时:', '17:00、2019年10月31日周四', '来源:', 'USAF 每小时地面观测', '报告类型:', 'METAR 航空例行天气报告', '露点:', '13.0°C', '其他云层:', '大部分晴天 (1,006米)', '上午2:00', '16°C', '1,019毫巴', '每小时3.60公里', '10.00公里', '部分多云 (1,524米)', '本地:', '02:00、2019年11月1日周五', '协调世界时:', '18:00、2019年10月31日周四', '来源:', '周期文件', '趋势:', '无重要变化', '露点:', '13°C', '其他云层:', '大部分晴天 (792米)', '原始:', 'ZUUU 311800Z VRB01MPS 9999 FEW026 SCT050 16/13 Q1019 NOSIG', '上午2:00', '16.0°C', '1,019毫巴', '每小时3.60公里', '10.00公里', '部分多云 (1,524米)', '本地:', '02:00、2019年11月1日周五', '协调世界时:', '18:00、2019年10月31日周四', '来源:', 'USAF 每小时地面观测', '报告类型:', 'METAR 航空例行天气报告', '露点:', '13.0°C', '其他云层:', '大部分晴天 (792米)', '上午3:00', '15°C', '1,019毫巴', '每小时7.20公里, 北', '10.00公里', '部分多云 (1,524米)', '本地:', '03:00、2019年11月1日周五', '协调世界时:', '19:00、2019年10月31日周四', '来源:', '周期文件', '趋势:', '无重要变化', '露点:', '13°C', '其他云层:', '大部分晴天 (792米)', '原始:', 'ZUUU 311900Z 35002MPS 320V020 9999 FEW026 SCT050 15/13 Q1019 NOSIG', '上午3:00', '15.0°C', '1,019毫巴', '每小时7.20公里, 北', '10.00公里', '部分多云 (1,524米)', '本地:', '03:00、2019年11月1日周五', '协调世界时:', '19:00、2019年10月31日周四', '来源:', 'USAF 每小时地面观测', '报告类型:', 'METAR 航空例行天气报告', '露点:', '13.0°C', '其他云层:', '大部分晴天 (792米)', '上午4:00', '15°C', '1,019毫巴', '每小时7.20公里, 北', '10.00公里', '部分多云 (1,524米)', '本地:', '04:00、2019年11月1日周五', '协调世界时:', '20:00、2019年10月31日周四', '来源:', '周期文件', '趋势:', '无重要变化', '露点:', '13°C', '其他云层:', '大部分晴天 (792米)', '原始:', 'ZUUU 312000Z 36002MPS 330V040 9999 FEW026 SCT050 15/13 Q1019 NOSIG', '上午4:00', '15.0°C', '1,019毫巴', '每小时7.20公里, 北', '10.00公里', '部分多云 (1,524米)', '本地:', '04:00、2019年11月1日周五', '协调世界时:', '20:00、2019年10月31日周四', '来源:', 'USAF 每小时地面观测', '报告类型:', 'METAR 航空例行天气报告', '露点:', '13.0°C', '其他云层:', '大部分晴天 (792米)', '上午5:00', '15°C', '1,019毫巴', '每小时3.60公里', '8.00公里', '部分多云 (1,524米)', '本地:', '05:00、2019年11月1日周五', '协调世界时:', '21:00、2019年10月31日周四', '来源:', '周期文件', '趋势:', '变化为', '露点:', '13°C', '其他云层:', '大部分晴天 (792米)', '天气:', 'Light Rain、Light Rain、Mist', '原始:', 'ZUUU 312100Z VRB01MPS 8000 -RA FEW026 SCT050 15/13 Q1019 BECMG TL2250 2300 -RA BR', '上午5:00', '15.0°C', '1,019毫巴', '每小时3.60公里', '8.00公里', '部分多云 (1,524米)', '本地:', '05:00、2019年11月1日周五', '协调世界时:', '21:00、2019年10月31日周四', '来源:', 'USAF 每小时地面观测', '报告类型:', 'METAR 航空例行天气报告', '露点:', '13.0°C', '其他云层:', '大部分晴天 (792米)', '天气:', 'Light Rain', '上午6:00', '14°C', '1,019毫巴', '每小时7.20公里, 北', '3.00公里', '部分多云 (1,524米)', '本地:', '06:00、2019年11月1日周五', '协调世界时:', '22:00、2019年10月31日周四', '来源:', '周期文件', '趋势:', '变化为', '露点:', '14°C', '其他云层:', '大部分晴天 (792米)', '天气:', 'Light Rain、Mist、Light Rain', '原始:', 'ZUUU 312200Z 36002MPS 330V030 3000 -RA BR FEW026 SCT050 14/14 Q1019 BECMG TL2220 2300 -RA BR', '上午6:00', '14.0°C', '1,019毫巴', '每小时7.20公里, 北', '3.00公里', '部分多云 (1,524米)', '本地:', '06:00、2019年11月1日周五', '协调世界时:', '22:00、2019年10月31日周四', '来源:', 'USAF 每小时地面观测', '报告类型:', 'METAR 航空例行天气报告', '露点:', '14.0°C', '其他云层:', '大部分晴天 (792米)', '天气:', 'Mist、Light Rain', '上午7:00', '15°C', '1,020毫巴', '每小时7.20公里, 北', '2.70公里', '部分多云 (274米)', '本地:', '07:00、2019年11月1日周五', '协调世界时:', '23:00、2019年10月31日周四', '来源:', '周期文件', '趋势:', '无重要变化', '露点:', '14°C', '其他云层:', '大部分晴天 (122米)', '天气:', 'Light Rain、Mist', '原始:', 'ZUUU 312300Z 36002MPS 330V040 2700 -RA BR FEW004 SCT009 15/14 Q1020 NOSIG', '上午7:00', '15.0°C', '1,020毫巴', '每小时7.20公里, 北', '2.70公里', '部分多云 (274米)', '本地:', '07:00、2019年11月1日周五', '协调世界时:', '23:00、2019年10月31日周四', '来源:', 'USAF 每小时地面观测', '报告类型:', 'METAR 航空例行天气报告', '露点:', '14.0°C', '其他云层:', '大部分晴天 (122米)', '天气:', 'Mist、Light Rain', '上午8:00', '15°C', '1,020毫巴', '每小时7.20公里, 北', '4.00公里', '大部分多云 (610米)', '本地:', '08:00、2019年11月1日周五', '协调世界时:', '00:00、2019年11月1日周五', '来源:', '周期文件', '趋势:', '无重要变化', '露点:', '14°C', '其他云层:', '大部分晴天 (91米)、部分多云 (274米)', '天气:', 'Mist', '原始:', 'ZUUU 010000Z 01002MPS 310V050 4000 BR FEW003 SCT009 BKN020 15/14 Q1020 NOSIG', '上午8:00', '15.0°C', '1,020毫巴', '每小时7.20公里, 北', '4.00公里', '大部分多云 (610米)', '本地:', '08:00、2019年11月1日周五', '协调世界时:', '00:00、2019年11月1日周五', '来源:', 'USAF 每小时地面观测', '报告类型:', 'METAR 航空例行天气报告', '露点:', '14.0°C', '其他云层:', '大部分晴天 (91米)、部分多云 (274米)', '天气:', 'Mist', '上午9:00', '15°C', '1,021毫巴', '每小时3.60公里', '6.00公里', '大部分多云 (701米)', '本地:', '09:00、2019年11月1日周五', '协调世界时:', '01:00、2019年11月1日周五', '来源:', '周期文件', '趋势:', '无重要变化', '露点:', '14°C', '其他云层:', '大部分晴天 (305米)', '原始:', 'ZUUU 010100Z VRB01MPS 6000 FEW010 BKN023 15/14 Q1021 NOSIG', '上午9:00', '15.0°C', '1,021毫巴', '每小时3.60公里', '6.00公里', '大部分多云 (701米)', '本地:', '09:00、2019年11月1日周五', '协调世界时:', '01:00、2019年11月1日周五', '来源:', 'USAF 每小时地面观测', '报告类型:', 'METAR 航空例行天气报告', '露点:', '14.0°C', '其他云层:', '大部分晴天 (305米)', '上午10:00', '16°C', '1,022毫巴', '每小时0公里', '6.00公里', '大部分多云 (792米)', '本地:', '10:00、2019年11月1日周五', '协调世界时:', '02:00、2019年11月1日周五', '来源:', '周期文件', '趋势:', '无重要变化', '露点:', '14°C', '原始:', 'ZUUU 010200Z 00000MPS 6000 BKN026 16/14 Q1022 NOSIG', '上午10:00', '16.0°C', '1,022毫巴', '每小时0公里', '6.00公里', '大部分多云 (792米)', '本地:', '10:00、2019年11月1日周五', '协调世界时:', '02:00、2019年11月1日周五', '来源:', 'USAF 每小时地面观测', '报告类型:', 'METAR 航空例行天气报告', '露点:', '14.0°C', '上午11:00', '17°C', '1,021毫巴', '每小时3.60公里', '10.00公里', '部分多云 (1,006米)', '本地:', '11:00、2019年11月1日周五', '协调世界时:', '03:00、2019年11月1日周五', '来源:', '周期文件', '趋势:', '无重要变化', '露点:', '14°C', '原始:', 'ZUUU 010300Z VRB01MPS 9999 SCT033 17/14 Q1021 NOSIG', '上午11:00', '17.0°C', '1,021毫巴', '每小时3.60公里', '10.00公里', '部分多云 (1,006米)', '本地:', '11:00、2019年11月1日周五', '协调世界时:', '03:00、2019年11月1日周五', '来源:', 'USAF 每小时地面观测', '报告类型:', 'METAR 航空例行天气报告', '露点:', '14.0°C', '下午12:00', '18°C', '1,021毫巴', '每小时3.60公里', '10.00公里', '部分多云 (1,219米)', '本地:', '12:00、2019年11月1日周五', '协调世界时:', '04:00、2019年11月1日周五', '来源:', '周期文件', '趋势:', '无重要变化', '露点:', '13°C', '其他云层:', '大部分晴天 (488米)', '原始:', 'ZUUU 010400Z VRB01MPS 9999 FEW016 SCT040 18/13 Q1021 NOSIG', '下午12:00', '18.0°C', '1,021毫巴', '每小时3.60公里', '10.00公里', '部分多云 (1,219米)', '本地:', '12:00、2019年11月1日周五', '协调世界时:', '04:00、2019年11月1日周五', '来源:', 'USAF 每小时地面观测', '报告类型:', 'METAR 航空例行天气报告', '露点:', '13.0°C', '其他云层:', '大部分晴天 (488米)', '下午1:00', '19°C', '1,020毫巴', '每小时7.20公里, 北', '10.00公里', '部分多云 (701米)', '本地:', '13:00、2019年11月1日周五', '协调世界时:', '05:00、2019年11月1日周五', '来源:', '周期文件', '趋势:', '无重要变化', '露点:', '12°C', '原始:', 'ZUUU 010500Z 36002MPS 310V070 9999 SCT023 19/12 Q1020 NOSIG', '下午1:00', '19.0°C', '1,020毫巴', '每小时7.20公里, 北', '10.00公里', '部分多云 (701米)', '本地:', '13:00、2019年11月1日周五', '协调世界时:', '05:00、2019年11月1日周五', '来源:', 'USAF 每小时地面观测', '报告类型:', 'METAR 航空例行天气报告', '露点:', '12.0°C', '下午2:00', '20°C', '1,019毫巴', '每小时10.8公里, 东北', '10.00公里', '部分多云 (792米)', '本地:', '14:00、2019年11月1日周五', '协调世界时:', '06:00、2019年11月1日周五', '来源:', '周期文件', '趋势:', '无重要变化', '露点:', '13°C', '原始:', 'ZUUU 010600Z 04003MPS 350V100 9999 SCT026 20/13 Q1019 NOSIG', '下午2:00', '20.0°C', '1,019毫巴', '每小时10.8公里, 东北', '10.00公里', '部分多云 (792米)', '本地:', '14:00、2019年11月1日周五', '协调世界时:', '06:00、2019年11月1日周五', '来源:', 'USAF 每小时地面观测', '报告类型:', 'METAR 航空例行天气报告', '露点:', '13.0°C', '下午3:00', '20°C', '1,019毫巴', '每小时10.8公里, 东', '10.00公里', '部分多云 (792米)', '本地:', '15:00、2019年11月1日周五', '协调世界时:', '07:00、2019年11月1日周五', '来源:', '周期文件', '趋势:', '无重要变化', '露点:', '10°C', '阵风风速:', '每小时28.8公里', '原始:', 'ZUUU 010700Z 08003G08MPS 020V140 9999 SCT026 20/10 Q1019 NOSIG', '下午3:00', '20.0°C', '1,019毫巴', '每小时10.8公里, 东', '10.00公里', '部分多云 (792米)', '本地:', '15:00、2019年11月1日周五', '协调世界时:', '07:00、2019年11月1日周五', '来源:', 'USAF 每小时地面观测', '报告类型:', 'METAR 航空例行天气报告', '露点:', '10.0°C', '阵风风速:', '每小时28.8公里', '下午4:00', '20°C', '1,019毫巴', '每小时10.8公里, 东北', '10.00公里', '部分多云 (792米)', '本地:', '16:00、2019年11月1日周五', '协调世界时:', '08:00、2019年11月1日周五', '来源:', '周期文件', '趋势:', '无重要变化', '露点:', '10°C', '原始:', 'ZUUU 010800Z 04003MPS 360V080 9999 SCT026 20/10 Q1019 NOSIG', '下午4:00', '20.0°C', '1,019毫巴', '每小时10.8公里, 东北', '10.00公里', '部分多云 (792米)', '本地:', '16:00、2019年11月1日周五', '协调世界时:', '08:00、2019年11月1日周五', '来源:', 'USAF 每小时地面观测', '报告类型:', 'METAR 航空例行天气报告', '露点:', '10.0°C', '下午5:00', '20°C', '1,019毫巴', '每小时0公里', '10.00公里', '部分多云 (1,219米)', '本地:', '17:00、2019年11月1日周五', '协调世界时:', '09:00、2019年11月1日周五', '来源:', '周期文件', '趋势:', '无重要变化', '露点:', '11°C', '原始:', 'ZUUU 010900Z 00000MPS 9999 SCT040 20/11 Q1019 NOSIG', '下午5:00', '20.0°C', '1,019毫巴', '每小时0公里', '10.00公里', '部分多云 (1,219米)', '本地:', '17:00、2019年11月1日周五', '协调世界时:', '09:00、2019年11月1日周五', '来源:', 'USAF 每小时地面观测', '报告类型:', 'METAR 航空例行天气报告', '露点:', '11.0°C', '下午6:00', '19°C', '1,020毫巴', '每小时0公里', '10.00公里', '部分多云 (1,524米)', '本地:', '18:00、2019年11月1日周五', '协调世界时:', '10:00、2019年11月1日周五', '来源:', '周期文件', '趋势:', '无重要变化', '露点:', '13°C', '原始:', 'ZUUU 011000Z 00000MPS 9999 SCT050 19/13 Q1020 NOSIG', '下午6:00', '19.0°C', '1,020毫巴', '每小时0公里', '10.00公里', '部分多云 (1,524米)', '本地:', '18:00、2019年11月1日周五', '协调世界时:', '10:00、2019年11月1日周五', '来源:', 'USAF 每小时地面观测', '报告类型:', 'METAR 航空例行天气报告', '露点:', '13.0°C', '下午7:00', '17°C', '1,020毫巴', '每小时7.20公里, 西南', '10.00公里', '部分多云 (1,524米)', '本地:', '19:00、2019年11月1日周五', '协调世界时:', '11:00、2019年11月1日周五', '来源:', '周期文件', '趋势:', '无重要变化', '露点:', '14°C', '原始:', 'ZUUU 011100Z 23002MPS 9999 SCT050 17/14 Q1020 NOSIG', '下午7:00', '17.0°C', '1,020毫巴', '每小时7.20公里, 西南', '10.00公里', '部分多云 (1,524米)', '本地:', '19:00、2019年11月1日周五', '协调世界时:', '11:00、2019年11月1日周五', '来源:', 'USAF 每小时地面观测', '报告类型:', 'METAR 航空例行天气报告', '露点:', '14.0°C', '下午8:00', '17°C', '1,021毫巴', '每小时0公里', '10.00公里', '大部分晴天 (1,524米)', '本地:', '20:00、2019年11月1日周五', '协调世界时:', '12:00、2019年11月1日周五', '来源:', '周期文件', '趋势:', '无重要变化', '露点:', '14°C', '原始:', 'ZUUU 011200Z 00000MPS 9999 FEW050 17/14 Q1021 NOSIG', '下午8:00', '17.0°C', '1,021毫巴', '每小时0公里', '10.00公里', '大部分晴天 (1,524米)', '本地:', '20:00、2019年11月1日周五', '协调世界时:', '12:00、2019年11月1日周五', '来源:', 'USAF 每小时地面观测', '报告类型:', 'METAR 航空例行天气报告', '露点:', '14.0°C', '下午9:00', '17°C', '1,021毫巴', '每小时3.60公里', '10.00公里', '大部分晴天 (1,524米)', '本地:', '21:00、2019年11月1日周五', '协调世界时:', '13:00、2019年11月1日周五', '来源:', '周期文件', '趋势:', '无重要变化', '露点:', '14°C', '原始:', 'ZUUU 011300Z VRB01MPS 9999 FEW050 17/14 Q1021 NOSIG', '下午9:00', '17.0°C', '1,021毫巴', '每小时3.60公里', '10.00公里', '大部分晴天 (1,524米)', '本地:', '21:00、2019年11月1日周五', '协调世界时:', '13:00、2019年11月1日周五', '来源:', 'USAF 每小时地面观测', '报告类型:', 'METAR 航空例行天气报告', '露点:', '14.0°C', '下午10:00', '16°C', '1,022毫巴', '每小时7.20公里, 南', '7.00公里', '大部分晴天 (1,524米)', '本地:', '22:00、2019年11月1日周五', '协调世界时:', '14:00、2019年11月1日周五', '来源:', '周期文件', '趋势:', '无重要变化', '露点:', '14°C', '原始:', 'ZUUU 011400Z 19002MPS 160V240 7000 FEW050 16/14 Q1022 NOSIG', '下午10:00', '16.0°C', '1,022毫巴', '每小时7.20公里, 南', '7.00公里', '大部分晴天 (1,524米)', '本地:', '22:00、2019年11月1日周五', '协调世界时:', '14:00、2019年11月1日周五', '来源:', 'USAF 每小时地面观测', '报告类型:', 'METAR 航空例行天气报告', '露点:', '14.0°C', '下午11:00', '16°C', '1,023毫巴', '每小时3.60公里', '7.00公里', '大部分晴天 (1,524米)', '本地:', '23:00、2019年11月1日周五', '协调世界时:', '15:00、2019年11月1日周五', '来源:', '周期文件', '趋势:', '无重要变化', '露点:', '14°C', '原始:', 'ZUUU 011500Z VRB01MPS 7000 FEW050 16/14 Q1023 NOSIG', '下午11:00', '16.0°C', '1,023毫巴', '每小时3.60公里', '7.00公里', '大部分晴天 (1,524米)', '本地:', '23:00、2019年11月1日周五', '协调世界时:', '15:00、2019年11月1日周五', '来源:', 'USAF 每小时地面观测', '报告类型:', 'METAR 航空例行天气报告', '露点:', '14.0°C']