['上午12:00', '7°C', '1,029毫巴', '每小时0公里', '≥ 10.00公里', '晴空万里', '本地:', '00:00、2019年12月27日周五', '协调世界时:', '16:00、2019年12月26日周四', '来源:', '周期文件', '趋势:', '无重要变化', '露点:', '-1°C', '晴空万里:', '真', '原始:', 'ZUUU 261600Z 00000MPS CAVOK 07/M01 Q1029 NOSIG', '上午12:00', '7.0°C', '1,029毫巴', '每小时0公里', '9.90公里', '晴空万里', '本地:', '00:00、2019年12月27日周五', '协调世界时:', '16:00、2019年12月26日周四', '来源:', 'USAF 每小时地面观测', '报告类型:', 'METAR 航空例行天气报告', '露点:', '-1.0°C', '晴空万里:', '真', '上午1:00', '6°C', '1,028毫巴', '每小时3.60公里, 西南', '≥ 10.00公里', '晴空万里', '本地:', '01:00、2019年12月27日周五', '协调世界时:', '17:00、2019年12月26日周四', '来源:', '周期文件', '趋势:', '无重要变化', '露点:', '2°C', '晴空万里:', '真', '原始:', 'ZUUU 261700Z 22001MPS CAVOK 06/02 Q1028 NOSIG', '上午1:00', '6.0°C', '1,028毫巴', '每小时3.60公里, 西南', '9.90公里', '晴空万里', '本地:', '01:00、2019年12月27日周五', '协调世界时:', '17:00、2019年12月26日周四', '来源:', 'USAF 每小时地面观测', '报告类型:', 'METAR 航空例行天气报告', '露点:', '2.0°C', '晴空万里:', '真', '上午2:00', '7°C', '1,028毫巴', '每小时3.60公里', '≥ 10.00公里', '晴空万里', '本地:', '02:00、2019年12月27日周五', '协调世界时:', '18:00、2019年12月26日周四', '来源:', '周期文件', '趋势:', '无重要变化', '露点:', '0°C', '晴空万里:', '真', '原始:', 'ZUUU 261800Z VRB01MPS CAVOK 07/00 Q1028 NOSIG', '上午2:00', '7.0°C', '1,028毫巴', '每小时3.60公里', '9.90公里', '晴空万里', '本地:', '02:00、2019年12月27日周五', '协调世界时:', '18:00、2019年12月26日周四', '来源:', 'USAF 每小时地面观测', '报告类型:', 'METAR 航空例行天气报告', '露点:', '0.0°C', '晴空万里:', '真', '上午3:00', '7°C', '1,028毫巴', '每小时0公里', '≥ 10.00公里', '晴空万里', '本地:', '03:00、2019年12月27日周五', '协调世界时:', '19:00、2019年12月26日周四', '来源:', '周期文件', '趋势:', '无重要变化', '露点:', '-1°C', '晴空万里:', '真', '原始:', 'ZUUU 261900Z 00000MPS CAVOK 07/M01 Q1028 NOSIG', '上午3:00', '7.0°C', '1,028毫巴', '每小时0公里', '9.90公里', '晴空万里', '本地:', '03:00、2019年12月27日周五', '协调世界时:', '19:00、2019年12月26日周四', '来源:', 'USAF 每小时地面观测', '报告类型:', 'METAR 航空例行天气报告', '露点:', '-1.0°C', '晴空万里:', '真', '上午4:00', '7°C', '1,027毫巴', '每小时0公里', '≥ 10.00公里', '晴空万里', '本地:', '04:00、2019年12月27日周五', '协调世界时:', '20:00、2019年12月26日周四', '来源:', '周期文件', '趋势:', '无重要变化', '露点:', '1°C', '晴空万里:', '真', '原始:', 'ZUUU 262000Z 00000MPS CAVOK 07/01 Q1027 NOSIG', '上午4:00', '7.0°C', '1,027毫巴', '每小时0公里', '9.90公里', '晴空万里', '本地:', '04:00、2019年12月27日周五', '协调世界时:', '20:00、2019年12月26日周四', '来源:', 'USAF 每小时地面观测', '报告类型:', 'METAR 航空例行天气报告', '露点:', '1.0°C', '晴空万里:', '真', '上午5:00', '7°C', '1,027毫巴', '每小时0公里', '≥ 10.00公里', '晴空万里', '本地:', '05:00、2019年12月27日周五', '协调世界时:', '21:00、2019年12月26日周四', '来源:', '周期文件', '趋势:', '无重要变化', '露点:', '-1°C', '晴空万里:', '真', '原始:', 'ZUUU 262100Z 00000MPS CAVOK 07/M01 Q1027 NOSIG', '上午5:00', '7.0°C', '1,027毫巴', '每小时0公里', '9.90公里', '晴空万里', '本地:', '05:00、2019年12月27日周五', '协调世界时:', '21:00、2019年12月26日周四', '来源:', 'USAF 每小时地面观测', '报告类型:', 'METAR 航空例行天气报告', '露点:', '-1.0°C', '晴空万里:', '真', '上午6:00', '6°C', '1,026毫巴', '每小时0公里', '≥ 10.00公里', '晴空万里', '本地:', '06:00、2019年12月27日周五', '协调世界时:', '22:00、2019年12月26日周四', '来源:', '周期文件', '趋势:', '无重要变化', '露点:', '1°C', '晴空万里:', '真', '原始:', 'ZUUU 262200Z 00000MPS CAVOK 06/01 Q1026 NOSIG', '上午6:00', '6.0°C', '1,026毫巴', '每小时0公里', '9.90公里', '晴空万里', '本地:', '06:00、2019年12月27日周五', '协调世界时:', '22:00、2019年12月26日周四', '来源:', 'USAF 每小时地面观测', '报告类型:', 'METAR 航空例行天气报告', '露点:', '1.0°C', '晴空万里:', '真', '上午7:00', '6°C', '1,027毫巴', '每小时0公里', '≥ 10.00公里', '晴空万里', '本地:', '07:00、2019年12月27日周五', '协调世界时:', '23:00、2019年12月26日周四', '来源:', '周期文件', '趋势:', '无重要变化', '露点:', '1°C', '晴空万里:', '真', '原始:', 'ZUUU 262300Z 00000MPS CAVOK 06/01 Q1027 NOSIG', '上午7:00', '6.0°C', '1,027毫巴', '每小时0公里', '9.90公里', '晴空万里', '本地:', '07:00、2019年12月27日周五', '协调世界时:', '23:00、2019年12月26日周四', '来源:', 'USAF 每小时地面观测', '报告类型:', 'METAR 航空例行天气报告', '露点:', '1.0°C', '晴空万里:', '真', '上午8:00', '6°C', '1,027毫巴', '每小时3.60公里', '10.00公里', '大部分晴天 (1,524米)', '本地:', '08:00、2019年12月27日周五', '协调世界时:', '00:00、2019年12月27日周五', '来源:', '周期文件', '趋势:', '无重要变化', '露点:', '1°C', '原始:', 'ZUUU 270000Z VRB01MPS 9999 FEW050 06/01 Q1027 NOSIG', '上午8:00', '6.0°C', '1,027毫巴', '每小时3.60公里', '10.00公里', '大部分晴天 (1,524米)', '本地:', '08:00、2019年12月27日周五', '协调世界时:', '00:00、2019年12月27日周五', '来源:', 'USAF 每小时地面观测', '报告类型:', 'METAR 航空例行天气报告', '露点:', '1.0°C', '上午9:00', '7°C', '1,027毫巴', '每小时0公里', '10.00公里', '部分多云 (1,524米)', '本地:', '09:00、2019年12月27日周五', '协调世界时:', '01:00、2019年12月27日周五', '来源:', '周期文件', '趋势:', '无重要变化', '露点:', '-1°C', '原始:', 'ZUUU 270100Z 00000MPS 9999 SCT050 07/M01 Q1027 NOSIG', '上午9:00', '7.0°C', '1,027毫巴', '每小时0公里', '10.00公里', '部分多云 (1,524米)', '本地:', '09:00、2019年12月27日周五', '协调世界时:', '01:00、2019年12月27日周五', '来源:', 'USAF 每小时地面观测', '报告类型:', 'METAR 航空例行天气报告', '露点:', '-1.0°C', '上午10:00', '8°C', '1,028毫巴', '每小时3.60公里', '10.00公里', '部分多云 (1,524米)', '本地:', '10:00、2019年12月27日周五', '协调世界时:', '02:00、2019年12月27日周五', '来源:', '周期文件', '趋势:', '无重要变化', '露点:', '-3°C', '原始:', 'ZUUU 270200Z VRB01MPS 9999 SCT050 08/M03 Q1028 NOSIG', '上午10:00', '8.0°C', '1,028毫巴', '每小时3.60公里', '10.00公里', '部分多云 (1,524米)', '本地:', '10:00、2019年12月27日周五', '协调世界时:', '02:00、2019年12月27日周五', '来源:', 'USAF 每小时地面观测', '报告类型:', 'METAR 航空例行天气报告', '露点:', '-3.0°C', '上午11:00', '9°C', '1,028毫巴', '每小时7.20公里, 东南', '≥ 10.00公里', '晴空万里', '本地:', '11:00、2019年12月27日周五', '协调世界时:', '03:00、2019年12月27日周五', '来源:', '周期文件', '趋势:', '无重要变化', '露点:', '-3°C', '晴空万里:', '真', '原始:', 'ZUUU 270300Z 15002MPS 090V250 CAVOK 09/M03 Q1028 NOSIG', '上午11:00', '9.0°C', '1,028毫巴', '每小时7.20公里, 东南', '9.90公里', '晴空万里', '本地:', '11:00、2019年12月27日周五', '协调世界时:', '03:00、2019年12月27日周五', '来源:', 'USAF 每小时地面观测', '报告类型:', 'METAR 航空例行天气报告', '露点:', '-3.0°C', '晴空万里:', '真', '下午12:00', '10°C', '1,027毫巴', '每小时7.20公里, 南', '≥ 10.00公里', '晴空万里', '本地:', '12:00、2019年12月27日周五', '协调世界时:', '04:00、2019年12月27日周五', '来源:', '周期文件', '趋势:', '无重要变化', '露点:', '-3°C', '晴空万里:', '真', '原始:', 'ZUUU 270400Z 19002MPS 150V240 CAVOK 10/M03 Q1027 NOSIG', '下午12:00', '10.0°C', '1,027毫巴', '每小时7.20公里, 南', '9.90公里', '晴空万里', '本地:', '12:00、2019年12月27日周五', '协调世界时:', '04:00、2019年12月27日周五', '来源:', 'USAF 每小时地面观测', '报告类型:', 'METAR 航空例行天气报告', '露点:', '-3.0°C', '晴空万里:', '真', '下午1:00', '11°C', '1,025毫巴', '每小时7.20公里', '≥ 10.00公里', '晴空万里', '本地:', '13:00、2019年12月27日周五', '协调世界时:', '05:00、2019年12月27日周五', '来源:', '周期文件', '趋势:', '无重要变化', '露点:', '-5°C', '晴空万里:', '真', '原始:', 'ZUUU 270500Z VRB02MPS CAVOK 11/M05 Q1025 NOSIG', '下午1:00', '11.0°C', '1,025毫巴', '每小时7.20公里', '9.90公里', '晴空万里', '本地:', '13:00、2019年12月27日周五', '协调世界时:', '05:00、2019年12月27日周五', '来源:', 'USAF 每小时地面观测', '报告类型:', 'METAR 航空例行天气报告', '露点:', '-5.0°C', '晴空万里:', '真', '下午2:00', '11°C', '1,024毫巴', '每小时7.20公里', '≥ 10.00公里', '晴空万里', '本地:', '14:00、2019年12月27日周五', '协调世界时:', '06:00、2019年12月27日周五', '来源:', '周期文件', '趋势:', '无重要变化', '露点:', '-4°C', '晴空万里:', '真', '原始:', 'ZUUU 270600Z VRB02MPS CAVOK 11/M04 Q1024 NOSIG', '下午2:00', '11.0°C', '1,024毫巴', '每小时7.20公里', '9.90公里', '晴空万里', '本地:', '14:00、2019年12月27日周五', '协调世界时:', '06:00、2019年12月27日周五', '来源:', 'USAF 每小时地面观测', '报告类型:', 'METAR 航空例行天气报告', '露点:', '-4.0°C', '晴空万里:', '真', '下午3:00', '12°C', '1,023毫巴', '每小时10.8公里', '≥ 10.00公里', '晴空万里', '本地:', '15:00、2019年12月27日周五', '协调世界时:', '07:00、2019年12月27日周五', '来源:', '周期文件', '趋势:', '无重要变化', '露点:', '-3°C', '晴空万里:', '真', '原始:', 'ZUUU 270700Z VRB03MPS CAVOK 12/M03 Q1023 NOSIG', '下午3:00', '12.0°C', '1,023毫巴', '每小时10.8公里', '9.90公里', '晴空万里', '本地:', '15:00、2019年12月27日周五', '协调世界时:', '07:00、2019年12月27日周五', '来源:', 'USAF 每小时地面观测', '报告类型:', 'METAR 航空例行天气报告', '露点:', '-3.0°C', '晴空万里:', '真', '下午4:00', '11°C', '1,022毫巴', '每小时10.8公里, 东', '≥ 10.00公里', '晴空万里', '本地:', '16:00、2019年12月27日周五', '协调世界时:', '08:00、2019年12月27日周五', '来源:', '周期文件', '趋势:', '无重要变化', '露点:', '-2°C', '阵风风速:', '每小时28.8公里', '晴空万里:', '真', '原始:', 'ZUUU 270800Z 09003G08MPS 040V130 CAVOK 11/M02 Q1022 NOSIG', '下午4:00', '11.0°C', '1,022毫巴', '每小时10.8公里, 东', '9.90公里', '晴空万里', '本地:', '16:00、2019年12月27日周五', '协调世界时:', '08:00、2019年12月27日周五', '来源:', 'USAF 每小时地面观测', '报告类型:', 'METAR 航空例行天气报告', '露点:', '-2.0°C', '阵风风速:', '每小时28.8公里', '晴空万里:', '真', '下午5:00', '11°C', '1,023毫巴', '每小时10.8公里, 东', '≥ 10.00公里', '晴空万里', '本地:', '17:00、2019年12月27日周五', '协调世界时:', '09:00、2019年12月27日周五', '来源:', '周期文件', '趋势:', '无重要变化', '露点:', '-1°C', '晴空万里:', '真', '原始:', 'ZUUU 270900Z 11003MPS 050V150 CAVOK 11/M01 Q1023 NOSIG', '下午5:00', '11.0°C', '1,023毫巴', '每小时10.8公里, 东', '9.90公里', '晴空万里', '本地:', '17:00、2019年12月27日周五', '协调世界时:', '09:00、2019年12月27日周五', '来源:', 'USAF 每小时地面观测', '报告类型:', 'METAR 航空例行天气报告', '露点:', '-1.0°C', '晴空万里:', '真', '下午6:00', '9°C', '1,023毫巴', '每小时10.8公里, 东南', '≥ 10.00公里', '晴空万里', '本地:', '18:00、2019年12月27日周五', '协调世界时:', '10:00、2019年12月27日周五', '来源:', '周期文件', '趋势:', '无重要变化', '露点:', '0°C', '晴空万里:', '真', '原始:', 'ZUUU 271000Z 13003MPS 070V170 CAVOK 09/00 Q1023 NOSIG', '下午6:00', '9.0°C', '1,023毫巴', '每小时10.8公里, 东南', '9.90公里', '晴空万里', '本地:', '18:00、2019年12月27日周五', '协调世界时:', '10:00、2019年12月27日周五', '来源:', 'USAF 每小时地面观测', '报告类型:', 'METAR 航空例行天气报告', '露点:', '0.0°C', '晴空万里:', '真', '下午7:00', '9°C', '1,024毫巴', '每小时7.20公里, 东', '≥ 10.00公里', '晴空万里', '本地:', '19:00、2019年12月27日周五', '协调世界时:', '11:00、2019年12月27日周五', '来源:', '周期文件', '趋势:', '无重要变化', '露点:', '0°C', '晴空万里:', '真', '原始:', 'ZUUU 271100Z 11002MPS 040V130 CAVOK 09/00 Q1024 NOSIG', '下午7:00', '9.0°C', '1,024毫巴', '每小时7.20公里, 东', '9.90公里', '晴空万里', '本地:', '19:00、2019年12月27日周五', '协调世界时:', '11:00、2019年12月27日周五', '来源:', 'USAF 每小时地面观测', '报告类型:', 'METAR 航空例行天气报告', '露点:', '0.0°C', '晴空万里:', '真', '下午8:00', '7°C', '1,024毫巴', '每小时10.8公里, 南', '≥ 10.00公里', '晴空万里', '本地:', '20:00、2019年12月27日周五', '协调世界时:', '12:00、2019年12月27日周五', '来源:', '周期文件', '趋势:', '无重要变化', '露点:', '-1°C', '晴空万里:', '真', '原始:', 'ZUUU 271200Z 16003MPS 080V190 CAVOK 07/M01 Q1024 NOSIG', '下午8:00', '7.0°C', '1,024毫巴', '每小时10.8公里, 南', '9.90公里', '晴空万里', '本地:', '20:00、2019年12月27日周五', '协调世界时:', '12:00、2019年12月27日周五', '来源:', 'USAF 每小时地面观测', '报告类型:', 'METAR 航空例行天气报告', '露点:', '-1.0°C', '晴空万里:', '真', '下午9:00', '6°C', '1,025毫巴', '每小时0公里', '≥ 10.00公里', '晴空万里', '本地:', '21:00、2019年12月27日周五', '协调世界时:', '13:00、2019年12月27日周五', '来源:', '周期文件', '趋势:', '无重要变化', '露点:', '0°C', '晴空万里:', '真', '原始:', 'ZUUU 271300Z 00000MPS CAVOK 06/00 Q1025 NOSIG', '下午9:00', '6.0°C', '1,025毫巴', '每小时0公里', '9.90公里', '晴空万里', '本地:', '21:00、2019年12月27日周五', '协调世界时:', '13:00、2019年12月27日周五', '来源:', 'USAF 每小时地面观测', '报告类型:', 'METAR 航空例行天气报告', '露点:', '0.0°C', '晴空万里:', '真', '下午10:00', '8°C', '1,024毫巴', '每小时3.60公里', '≥ 10.00公里', '晴空万里', '本地:', '22:00、2019年12月27日周五', '协调世界时:', '14:00、2019年12月27日周五', '来源:', '周期文件', '趋势:', '无重要变化', '露点:', '-1°C', '晴空万里:', '真', '原始:', 'ZUUU 271400Z VRB01MPS CAVOK 08/M01 Q1024 NOSIG', '下午10:00', '8.0°C', '1,024毫巴', '每小时3.60公里', '9.90公里', '晴空万里', '本地:', '22:00、2019年12月27日周五', '协调世界时:', '14:00、2019年12月27日周五', '来源:', 'USAF 每小时地面观测', '报告类型:', 'METAR 航空例行天气报告', '露点:', '-1.0°C', '晴空万里:', '真', '下午11:00', '8°C', '1,024毫巴', '每小时7.20公里, 东南', '≥ 10.00公里', '晴空万里', '本地:', '23:00、2019年12月27日周五', '协调世界时:', '15:00、2019年12月27日周五', '来源:', '周期文件', '趋势:', '无重要变化', '露点:', '-1°C', '晴空万里:', '真', '原始:', 'ZUUU 271500Z 14002MPS 070V190 CAVOK 08/M01 Q1024 NOSIG', '下午11:00', '8.0°C', '1,024毫巴', '每小时7.20公里, 东南', '9.90公里', '晴空万里', '本地:', '23:00、2019年12月27日周五', '协调世界时:', '15:00、2019年12月27日周五', '来源:', 'USAF 每小时地面观测', '报告类型:', 'METAR 航空例行天气报告', '露点:', '-1.0°C', '晴空万里:', '真']