['Thunderstorm with Light Rain、Showers of Light Rain', '-TSRA、-SHRA、IWC80', '上午12:00', '24°C', '1,001毫巴', '每小时3.60公里, 西北', '10.00公里', '部分多云 (1,524米)', '本地:', '00:00、2019年4月9日周二', '协调世界时:', '16:00、2019年4月8日周一', '来源:', '周期文件', '趋势:', '无重要变化', '露点:', '14°C', '原始:', 'ZUUU 081600Z 31001MPS 9999 SCT050 24/14 Q1001 NOSIG', '上午12:00', '24.0°C', '1,001毫巴', '每小时3.60公里, 西北', '10.00公里', '部分多云 (1,524米)', '本地:', '00:00、2019年4月9日周二', '协调世界时:', '16:00、2019年4月8日周一', '来源:', 'USAF 每小时地面观测', '报告类型:', 'METAR 航空例行天气报告', '露点:', '14.0°C', '上午1:00', '23°C', '1,002毫巴', '每小时21.6公里, 西北', '10.00公里', '大部分晴天 (1,219米)', '本地:', '01:00、2019年4月9日周二', '协调世界时:', '17:00、2019年4月8日周一', '来源:', '周期文件', '趋势:', '变化为', '露点:', '16°C', '阵风风速:', '每小时39.6公里', '天气:', 'Showers of Light Rain、Thunderstorm with Light Rain', '原始:', 'ZUUU 081700Z 33006G11MPS 280V020 9999 -SHRA FEW040 FEW040TCU 23/16 Q1002 BECMG TL1800 36005MPS -TSRA', '上午1:00', '23.0°C', '1,002毫巴', '每小时21.6公里, 西北', '10.00公里', '大部分晴天 (1,219米)', '本地:', '01:00、2019年4月9日周二', '协调世界时:', '17:00、2019年4月8日周一', '来源:', 'USAF 每小时地面观测', '报告类型:', 'METAR 航空例行天气报告', '露点:', '16.0°C', '阵风风速:', '每小时39.6公里', '天气:', 'Showers of Light Rain', '上午2:00', '22°C', '1,000毫巴', '每小时3.60公里', '10.00公里', '大部分晴天 (1,524米)', '本地:', '02:00、2019年4月9日周二', '协调世界时:', '18:00、2019年4月8日周一', '来源:', '周期文件', '趋势:', '无重要变化', '露点:', '15°C', '原始:', 'ZUUU 081800Z VRB01MPS 9999 FEW050 22/15 Q1000 NOSIG', '上午2:00', '22.0°C', '1,000毫巴', '每小时3.60公里', '10.00公里', '大部分晴天 (1,524米)', '本地:', '02:00、2019年4月9日周二', '协调世界时:', '18:00、2019年4月8日周一', '来源:', 'USAF 每小时地面观测', '报告类型:', 'METAR 航空例行天气报告', '露点:', '15.0°C', '上午3:00', '21°C', '1,001毫巴', '每小时10.8公里, 北', '≥ 10.00公里', '晴空万里', '本地:', '03:00、2019年4月9日周二', '协调世界时:', '19:00、2019年4月8日周一', '来源:', '周期文件', '趋势:', '无重要变化', '露点:', '15°C', '晴空万里:', '真', '原始:', 'ZUUU 081900Z 34003MPS 280V040 CAVOK 21/15 Q1001 NOSIG', '上午3:00', '21.0°C', '1,001毫巴', '每小时10.8公里, 北', '-', '晴空万里', '本地:', '03:00、2019年4月9日周二', '协调世界时:', '19:00、2019年4月8日周一', '来源:', 'USAF 每小时地面观测', '报告类型:', 'METAR 航空例行天气报告', '露点:', '15.0°C', '晴空万里:', '真', '上午4:00', '20°C', '1,002毫巴', '每小时0公里', '≥ 10.00公里', '晴空万里', '本地:', '04:00、2019年4月9日周二', '协调世界时:', '20:00、2019年4月8日周一', '来源:', '周期文件', '趋势:', '无重要变化', '露点:', '15°C', '晴空万里:', '真', '原始:', 'ZUUU 082000Z 00000MPS CAVOK 20/15 Q1002 NOSIG', '上午4:00', '20.0°C', '1,002毫巴', '每小时0公里', '-', '晴空万里', '本地:', '04:00、2019年4月9日周二', '协调世界时:', '20:00、2019年4月8日周一', '来源:', 'USAF 每小时地面观测', '报告类型:', 'METAR 航空例行天气报告', '露点:', '15.0°C', '晴空万里:', '真', '上午5:00', '17°C', '1,003毫巴', '每小时7.20公里, 东北', '≥ 10.00公里', '晴空万里', '本地:', '05:00、2019年4月9日周二', '协调世界时:', '21:00、2019年4月8日周一', '来源:', '周期文件', '趋势:', '无重要变化', '露点:', '15°C', '晴空万里:', '真', '原始:', 'ZUUU 082100Z 03002MPS CAVOK 17/15 Q1003 NOSIG', '上午5:00', '17.0°C', '1,003毫巴', '每小时7.20公里, 东北', '-', '晴空万里', '本地:', '05:00、2019年4月9日周二', '协调世界时:', '21:00、2019年4月8日周一', '来源:', 'USAF 每小时地面观测', '报告类型:', 'METAR 航空例行天气报告', '露点:', '15.0°C', '晴空万里:', '真', '上午6:00', '17°C', '1,004毫巴', '每小时0公里', '≥ 10.00公里', '晴空万里', '本地:', '06:00、2019年4月9日周二', '协调世界时:', '22:00、2019年4月8日周一', '来源:', '周期文件', '趋势:', '无重要变化', '露点:', '15°C', '晴空万里:', '真', '原始:', 'ZUUU 082200Z 00000MPS CAVOK 17/15 Q1004 NOSIG', '上午6:00', '17.0°C', '1,004毫巴', '每小时0公里', '-', '晴空万里', '本地:', '06:00、2019年4月9日周二', '协调世界时:', '22:00、2019年4月8日周一', '来源:', 'USAF 每小时地面观测', '报告类型:', 'METAR 航空例行天气报告', '露点:', '15.0°C', '晴空万里:', '真', '上午7:00', '17°C', '1,006毫巴', '每小时0公里', '≥ 10.00公里', '晴空万里', '本地:', '07:00、2019年4月9日周二', '协调世界时:', '23:00、2019年4月8日周一', '来源:', '周期文件', '趋势:', '无重要变化', '露点:', '16°C', '晴空万里:', '真', '原始:', 'ZUUU 082300Z 00000MPS CAVOK 17/16 Q1006 NOSIG', '上午7:00', '17.0°C', '1,006毫巴', '每小时0公里', '-', '晴空万里', '本地:', '07:00、2019年4月9日周二', '协调世界时:', '23:00、2019年4月8日周一', '来源:', 'USAF 每小时地面观测', '报告类型:', 'METAR 航空例行天气报告', '露点:', '16.0°C', '晴空万里:', '真', '上午8:00', '19°C', '1,008毫巴', '每小时7.20公里, 西南', '≥ 10.00公里', '晴空万里', '本地:', '08:00、2019年4月9日周二', '协调世界时:', '00:00、2019年4月9日周二', '来源:', '周期文件', '趋势:', '无重要变化', '露点:', '17°C', '晴空万里:', '真', '原始:', 'ZUUU 090000Z 22002MPS CAVOK 19/17 Q1008 NOSIG', '上午8:00', '19.0°C', '1,008毫巴', '每小时7.20公里, 西南', '-', '晴空万里', '本地:', '08:00、2019年4月9日周二', '协调世界时:', '00:00、2019年4月9日周二', '来源:', 'USAF 每小时地面观测', '报告类型:', 'METAR 航空例行天气报告', '露点:', '17.0°C', '晴空万里:', '真', '上午9:00', '22°C', '1,009毫巴', '每小时3.60公里', '≥ 10.00公里', '晴空万里', '本地:', '09:00、2019年4月9日周二', '协调世界时:', '01:00、2019年4月9日周二', '来源:', '周期文件', '趋势:', '无重要变化', '露点:', '16°C', '晴空万里:', '真', '原始:', 'ZUUU 090100Z VRB01MPS CAVOK 22/16 Q1009 NOSIG', '上午9:00', '22.0°C', '1,009毫巴', '每小时3.60公里', '-', '晴空万里', '本地:', '09:00、2019年4月9日周二', '协调世界时:', '01:00、2019年4月9日周二', '来源:', 'USAF 每小时地面观测', '报告类型:', 'METAR 航空例行天气报告', '露点:', '16.0°C', '晴空万里:', '真', '上午10:00', '25°C', '1,009毫巴', '每小时3.60公里', '≥ 10.00公里', '晴空万里', '本地:', '10:00、2019年4月9日周二', '协调世界时:', '02:00、2019年4月9日周二', '来源:', '周期文件', '趋势:', '无重要变化', '露点:', '13°C', '晴空万里:', '真', '原始:', 'ZUUU 090200Z VRB01MPS CAVOK 25/13 Q1009 NOSIG', '上午10:00', '25.0°C', '1,009毫巴', '每小时3.60公里', '-', '晴空万里', '本地:', '10:00、2019年4月9日周二', '协调世界时:', '02:00、2019年4月9日周二', '来源:', 'USAF 每小时地面观测', '报告类型:', 'METAR 航空例行天气报告', '露点:', '13.0°C', '晴空万里:', '真', '上午11:00', '27°C', '1,009毫巴', '每小时7.20公里', '≥ 10.00公里', '晴空万里', '本地:', '11:00、2019年4月9日周二', '协调世界时:', '03:00、2019年4月9日周二', '来源:', '周期文件', '趋势:', '无重要变化', '露点:', '13°C', '晴空万里:', '真', '原始:', 'ZUUU 090300Z VRB02MPS CAVOK 27/13 Q1009 NOSIG', '上午11:00', '27.0°C', '1,009毫巴', '每小时7.20公里', '-', '晴空万里', '本地:', '11:00、2019年4月9日周二', '协调世界时:', '03:00、2019年4月9日周二', '来源:', 'USAF 每小时地面观测', '报告类型:', 'METAR 航空例行天气报告', '露点:', '13.0°C', '晴空万里:', '真', '下午12:00', '28°C', '1,009毫巴', '每小时10.8公里', '≥ 10.00公里', '晴空万里', '本地:', '12:00、2019年4月9日周二', '协调世界时:', '04:00、2019年4月9日周二', '来源:', '周期文件', '趋势:', '无重要变化', '露点:', '13°C', '晴空万里:', '真', '原始:', 'ZUUU 090400Z VRB03MPS CAVOK 28/13 Q1009 NOSIG', '下午12:00', '28.0°C', '1,009毫巴', '每小时10.8公里', '-', '晴空万里', '本地:', '12:00、2019年4月9日周二', '协调世界时:', '04:00、2019年4月9日周二', '来源:', 'USAF 每小时地面观测', '报告类型:', 'METAR 航空例行天气报告', '露点:', '13.0°C', '晴空万里:', '真', '下午1:00', '29°C', '1,008毫巴', '每小时10.8公里', '≥ 10.00公里', '晴空万里', '本地:', '13:00、2019年4月9日周二', '协调世界时:', '05:00、2019年4月9日周二', '来源:', '周期文件', '趋势:', '无重要变化', '露点:', '14°C', '晴空万里:', '真', '原始:', 'ZUUU 090500Z VRB03MPS CAVOK 29/14 Q1008 NOSIG', '下午1:00', '29.0°C', '1,008毫巴', '每小时10.8公里', '-', '晴空万里', '本地:', '13:00、2019年4月9日周二', '协调世界时:', '05:00、2019年4月9日周二', '来源:', 'USAF 每小时地面观测', '报告类型:', 'METAR 航空例行天气报告', '露点:', '14.0°C', '晴空万里:', '真', '下午2:00', '29°C', '1,007毫巴', '每小时10.8公里', '≥ 10.00公里', '晴空万里', '本地:', '14:00、2019年4月9日周二', '协调世界时:', '06:00、2019年4月9日周二', '来源:', '周期文件', '趋势:', '无重要变化', '露点:', '13°C', '晴空万里:', '真', '原始:', 'ZUUU 090600Z VRB03MPS CAVOK 29/13 Q1007 NOSIG', '下午2:00', '29.0°C', '1,007毫巴', '每小时10.8公里', '-', '晴空万里', '本地:', '14:00、2019年4月9日周二', '协调世界时:', '06:00、2019年4月9日周二', '来源:', 'USAF 每小时地面观测', '报告类型:', 'METAR 航空例行天气报告', '露点:', '13.0°C', '晴空万里:', '真', '下午3:00', '30°C', '1,006毫巴', '每小时10.8公里', '≥ 10.00公里', '晴空万里', '本地:', '15:00、2019年4月9日周二', '协调世界时:', '07:00、2019年4月9日周二', '来源:', '周期文件', '趋势:', '无重要变化', '露点:', '12°C', '晴空万里:', '真', '原始:', 'ZUUU 090700Z VRB03MPS CAVOK 30/12 Q1006 NOSIG', '下午3:00', '30.0°C', '1,006毫巴', '每小时10.8公里', '-', '晴空万里', '本地:', '15:00、2019年4月9日周二', '协调世界时:', '07:00、2019年4月9日周二', '来源:', 'USAF 每小时地面观测', '报告类型:', 'METAR 航空例行天气报告', '露点:', '12.0°C', '晴空万里:', '真', '下午4:00', '31°C', '1,006毫巴', '每小时7.20公里', '≥ 10.00公里', '晴空万里', '本地:', '16:00、2019年4月9日周二', '协调世界时:', '08:00、2019年4月9日周二', '来源:', '周期文件', '趋势:', '无重要变化', '露点:', '12°C', '晴空万里:', '真', '原始:', 'ZUUU 090800Z VRB02MPS CAVOK 31/12 Q1006 NOSIG', '下午4:00', '31.0°C', '1,006毫巴', '每小时7.20公里', '-', '晴空万里', '本地:', '16:00、2019年4月9日周二', '协调世界时:', '08:00、2019年4月9日周二', '来源:', 'USAF 每小时地面观测', '报告类型:', 'METAR 航空例行天气报告', '露点:', '12.0°C', '晴空万里:', '真', '下午5:00', '30°C', '1,005毫巴', '每小时7.20公里', '≥ 10.00公里', '晴空万里', '本地:', '17:00、2019年4月9日周二', '协调世界时:', '09:00、2019年4月9日周二', '来源:', '周期文件', '趋势:', '无重要变化', '露点:', '11°C', '晴空万里:', '真', '原始:', 'ZUUU 090900Z VRB02MPS CAVOK 30/11 Q1005 NOSIG', '下午5:00', '30.0°C', '1,005毫巴', '每小时7.20公里', '-', '晴空万里', '本地:', '17:00、2019年4月9日周二', '协调世界时:', '09:00、2019年4月9日周二', '来源:', 'USAF 每小时地面观测', '报告类型:', 'METAR 航空例行天气报告', '露点:', '11.0°C', '晴空万里:', '真', '下午6:00', '30°C', '1,006毫巴', '每小时14.4公里, 南', '≥ 10.00公里', '晴空万里', '本地:', '18:00、2019年4月9日周二', '协调世界时:', '10:00、2019年4月9日周二', '来源:', '周期文件', '趋势:', '无重要变化', '露点:', '12°C', '晴空万里:', '真', '原始:', 'ZUUU 091000Z 17004MPS 090V240 CAVOK 30/12 Q1006 NOSIG', '下午6:00', '30.0°C', '1,006毫巴', '每小时14.4公里, 南', '-', '晴空万里', '本地:', '18:00、2019年4月9日周二', '协调世界时:', '10:00、2019年4月9日周二', '来源:', 'USAF 每小时地面观测', '报告类型:', 'METAR 航空例行天气报告', '露点:', '12.0°C', '晴空万里:', '真', '下午7:00', '28°C', '1,006毫巴', '每小时10.8公里, 南', '≥ 10.00公里', '晴空万里', '本地:', '19:00、2019年4月9日周二', '协调世界时:', '11:00、2019年4月9日周二', '来源:', '周期文件', '趋势:', '无重要变化', '露点:', '11°C', '晴空万里:', '真', '原始:', 'ZUUU 091100Z 16003MPS 130V190 CAVOK 28/11 Q1006 NOSIG', '下午7:00', '28.0°C', '1,006毫巴', '每小时10.8公里, 南', '-', '晴空万里', '本地:', '19:00、2019年4月9日周二', '协调世界时:', '11:00、2019年4月9日周二', '来源:', 'USAF 每小时地面观测', '报告类型:', 'METAR 航空例行天气报告', '露点:', '11.0°C', '晴空万里:', '真', '下午8:00', '26°C', '1,007毫巴', '每小时7.20公里, 南', '≥ 10.00公里', '晴空万里', '本地:', '20:00、2019年4月9日周二', '协调世界时:', '12:00、2019年4月9日周二', '来源:', '周期文件', '趋势:', '无重要变化', '露点:', '11°C', '晴空万里:', '真', '原始:', 'ZUUU 091200Z 18002MPS 140V220 CAVOK 26/11 Q1007 NOSIG', '下午8:00', '26.0°C', '1,007毫巴', '每小时7.20公里, 南', '-', '晴空万里', '本地:', '20:00、2019年4月9日周二', '协调世界时:', '12:00、2019年4月9日周二', '来源:', 'USAF 每小时地面观测', '报告类型:', 'METAR 航空例行天气报告', '露点:', '11.0°C', '晴空万里:', '真', '下午9:00', '26°C', '1,008毫巴', '每小时7.20公里', '≥ 10.00公里', '晴空万里', '本地:', '21:00、2019年4月9日周二', '协调世界时:', '13:00、2019年4月9日周二', '来源:', '周期文件', '趋势:', '无重要变化', '露点:', '11°C', '晴空万里:', '真', '原始:', 'ZUUU 091300Z VRB02MPS CAVOK 26/11 Q1008 NOSIG', '下午9:00', '26.0°C', '1,008毫巴', '每小时7.20公里', '-', '晴空万里', '本地:', '21:00、2019年4月9日周二', '协调世界时:', '13:00、2019年4月9日周二', '来源:', 'USAF 每小时地面观测', '报告类型:', 'METAR 航空例行天气报告', '露点:', '11.0°C', '晴空万里:', '真', '下午10:00', '27°C', '1,009毫巴', '每小时10.8公里, 东南', '≥ 10.00公里', '晴空万里', '本地:', '22:00、2019年4月9日周二', '协调世界时:', '14:00、2019年4月9日周二', '来源:', '周期文件', '趋势:', '无重要变化', '露点:', '10°C', '晴空万里:', '真', '原始:', 'ZUUU 091400Z 14003MPS 080V190 CAVOK 27/10 Q1009 NOSIG', '下午10:00', '27.0°C', '1,009毫巴', '每小时10.8公里, 东南', '-', '晴空万里', '本地:', '22:00、2019年4月9日周二', '协调世界时:', '14:00、2019年4月9日周二', '来源:', 'USAF 每小时地面观测', '报告类型:', 'METAR 航空例行天气报告', '露点:', '10.0°C', '晴空万里:', '真', '下午11:00', '27°C', '1,009毫巴', '每小时7.20公里, 东', '≥ 10.00公里', '晴空万里', '本地:', '23:00、2019年4月9日周二', '协调世界时:', '15:00、2019年4月9日周二', '来源:', '周期文件', '趋势:', '无重要变化', '露点:', '10°C', '晴空万里:', '真', '原始:', 'ZUUU 091500Z 09002MPS 030V130 CAVOK 27/10 Q1009 NOSIG', '下午11:00', '27.0°C', '1,009毫巴', '每小时7.20公里, 东', '-', '晴空万里', '本地:', '23:00、2019年4月9日周二', '协调世界时:', '15:00、2019年4月9日周二', '来源:', 'USAF 每小时地面观测', '报告类型:', 'METAR 航空例行天气报告', '露点:', '10.0°C', '晴空万里:', '真']