['Mist', 'BR、IWC10', '上午12:00', '19°C', '1,013毫巴', '每小时7.20公里, 北', '7.00公里', '大部分晴天 (1,524米)', '本地:', '00:00、2019年4月17日周三', '协调世界时:', '16:00、2019年4月16日周二', '来源:', '周期文件', '趋势:', '无重要变化', '露点:', '16°C', '原始:', 'ZUUU 161600Z 35002MPS 320V020 7000 FEW050 19/16 Q1013 NOSIG', '上午12:00', '19.0°C', '1,013毫巴', '每小时7.20公里, 北', '7.00公里', '大部分晴天 (1,524米)', '本地:', '00:00、2019年4月17日周三', '协调世界时:', '16:00、2019年4月16日周二', '来源:', 'USAF 每小时地面观测', '报告类型:', 'METAR 航空例行天气报告', '露点:', '16.0°C', '上午1:00', '19°C', '1,013毫巴', '每小时7.20公里, 北', '6.00公里', '部分多云 (1,219米)', '本地:', '01:00、2019年4月17日周三', '协调世界时:', '17:00、2019年4月16日周二', '来源:', '周期文件', '趋势:', '无重要变化', '露点:', '16°C', '原始:', 'ZUUU 161700Z 02002MPS 270V050 6000 SCT040 19/16 Q1013 NOSIG', '上午1:00', '19.0°C', '1,013毫巴', '每小时7.20公里, 北', '6.00公里', '部分多云 (1,219米)', '本地:', '01:00、2019年4月17日周三', '协调世界时:', '17:00、2019年4月16日周二', '来源:', 'USAF 每小时地面观测', '报告类型:', 'METAR 航空例行天气报告', '露点:', '16.0°C', '上午2:00', '19°C', '1,012毫巴', '每小时3.60公里', '6.00公里', '部分多云 (1,219米)', '本地:', '02:00、2019年4月17日周三', '协调世界时:', '18:00、2019年4月16日周二', '来源:', '周期文件', '趋势:', '无重要变化', '露点:', '16°C', '原始:', 'ZUUU 161800Z VRB01MPS 6000 SCT040 19/16 Q1012 NOSIG', '上午2:00', '19.0°C', '1,012毫巴', '每小时3.60公里', '6.00公里', '部分多云 (1,219米)', '本地:', '02:00、2019年4月17日周三', '协调世界时:', '18:00、2019年4月16日周二', '来源:', 'USAF 每小时地面观测', '报告类型:', 'METAR 航空例行天气报告', '露点:', '16.0°C', '上午3:00', '19°C', '1,011毫巴', '每小时7.20公里, 北', '6.00公里', '部分多云 (1,219米)', '本地:', '03:00、2019年4月17日周三', '协调世界时:', '19:00、2019年4月16日周二', '来源:', '周期文件', '趋势:', '无重要变化', '露点:', '16°C', '原始:', 'ZUUU 161900Z 01002MPS 330V050 6000 SCT040 19/16 Q1011 NOSIG', '上午3:00', '19.0°C', '1,011毫巴', '每小时7.20公里, 北', '6.00公里', '部分多云 (1,219米)', '本地:', '03:00、2019年4月17日周三', '协调世界时:', '19:00、2019年4月16日周二', '来源:', 'USAF 每小时地面观测', '报告类型:', 'METAR 航空例行天气报告', '露点:', '16.0°C', '上午4:00', '19°C', '1,011毫巴', '每小时7.20公里, 北', '6.00公里', '部分多云 (1,219米)', '本地:', '04:00、2019年4月17日周三', '协调世界时:', '20:00、2019年4月16日周二', '来源:', '周期文件', '趋势:', '无重要变化', '露点:', '16°C', '原始:', 'ZUUU 162000Z 36002MPS 320V030 6000 SCT040 19/16 Q1011 NOSIG', '上午4:00', '19.0°C', '1,011毫巴', '每小时7.20公里, 北', '6.00公里', '部分多云 (1,219米)', '本地:', '04:00、2019年4月17日周三', '协调世界时:', '20:00、2019年4月16日周二', '来源:', 'USAF 每小时地面观测', '报告类型:', 'METAR 航空例行天气报告', '露点:', '16.0°C', '上午5:00', '18°C', '1,011毫巴', '每小时7.20公里, 北', '6.00公里', '部分多云 (1,219米)', '本地:', '05:00、2019年4月17日周三', '协调世界时:', '21:00、2019年4月16日周二', '来源:', '周期文件', '趋势:', '无重要变化', '露点:', '16°C', '原始:', 'ZUUU 162100Z 36002MPS 330V040 6000 SCT040 18/16 Q1011 NOSIG', '上午5:00', '18.0°C', '1,011毫巴', '每小时7.20公里, 北', '6.00公里', '部分多云 (1,219米)', '本地:', '05:00、2019年4月17日周三', '协调世界时:', '21:00、2019年4月16日周二', '来源:', 'USAF 每小时地面观测', '报告类型:', 'METAR 航空例行天气报告', '露点:', '16.0°C', '上午6:00', '18°C', '1,011毫巴', '每小时14.4公里, 东北', '6.00公里', '部分多云 (1,219米)', '本地:', '06:00、2019年4月17日周三', '协调世界时:', '22:00、2019年4月16日周二', '来源:', '周期文件', '趋势:', '无重要变化', '露点:', '16°C', '原始:', 'ZUUU 162200Z 03004MPS 6000 SCT040 18/16 Q1011 NOSIG', '上午6:00', '18.0°C', '1,011毫巴', '每小时14.4公里, 东北', '6.00公里', '部分多云 (1,219米)', '本地:', '06:00、2019年4月17日周三', '协调世界时:', '22:00、2019年4月16日周二', '来源:', 'USAF 每小时地面观测', '报告类型:', 'METAR 航空例行天气报告', '露点:', '16.0°C', '上午7:00', '18°C', '1,011毫巴', '每小时10.8公里, 北', '7.00公里', '部分多云 (1,219米)', '本地:', '07:00、2019年4月17日周三', '协调世界时:', '23:00、2019年4月16日周二', '来源:', '周期文件', '趋势:', '无重要变化', '露点:', '16°C', '原始:', 'ZUUU 162300Z 01003MPS 330V050 7000 SCT040 18/16 Q1011 NOSIG', '上午7:00', '18.0°C', '1,011毫巴', '每小时10.8公里, 北', '7.00公里', '部分多云 (1,219米)', '本地:', '07:00、2019年4月17日周三', '协调世界时:', '23:00、2019年4月16日周二', '来源:', 'USAF 每小时地面观测', '报告类型:', 'METAR 航空例行天气报告', '露点:', '16.0°C', '上午8:00', '18°C', '1,012毫巴', '每小时7.20公里, 北', '10.00公里', '部分多云 (1,219米)', '本地:', '08:00、2019年4月17日周三', '协调世界时:', '00:00、2019年4月17日周三', '来源:', '周期文件', '趋势:', '无重要变化', '露点:', '15°C', '原始:', 'ZUUU 170000Z 01002MPS 340V040 9999 SCT040 18/15 Q1012 NOSIG', '上午8:00', '18.0°C', '1,012毫巴', '每小时7.20公里, 北', '10.00公里', '部分多云 (1,219米)', '本地:', '08:00、2019年4月17日周三', '协调世界时:', '00:00、2019年4月17日周三', '来源:', 'USAF 每小时地面观测', '报告类型:', 'METAR 航空例行天气报告', '露点:', '15.0°C', '上午9:00', '19°C', '1,012毫巴', '每小时7.20公里, 西北', '10.00公里', '部分多云 (1,219米)', '本地:', '09:00、2019年4月17日周三', '协调世界时:', '01:00、2019年4月17日周三', '来源:', '周期文件', '趋势:', '无重要变化', '露点:', '16°C', '其他云层:', '大部分晴天 (701米)', '原始:', 'ZUUU 170100Z 33002MPS 300V010 9999 FEW023 SCT040 19/16 Q1012 NOSIG', '上午9:00', '19.0°C', '1,012毫巴', '每小时7.20公里, 西北', '10.00公里', '部分多云 (1,219米)', '本地:', '09:00、2019年4月17日周三', '协调世界时:', '01:00、2019年4月17日周三', '来源:', 'USAF 每小时地面观测', '报告类型:', 'METAR 航空例行天气报告', '露点:', '16.0°C', '其他云层:', '大部分晴天 (701米)', '上午10:00', '18°C', '1,012毫巴', '每小时7.20公里, 北', '7.00公里', '部分多云 (1,219米)', '本地:', '10:00、2019年4月17日周三', '协调世界时:', '02:00、2019年4月17日周三', '来源:', '周期文件', '趋势:', '无重要变化', '露点:', '16°C', '其他云层:', '大部分晴天 (610米)', '原始:', 'ZUUU 170200Z 35002MPS 320V050 7000 FEW020 SCT040 18/16 Q1012 NOSIG', '上午10:00', '18.0°C', '1,012毫巴', '每小时7.20公里, 北', '7.00公里', '部分多云 (1,219米)', '本地:', '10:00、2019年4月17日周三', '协调世界时:', '02:00、2019年4月17日周三', '来源:', 'USAF 每小时地面观测', '报告类型:', 'METAR 航空例行天气报告', '露点:', '16.0°C', '其他云层:', '大部分晴天 (610米)', '上午11:00', '19°C', '1,012毫巴', '每小时7.20公里, 北', '7.00公里', '部分多云 (1,219米)', '本地:', '11:00、2019年4月17日周三', '协调世界时:', '03:00、2019年4月17日周三', '来源:', '周期文件', '趋势:', '无重要变化', '露点:', '16°C', '其他云层:', '大部分晴天 (610米)', '原始:', 'ZUUU 170300Z 35002MPS 320V030 7000 FEW020 SCT040 19/16 Q1012 NOSIG', '上午11:00', '19.0°C', '1,012毫巴', '每小时7.20公里, 北', '7.00公里', '部分多云 (1,219米)', '本地:', '11:00、2019年4月17日周三', '协调世界时:', '03:00、2019年4月17日周三', '来源:', 'USAF 每小时地面观测', '报告类型:', 'METAR 航空例行天气报告', '露点:', '16.0°C', '其他云层:', '大部分晴天 (610米)', '下午12:00', '20°C', '1,011毫巴', '每小时7.20公里, 西北', '7.00公里', '部分多云 (1,524米)', '本地:', '12:00、2019年4月17日周三', '协调世界时:', '04:00、2019年4月17日周三', '来源:', '周期文件', '趋势:', '无重要变化', '露点:', '16°C', '其他云层:', '大部分晴天 (1,006米)', '原始:', 'ZUUU 170400Z 33002MPS 280V020 7000 FEW033 SCT050 20/16 Q1011 NOSIG', '下午12:00', '20.0°C', '1,011毫巴', '每小时7.20公里, 西北', '7.00公里', '部分多云 (1,524米)', '本地:', '12:00、2019年4月17日周三', '协调世界时:', '04:00、2019年4月17日周三', '来源:', 'USAF 每小时地面观测', '报告类型:', 'METAR 航空例行天气报告', '露点:', '16.0°C', '其他云层:', '大部分晴天 (1,006米)', '下午1:00', '22°C', '1,010毫巴', '每小时7.20公里, 东北', '8.00公里', '部分多云 (1,524米)', '本地:', '13:00、2019年4月17日周三', '协调世界时:', '05:00、2019年4月17日周三', '来源:', '周期文件', '趋势:', '无重要变化', '露点:', '16°C', '其他云层:', '大部分晴天 (1,006米)', '原始:', 'ZUUU 170500Z 03002MPS 290V100 8000 FEW033 SCT050 22/16 Q1010 NOSIG', '下午1:00', '22.0°C', '1,010毫巴', '每小时7.20公里, 东北', '8.00公里', '部分多云 (1,524米)', '本地:', '13:00、2019年4月17日周三', '协调世界时:', '05:00、2019年4月17日周三', '来源:', 'USAF 每小时地面观测', '报告类型:', 'METAR 航空例行天气报告', '露点:', '16.0°C', '其他云层:', '大部分晴天 (1,006米)', '下午2:00', '23°C', '1,009毫巴', '每小时7.20公里', '8.00公里', '大部分晴天 (1,524米)', '本地:', '14:00、2019年4月17日周三', '协调世界时:', '06:00、2019年4月17日周三', '来源:', '周期文件', '趋势:', '无重要变化', '露点:', '16°C', '原始:', 'ZUUU 170600Z VRB02MPS 8000 FEW050 23/16 Q1009 NOSIG', '下午2:00', '23.0°C', '1,009毫巴', '每小时7.20公里', '8.00公里', '大部分晴天 (1,524米)', '本地:', '14:00、2019年4月17日周三', '协调世界时:', '06:00、2019年4月17日周三', '来源:', 'USAF 每小时地面观测', '报告类型:', 'METAR 航空例行天气报告', '露点:', '16.0°C', '下午3:00', '23°C', '1,008毫巴', '每小时3.60公里', '8.00公里', '大部分晴天 (1,524米)', '本地:', '15:00、2019年4月17日周三', '协调世界时:', '07:00、2019年4月17日周三', '来源:', '周期文件', '趋势:', '无重要变化', '露点:', '16°C', '原始:', 'ZUUU 170700Z VRB01MPS 8000 FEW050 23/16 Q1008 NOSIG', '下午3:00', '23.0°C', '1,008毫巴', '每小时3.60公里', '8.00公里', '大部分晴天 (1,524米)', '本地:', '15:00、2019年4月17日周三', '协调世界时:', '07:00、2019年4月17日周三', '来源:', 'USAF 每小时地面观测', '报告类型:', 'METAR 航空例行天气报告', '露点:', '16.0°C', '下午4:00', '23°C', '1,007毫巴', '每小时7.20公里, 北', '7.00公里', '大部分晴天 (1,524米)', '本地:', '16:00、2019年4月17日周三', '协调世界时:', '08:00、2019年4月17日周三', '来源:', '周期文件', '趋势:', '无重要变化', '露点:', '16°C', '原始:', 'ZUUU 170800Z 35002MPS 290V040 7000 FEW050 23/16 Q1007 NOSIG', '下午4:00', '23.0°C', '1,007毫巴', '每小时7.20公里, 北', '7.00公里', '大部分晴天 (1,524米)', '本地:', '16:00、2019年4月17日周三', '协调世界时:', '08:00、2019年4月17日周三', '来源:', 'USAF 每小时地面观测', '报告类型:', 'METAR 航空例行天气报告', '露点:', '16.0°C', '下午5:00', '24°C', '1,007毫巴', '每小时7.20公里, 北', '7.00公里', '大部分晴天 (1,524米)', '本地:', '17:00、2019年4月17日周三', '协调世界时:', '09:00、2019年4月17日周三', '来源:', '周期文件', '趋势:', '无重要变化', '露点:', '16°C', '原始:', 'ZUUU 170900Z 02002MPS 330V050 7000 FEW050 24/16 Q1007 NOSIG', '下午5:00', '24.0°C', '1,007毫巴', '每小时7.20公里, 北', '7.00公里', '大部分晴天 (1,524米)', '本地:', '17:00、2019年4月17日周三', '协调世界时:', '09:00、2019年4月17日周三', '来源:', 'USAF 每小时地面观测', '报告类型:', 'METAR 航空例行天气报告', '露点:', '16.0°C', '下午6:00', '23°C', '1,006毫巴', '每小时7.20公里, 西北', '7.00公里', '大部分晴天 (1,524米)', '本地:', '18:00、2019年4月17日周三', '协调世界时:', '10:00、2019年4月17日周三', '来源:', '周期文件', '趋势:', '无重要变化', '露点:', '16°C', '原始:', 'ZUUU 171000Z 32002MPS 280V020 7000 FEW050 23/16 Q1006 NOSIG', '下午6:00', '23.0°C', '1,006毫巴', '每小时7.20公里, 西北', '7.00公里', '大部分晴天 (1,524米)', '本地:', '18:00、2019年4月17日周三', '协调世界时:', '10:00、2019年4月17日周三', '来源:', 'USAF 每小时地面观测', '报告类型:', 'METAR 航空例行天气报告', '露点:', '16.0°C', '下午7:00', '22°C', '1,006毫巴', '每小时0公里', '7.00公里', '大部分晴天 (1,524米)', '本地:', '19:00、2019年4月17日周三', '协调世界时:', '11:00、2019年4月17日周三', '来源:', '周期文件', '趋势:', '无重要变化', '露点:', '16°C', '原始:', 'ZUUU 171100Z 00000MPS 7000 FEW050 22/16 Q1006 NOSIG', '下午7:00', '22.0°C', '1,006毫巴', '每小时0公里', '7.00公里', '大部分晴天 (1,524米)', '本地:', '19:00、2019年4月17日周三', '协调世界时:', '11:00、2019年4月17日周三', '来源:', 'USAF 每小时地面观测', '报告类型:', 'METAR 航空例行天气报告', '露点:', '16.0°C', '下午8:00', '21°C', '1,007毫巴', '每小时3.60公里', '6.00公里', '大部分晴天 (1,524米)', '本地:', '20:00、2019年4月17日周三', '协调世界时:', '12:00、2019年4月17日周三', '来源:', '周期文件', '趋势:', '无重要变化', '露点:', '16°C', '原始:', 'ZUUU 171200Z VRB01MPS 6000 FEW050 21/16 Q1007 NOSIG', '下午8:00', '21.0°C', '1,007毫巴', '每小时3.60公里', '6.00公里', '大部分晴天 (1,524米)', '本地:', '20:00、2019年4月17日周三', '协调世界时:', '12:00、2019年4月17日周三', '来源:', 'USAF 每小时地面观测', '报告类型:', 'METAR 航空例行天气报告', '露点:', '16.0°C', '下午9:00', '21°C', '1,007毫巴', '每小时7.20公里, 北', '6.00公里', '大部分晴天 (1,524米)', '本地:', '21:00、2019年4月17日周三', '协调世界时:', '13:00、2019年4月17日周三', '来源:', '周期文件', '趋势:', '无重要变化', '露点:', '16°C', '原始:', 'ZUUU 171300Z 35002MPS 6000 FEW050 21/16 Q1007 NOSIG', '下午9:00', '21.0°C', '1,007毫巴', '每小时7.20公里, 北', '6.00公里', '大部分晴天 (1,524米)', '本地:', '21:00、2019年4月17日周三', '协调世界时:', '13:00、2019年4月17日周三', '来源:', 'USAF 每小时地面观测', '报告类型:', 'METAR 航空例行天气报告', '露点:', '16.0°C', '下午10:00', '21°C', '1,007毫巴', '每小时3.60公里, 北', '6.00公里', '大部分晴天 (1,524米)', '本地:', '22:00、2019年4月17日周三', '协调世界时:', '14:00、2019年4月17日周三', '来源:', '周期文件', '趋势:', '无重要变化', '露点:', '16°C', '原始:', 'ZUUU 171400Z 35001MPS 6000 FEW050 21/16 Q1007 NOSIG', '下午10:00', '21.0°C', '1,007毫巴', '每小时3.60公里, 北', '6.00公里', '大部分晴天 (1,524米)', '本地:', '22:00、2019年4月17日周三', '协调世界时:', '14:00、2019年4月17日周三', '来源:', 'USAF 每小时地面观测', '报告类型:', 'METAR 航空例行天气报告', '露点:', '16.0°C', '下午11:00', '21°C', '1,008毫巴', '每小时0公里', '5.00公里', '大部分晴天 (1,524米)', '本地:', '23:00、2019年4月17日周三', '协调世界时:', '15:00、2019年4月17日周三', '来源:', '周期文件', '趋势:', '无重要变化', '露点:', '16°C', '天气:', 'Mist', '原始:', 'ZUUU 171500Z 00000MPS 5000 BR FEW050 21/16 Q1008 NOSIG', '下午11:00', '21.0°C', '1,008毫巴', '每小时0公里', '5.00公里', '大部分晴天 (1,524米)', '本地:', '23:00、2019年4月17日周三', '协调世界时:', '15:00、2019年4月17日周三', '来源:', 'USAF 每小时地面观测', '报告类型:', 'METAR 航空例行天气报告', '露点:', '16.0°C', '天气:', 'Mist']