['Light Rain', '-RA、IWC61', 'Light Rain、Mist', '-RA、IWC61、BR、IWC10', 'Light Rain、Mist', '-RA、IWC61、BR、IWC10', 'Light Rain、Mist', '-RA、IWC61、BR、IWC10', 'Light Rain、Mist', '-RA、IWC61、BR、IWC10', 'Light Rain、Mist', '-RA、IWC61、BR、IWC10', 'Light Rain、Mist', '-RA、IWC61、BR、IWC10', 'Light Rain、Mist', '-RA、IWC61、BR、IWC10', 'Light Rain、Mist', '-RA、IWC61、BR、IWC10', 'Light Rain、Mist', '-RA、IWC61、BR、IWC10', 'Light Rain、Mist', '-RA、IWC61、BR、IWC10', 'Light Rain、Mist', '-RA、IWC61、BR、IWC10', 'Light Rain', '-RA、IWC61', 'Light Rain', '-RA、IWC61', 'Light Rain', '-RA、IWC61', '上午12:00', '9°C', '1,016毫巴', '每小时7.20公里, 北', '7.00公里', '大部分多云 (1,219米)', '本地:', '00:00、2019年3月1日周五', '协调世界时:', '16:00、2019年2月28日周四', '来源:', '周期文件', '趋势:', '无重要变化', '露点:', '6°C', '其他云层:', '部分多云 (792米)', '原始:', 'ZUUU 281600Z 36002MPS 330V040 7000 SCT026 BKN040 09/06 Q1016 NOSIG', '上午12:00', '9.0°C', '1,016毫巴', '每小时7.20公里, 北', '7.00公里', '大部分多云 (1,219米)', '本地:', '00:00、2019年3月1日周五', '协调世界时:', '16:00、2019年2月28日周四', '来源:', 'USAF 每小时地面观测', '报告类型:', 'METAR 航空例行天气报告', '露点:', '6.0°C', '其他云层:', '部分多云 (792米)', '上午1:00', '9°C', '1,016毫巴', '每小时14.4公里, 东北', '7.00公里', '大部分多云 (1,219米)', '本地:', '01:00、2019年3月1日周五', '协调世界时:', '17:00、2019年2月28日周四', '来源:', '周期文件', '趋势:', '无重要变化', '露点:', '6°C', '其他云层:', '部分多云 (488米)', '原始:', 'ZUUU 281700Z 05004MPS 020V080 7000 SCT016 BKN040 09/06 Q1016 NOSIG', '上午2:00', '9°C', '1,015毫巴', '每小时7.20公里, 北', '6.00公里', '部分多云 (1,219米)', '本地:', '02:00、2019年3月1日周五', '协调世界时:', '18:00、2019年2月28日周四', '来源:', '周期文件', '趋势:', '无重要变化', '露点:', '7°C', '其他云层:', '大部分晴天 (396米)', '原始:', 'ZUUU 281800Z 35002MPS 320V040 6000 FEW013 SCT040 09/07 Q1015 NOSIG', '上午2:00', '9.0°C', '1,015毫巴', '每小时7.20公里, 北', '6.00公里', '部分多云 (1,219米)', '本地:', '02:00、2019年3月1日周五', '协调世界时:', '18:00、2019年2月28日周四', '来源:', 'USAF 每小时地面观测', '报告类型:', 'METAR 航空例行天气报告', '露点:', '7.0°C', '其他云层:', '大部分晴天 (396米)', '上午3:00', '8°C', '1,015毫巴', '每小时7.20公里, 北', '6.00公里', '部分多云 (396米)', '本地:', '03:00、2019年3月1日周五', '协调世界时:', '19:00、2019年2月28日周四', '来源:', '周期文件', '趋势:', '无重要变化', '露点:', '7°C', '其他云层:', '部分多云 (1,219米)', '天气:', 'Light Rain', '原始:', 'ZUUU 281900Z 36002MPS 320V020 6000 -RA SCT013 SCT040 08/07 Q1015 NOSIG', '上午3:00', '8.0°C', '1,015毫巴', '每小时7.20公里, 北', '6.00公里', '部分多云 (396米)', '本地:', '03:00、2019年3月1日周五', '协调世界时:', '19:00、2019年2月28日周四', '来源:', 'USAF 每小时地面观测', '报告类型:', 'METAR 航空例行天气报告', '露点:', '7.0°C', '其他云层:', '部分多云 (1,219米)', '天气:', 'Light Rain', '上午4:00', '8°C', '1,015毫巴', '每小时7.20公里, 北', '3.50公里', '部分多云 (305米)', '本地:', '04:00、2019年3月1日周五', '协调世界时:', '20:00、2019年2月28日周四', '来源:', '周期文件', '趋势:', '无重要变化', '露点:', '7°C', '其他云层:', '部分多云 (914米)', '天气:', 'Light Rain、Mist', '原始:', 'ZUUU 282000Z 36002MPS 330V030 3500 -RA BR SCT010 SCT030 08/07 Q1015 NOSIG', '上午4:00', '8.0°C', '1,015毫巴', '每小时7.20公里, 北', '3.50公里', '部分多云 (305米)', '本地:', '04:00、2019年3月1日周五', '协调世界时:', '20:00、2019年2月28日周四', '来源:', 'USAF 每小时地面观测', '报告类型:', 'METAR 航空例行天气报告', '露点:', '7.0°C', '其他云层:', '部分多云 (914米)', '天气:', 'Mist、Light Rain', '上午5:00', '8°C', '1,014毫巴', '每小时3.60公里', '2.50公里', '部分多云 (396米)', '本地:', '05:00、2019年3月1日周五', '协调世界时:', '21:00、2019年2月28日周四', '来源:', '周期文件', '趋势:', '无重要变化', '露点:', '7°C', '其他云层:', '大部分晴天 (122米)', '天气:', 'Light Rain、Mist', '原始:', 'ZUUU 282100Z VRB01MPS 2500 -RA BR FEW004 SCT013 08/07 Q1014 NOSIG', '上午5:00', '8.0°C', '1,014毫巴', '每小时3.60公里', '2.50公里', '部分多云 (396米)', '本地:', '05:00、2019年3月1日周五', '协调世界时:', '21:00、2019年2月28日周四', '来源:', 'USAF 每小时地面观测', '报告类型:', 'METAR 航空例行天气报告', '露点:', '7.0°C', '其他云层:', '大部分晴天 (122米)', '天气:', 'Mist、Light Rain', '上午6:00', '8°C', '1,015毫巴', '每小时3.60公里', '3.00公里', '部分多云 (305米)', '本地:', '06:00、2019年3月1日周五', '协调世界时:', '22:00、2019年2月28日周四', '来源:', '周期文件', '趋势:', '无重要变化', '露点:', '7°C', '其他云层:', '大部分晴天 (152米)', '天气:', 'Light Rain、Mist', '原始:', 'ZUUU 282200Z VRB01MPS 3000 -RA BR FEW005 SCT010 08/07 Q1015 NOSIG', '上午6:00', '8.0°C', '1,015毫巴', '每小时3.60公里', '3.00公里', '部分多云 (305米)', '本地:', '06:00、2019年3月1日周五', '协调世界时:', '22:00、2019年2月28日周四', '来源:', 'USAF 每小时地面观测', '报告类型:', 'METAR 航空例行天气报告', '露点:', '7.0°C', '其他云层:', '大部分晴天 (152米)', '天气:', 'Mist、Light Rain', '上午7:00', '8°C', '1,015毫巴', '每小时10.8公里, 北', '3.50公里', '部分多云 (274米)', '本地:', '07:00、2019年3月1日周五', '协调世界时:', '23:00、2019年2月28日周四', '来源:', '周期文件', '趋势:', '无重要变化', '露点:', '7°C', '其他云层:', '大部分晴天 (152米)', '天气:', 'Light Rain、Mist', '原始:', 'ZUUU 282300Z 01003MPS 340V040 3500 -RA BR FEW005 SCT009 08/07 Q1015 NOSIG', '上午7:00', '8.0°C', '1,015毫巴', '每小时10.8公里, 北', '3.50公里', '部分多云 (274米)', '本地:', '07:00、2019年3月1日周五', '协调世界时:', '23:00、2019年2月28日周四', '来源:', 'USAF 每小时地面观测', '报告类型:', 'METAR 航空例行天气报告', '露点:', '7.0°C', '其他云层:', '大部分晴天 (152米)', '天气:', 'Mist、Light Rain', '上午8:00', '8°C', '1,015毫巴', '每小时3.60公里', '1.70公里', '大部分多云 (610米)', '本地:', '08:00、2019年3月1日周五', '协调世界时:', '00:00、2019年3月1日周五', '来源:', '周期文件', '趋势:', '变化为', '露点:', '8°C', '其他云层:', '大部分晴天 (122米)、部分多云 (213米)', '天气:', 'Light Rain、Mist', '原始:', 'ZUUU 010000Z VRB01MPS 1700 -RA BR FEW004 SCT007 BKN020 08/08 Q1015 BECMG TL0130 3000', '上午8:00', '8.0°C', '1,015毫巴', '每小时3.60公里', '1.70公里', '大部分多云 (610米)', '本地:', '08:00、2019年3月1日周五', '协调世界时:', '00:00、2019年3月1日周五', '来源:', 'USAF 每小时地面观测', '报告类型:', 'METAR 航空例行天气报告', '露点:', '8.0°C', '其他云层:', '大部分晴天 (122米)、部分多云 (213米)', '天气:', 'Mist、Light Rain', '上午9:00', '8°C', '1,016毫巴', '每小时3.60公里', '1.40公里', '大部分多云 (610米)', '本地:', '09:00、2019年3月1日周五', '协调世界时:', '01:00、2019年3月1日周五', '来源:', '周期文件', '趋势:', '变化为', '露点:', '8°C', '其他云层:', '大部分晴天 (91米)、部分多云 (183米)', '天气:', 'Light Rain、Mist', '原始:', 'ZUUU 010100Z VRB01MPS 1400 R02L/1700U R02R/1300N -RA BR FEW003 SCT006 BKN020 08/08 Q1016 BECMG TL0200 1500', '上午9:00', '8.0°C', '1,016毫巴', '每小时3.60公里', '1.40公里', '大部分多云 (610米)', '本地:', '09:00、2019年3月1日周五', '协调世界时:', '01:00、2019年3月1日周五', '来源:', 'USAF 每小时地面观测', '报告类型:', 'METAR 航空例行天气报告', '露点:', '8.0°C', '其他云层:', '大部分晴天 (91米)、部分多云 (183米)', '天气:', 'Mist、Light Rain', '上午10:00', '8°C', '1,016毫巴', '每小时7.20公里, 北', '1.40公里', '大部分多云 (610米)', '本地:', '10:00、2019年3月1日周五', '协调世界时:', '02:00、2019年3月1日周五', '来源:', '周期文件', '趋势:', '变化为', '露点:', '8°C', '其他云层:', '大部分晴天 (91米)、部分多云 (183米)', '天气:', 'Light Rain、Mist', '原始:', 'ZUUU 010200Z 36002MPS 320V030 1400 R02L/1900D R02R/1200U -RA BR FEW003 SCT006 BKN020 08/08 Q1016 BECMG TL0230 1500', '上午10:00', '8.0°C', '1,016毫巴', '每小时7.20公里, 北', '1.40公里', '大部分多云 (610米)', '本地:', '10:00、2019年3月1日周五', '协调世界时:', '02:00、2019年3月1日周五', '来源:', 'USAF 每小时地面观测', '报告类型:', 'METAR 航空例行天气报告', '露点:', '8.0°C', '其他云层:', '大部分晴天 (91米)、部分多云 (183米)', '天气:', 'Mist、Light Rain', '上午11:00', '8°C', '1,016毫巴', '每小时7.20公里, 北', '1.70公里', '大部分多云 (914米)', '本地:', '11:00、2019年3月1日周五', '协调世界时:', '03:00、2019年3月1日周五', '来源:', '周期文件', '趋势:', '无重要变化', '露点:', '8°C', '其他云层:', '大部分晴天 (122米)、部分多云 (305米)', '天气:', 'Light Rain、Mist', '原始:', 'ZUUU 010300Z 35002MPS 310V040 1700 R02L/P2000N R02R/1200U -RA BR FEW004 SCT010 BKN030 08/08 Q1016 NOSIG', '上午11:00', '8.0°C', '1,016毫巴', '每小时7.20公里, 北', '1.70公里', '大部分多云 (914米)', '本地:', '11:00、2019年3月1日周五', '协调世界时:', '03:00、2019年3月1日周五', '来源:', 'USAF 每小时地面观测', '报告类型:', 'METAR 航空例行天气报告', '露点:', '8.0°C', '其他云层:', '大部分晴天 (122米)、部分多云 (305米)', '天气:', 'Mist、Light Rain', '下午12:00', '8°C', '1,015毫巴', '每小时10.8公里, 北', '2.00公里', '大部分多云 (914米)', '本地:', '12:00、2019年3月1日周五', '协调世界时:', '04:00、2019年3月1日周五', '来源:', '周期文件', '趋势:', '变化为', '露点:', '8°C', '其他云层:', '大部分晴天 (122米)、部分多云 (305米)', '天气:', 'Light Rain、Mist', '原始:', 'ZUUU 010400Z 02003MPS 340V040 2000 R02L/P2000N R02R/1100N -RA BR FEW004 SCT010 BKN030 08/08 Q1015 BECMG TL0530 3000', '下午12:00', '8.0°C', '1,015毫巴', '每小时10.8公里, 北', '2.00公里', '大部分多云 (914米)', '本地:', '12:00、2019年3月1日周五', '协调世界时:', '04:00、2019年3月1日周五', '来源:', 'USAF 每小时地面观测', '报告类型:', 'METAR 航空例行天气报告', '露点:', '8.0°C', '其他云层:', '大部分晴天 (122米)、部分多云 (305米)', '天气:', 'Mist、Light Rain', '下午1:00', '8°C', '1,014毫巴', '每小时10.8公里, 北', '2.70公里', '大部分多云 (914米)', '本地:', '13:00、2019年3月1日周五', '协调世界时:', '05:00、2019年3月1日周五', '来源:', '周期文件', '趋势:', '变化为', '露点:', '8°C', '其他云层:', '大部分晴天 (122米)、部分多云 (305米)', '天气:', 'Light Rain、Mist', '原始:', 'ZUUU 010500Z 01003MPS 2700 R02L/P2000N R02R/1400D -RA BR FEW004 SCT010 BKN030 08/08 Q1014 BECMG TL0530 3000', '下午1:00', '8.0°C', '1,014毫巴', '每小时10.8公里, 北', '2.70公里', '大部分多云 (914米)', '本地:', '13:00、2019年3月1日周五', '协调世界时:', '05:00、2019年3月1日周五', '来源:', 'USAF 每小时地面观测', '报告类型:', 'METAR 航空例行天气报告', '露点:', '8.0°C', '其他云层:', '大部分晴天 (122米)、部分多云 (305米)', '天气:', 'Mist、Light Rain', '下午2:00', '8°C', '1,013毫巴', '每小时10.8公里, 北', '3.00公里', '大部分多云 (914米)', '本地:', '14:00、2019年3月1日周五', '协调世界时:', '06:00、2019年3月1日周五', '来源:', '周期文件', '趋势:', '无重要变化', '露点:', '8°C', '其他云层:', '大部分晴天 (122米)、部分多云 (305米)', '天气:', 'Light Rain、Mist', '原始:', 'ZUUU 010600Z 02003MPS 330V050 3000 -RA BR FEW004 SCT010 BKN030 08/08 Q1013 NOSIG', '下午2:00', '8.0°C', '1,013毫巴', '每小时10.8公里, 北', '3.00公里', '大部分多云 (914米)', '本地:', '14:00、2019年3月1日周五', '协调世界时:', '06:00、2019年3月1日周五', '来源:', 'USAF 每小时地面观测', '报告类型:', 'METAR 航空例行天气报告', '露点:', '8.0°C', '其他云层:', '大部分晴天 (122米)、部分多云 (305米)', '天气:', 'Mist、Light Rain', '下午3:00', '8°C', '1,013毫巴', '每小时10.8公里, 北', '8.00公里', '大部分多云 (914米)', '本地:', '15:00、2019年3月1日周五', '协调世界时:', '07:00、2019年3月1日周五', '来源:', '周期文件', '趋势:', '无重要变化', '露点:', '8°C', '其他云层:', '大部分晴天 (122米)、部分多云 (305米)', '天气:', 'Light Rain', '原始:', 'ZUUU 010700Z 01003MPS 330V050 8000 -RA FEW004 SCT010 BKN030 08/08 Q1013 NOSIG', '下午3:00', '8.0°C', '1,013毫巴', '每小时10.8公里, 北', '8.00公里', '大部分多云 (914米)', '本地:', '15:00、2019年3月1日周五', '协调世界时:', '07:00、2019年3月1日周五', '来源:', 'USAF 每小时地面观测', '报告类型:', 'METAR 航空例行天气报告', '露点:', '8.0°C', '其他云层:', '大部分晴天 (122米)、部分多云 (305米)', '天气:', 'Light Rain', '下午4:00', '9°C', '1,012毫巴', '每小时14.4公里, 北', '10.00公里', '大部分多云 (914米)', '本地:', '16:00、2019年3月1日周五', '协调世界时:', '08:00、2019年3月1日周五', '来源:', '周期文件', '趋势:', '无重要变化', '露点:', '8°C', '其他云层:', '大部分晴天 (122米)、部分多云 (305米)', '天气:', 'Light Rain', '原始:', 'ZUUU 010800Z 02004MPS 9999 -RA FEW004 SCT010 BKN030 09/08 Q1012 NOSIG', '下午4:00', '9.0°C', '1,012毫巴', '每小时14.4公里, 北', '10.00公里', '大部分多云 (914米)', '本地:', '16:00、2019年3月1日周五', '协调世界时:', '08:00、2019年3月1日周五', '来源:', 'USAF 每小时地面观测', '报告类型:', 'METAR 航空例行天气报告', '露点:', '8.0°C', '其他云层:', '大部分晴天 (122米)、部分多云 (305米)', '天气:', 'Light Rain', '下午5:00', '9°C', '1,012毫巴', '每小时14.4公里, 北', '10.00公里', '大部分多云 (1,006米)', '本地:', '17:00、2019年3月1日周五', '协调世界时:', '09:00、2019年3月1日周五', '来源:', '周期文件', '趋势:', '无重要变化', '露点:', '8°C', '其他云层:', '部分多云 (305米)', '原始:', 'ZUUU 010900Z 02004MPS 9999 SCT010 BKN033 09/08 Q1012 NOSIG', '下午5:00', '9.0°C', '1,012毫巴', '每小时14.4公里, 北', '10.00公里', '大部分多云 (1,006米)', '本地:', '17:00、2019年3月1日周五', '协调世界时:', '09:00、2019年3月1日周五', '来源:', 'USAF 每小时地面观测', '报告类型:', 'METAR 航空例行天气报告', '露点:', '8.0°C', '其他云层:', '部分多云 (305米)', '下午6:00', '9°C', '1,013毫巴', '每小时18.0公里, 北', '10.00公里', '大部分多云 (792米)', '本地:', '18:00、2019年3月1日周五', '协调世界时:', '10:00、2019年3月1日周五', '来源:', '周期文件', '趋势:', '无重要变化', '露点:', '7°C', '其他云层:', '部分多云 (305米)', '天气:', 'Light Rain', '原始:', 'ZUUU 011000Z 02005MPS 9999 -RA SCT010 BKN026 09/07 Q1013 NOSIG', '下午6:00', '9.0°C', '1,013毫巴', '每小时18.0公里, 北', '10.00公里', '大部分多云 (792米)', '本地:', '18:00、2019年3月1日周五', '协调世界时:', '10:00、2019年3月1日周五', '来源:', 'USAF 每小时地面观测', '报告类型:', 'METAR 航空例行天气报告', '露点:', '7.0°C', '其他云层:', '部分多云 (305米)', '天气:', 'Light Rain', '下午7:00', '9°C', '1,014毫巴', '每小时14.4公里, 东北', '10.00公里', '大部分多云 (1,006米)', '本地:', '19:00、2019年3月1日周五', '协调世界时:', '11:00、2019年3月1日周五', '来源:', '周期文件', '趋势:', '无重要变化', '露点:', '7°C', '其他云层:', '大部分晴天 (335米)', '原始:', 'ZUUU 011100Z 04004MPS 010V070 9999 FEW011 BKN033 09/07 Q1014 NOSIG', '下午7:00', '9.0°C', '1,014毫巴', '每小时14.4公里, 东北', '10.00公里', '大部分多云 (1,006米)', '本地:', '19:00、2019年3月1日周五', '协调世界时:', '11:00、2019年3月1日周五', '来源:', 'USAF 每小时地面观测', '报告类型:', 'METAR 航空例行天气报告', '露点:', '7.0°C', '其他云层:', '大部分晴天 (335米)', '下午8:00', '9°C', '1,014毫巴', '每小时10.8公里, 北', '10.00公里', '大部分多云 (1,006米)', '本地:', '20:00、2019年3月1日周五', '协调世界时:', '12:00、2019年3月1日周五', '来源:', '周期文件', '趋势:', '无重要变化', '露点:', '7°C', '其他云层:', '大部分晴天 (366米)', '原始:', 'ZUUU 011200Z 01003MPS 9999 FEW012 BKN033 09/07 Q1014 NOSIG', '下午8:00', '9.0°C', '1,014毫巴', '每小时10.8公里, 北', '10.00公里', '大部分多云 (1,006米)', '本地:', '20:00、2019年3月1日周五', '协调世界时:', '12:00、2019年3月1日周五', '来源:', 'USAF 每小时地面观测', '报告类型:', 'METAR 航空例行天气报告', '露点:', '7.0°C', '其他云层:', '大部分晴天 (366米)', '下午9:00', '9°C', '1,015毫巴', '每小时7.20公里, 北', '10.00公里', '部分多云 (610米)', '本地:', '21:00、2019年3月1日周五', '协调世界时:', '13:00、2019年3月1日周五', '来源:', '周期文件', '趋势:', '无重要变化', '露点:', '7°C', '其他云层:', '大部分晴天 (366米)', '原始:', 'ZUUU 011300Z 01002MPS 9999 FEW012 SCT020 09/07 Q1015 NOSIG', '下午9:00', '9.0°C', '1,015毫巴', '每小时7.20公里, 北', '10.00公里', '部分多云 (610米)', '本地:', '21:00、2019年3月1日周五', '协调世界时:', '13:00、2019年3月1日周五', '来源:', 'USAF 每小时地面观测', '报告类型:', 'METAR 航空例行天气报告', '露点:', '7.0°C', '其他云层:', '大部分晴天 (366米)', '下午10:00', '8°C', '1,015毫巴', '每小时7.20公里, 北', '10.00公里', '部分多云 (610米)', '本地:', '22:00、2019年3月1日周五', '协调世界时:', '14:00、2019年3月1日周五', '来源:', '周期文件', '趋势:', '无重要变化', '露点:', '7°C', '其他云层:', '大部分晴天 (366米)', '原始:', 'ZUUU 011400Z 01002MPS 9999 FEW012 SCT020 08/07 Q1015 NOSIG', '下午10:00', '8.0°C', '1,015毫巴', '每小时7.20公里, 北', '10.00公里', '部分多云 (610米)', '本地:', '22:00、2019年3月1日周五', '协调世界时:', '14:00、2019年3月1日周五', '来源:', 'USAF 每小时地面观测', '报告类型:', 'METAR 航空例行天气报告', '露点:', '7.0°C', '其他云层:', '大部分晴天 (366米)', '下午11:00', '9°C', '1,016毫巴', '每小时7.20公里, 北', '10.00公里', '部分多云 (610米)', '本地:', '23:00、2019年3月1日周五', '协调世界时:', '15:00、2019年3月1日周五', '来源:', '周期文件', '趋势:', '无重要变化', '露点:', '7°C', '其他云层:', '大部分晴天 (366米)', '原始:', 'ZUUU 011500Z 01002MPS 340V040 9999 FEW012 SCT020 09/07 Q1016 NOSIG', '下午11:00', '9.0°C', '1,016毫巴', '每小时7.20公里, 北', '10.00公里', '部分多云 (610米)', '本地:', '23:00、2019年3月1日周五', '协调世界时:', '15:00、2019年3月1日周五', '来源:', 'USAF 每小时地面观测', '报告类型:', 'METAR 航空例行天气报告', '露点:', '7.0°C', '其他云层:', '大部分晴天 (366米)']