['Mist', 'BR、IWC10', 'Mist', 'BR、IWC10', 'Mist', 'BR、IWC10', 'Mist', 'BR、IWC10', 'Mist', 'BR、IWC10', 'Mist', 'BR、IWC10', 'Mist', 'BR、IWC10', 'Mist', 'BR、IWC10', 'Mist', 'BR、IWC10', 'Mist', 'BR、IWC10', 'Mist', 'BR、IWC10', 'Mist', 'BR、IWC10', 'Haze', 'HZ、IWC05', 'Haze', 'HZ、IWC05', 'Haze', 'HZ、IWC05', 'Haze', 'HZ、IWC05', 'Haze', 'HZ、IWC05', 'Haze', 'HZ、IWC05', 'Light Rain、Haze', '-RA、IWC61、HZ、IWC05', 'Haze', 'HZ、IWC05', 'Light Rain、Haze', '-RA、IWC61、HZ、IWC05', 'Mist', 'BR、IWC10', '上午12:00', '9°C', '1,023毫巴', '每小时0公里', '4.00公里', '部分多云 (1,524米)', '本地:', '00:00、2019年12月11日周三', '协调世界时:', '16:00、2019年12月10日周二', '来源:', '周期文件', '趋势:', '无重要变化', '露点:', '8°C', '天气:', 'Mist', '原始:', 'ZUUU 101600Z 00000MPS 4000 BR SCT050 09/08 Q1023 NOSIG', '上午12:00', '9.0°C', '1,023毫巴', '每小时0公里', '4.00公里', '部分多云 (1,524米)', '本地:', '00:00、2019年12月11日周三', '协调世界时:', '16:00、2019年12月10日周二', '来源:', 'USAF 每小时地面观测', '报告类型:', 'METAR 航空例行天气报告', '露点:', '8.0°C', '天气:', 'Mist', '上午1:00', '9°C', '1,022毫巴', '每小时0公里', '4.00公里', '部分多云 (1,524米)', '本地:', '01:00、2019年12月11日周三', '协调世界时:', '17:00、2019年12月10日周二', '来源:', '周期文件', '趋势:', '无重要变化', '露点:', '8°C', '天气:', 'Mist', '原始:', 'ZUUU 101700Z 00000MPS 4000 BR SCT050 09/08 Q1022 NOSIG', '上午1:00', '9.0°C', '1,022毫巴', '每小时0公里', '4.00公里', '部分多云 (1,524米)', '本地:', '01:00、2019年12月11日周三', '协调世界时:', '17:00、2019年12月10日周二', '来源:', 'USAF 每小时地面观测', '报告类型:', 'METAR 航空例行天气报告', '露点:', '8.0°C', '天气:', 'Mist', '上午2:00', '9°C', '1,022毫巴', '每小时0公里', '4.00公里', '部分多云 (1,524米)', '本地:', '02:00、2019年12月11日周三', '协调世界时:', '18:00、2019年12月10日周二', '来源:', '周期文件', '趋势:', '无重要变化', '露点:', '7°C', '天气:', 'Mist', '原始:', 'ZUUU 101800Z 00000MPS 4000 BR SCT050 09/07 Q1022 NOSIG', '上午2:00', '9.0°C', '1,022毫巴', '每小时0公里', '4.00公里', '部分多云 (1,524米)', '本地:', '02:00、2019年12月11日周三', '协调世界时:', '18:00、2019年12月10日周二', '来源:', 'USAF 每小时地面观测', '报告类型:', 'METAR 航空例行天气报告', '露点:', '7.0°C', '天气:', 'Mist', '上午3:00', '10°C', '1,022毫巴', '每小时0公里', '3.50公里', '部分多云 (1,524米)', '本地:', '03:00、2019年12月11日周三', '协调世界时:', '19:00、2019年12月10日周二', '来源:', '周期文件', '趋势:', '无重要变化', '露点:', '7°C', '天气:', 'Mist', '原始:', 'ZUUU 101900Z 00000MPS 3500 BR SCT050 10/07 Q1022 NOSIG', '上午3:00', '10.0°C', '1,022毫巴', '每小时0公里', '3.50公里', '部分多云 (1,524米)', '本地:', '03:00、2019年12月11日周三', '协调世界时:', '19:00、2019年12月10日周二', '来源:', 'USAF 每小时地面观测', '报告类型:', 'METAR 航空例行天气报告', '露点:', '7.0°C', '天气:', 'Mist', '上午4:00', '9°C', '1,021毫巴', '每小时0公里', '3.50公里', '大部分晴天 (1,524米)', '本地:', '04:00、2019年12月11日周三', '协调世界时:', '20:00、2019年12月10日周二', '来源:', '周期文件', '趋势:', '无重要变化', '露点:', '7°C', '天气:', 'Mist', '原始:', 'ZUUU 102000Z 00000MPS 3500 BR FEW050 09/07 Q1021 NOSIG', '上午4:00', '9.0°C', '1,021毫巴', '每小时0公里', '3.50公里', '大部分晴天 (1,524米)', '本地:', '04:00、2019年12月11日周三', '协调世界时:', '20:00、2019年12月10日周二', '来源:', 'USAF 每小时地面观测', '报告类型:', 'METAR 航空例行天气报告', '露点:', '7.0°C', '天气:', 'Mist', '上午5:00', '9°C', '1,021毫巴', '每小时0公里', '3.50公里', '大部分晴天 (1,524米)', '本地:', '05:00、2019年12月11日周三', '协调世界时:', '21:00、2019年12月10日周二', '来源:', '周期文件', '趋势:', '无重要变化', '露点:', '8°C', '天气:', 'Mist', '原始:', 'ZUUU 102100Z 00000MPS 3500 BR FEW050 09/08 Q1021 NOSIG', '上午5:00', '9.0°C', '1,021毫巴', '每小时0公里', '3.50公里', '大部分晴天 (1,524米)', '本地:', '05:00、2019年12月11日周三', '协调世界时:', '21:00、2019年12月10日周二', '来源:', 'USAF 每小时地面观测', '报告类型:', 'METAR 航空例行天气报告', '露点:', '8.0°C', '天气:', 'Mist', '上午6:00', '9°C', '1,021毫巴', '每小时0公里', '3.00公里', '部分多云 (1,524米)', '本地:', '06:00、2019年12月11日周三', '协调世界时:', '22:00、2019年12月10日周二', '来源:', '周期文件', '趋势:', '变化为', '露点:', '8°C', '天气:', 'Mist、Mist', '原始:', 'ZUUU 102200Z 00000MPS 3000 BR SCT050 09/08 Q1021 BECMG TL2310 2500 BR', '上午6:00', '9.0°C', '1,021毫巴', '每小时0公里', '3.00公里', '部分多云 (1,524米)', '本地:', '06:00、2019年12月11日周三', '协调世界时:', '22:00、2019年12月10日周二', '来源:', 'USAF 每小时地面观测', '报告类型:', 'METAR 航空例行天气报告', '露点:', '8.0°C', '天气:', 'Mist', '上午7:00', '9°C', '1,021毫巴', '每小时0公里', '2.70公里', '部分多云 (1,524米)', '本地:', '07:00、2019年12月11日周三', '协调世界时:', '23:00、2019年12月10日周二', '来源:', '周期文件', '趋势:', '无重要变化', '露点:', '8°C', '天气:', 'Mist', '原始:', 'ZUUU 102300Z 00000MPS 2700 BR SCT050 09/08 Q1021 NOSIG', '上午7:00', '9.0°C', '1,021毫巴', '每小时0公里', '2.70公里', '部分多云 (1,524米)', '本地:', '07:00、2019年12月11日周三', '协调世界时:', '23:00、2019年12月10日周二', '来源:', 'USAF 每小时地面观测', '报告类型:', 'METAR 航空例行天气报告', '露点:', '8.0°C', '天气:', 'Mist', '上午8:00', '9°C', '1,022毫巴', '每小时0公里', '2.00公里', '部分多云 (1,524米)', '本地:', '08:00、2019年12月11日周三', '协调世界时:', '00:00、2019年12月11日周三', '来源:', '周期文件', '趋势:', '无重要变化', '露点:', '8°C', '天气:', 'Mist', '原始:', 'ZUUU 110000Z 00000MPS 2000 BR SCT050 09/08 Q1022 NOSIG', '上午8:00', '9.0°C', '1,022毫巴', '每小时0公里', '2.00公里', '部分多云 (1,524米)', '本地:', '08:00、2019年12月11日周三', '协调世界时:', '00:00、2019年12月11日周三', '来源:', 'USAF 每小时地面观测', '报告类型:', 'METAR 航空例行天气报告', '露点:', '8.0°C', '天气:', 'Mist', '上午9:00', '10°C', '1,023毫巴', '每小时7.20公里, 北', '2.30公里', '部分多云 (1,524米)', '本地:', '09:00、2019年12月11日周三', '协调世界时:', '01:00、2019年12月11日周三', '来源:', '周期文件', '趋势:', '无重要变化', '露点:', '8°C', '天气:', 'Mist', '原始:', 'ZUUU 110100Z 35002MPS 320V020 2300 R02L/1700N R02R/1400N BR SCT050 10/08 Q1023 NOSIG', '上午9:00', '10.0°C', '1,023毫巴', '每小时7.20公里, 北', '2.30公里', '部分多云 (1,524米)', '本地:', '09:00、2019年12月11日周三', '协调世界时:', '01:00、2019年12月11日周三', '来源:', 'USAF 每小时地面观测', '报告类型:', 'METAR 航空例行天气报告', '露点:', '8.0°C', '天气:', 'Mist', '上午10:00', '11°C', '1,024毫巴', '每小时3.60公里', '2.50公里', '部分多云 (1,524米)', '本地:', '10:00、2019年12月11日周三', '协调世界时:', '02:00、2019年12月11日周三', '来源:', '周期文件', '趋势:', '变化为', '露点:', '8°C', '天气:', 'Mist', '原始:', 'ZUUU 110200Z VRB01MPS 2500 R02L/1900N R02R/1400N BR SCT050 11/08 Q1024 BECMG 3500', '上午10:00', '11.0°C', '1,024毫巴', '每小时3.60公里', '2.50公里', '部分多云 (1,524米)', '本地:', '10:00、2019年12月11日周三', '协调世界时:', '02:00、2019年12月11日周三', '来源:', 'USAF 每小时地面观测', '报告类型:', 'METAR 航空例行天气报告', '露点:', '8.0°C', '天气:', 'Mist', '上午11:00', '13°C', '1,023毫巴', '每小时0公里', '2.50公里', '无重要云', '本地:', '11:00、2019年12月11日周三', '协调世界时:', '03:00、2019年12月11日周三', '来源:', '周期文件', '趋势:', '变化为', '露点:', '9°C', '天气:', 'Mist', '原始:', 'ZUUU 110300Z 00000MPS 2500 BR NSC 13/09 Q1023 BECMG TL0400 3500', '上午11:00', '13.0°C', '1,023毫巴', '每小时0公里', '2.50公里', '未检测到云', '本地:', '11:00、2019年12月11日周三', '协调世界时:', '03:00、2019年12月11日周三', '来源:', 'USAF 每小时地面观测', '报告类型:', 'METAR 航空例行天气报告', '露点:', '9.0°C', '天气:', 'Mist', '下午12:00', '14°C', '1,023毫巴', '每小时0公里', '2.50公里', '无重要云', '本地:', '12:00、2019年12月11日周三', '协调世界时:', '04:00、2019年12月11日周三', '来源:', '周期文件', '趋势:', '变化为', '露点:', '7°C', '天气:', 'Haze', '原始:', 'ZUUU 110400Z 00000MPS 2500 HZ NSC 14/07 Q1023 BECMG TL0530 3000', '下午12:00', '14.0°C', '1,023毫巴', '每小时0公里', '2.50公里', '未检测到云', '本地:', '12:00、2019年12月11日周三', '协调世界时:', '04:00、2019年12月11日周三', '来源:', 'USAF 每小时地面观测', '报告类型:', 'METAR 航空例行天气报告', '露点:', '7.0°C', '天气:', 'Haze', '下午1:00', '14°C', '1,021毫巴', '每小时3.60公里', '3.00公里', '无重要云', '本地:', '13:00、2019年12月11日周三', '协调世界时:', '05:00、2019年12月11日周三', '来源:', '周期文件', '趋势:', '无重要变化', '露点:', '7°C', '天气:', 'Haze', '原始:', 'ZUUU 110500Z VRB01MPS 3000 HZ NSC 14/07 Q1021 NOSIG', '下午1:00', '14.0°C', '1,021毫巴', '每小时3.60公里', '3.00公里', '未检测到云', '本地:', '13:00、2019年12月11日周三', '协调世界时:', '05:00、2019年12月11日周三', '来源:', 'USAF 每小时地面观测', '报告类型:', 'METAR 航空例行天气报告', '露点:', '7.0°C', '天气:', 'Haze', '下午2:00', '15°C', '1,020毫巴', '每小时3.60公里', '3.00公里', '无重要云', '本地:', '14:00、2019年12月11日周三', '协调世界时:', '06:00、2019年12月11日周三', '来源:', '周期文件', '趋势:', '无重要变化', '露点:', '7°C', '天气:', 'Haze', '原始:', 'ZUUU 110600Z VRB01MPS 3000 HZ NSC 15/07 Q1020 NOSIG', '下午2:00', '15.0°C', '1,020毫巴', '每小时3.60公里', '3.00公里', '未检测到云', '本地:', '14:00、2019年12月11日周三', '协调世界时:', '06:00、2019年12月11日周三', '来源:', 'USAF 每小时地面观测', '报告类型:', 'METAR 航空例行天气报告', '露点:', '7.0°C', '天气:', 'Haze', '下午3:00', '14°C', '1,019毫巴', '每小时3.60公里', '3.00公里', '部分多云 (1,524米)', '本地:', '15:00、2019年12月11日周三', '协调世界时:', '07:00、2019年12月11日周三', '来源:', '周期文件', '趋势:', '无重要变化', '露点:', '6°C', '天气:', 'Haze', '原始:', 'ZUUU 110700Z VRB01MPS 3000 HZ SCT050 14/06 Q1019 NOSIG', '下午3:00', '14.0°C', '1,019毫巴', '每小时3.60公里', '3.00公里', '部分多云 (1,524米)', '本地:', '15:00、2019年12月11日周三', '协调世界时:', '07:00、2019年12月11日周三', '来源:', 'USAF 每小时地面观测', '报告类型:', 'METAR 航空例行天气报告', '露点:', '6.0°C', '天气:', 'Haze', '下午4:00', '14°C', '1,019毫巴', '每小时3.60公里', '3.50公里', '部分多云 (1,219米)', '本地:', '16:00、2019年12月11日周三', '协调世界时:', '08:00、2019年12月11日周三', '来源:', '周期文件', '趋势:', '无重要变化', '露点:', '6°C', '天气:', 'Haze', '原始:', 'ZUUU 110800Z VRB01MPS 3500 HZ SCT040 14/06 Q1019 NOSIG', '下午4:00', '14.0°C', '1,019毫巴', '每小时3.60公里', '3.50公里', '部分多云 (1,219米)', '本地:', '16:00、2019年12月11日周三', '协调世界时:', '08:00、2019年12月11日周三', '来源:', 'USAF 每小时地面观测', '报告类型:', 'METAR 航空例行天气报告', '露点:', '6.0°C', '天气:', 'Haze', '下午5:00', '13°C', '1,019毫巴', '每小时0公里', '3.50公里', '部分多云 (914米)', '本地:', '17:00、2019年12月11日周三', '协调世界时:', '09:00、2019年12月11日周三', '来源:', '周期文件', '趋势:', '无重要变化', '露点:', '7°C', '天气:', 'Haze', '原始:', 'ZUUU 110900Z 00000MPS 3500 HZ SCT030 13/07 Q1019 NOSIG', '下午5:00', '13.0°C', '1,019毫巴', '每小时0公里', '3.50公里', '部分多云 (914米)', '本地:', '17:00、2019年12月11日周三', '协调世界时:', '09:00、2019年12月11日周三', '来源:', 'USAF 每小时地面观测', '报告类型:', 'METAR 航空例行天气报告', '露点:', '7.0°C', '天气:', 'Haze', '下午6:00', '13°C', '1,020毫巴', '每小时7.20公里, 东南', '4.50公里', '大部分多云 (792米)', '本地:', '18:00、2019年12月11日周三', '协调世界时:', '10:00、2019年12月11日周三', '来源:', '周期文件', '趋势:', '无重要变化', '露点:', '7°C', '天气:', 'Light Rain、Haze', '原始:', 'ZUUU 111000Z 15002MPS 060V220 4500 -RA HZ BKN026 13/07 Q1020 NOSIG', '下午6:00', '13.0°C', '1,020毫巴', '每小时7.20公里, 东南', '4.50公里', '大部分多云 (792米)', '本地:', '18:00、2019年12月11日周三', '协调世界时:', '10:00、2019年12月11日周三', '来源:', 'USAF 每小时地面观测', '报告类型:', 'METAR 航空例行天气报告', '露点:', '7.0°C', '天气:', 'Haze、Light Rain', '下午7:00', '13°C', '1,020毫巴', '每小时7.20公里, 东南', '5.00公里', '大部分多云 (792米)', '本地:', '19:00、2019年12月11日周三', '协调世界时:', '11:00、2019年12月11日周三', '来源:', '周期文件', '趋势:', '无重要变化', '露点:', '7°C', '天气:', 'Haze', '原始:', 'ZUUU 111100Z 13002MPS 060V150 5000 HZ BKN026 13/07 Q1020 NOSIG', '下午7:00', '13.0°C', '1,020毫巴', '每小时7.20公里, 东南', '5.00公里', '大部分多云 (792米)', '本地:', '19:00、2019年12月11日周三', '协调世界时:', '11:00、2019年12月11日周三', '来源:', 'USAF 每小时地面观测', '报告类型:', 'METAR 航空例行天气报告', '露点:', '7.0°C', '天气:', 'Haze', '下午8:00', '13°C', '1,021毫巴', '每小时7.20公里, 东南', '5.00公里', '大部分多云 (1,006米)', '本地:', '20:00、2019年12月11日周三', '协调世界时:', '12:00、2019年12月11日周三', '来源:', '周期文件', '趋势:', '无重要变化', '露点:', '7°C', '天气:', 'Light Rain、Haze', '原始:', 'ZUUU 111200Z 13002MPS 070V150 5000 -RA HZ BKN033 13/07 Q1021 NOSIG', '下午8:00', '13.0°C', '1,021毫巴', '每小时7.20公里, 东南', '5.00公里', '大部分多云 (1,006米)', '本地:', '20:00、2019年12月11日周三', '协调世界时:', '12:00、2019年12月11日周三', '来源:', 'USAF 每小时地面观测', '报告类型:', 'METAR 航空例行天气报告', '露点:', '7.0°C', '天气:', 'Haze、Light Rain', '下午9:00', '12°C', '1,021毫巴', '每小时0公里', '5.00公里', '大部分多云 (1,006米)', '本地:', '21:00、2019年12月11日周三', '协调世界时:', '13:00、2019年12月11日周三', '来源:', '周期文件', '趋势:', '无重要变化', '露点:', '8°C', '天气:', 'Mist', '原始:', 'ZUUU 111300Z 00000MPS 5000 BR BKN033 12/08 Q1021 NOSIG', '下午9:00', '12.0°C', '1,021毫巴', '每小时0公里', '5.00公里', '大部分多云 (1,006米)', '本地:', '21:00、2019年12月11日周三', '协调世界时:', '13:00、2019年12月11日周三', '来源:', 'USAF 每小时地面观测', '报告类型:', 'METAR 航空例行天气报告', '露点:', '8.0°C', '天气:', 'Mist', '下午10:00', '11°C', '1,022毫巴', '每小时3.60公里, 西南', '6.00公里', '大部分多云 (1,219米)', '本地:', '22:00、2019年12月11日周三', '协调世界时:', '14:00、2019年12月11日周三', '来源:', '周期文件', '趋势:', '无重要变化', '露点:', '9°C', '原始:', 'ZUUU 111400Z 23001MPS 6000 BKN040 11/09 Q1022 NOSIG', '下午10:00', '11.0°C', '1,022毫巴', '每小时3.60公里, 西南', '6.00公里', '大部分多云 (1,219米)', '本地:', '22:00、2019年12月11日周三', '协调世界时:', '14:00、2019年12月11日周三', '来源:', 'USAF 每小时地面观测', '报告类型:', 'METAR 航空例行天气报告', '露点:', '9.0°C', '下午11:00', '11°C', '1,022毫巴', '每小时7.20公里, 西南', '6.00公里', '部分多云 (1,219米)', '本地:', '23:00、2019年12月11日周三', '协调世界时:', '15:00、2019年12月11日周三', '来源:', '周期文件', '趋势:', '无重要变化', '露点:', '9°C', '原始:', 'ZUUU 111500Z 22002MPS 6000 SCT040 11/09 Q1022 NOSIG', '下午11:00', '11.0°C', '1,022毫巴', '每小时7.20公里, 西南', '6.00公里', '部分多云 (1,219米)', '本地:', '23:00、2019年12月11日周三', '协调世界时:', '15:00、2019年12月11日周三', '来源:', 'USAF 每小时地面观测', '报告类型:', 'METAR 航空例行天气报告', '露点:', '9.0°C']