['Showers of Light Rain', '-SHRA、IWC80', 'Mist', 'BR、IWC10', 'Mist', 'BR、IWC10', 'Mist', 'BR、IWC10', 'Mist', 'BR、IWC10', 'Showers of Light Rain', '-SHRA、IWC80', 'Showers of Light Rain', '-SHRA、IWC80', 'Showers of Light Rain', '-SHRA、IWC80', 'Showers of Light Rain', '-SHRA、IWC80', '上午12:00', '18°C', '1,015毫巴', '每小时7.20公里, 东北', '8.00公里', '部分多云 (305米)', '本地:', '00:00、2019年5月2日周四', '协调世界时:', '16:00、2019年5月1日周三', '来源:', '周期文件', '趋势:', '无重要变化', '露点:', '17°C', '其他云层:', '大部分晴天 (183米)、大部分晴天 (914米)', '天气:', 'Showers of Light Rain', '原始:', 'ZUUU 011600Z 05002MPS 330V110 8000 -SHRA FEW006 SCT010 FEW030TCU 18/17 Q1015 NOSIG', '上午12:00', '18.0°C', '1,015毫巴', '每小时7.20公里, 东北', '8.00公里', '部分多云 (305米)', '本地:', '00:00、2019年5月2日周四', '协调世界时:', '16:00、2019年5月1日周三', '来源:', 'USAF 每小时地面观测', '报告类型:', 'METAR 航空例行天气报告', '露点:', '17.0°C', '其他云层:', '大部分晴天 (183米)、大部分晴天 (914米)', '天气:', 'Showers of Light Rain', '上午1:00', '17°C', '1,016毫巴', '每小时3.60公里', '8.00公里', '大部分多云 (1,219米)', '本地:', '01:00、2019年5月2日周四', '协调世界时:', '17:00、2019年5月1日周三', '来源:', '周期文件', '趋势:', '无重要变化', '露点:', '17°C', '其他云层:', '大部分晴天 (305米)', '原始:', 'ZUUU 011700Z VRB01MPS 8000 FEW010 BKN040 17/17 Q1016 NOSIG', '上午1:00', '17.0°C', '1,016毫巴', '每小时3.60公里', '8.00公里', '大部分多云 (1,219米)', '本地:', '01:00、2019年5月2日周四', '协调世界时:', '17:00、2019年5月1日周三', '来源:', 'USAF 每小时地面观测', '报告类型:', 'METAR 航空例行天气报告', '露点:', '17.0°C', '其他云层:', '大部分晴天 (305米)', '上午2:00', '17°C', '1,015毫巴', '每小时0公里', '8.00公里', '部分多云 (1,524米)', '本地:', '02:00、2019年5月2日周四', '协调世界时:', '18:00、2019年5月1日周三', '来源:', '周期文件', '趋势:', '无重要变化', '露点:', '17°C', '其他云层:', '大部分晴天 (610米)', '原始:', 'ZUUU 011800Z 00000MPS 8000 FEW020 SCT050 17/17 Q1015 NOSIG', '上午2:00', '17.0°C', '1,015毫巴', '每小时0公里', '8.00公里', '部分多云 (1,524米)', '本地:', '02:00、2019年5月2日周四', '协调世界时:', '18:00、2019年5月1日周三', '来源:', 'USAF 每小时地面观测', '报告类型:', 'METAR 航空例行天气报告', '露点:', '17.0°C', '其他云层:', '大部分晴天 (610米)', '上午3:00', '18°C', '1,015毫巴', '每小时0公里', '7.00公里', '部分多云 (1,524米)', '本地:', '03:00、2019年5月2日周四', '协调世界时:', '19:00、2019年5月1日周三', '来源:', '周期文件', '趋势:', '无重要变化', '露点:', '17°C', '原始:', 'ZUUU 011900Z 00000MPS 7000 SCT050 18/17 Q1015 NOSIG', '上午3:00', '18.0°C', '1,015毫巴', '每小时0公里', '7.00公里', '部分多云 (1,524米)', '本地:', '03:00、2019年5月2日周四', '协调世界时:', '19:00、2019年5月1日周三', '来源:', 'USAF 每小时地面观测', '报告类型:', 'METAR 航空例行天气报告', '露点:', '17.0°C', '上午4:00', '17°C', '1,015毫巴', '每小时0公里', '6.00公里', '部分多云 (1,524米)', '本地:', '04:00、2019年5月2日周四', '协调世界时:', '20:00、2019年5月1日周三', '来源:', '周期文件', '趋势:', '无重要变化', '露点:', '17°C', '原始:', 'ZUUU 012000Z 00000MPS 6000 SCT050 17/17 Q1015 NOSIG', '上午4:00', '17.0°C', '1,015毫巴', '每小时0公里', '6.00公里', '部分多云 (1,524米)', '本地:', '04:00、2019年5月2日周四', '协调世界时:', '20:00、2019年5月1日周三', '来源:', 'USAF 每小时地面观测', '报告类型:', 'METAR 航空例行天气报告', '露点:', '17.0°C', '上午5:00', '17°C', '1,014毫巴', '每小时7.20公里, 西南', '4.50公里', '无重要云', '本地:', '05:00、2019年5月2日周四', '协调世界时:', '21:00、2019年5月1日周三', '来源:', '周期文件', '趋势:', '无重要变化', '露点:', '17°C', '天气:', 'Mist', '原始:', 'ZUUU 012100Z 24002MPS 4500 BR NSC 17/17 Q1014 NOSIG', '上午5:00', '17.0°C', '1,014毫巴', '每小时7.20公里, 西南', '4.50公里', '未检测到云', '本地:', '05:00、2019年5月2日周四', '协调世界时:', '21:00、2019年5月1日周三', '来源:', 'USAF 每小时地面观测', '报告类型:', 'METAR 航空例行天气报告', '露点:', '17.0°C', '天气:', 'Mist', '上午6:00', '17°C', '1,015毫巴', '每小时3.60公里', '4.00公里', '部分多云 (1,524米)', '本地:', '06:00、2019年5月2日周四', '协调世界时:', '22:00、2019年5月1日周三', '来源:', '周期文件', '趋势:', '无重要变化', '露点:', '17°C', '天气:', 'Mist', '原始:', 'ZUUU 012200Z VRB01MPS 4000 BR SCT050 17/17 Q1015 NOSIG', '上午6:00', '17.0°C', '1,015毫巴', '每小时3.60公里', '4.00公里', '部分多云 (1,524米)', '本地:', '06:00、2019年5月2日周四', '协调世界时:', '22:00、2019年5月1日周三', '来源:', 'USAF 每小时地面观测', '报告类型:', 'METAR 航空例行天气报告', '露点:', '17.0°C', '天气:', 'Mist', '上午7:00', '17°C', '1,015毫巴', '每小时0公里', '3.50公里', '部分多云 (1,524米)', '本地:', '07:00、2019年5月2日周四', '协调世界时:', '23:00、2019年5月1日周三', '来源:', '周期文件', '趋势:', '无重要变化', '露点:', '17°C', '天气:', 'Mist', '原始:', 'ZUUU 012300Z 00000MPS 3500 BR SCT050 17/17 Q1015 NOSIG', '上午7:00', '17.0°C', '1,015毫巴', '每小时0公里', '3.50公里', '部分多云 (1,524米)', '本地:', '07:00、2019年5月2日周四', '协调世界时:', '23:00、2019年5月1日周三', '来源:', 'USAF 每小时地面观测', '报告类型:', 'METAR 航空例行天气报告', '露点:', '17.0°C', '天气:', 'Mist', '上午8:00', '18°C', '1,016毫巴', '每小时0公里', '4.00公里', '部分多云 (1,524米)', '本地:', '08:00、2019年5月2日周四', '协调世界时:', '00:00、2019年5月2日周四', '来源:', '周期文件', '趋势:', '无重要变化', '露点:', '17°C', '天气:', 'Mist', '原始:', 'ZUUU 020000Z 00000MPS 4000 BR SCT050 18/17 Q1016 NOSIG', '上午8:00', '18.0°C', '1,016毫巴', '每小时0公里', '4.00公里', '部分多云 (1,524米)', '本地:', '08:00、2019年5月2日周四', '协调世界时:', '00:00、2019年5月2日周四', '来源:', 'USAF 每小时地面观测', '报告类型:', 'METAR 航空例行天气报告', '露点:', '17.0°C', '天气:', 'Mist', '上午9:00', '19°C', '1,017毫巴', '每小时0公里', '7.00公里', '部分多云 (1,524米)', '本地:', '09:00、2019年5月2日周四', '协调世界时:', '01:00、2019年5月2日周四', '来源:', '周期文件', '趋势:', '无重要变化', '露点:', '17°C', '原始:', 'ZUUU 020100Z 00000MPS 7000 SCT050 19/17 Q1017 NOSIG', '上午9:00', '19.0°C', '1,017毫巴', '每小时0公里', '7.00公里', '部分多云 (1,524米)', '本地:', '09:00、2019年5月2日周四', '协调世界时:', '01:00、2019年5月2日周四', '来源:', 'USAF 每小时地面观测', '报告类型:', 'METAR 航空例行天气报告', '露点:', '17.0°C', '上午10:00', '20°C', '1,017毫巴', '每小时0公里', '10.00公里', '部分多云 (792米)', '本地:', '10:00、2019年5月2日周四', '协调世界时:', '02:00、2019年5月2日周四', '来源:', '周期文件', '趋势:', '无重要变化', '露点:', '17°C', '其他云层:', '大部分晴天 (792米)', '原始:', 'ZUUU 020200Z 00000MPS 9999 FEW026TCU SCT026 20/17 Q1017 NOSIG', '上午10:00', '20.0°C', '1,017毫巴', '每小时0公里', '10.00公里', '部分多云 (792米)', '本地:', '10:00、2019年5月2日周四', '协调世界时:', '02:00、2019年5月2日周四', '来源:', 'USAF 每小时地面观测', '报告类型:', 'METAR 航空例行天气报告', '露点:', '17.0°C', '其他云层:', '大部分晴天 (792米)', '上午11:00', '21°C', '1,017毫巴', '每小时3.60公里', '10.00公里', '部分多云 (792米)', '本地:', '11:00、2019年5月2日周四', '协调世界时:', '03:00、2019年5月2日周四', '来源:', '周期文件', '趋势:', '无重要变化', '露点:', '15°C', '其他云层:', '大部分晴天 (792米)', '原始:', 'ZUUU 020300Z VRB01MPS 9999 FEW026TCU SCT026 21/15 Q1017 NOSIG', '上午11:00', '21.0°C', '1,017毫巴', '每小时3.60公里', '10.00公里', '部分多云 (792米)', '本地:', '11:00、2019年5月2日周四', '协调世界时:', '03:00、2019年5月2日周四', '来源:', 'USAF 每小时地面观测', '报告类型:', 'METAR 航空例行天气报告', '露点:', '15.0°C', '其他云层:', '大部分晴天 (792米)', '下午12:00', '23°C', '1,017毫巴', '每小时7.20公里', '10.00公里', '部分多云 (792米)', '本地:', '12:00、2019年5月2日周四', '协调世界时:', '04:00、2019年5月2日周四', '来源:', '周期文件', '趋势:', '无重要变化', '露点:', '17°C', '其他云层:', '大部分晴天 (792米)', '原始:', 'ZUUU 020400Z VRB02MPS 9999 FEW026TCU SCT026 23/17 Q1017 NOSIG', '下午12:00', '23.0°C', '1,017毫巴', '每小时7.20公里', '10.00公里', '部分多云 (792米)', '本地:', '12:00、2019年5月2日周四', '协调世界时:', '04:00、2019年5月2日周四', '来源:', 'USAF 每小时地面观测', '报告类型:', 'METAR 航空例行天气报告', '露点:', '17.0°C', '其他云层:', '大部分晴天 (792米)', '下午1:00', '24°C', '1,016毫巴', '每小时7.20公里', '10.00公里', '部分多云 (914米)', '本地:', '13:00、2019年5月2日周四', '协调世界时:', '05:00、2019年5月2日周四', '来源:', '周期文件', '趋势:', '无重要变化', '露点:', '15°C', '其他云层:', '大部分晴天 (914米)', '原始:', 'ZUUU 020500Z VRB02MPS 9999 FEW030TCU SCT030 24/15 Q1016 NOSIG', '下午1:00', '24.0°C', '1,016毫巴', '每小时7.20公里', '10.00公里', '部分多云 (914米)', '本地:', '13:00、2019年5月2日周四', '协调世界时:', '05:00、2019年5月2日周四', '来源:', 'USAF 每小时地面观测', '报告类型:', 'METAR 航空例行天气报告', '露点:', '15.0°C', '其他云层:', '大部分晴天 (914米)', '下午2:00', '24°C', '1,015毫巴', '每小时7.20公里', '10.00公里', '部分多云 (914米)', '本地:', '14:00、2019年5月2日周四', '协调世界时:', '06:00、2019年5月2日周四', '来源:', '周期文件', '趋势:', '无重要变化', '露点:', '15°C', '其他云层:', '大部分晴天 (914米)', '原始:', 'ZUUU 020600Z VRB02MPS 9999 FEW030TCU SCT030 24/15 Q1015 NOSIG', '下午2:00', '24.0°C', '1,015毫巴', '每小时7.20公里', '10.00公里', '部分多云 (914米)', '本地:', '14:00、2019年5月2日周四', '协调世界时:', '06:00、2019年5月2日周四', '来源:', 'USAF 每小时地面观测', '报告类型:', 'METAR 航空例行天气报告', '露点:', '15.0°C', '其他云层:', '大部分晴天 (914米)', '下午3:00', '24°C', '1,014毫巴', '每小时3.60公里', '10.00公里', '部分多云 (914米)', '本地:', '15:00、2019年5月2日周四', '协调世界时:', '07:00、2019年5月2日周四', '来源:', '周期文件', '趋势:', '无重要变化', '露点:', '15°C', '其他云层:', '大部分晴天 (914米)', '原始:', 'ZUUU 020700Z VRB01MPS 9999 FEW030TCU SCT030 24/15 Q1014 NOSIG', '下午3:00', '24.0°C', '1,014毫巴', '每小时3.60公里', '10.00公里', '部分多云 (914米)', '本地:', '15:00、2019年5月2日周四', '协调世界时:', '07:00、2019年5月2日周四', '来源:', 'USAF 每小时地面观测', '报告类型:', 'METAR 航空例行天气报告', '露点:', '15.0°C', '其他云层:', '大部分晴天 (914米)', '下午4:00', '23°C', '1,013毫巴', '每小时3.60公里', '10.00公里', '部分多云 (1,006米)', '本地:', '16:00、2019年5月2日周四', '协调世界时:', '08:00、2019年5月2日周四', '来源:', '周期文件', '趋势:', '无重要变化', '露点:', '16°C', '其他云层:', '大部分晴天 (1,006米)', '原始:', 'ZUUU 020800Z VRB01MPS 9999 FEW033TCU SCT033 23/16 Q1013 NOSIG', '下午4:00', '23.0°C', '1,013毫巴', '每小时3.60公里', '10.00公里', '部分多云 (1,006米)', '本地:', '16:00、2019年5月2日周四', '协调世界时:', '08:00、2019年5月2日周四', '来源:', 'USAF 每小时地面观测', '报告类型:', 'METAR 航空例行天气报告', '露点:', '16.0°C', '其他云层:', '大部分晴天 (1,006米)', '下午5:00', '23°C', '1,012毫巴', '每小时7.20公里, 西北', '10.00公里', '部分多云 (1,006米)', '本地:', '17:00、2019年5月2日周四', '协调世界时:', '09:00、2019年5月2日周四', '来源:', '周期文件', '趋势:', '无重要变化', '露点:', '16°C', '其他云层:', '大部分晴天 (1,006米)', '原始:', 'ZUUU 020900Z 30002MPS 270V350 9999 FEW033TCU SCT033 23/16 Q1012 NOSIG', '下午5:00', '23.0°C', '1,012毫巴', '每小时7.20公里, 西北', '10.00公里', '部分多云 (1,006米)', '本地:', '17:00、2019年5月2日周四', '协调世界时:', '09:00、2019年5月2日周四', '来源:', 'USAF 每小时地面观测', '报告类型:', 'METAR 航空例行天气报告', '露点:', '16.0°C', '其他云层:', '大部分晴天 (1,006米)', '下午6:00', '22°C', '1,012毫巴', '每小时10.8公里, 东南', '10.00公里', '部分多云 (914米)', '本地:', '18:00、2019年5月2日周四', '协调世界时:', '10:00、2019年5月2日周四', '来源:', '周期文件', '趋势:', '无重要变化', '露点:', '17°C', '其他云层:', '大部分晴天 (914米)', '天气:', 'Showers of Light Rain', '原始:', 'ZUUU 021000Z 13003MPS 080V160 9999 -SHRA FEW030CB SCT030 22/17 Q1012 NOSIG', '下午6:00', '22.0°C', '1,012毫巴', '每小时10.8公里, 东南', '10.00公里', '部分多云 (914米)', '本地:', '18:00、2019年5月2日周四', '协调世界时:', '10:00、2019年5月2日周四', '来源:', 'USAF 每小时地面观测', '报告类型:', 'METAR 航空例行天气报告', '露点:', '17.0°C', '其他云层:', '大部分晴天 (914米)', '天气:', 'Showers of Light Rain', '下午7:00', '20°C', '1,013毫巴', '每小时7.20公里, 东南', '10.00公里', '部分多云 (792米)', '本地:', '19:00、2019年5月2日周四', '协调世界时:', '11:00、2019年5月2日周四', '来源:', '周期文件', '趋势:', '无重要变化', '露点:', '17°C', '其他云层:', '大部分晴天 (792米)', '天气:', 'Showers of Light Rain', '原始:', 'ZUUU 021100Z 15002MPS 090V210 9999 -SHRA FEW026CB SCT026 20/17 Q1013 NOSIG', '下午7:00', '20.0°C', '1,013毫巴', '每小时7.20公里, 东南', '10.00公里', '部分多云 (792米)', '本地:', '19:00、2019年5月2日周四', '协调世界时:', '11:00、2019年5月2日周四', '来源:', 'USAF 每小时地面观测', '报告类型:', 'METAR 航空例行天气报告', '露点:', '17.0°C', '其他云层:', '大部分晴天 (792米)', '天气:', 'Showers of Light Rain', '下午8:00', '19°C', '1,013毫巴', '每小时0公里', '10.00公里', '部分多云 (792米)', '本地:', '20:00、2019年5月2日周四', '协调世界时:', '12:00、2019年5月2日周四', '来源:', '周期文件', '趋势:', '无重要变化', '露点:', '18°C', '其他云层:', '大部分晴天 (792米)', '天气:', 'Showers of Light Rain', '原始:', 'ZUUU 021200Z 00000MPS 9999 -SHRA FEW026CB SCT026 19/18 Q1013 NOSIG', '下午8:00', '19.0°C', '1,013毫巴', '每小时0公里', '10.00公里', '部分多云 (792米)', '本地:', '20:00、2019年5月2日周四', '协调世界时:', '12:00、2019年5月2日周四', '来源:', 'USAF 每小时地面观测', '报告类型:', 'METAR 航空例行天气报告', '露点:', '18.0°C', '其他云层:', '大部分晴天 (792米)', '天气:', 'Showers of Light Rain', '下午9:00', '19°C', '1,013毫巴', '每小时7.20公里, 北', '10.00公里', '大部分多云 (792米)', '本地:', '21:00、2019年5月2日周四', '协调世界时:', '13:00、2019年5月2日周四', '来源:', '周期文件', '趋势:', '无重要变化', '露点:', '18°C', '天气:', 'Showers of Light Rain', '原始:', 'ZUUU 021300Z 35002MPS 9999 -SHRA BKN026 19/18 Q1013 NOSIG', '下午9:00', '19.0°C', '1,013毫巴', '每小时7.20公里, 北', '10.00公里', '大部分多云 (792米)', '本地:', '21:00、2019年5月2日周四', '协调世界时:', '13:00、2019年5月2日周四', '来源:', 'USAF 每小时地面观测', '报告类型:', 'METAR 航空例行天气报告', '露点:', '18.0°C', '天气:', 'Showers of Light Rain', '下午10:00', '19°C', '1,015毫巴', '每小时7.20公里, 北', '10.00公里', '大部分多云 (792米)', '本地:', '22:00、2019年5月2日周四', '协调世界时:', '14:00、2019年5月2日周四', '来源:', '周期文件', '趋势:', '无重要变化', '露点:', '18°C', '原始:', 'ZUUU 021400Z 01002MPS 9999 BKN026 19/18 Q1015 NOSIG', '下午10:00', '19.0°C', '1,015毫巴', '每小时7.20公里, 北', '10.00公里', '大部分多云 (792米)', '本地:', '22:00、2019年5月2日周四', '协调世界时:', '14:00、2019年5月2日周四', '来源:', 'USAF 每小时地面观测', '报告类型:', 'METAR 航空例行天气报告', '露点:', '18.0°C', '下午11:00', '19°C', '1,015毫巴', '每小时7.20公里, 北', '10.00公里', '大部分多云 (792米)', '本地:', '23:00、2019年5月2日周四', '协调世界时:', '15:00、2019年5月2日周四', '来源:', '周期文件', '趋势:', '无重要变化', '露点:', '18°C', '原始:', 'ZUUU 021500Z 02002MPS 320V070 9999 BKN026 19/18 Q1015 NOSIG', '下午11:00', '19.0°C', '1,015毫巴', '每小时7.20公里, 北', '10.00公里', '大部分多云 (792米)', '本地:', '23:00、2019年5月2日周四', '协调世界时:', '15:00、2019年5月2日周四', '来源:', 'USAF 每小时地面观测', '报告类型:', 'METAR 航空例行天气报告', '露点:', '18.0°C']