['Showers of Light Rain', '-SHRA、IWC80', 'Showers of Light Rain', '-SHRA、IWC80', 'Showers of Light Rain', '-SHRA、IWC80', 'Showers of Light Rain', '-SHRA、IWC80', 'Showers of Light Rain', '-SHRA、IWC80', 'Showers of Light Rain', '-SHRA、IWC80', 'Showers of Light Rain', '-SHRA、IWC80', 'Showers of Light Rain', '-SHRA、IWC80', 'Showers of Light Rain', '-SHRA、IWC80', 'Showers of Light Rain', '-SHRA、IWC80', 'Showers of Light Rain、Mist', '-SHRA、IWC80、BR、IWC10', '上午12:00', '13°C', '1,019毫巴', '每小时7.20公里, 南', '10.00公里', '部分多云 (1,219米)', '本地:', '00:00、2019年3月6日周三', '协调世界时:', '16:00、2019年3月5日周二', '来源:', '周期文件', '趋势:', '无重要变化', '露点:', '10°C', '天气:', 'Showers of Light Rain', '原始:', 'ZUUU 051600Z 17002MPS 130V240 9999 -SHRA SCT040 13/10 Q1019 NOSIG', '上午12:00', '13.0°C', '1,019毫巴', '每小时7.20公里, 南', '10.00公里', '部分多云 (1,219米)', '本地:', '00:00、2019年3月6日周三', '协调世界时:', '16:00、2019年3月5日周二', '来源:', 'USAF 每小时地面观测', '报告类型:', 'METAR 航空例行天气报告', '露点:', '10.0°C', '天气:', 'Showers of Light Rain', '上午1:00', '13°C', '1,019毫巴', '每小时3.60公里', '10.00公里', '部分多云 (1,219米)', '本地:', '01:00、2019年3月6日周三', '协调世界时:', '17:00、2019年3月5日周二', '来源:', '周期文件', '趋势:', '无重要变化', '露点:', '10°C', '天气:', 'Showers of Light Rain', '原始:', 'ZUUU 051700Z VRB01MPS 9999 -SHRA SCT040 13/10 Q1019 NOSIG', '上午1:00', '13.0°C', '1,019毫巴', '每小时3.60公里', '10.00公里', '部分多云 (1,219米)', '本地:', '01:00、2019年3月6日周三', '协调世界时:', '17:00、2019年3月5日周二', '来源:', 'USAF 每小时地面观测', '报告类型:', 'METAR 航空例行天气报告', '露点:', '10.0°C', '天气:', 'Showers of Light Rain', '上午2:00', '13°C', '1,019毫巴', '每小时7.20公里, 北', '10.00公里', '部分多云 (1,524米)', '本地:', '02:00、2019年3月6日周三', '协调世界时:', '18:00、2019年3月5日周二', '来源:', '周期文件', '趋势:', '无重要变化', '露点:', '10°C', '原始:', 'ZUUU 051800Z 34002MPS 280V030 9999 SCT050 13/10 Q1019 NOSIG', '上午2:00', '13.0°C', '1,019毫巴', '每小时7.20公里, 北', '10.00公里', '部分多云 (1,524米)', '本地:', '02:00、2019年3月6日周三', '协调世界时:', '18:00、2019年3月5日周二', '来源:', 'USAF 每小时地面观测', '报告类型:', 'METAR 航空例行天气报告', '露点:', '10.0°C', '上午3:00', '12°C', '1,020毫巴', '每小时7.20公里, 北', '10.00公里', '部分多云 (1,524米)', '本地:', '03:00、2019年3月6日周三', '协调世界时:', '19:00、2019年3月5日周二', '来源:', '周期文件', '趋势:', '无重要变化', '露点:', '9°C', '原始:', 'ZUUU 051900Z 34002MPS 270V040 9999 SCT050 12/09 Q1020 NOSIG', '上午3:00', '12.0°C', '1,020毫巴', '每小时7.20公里, 北', '10.00公里', '部分多云 (1,524米)', '本地:', '03:00、2019年3月6日周三', '协调世界时:', '19:00、2019年3月5日周二', '来源:', 'USAF 每小时地面观测', '报告类型:', 'METAR 航空例行天气报告', '露点:', '9.0°C', '上午4:00', '11°C', '1,019毫巴', '每小时3.60公里', '≥ 10.00公里', '晴空万里', '本地:', '04:00、2019年3月6日周三', '协调世界时:', '20:00、2019年3月5日周二', '来源:', '周期文件', '趋势:', '无重要变化', '露点:', '10°C', '晴空万里:', '真', '原始:', 'ZUUU 052000Z VRB01MPS CAVOK 11/10 Q1019 NOSIG', '上午4:00', '11.0°C', '1,019毫巴', '每小时3.60公里', '-', '晴空万里', '本地:', '04:00、2019年3月6日周三', '协调世界时:', '20:00、2019年3月5日周二', '来源:', 'USAF 每小时地面观测', '报告类型:', 'METAR 航空例行天气报告', '露点:', '10.0°C', '晴空万里:', '真', '上午5:00', '11°C', '1,018毫巴', '每小时7.20公里, 北', '≥ 10.00公里', '晴空万里', '本地:', '05:00、2019年3月6日周三', '协调世界时:', '21:00、2019年3月5日周二', '来源:', '周期文件', '趋势:', '无重要变化', '露点:', '8°C', '晴空万里:', '真', '原始:', 'ZUUU 052100Z 01002MPS 310V030 CAVOK 11/08 Q1018 NOSIG', '上午5:00', '11.0°C', '1,018毫巴', '每小时7.20公里, 北', '-', '晴空万里', '本地:', '05:00、2019年3月6日周三', '协调世界时:', '21:00、2019年3月5日周二', '来源:', 'USAF 每小时地面观测', '报告类型:', 'METAR 航空例行天气报告', '露点:', '8.0°C', '晴空万里:', '真', '上午6:00', '11°C', '1,018毫巴', '每小时3.60公里, 东北', '10.00公里', '部分多云 (1,524米)', '本地:', '06:00、2019年3月6日周三', '协调世界时:', '22:00、2019年3月5日周二', '来源:', '周期文件', '趋势:', '无重要变化', '露点:', '9°C', '原始:', 'ZUUU 052200Z 05001MPS 9999 SCT050 11/09 Q1018 NOSIG', '上午6:00', '11.0°C', '1,018毫巴', '每小时3.60公里, 东北', '10.00公里', '部分多云 (1,524米)', '本地:', '06:00、2019年3月6日周三', '协调世界时:', '22:00、2019年3月5日周二', '来源:', 'USAF 每小时地面观测', '报告类型:', 'METAR 航空例行天气报告', '露点:', '9.0°C', '上午7:00', '11°C', '1,019毫巴', '每小时3.60公里', '10.00公里', '部分多云 (1,524米)', '本地:', '07:00、2019年3月6日周三', '协调世界时:', '23:00、2019年3月5日周二', '来源:', '周期文件', '趋势:', '无重要变化', '露点:', '8°C', '原始:', 'ZUUU 052300Z VRB01MPS 9999 SCT050 11/08 Q1019 NOSIG', '上午7:00', '11.0°C', '1,019毫巴', '每小时3.60公里', '10.00公里', '部分多云 (1,524米)', '本地:', '07:00、2019年3月6日周三', '协调世界时:', '23:00、2019年3月5日周二', '来源:', 'USAF 每小时地面观测', '报告类型:', 'METAR 航空例行天气报告', '露点:', '8.0°C', '上午8:00', '11°C', '1,019毫巴', '每小时0公里', '10.00公里', '部分多云 (1,524米)', '本地:', '08:00、2019年3月6日周三', '协调世界时:', '00:00、2019年3月6日周三', '来源:', '周期文件', '趋势:', '无重要变化', '露点:', '8°C', '原始:', 'ZUUU 060000Z 00000MPS 9999 SCT050 11/08 Q1019 NOSIG', '上午8:00', '11.0°C', '1,019毫巴', '每小时0公里', '10.00公里', '部分多云 (1,524米)', '本地:', '08:00、2019年3月6日周三', '协调世界时:', '00:00、2019年3月6日周三', '来源:', 'USAF 每小时地面观测', '报告类型:', 'METAR 航空例行天气报告', '露点:', '8.0°C', '上午9:00', '11°C', '1,020毫巴', '每小时3.60公里, 西南', '10.00公里', '部分多云 (1,524米)', '本地:', '09:00、2019年3月6日周三', '协调世界时:', '01:00、2019年3月6日周三', '来源:', '周期文件', '趋势:', '无重要变化', '露点:', '10°C', '天气:', 'Showers of Light Rain', '原始:', 'ZUUU 060100Z 21001MPS 9999 -SHRA SCT050 11/10 Q1020 NOSIG', '上午9:00', '11.0°C', '1,020毫巴', '每小时3.60公里, 西南', '10.00公里', '部分多云 (1,524米)', '本地:', '09:00、2019年3月6日周三', '协调世界时:', '01:00、2019年3月6日周三', '来源:', 'USAF 每小时地面观测', '报告类型:', 'METAR 航空例行天气报告', '露点:', '10.0°C', '天气:', 'Showers of Light Rain', '上午10:00', '12°C', '1,021毫巴', '每小时7.20公里, 西南', '10.00公里', '部分多云 (1,524米)', '本地:', '10:00、2019年3月6日周三', '协调世界时:', '02:00、2019年3月6日周三', '来源:', '周期文件', '趋势:', '无重要变化', '露点:', '10°C', '原始:', 'ZUUU 060200Z 22002MPS 9999 SCT050 12/10 Q1021 NOSIG', '上午10:00', '12.0°C', '1,021毫巴', '每小时7.20公里, 西南', '10.00公里', '部分多云 (1,524米)', '本地:', '10:00、2019年3月6日周三', '协调世界时:', '02:00、2019年3月6日周三', '来源:', 'USAF 每小时地面观测', '报告类型:', 'METAR 航空例行天气报告', '露点:', '10.0°C', '上午11:00', '13°C', '1,021毫巴', '每小时3.60公里', '10.00公里', '无重要云', '本地:', '11:00、2019年3月6日周三', '协调世界时:', '03:00、2019年3月6日周三', '来源:', '周期文件', '趋势:', '无重要变化', '露点:', '9°C', '天气:', 'Showers of Light Rain', '原始:', 'ZUUU 060300Z VRB01MPS 9999 -SHRA NSC 13/09 Q1021 NOSIG', '上午11:00', '13.0°C', '1,021毫巴', '每小时3.60公里', '10.00公里', '未检测到云', '本地:', '11:00、2019年3月6日周三', '协调世界时:', '03:00、2019年3月6日周三', '来源:', 'USAF 每小时地面观测', '报告类型:', 'METAR 航空例行天气报告', '露点:', '9.0°C', '天气:', 'Showers of Light Rain', '下午12:00', '15°C', '1,021毫巴', '每小时0公里', '≥ 10.00公里', '晴空万里', '本地:', '12:00、2019年3月6日周三', '协调世界时:', '04:00、2019年3月6日周三', '来源:', '周期文件', '趋势:', '无重要变化', '露点:', '9°C', '晴空万里:', '真', '原始:', 'ZUUU 060400Z 00000MPS CAVOK 15/09 Q1021 NOSIG', '下午12:00', '15.0°C', '1,021毫巴', '每小时0公里', '-', '晴空万里', '本地:', '12:00、2019年3月6日周三', '协调世界时:', '04:00、2019年3月6日周三', '来源:', 'USAF 每小时地面观测', '报告类型:', 'METAR 航空例行天气报告', '露点:', '9.0°C', '晴空万里:', '真', '下午1:00', '15°C', '1,020毫巴', '每小时3.60公里', '≥ 10.00公里', '晴空万里', '本地:', '13:00、2019年3月6日周三', '协调世界时:', '05:00、2019年3月6日周三', '来源:', '周期文件', '趋势:', '无重要变化', '露点:', '9°C', '晴空万里:', '真', '原始:', 'ZUUU 060500Z VRB01MPS CAVOK 15/09 Q1020 NOSIG', '下午1:00', '15.0°C', '1,020毫巴', '每小时3.60公里', '-', '晴空万里', '本地:', '13:00、2019年3月6日周三', '协调世界时:', '05:00、2019年3月6日周三', '来源:', 'USAF 每小时地面观测', '报告类型:', 'METAR 航空例行天气报告', '露点:', '9.0°C', '晴空万里:', '真', '下午2:00', '15°C', '1,019毫巴', '每小时7.20公里, 西南', '10.00公里', '大部分晴天 (1,006米)', '本地:', '14:00、2019年3月6日周三', '协调世界时:', '06:00、2019年3月6日周三', '来源:', '周期文件', '趋势:', '无重要变化', '露点:', '9°C', '原始:', 'ZUUU 060600Z 23002MPS 190V280 9999 FEW033 15/09 Q1019 NOSIG', '下午2:00', '15.0°C', '1,019毫巴', '每小时7.20公里, 西南', '10.00公里', '大部分晴天 (1,006米)', '本地:', '14:00、2019年3月6日周三', '协调世界时:', '06:00、2019年3月6日周三', '来源:', 'USAF 每小时地面观测', '报告类型:', 'METAR 航空例行天气报告', '露点:', '9.0°C', '下午3:00', '16°C', '1,017毫巴', '每小时7.20公里, 西南', '10.00公里', '大部分晴天 (1,219米)', '本地:', '15:00、2019年3月6日周三', '协调世界时:', '07:00、2019年3月6日周三', '来源:', '周期文件', '趋势:', '无重要变化', '露点:', '9°C', '原始:', 'ZUUU 060700Z 23002MPS 180V310 9999 FEW040 16/09 Q1017 NOSIG', '下午3:00', '16.0°C', '1,017毫巴', '每小时7.20公里, 西南', '10.00公里', '大部分晴天 (1,219米)', '本地:', '15:00、2019年3月6日周三', '协调世界时:', '07:00、2019年3月6日周三', '来源:', 'USAF 每小时地面观测', '报告类型:', 'METAR 航空例行天气报告', '露点:', '9.0°C', '下午4:00', '16°C', '1,017毫巴', '每小时3.60公里', '10.00公里', '部分多云 (1,219米)', '本地:', '16:00、2019年3月6日周三', '协调世界时:', '08:00、2019年3月6日周三', '来源:', '周期文件', '趋势:', '无重要变化', '露点:', '9°C', '其他云层:', '大部分晴天 (1,219米)', '原始:', 'ZUUU 060800Z VRB01MPS 9999 FEW040TCU SCT040 16/09 Q1017 NOSIG', '下午4:00', '16.0°C', '1,017毫巴', '每小时3.60公里', '10.00公里', '部分多云 (1,219米)', '本地:', '16:00、2019年3月6日周三', '协调世界时:', '08:00、2019年3月6日周三', '来源:', 'USAF 每小时地面观测', '报告类型:', 'METAR 航空例行天气报告', '露点:', '9.0°C', '其他云层:', '大部分晴天 (1,219米)', '下午5:00', '12°C', '1,017毫巴', '每小时18.0公里, 东', '10.00公里', '部分多云 (1,219米)', '本地:', '17:00、2019年3月6日周三', '协调世界时:', '09:00、2019年3月6日周三', '来源:', '周期文件', '趋势:', '变化为', '露点:', '9°C', '其他云层:', '大部分晴天 (1,219米)', '天气:', 'Showers of Light Rain', '原始:', 'ZUUU 060900Z 09005MPS 050V110 9999 -SHRA FEW040TCU SCT040 12/09 Q1017 BECMG TL0930 02003MPS', '下午5:00', '12.0°C', '1,017毫巴', '每小时18.0公里, 东', '10.00公里', '部分多云 (1,219米)', '本地:', '17:00、2019年3月6日周三', '协调世界时:', '09:00、2019年3月6日周三', '来源:', 'USAF 每小时地面观测', '报告类型:', 'METAR 航空例行天气报告', '露点:', '9.0°C', '其他云层:', '大部分晴天 (1,219米)', '天气:', 'Showers of Light Rain', '下午6:00', '12°C', '1,017毫巴', '每小时3.60公里', '10.00公里', '大部分多云 (1,219米)', '本地:', '18:00、2019年3月6日周三', '协调世界时:', '10:00、2019年3月6日周三', '来源:', '周期文件', '趋势:', '无重要变化', '露点:', '9°C', '天气:', 'Showers of Light Rain', '原始:', 'ZUUU 061000Z VRB01MPS 9999 -SHRA BKN040 12/09 Q1017 NOSIG', '下午6:00', '12.0°C', '1,017毫巴', '每小时3.60公里', '10.00公里', '大部分多云 (1,219米)', '本地:', '18:00、2019年3月6日周三', '协调世界时:', '10:00、2019年3月6日周三', '来源:', 'USAF 每小时地面观测', '报告类型:', 'METAR 航空例行天气报告', '露点:', '9.0°C', '天气:', 'Showers of Light Rain', '下午7:00', '12°C', '1,018毫巴', '每小时7.20公里, 西', '10.00公里', '大部分多云 (1,219米)', '本地:', '19:00、2019年3月6日周三', '协调世界时:', '11:00、2019年3月6日周三', '来源:', '周期文件', '趋势:', '无重要变化', '露点:', '10°C', '天气:', 'Showers of Light Rain', '原始:', 'ZUUU 061100Z 29002MPS 250V330 9999 -SHRA BKN040 12/10 Q1018 NOSIG', '下午7:00', '12.0°C', '1,018毫巴', '每小时7.20公里, 西', '10.00公里', '大部分多云 (1,219米)', '本地:', '19:00、2019年3月6日周三', '协调世界时:', '11:00、2019年3月6日周三', '来源:', 'USAF 每小时地面观测', '报告类型:', 'METAR 航空例行天气报告', '露点:', '10.0°C', '天气:', 'Showers of Light Rain', '下午8:00', '11°C', '1,018毫巴', '每小时7.20公里, 西北', '8.00公里', '大部分多云 (1,219米)', '本地:', '20:00、2019年3月6日周三', '协调世界时:', '12:00、2019年3月6日周三', '来源:', '周期文件', '趋势:', '无重要变化', '露点:', '10°C', '天气:', 'Showers of Light Rain', '原始:', 'ZUUU 061200Z 30002MPS 240V340 8000 -SHRA BKN040 11/10 Q1018 NOSIG', '下午8:00', '11.0°C', '1,018毫巴', '每小时7.20公里, 西北', '8.00公里', '大部分多云 (1,219米)', '本地:', '20:00、2019年3月6日周三', '协调世界时:', '12:00、2019年3月6日周三', '来源:', 'USAF 每小时地面观测', '报告类型:', 'METAR 航空例行天气报告', '露点:', '10.0°C', '天气:', 'Showers of Light Rain', '下午9:00', '11°C', '1,019毫巴', '每小时3.60公里', '7.00公里', '大部分多云 (1,219米)', '本地:', '21:00、2019年3月6日周三', '协调世界时:', '13:00、2019年3月6日周三', '来源:', '周期文件', '趋势:', '无重要变化', '露点:', '10°C', '天气:', 'Showers of Light Rain', '原始:', 'ZUUU 061300Z VRB01MPS 7000 -SHRA BKN040 11/10 Q1019 NOSIG', '下午9:00', '11.0°C', '1,019毫巴', '每小时3.60公里', '7.00公里', '大部分多云 (1,219米)', '本地:', '21:00、2019年3月6日周三', '协调世界时:', '13:00、2019年3月6日周三', '来源:', 'USAF 每小时地面观测', '报告类型:', 'METAR 航空例行天气报告', '露点:', '10.0°C', '天气:', 'Showers of Light Rain', '下午10:00', '11°C', '1,020毫巴', '每小时7.20公里, 西北', '6.00公里', '大部分多云 (1,219米)', '本地:', '22:00、2019年3月6日周三', '协调世界时:', '14:00、2019年3月6日周三', '来源:', '周期文件', '趋势:', '无重要变化', '露点:', '10°C', '天气:', 'Showers of Light Rain', '原始:', 'ZUUU 061400Z 31002MPS 270V360 6000 -SHRA BKN040 11/10 Q1020 NOSIG', '下午10:00', '11.0°C', '1,020毫巴', '每小时7.20公里, 西北', '6.00公里', '大部分多云 (1,219米)', '本地:', '22:00、2019年3月6日周三', '协调世界时:', '14:00、2019年3月6日周三', '来源:', 'USAF 每小时地面观测', '报告类型:', 'METAR 航空例行天气报告', '露点:', '10.0°C', '天气:', 'Showers of Light Rain', '下午11:00', '11°C', '1,020毫巴', '每小时7.20公里, 西北', '5.00公里', '大部分多云 (1,006米)', '本地:', '23:00、2019年3月6日周三', '协调世界时:', '15:00、2019年3月6日周三', '来源:', '周期文件', '趋势:', '无重要变化', '露点:', '10°C', '天气:', 'Showers of Light Rain、Mist', '原始:', 'ZUUU 061500Z 32002MPS 290V360 5000 -SHRA BR BKN033 11/10 Q1020 NOSIG', '下午11:00', '11.0°C', '1,020毫巴', '每小时7.20公里, 西北', '5.00公里', '大部分多云 (1,006米)', '本地:', '23:00、2019年3月6日周三', '协调世界时:', '15:00、2019年3月6日周三', '来源:', 'USAF 每小时地面观测', '报告类型:', 'METAR 航空例行天气报告', '露点:', '10.0°C', '天气:', 'Mist、Showers of Light Rain']