['上午12:00', '20°C', '1,022毫巴', '每小时7.20公里, 西', '≥ 10.00公里', '晴空万里', '本地:', '00:00、2019年9月21日周六', '协调世界时:', '16:00、2019年9月20日周五', '来源:', '周期文件', '趋势:', '无重要变化', '露点:', '16°C', '晴空万里:', '真', '原始:', 'ZUUU 201600Z 25002MPS CAVOK 20/16 Q1022 NOSIG', '上午12:00', '20.0°C', '1,022毫巴', '每小时7.20公里, 西', '9.90公里', '晴空万里', '本地:', '00:00、2019年9月21日周六', '协调世界时:', '16:00、2019年9月20日周五', '来源:', 'USAF 每小时地面观测', '报告类型:', 'METAR 航空例行天气报告', '露点:', '16.0°C', '晴空万里:', '真', '上午1:00', '19°C', '1,022毫巴', '每小时3.60公里, 西南', '≥ 10.00公里', '晴空万里', '本地:', '01:00、2019年9月21日周六', '协调世界时:', '17:00、2019年9月20日周五', '来源:', '周期文件', '趋势:', '无重要变化', '露点:', '16°C', '晴空万里:', '真', '原始:', 'ZUUU 201700Z 24001MPS CAVOK 19/16 Q1022 NOSIG', '上午1:00', '19.0°C', '1,022毫巴', '每小时3.60公里, 西南', '9.90公里', '晴空万里', '本地:', '01:00、2019年9月21日周六', '协调世界时:', '17:00、2019年9月20日周五', '来源:', 'USAF 每小时地面观测', '报告类型:', 'METAR 航空例行天气报告', '露点:', '16.0°C', '晴空万里:', '真', '上午2:00', '19°C', '1,021毫巴', '每小时0公里', '≥ 10.00公里', '晴空万里', '本地:', '02:00、2019年9月21日周六', '协调世界时:', '18:00、2019年9月20日周五', '来源:', '周期文件', '趋势:', '无重要变化', '露点:', '16°C', '晴空万里:', '真', '原始:', 'ZUUU 201800Z 00000MPS CAVOK 19/16 Q1021 NOSIG', '上午2:00', '19.0°C', '1,021毫巴', '每小时0公里', '9.90公里', '晴空万里', '本地:', '02:00、2019年9月21日周六', '协调世界时:', '18:00、2019年9月20日周五', '来源:', 'USAF 每小时地面观测', '报告类型:', 'METAR 航空例行天气报告', '露点:', '16.0°C', '晴空万里:', '真', '上午3:00', '19°C', '1,021毫巴', '每小时3.60公里', '≥ 10.00公里', '晴空万里', '本地:', '03:00、2019年9月21日周六', '协调世界时:', '19:00、2019年9月20日周五', '来源:', '周期文件', '趋势:', '无重要变化', '露点:', '15°C', '晴空万里:', '真', '原始:', 'ZUUU 201900Z VRB01MPS CAVOK 19/15 Q1021 NOSIG', '上午3:00', '19.0°C', '1,021毫巴', '每小时3.60公里', '9.90公里', '晴空万里', '本地:', '03:00、2019年9月21日周六', '协调世界时:', '19:00、2019年9月20日周五', '来源:', 'USAF 每小时地面观测', '报告类型:', 'METAR 航空例行天气报告', '露点:', '15.0°C', '晴空万里:', '真', '上午4:00', '19°C', '1,021毫巴', '每小时3.60公里', '≥ 10.00公里', '晴空万里', '本地:', '04:00、2019年9月21日周六', '协调世界时:', '20:00、2019年9月20日周五', '来源:', '周期文件', '趋势:', '无重要变化', '露点:', '15°C', '晴空万里:', '真', '原始:', 'ZUUU 202000Z VRB01MPS CAVOK 19/15 Q1021 NOSIG', '上午4:00', '19.0°C', '1,021毫巴', '每小时3.60公里', '9.90公里', '晴空万里', '本地:', '04:00、2019年9月21日周六', '协调世界时:', '20:00、2019年9月20日周五', '来源:', 'USAF 每小时地面观测', '报告类型:', 'METAR 航空例行天气报告', '露点:', '15.0°C', '晴空万里:', '真', '上午5:00', '19°C', '1,021毫巴', '每小时3.60公里, 西南', '≥ 10.00公里', '晴空万里', '本地:', '05:00、2019年9月21日周六', '协调世界时:', '21:00、2019年9月20日周五', '来源:', '周期文件', '趋势:', '无重要变化', '露点:', '15°C', '晴空万里:', '真', '原始:', 'ZUUU 202100Z 21001MPS CAVOK 19/15 Q1021 NOSIG', '上午5:00', '19.0°C', '1,021毫巴', '每小时3.60公里, 西南', '9.90公里', '晴空万里', '本地:', '05:00、2019年9月21日周六', '协调世界时:', '21:00、2019年9月20日周五', '来源:', 'USAF 每小时地面观测', '报告类型:', 'METAR 航空例行天气报告', '露点:', '15.0°C', '晴空万里:', '真', '上午6:00', '19°C', '1,021毫巴', '每小时3.60公里', '≥ 10.00公里', '晴空万里', '本地:', '06:00、2019年9月21日周六', '协调世界时:', '22:00、2019年9月20日周五', '来源:', '周期文件', '趋势:', '无重要变化', '露点:', '14°C', '晴空万里:', '真', '原始:', 'ZUUU 202200Z VRB01MPS CAVOK 19/14 Q1021 NOSIG', '上午6:00', '19.0°C', '1,021毫巴', '每小时3.60公里', '9.90公里', '晴空万里', '本地:', '06:00、2019年9月21日周六', '协调世界时:', '22:00、2019年9月20日周五', '来源:', 'USAF 每小时地面观测', '报告类型:', 'METAR 航空例行天气报告', '露点:', '14.0°C', '晴空万里:', '真', '上午7:00', '19°C', '1,021毫巴', '每小时3.60公里', '≥ 10.00公里', '晴空万里', '本地:', '07:00、2019年9月21日周六', '协调世界时:', '23:00、2019年9月20日周五', '来源:', '周期文件', '趋势:', '无重要变化', '露点:', '13°C', '晴空万里:', '真', '原始:', 'ZUUU 202300Z VRB01MPS CAVOK 19/13 Q1021 NOSIG', '上午7:00', '19.0°C', '1,021毫巴', '每小时3.60公里', '9.90公里', '晴空万里', '本地:', '07:00、2019年9月21日周六', '协调世界时:', '23:00、2019年9月20日周五', '来源:', 'USAF 每小时地面观测', '报告类型:', 'METAR 航空例行天气报告', '露点:', '13.0°C', '晴空万里:', '真', '上午8:00', '20°C', '1,022毫巴', '每小时0公里', '≥ 10.00公里', '晴空万里', '本地:', '08:00、2019年9月21日周六', '协调世界时:', '00:00、2019年9月21日周六', '来源:', '周期文件', '趋势:', '无重要变化', '露点:', '14°C', '晴空万里:', '真', '原始:', 'ZUUU 210000Z 00000MPS CAVOK 20/14 Q1022 NOSIG', '上午8:00', '20.0°C', '1,022毫巴', '每小时0公里', '9.90公里', '晴空万里', '本地:', '08:00、2019年9月21日周六', '协调世界时:', '00:00、2019年9月21日周六', '来源:', 'USAF 每小时地面观测', '报告类型:', 'METAR 航空例行天气报告', '露点:', '14.0°C', '晴空万里:', '真', '上午9:00', '21°C', '1,022毫巴', '每小时3.60公里', '≥ 10.00公里', '晴空万里', '本地:', '09:00、2019年9月21日周六', '协调世界时:', '01:00、2019年9月21日周六', '来源:', '周期文件', '趋势:', '无重要变化', '露点:', '14°C', '晴空万里:', '真', '原始:', 'ZUUU 210100Z VRB01MPS CAVOK 21/14 Q1022 NOSIG', '上午9:00', '21.0°C', '1,022毫巴', '每小时3.60公里', '9.90公里', '晴空万里', '本地:', '09:00、2019年9月21日周六', '协调世界时:', '01:00、2019年9月21日周六', '来源:', 'USAF 每小时地面观测', '报告类型:', 'METAR 航空例行天气报告', '露点:', '14.0°C', '晴空万里:', '真', '上午10:00', '21°C', '1,023毫巴', '每小时3.60公里', '≥ 10.00公里', '晴空万里', '本地:', '10:00、2019年9月21日周六', '协调世界时:', '02:00、2019年9月21日周六', '来源:', '周期文件', '趋势:', '无重要变化', '露点:', '13°C', '晴空万里:', '真', '原始:', 'ZUUU 210200Z VRB01MPS CAVOK 21/13 Q1023 NOSIG', '上午10:00', '21.0°C', '1,023毫巴', '每小时3.60公里', '9.90公里', '晴空万里', '本地:', '10:00、2019年9月21日周六', '协调世界时:', '02:00、2019年9月21日周六', '来源:', 'USAF 每小时地面观测', '报告类型:', 'METAR 航空例行天气报告', '露点:', '13.0°C', '晴空万里:', '真', '上午11:00', '23°C', '1,023毫巴', '每小时0公里', '≥ 10.00公里', '晴空万里', '本地:', '11:00、2019年9月21日周六', '协调世界时:', '03:00、2019年9月21日周六', '来源:', '周期文件', '趋势:', '无重要变化', '露点:', '13°C', '晴空万里:', '真', '原始:', 'ZUUU 210300Z 00000MPS CAVOK 23/13 Q1023 NOSIG', '上午11:00', '23.0°C', '1,023毫巴', '每小时0公里', '9.90公里', '晴空万里', '本地:', '11:00、2019年9月21日周六', '协调世界时:', '03:00、2019年9月21日周六', '来源:', 'USAF 每小时地面观测', '报告类型:', 'METAR 航空例行天气报告', '露点:', '13.0°C', '晴空万里:', '真', '下午12:00', '25°C', '1,022毫巴', '每小时0公里', '≥ 10.00公里', '晴空万里', '本地:', '12:00、2019年9月21日周六', '协调世界时:', '04:00、2019年9月21日周六', '来源:', '周期文件', '趋势:', '无重要变化', '露点:', '13°C', '晴空万里:', '真', '原始:', 'ZUUU 210400Z 00000MPS CAVOK 25/13 Q1022 NOSIG', '下午12:00', '25.0°C', '1,022毫巴', '每小时0公里', '9.90公里', '晴空万里', '本地:', '12:00、2019年9月21日周六', '协调世界时:', '04:00、2019年9月21日周六', '来源:', 'USAF 每小时地面观测', '报告类型:', 'METAR 航空例行天气报告', '露点:', '13.0°C', '晴空万里:', '真', '下午1:00', '27°C', '1,021毫巴', '每小时3.60公里', '≥ 10.00公里', '晴空万里', '本地:', '13:00、2019年9月21日周六', '协调世界时:', '05:00、2019年9月21日周六', '来源:', '周期文件', '趋势:', '无重要变化', '露点:', '12°C', '晴空万里:', '真', '原始:', 'ZUUU 210500Z VRB01MPS CAVOK 27/12 Q1021 NOSIG', '下午1:00', '27.0°C', '1,021毫巴', '每小时3.60公里', '9.90公里', '晴空万里', '本地:', '13:00、2019年9月21日周六', '协调世界时:', '05:00、2019年9月21日周六', '来源:', 'USAF 每小时地面观测', '报告类型:', 'METAR 航空例行天气报告', '露点:', '12.0°C', '晴空万里:', '真', '下午2:00', '28°C', '1,020毫巴', '每小时7.20公里, 东南', '≥ 10.00公里', '晴空万里', '本地:', '14:00、2019年9月21日周六', '协调世界时:', '06:00、2019年9月21日周六', '来源:', '周期文件', '趋势:', '无重要变化', '露点:', '13°C', '晴空万里:', '真', '原始:', 'ZUUU 210600Z 12002MPS 040V210 CAVOK 28/13 Q1020 NOSIG', '下午2:00', '28.0°C', '1,020毫巴', '每小时7.20公里, 东南', '9.90公里', '晴空万里', '本地:', '14:00、2019年9月21日周六', '协调世界时:', '06:00、2019年9月21日周六', '来源:', 'USAF 每小时地面观测', '报告类型:', 'METAR 航空例行天气报告', '露点:', '13.0°C', '晴空万里:', '真', '下午3:00', '29°C', '1,020毫巴', '每小时3.60公里', '≥ 10.00公里', '晴空万里', '本地:', '15:00、2019年9月21日周六', '协调世界时:', '07:00、2019年9月21日周六', '来源:', '周期文件', '趋势:', '无重要变化', '露点:', '11°C', '晴空万里:', '真', '原始:', 'ZUUU 210700Z VRB01MPS CAVOK 29/11 Q1020 NOSIG', '下午4:00', '28°C', '1,019毫巴', '每小时10.8公里, 东', '≥ 10.00公里', '晴空万里', '本地:', '16:00、2019年9月21日周六', '协调世界时:', '08:00、2019年9月21日周六', '来源:', '周期文件', '趋势:', '无重要变化', '露点:', '10°C', '晴空万里:', '真', '原始:', 'ZUUU 210800Z 07003MPS 030V120 CAVOK 28/10 Q1019 NOSIG', '下午5:00', '30°C', '1,019毫巴', '每小时0公里', '≥ 10.00公里', '晴空万里', '本地:', '17:00、2019年9月21日周六', '协调世界时:', '09:00、2019年9月21日周六', '来源:', '周期文件', '趋势:', '无重要变化', '露点:', '11°C', '晴空万里:', '真', '原始:', 'ZUUU 210900Z 00000MPS CAVOK 30/11 Q1019 NOSIG', '下午6:00', '28°C', '1,019毫巴', '每小时3.60公里', '≥ 10.00公里', '晴空万里', '本地:', '18:00、2019年9月21日周六', '协调世界时:', '10:00、2019年9月21日周六', '来源:', '周期文件', '趋势:', '无重要变化', '露点:', '13°C', '晴空万里:', '真', '原始:', 'ZUUU 211000Z VRB01MPS CAVOK 28/13 Q1019 NOSIG', '下午7:00', '25°C', '1,019毫巴', '每小时3.60公里, 西南', '≥ 10.00公里', '晴空万里', '本地:', '19:00、2019年9月21日周六', '协调世界时:', '11:00、2019年9月21日周六', '来源:', '周期文件', '趋势:', '无重要变化', '露点:', '16°C', '晴空万里:', '真', '原始:', 'ZUUU 211100Z 22001MPS CAVOK 25/16 Q1019 NOSIG', '下午8:00', '22°C', '1,020毫巴', '每小时3.60公里, 西南', '≥ 10.00公里', '晴空万里', '本地:', '20:00、2019年9月21日周六', '协调世界时:', '12:00、2019年9月21日周六', '来源:', '周期文件', '趋势:', '无重要变化', '露点:', '17°C', '晴空万里:', '真', '原始:', 'ZUUU 211200Z 23001MPS CAVOK 22/17 Q1020 NOSIG', '下午8:00', '22.0°C', '1,020毫巴', '每小时3.60公里, 西南', '9.90公里', '晴空万里', '本地:', '20:00、2019年9月21日周六', '协调世界时:', '12:00、2019年9月21日周六', '来源:', 'USAF 每小时地面观测', '报告类型:', 'METAR 航空例行天气报告', '露点:', '17.0°C', '晴空万里:', '真', '下午9:00', '21°C', '1,021毫巴', '每小时0公里', '≥ 10.00公里', '晴空万里', '本地:', '21:00、2019年9月21日周六', '协调世界时:', '13:00、2019年9月21日周六', '来源:', '周期文件', '趋势:', '无重要变化', '露点:', '18°C', '晴空万里:', '真', '原始:', 'ZUUU 211300Z 00000MPS CAVOK 21/18 Q1021 NOSIG', '下午9:00', '21.0°C', '1,021毫巴', '每小时0公里', '9.90公里', '晴空万里', '本地:', '21:00、2019年9月21日周六', '协调世界时:', '13:00、2019年9月21日周六', '来源:', 'USAF 每小时地面观测', '报告类型:', 'METAR 航空例行天气报告', '露点:', '18.0°C', '晴空万里:', '真', '下午10:00', '21°C', '1,021毫巴', '每小时3.60公里, 西南', '≥ 10.00公里', '晴空万里', '本地:', '22:00、2019年9月21日周六', '协调世界时:', '14:00、2019年9月21日周六', '来源:', '周期文件', '趋势:', '无重要变化', '露点:', '17°C', '晴空万里:', '真', '原始:', 'ZUUU 211400Z 23001MPS CAVOK 21/17 Q1021 NOSIG', '下午10:00', '21.0°C', '1,021毫巴', '每小时3.60公里, 西南', '9.90公里', '晴空万里', '本地:', '22:00、2019年9月21日周六', '协调世界时:', '14:00、2019年9月21日周六', '来源:', 'USAF 每小时地面观测', '报告类型:', 'METAR 航空例行天气报告', '露点:', '17.0°C', '晴空万里:', '真', '下午11:00', '21°C', '1,022毫巴', '每小时0公里', '≥ 10.00公里', '晴空万里', '本地:', '23:00、2019年9月21日周六', '协调世界时:', '15:00、2019年9月21日周六', '来源:', '周期文件', '趋势:', '无重要变化', '露点:', '18°C', '晴空万里:', '真', '原始:', 'ZUUU 211500Z 00000MPS CAVOK 21/18 Q1022 NOSIG', '下午11:00', '21.0°C', '1,022毫巴', '每小时0公里', '9.90公里', '晴空万里', '本地:', '23:00、2019年9月21日周六', '协调世界时:', '15:00、2019年9月21日周六', '来源:', 'USAF 每小时地面观测', '报告类型:', 'METAR 航空例行天气报告', '露点:', '18.0°C', '晴空万里:', '真']