['上午12:00', '27°C', '1,002毫巴', '每小时0公里', '≥ 10.00公里', '晴空万里', '本地:', '00:00、2019年8月12日周一', '协调世界时:', '16:00、2019年8月11日周日', '来源:', '周期文件', '趋势:', '无重要变化', '露点:', '23°C', '晴空万里:', '真', '原始:', 'ZUUU 111600Z 00000MPS CAVOK 27/23 Q1002 NOSIG', '上午12:00', '27.0°C', '1,002毫巴', '每小时0公里', '9.90公里', '晴空万里', '本地:', '00:00、2019年8月12日周一', '协调世界时:', '16:00、2019年8月11日周日', '来源:', 'USAF 每小时地面观测', '报告类型:', 'METAR 航空例行天气报告', '露点:', '23.0°C', '晴空万里:', '真', '上午1:00', '26°C', '1,003毫巴', '每小时0公里', '≥ 10.00公里', '晴空万里', '本地:', '01:00、2019年8月12日周一', '协调世界时:', '17:00、2019年8月11日周日', '来源:', '周期文件', '趋势:', '无重要变化', '露点:', '22°C', '晴空万里:', '真', '原始:', 'ZUUU 111700Z 00000MPS CAVOK 26/22 Q1003 NOSIG', '上午1:00', '26.0°C', '1,003毫巴', '每小时0公里', '9.90公里', '晴空万里', '本地:', '01:00、2019年8月12日周一', '协调世界时:', '17:00、2019年8月11日周日', '来源:', 'USAF 每小时地面观测', '报告类型:', 'METAR 航空例行天气报告', '露点:', '22.0°C', '晴空万里:', '真', '上午2:00', '25°C', '1,003毫巴', '每小时3.60公里, 西南', '≥ 10.00公里', '晴空万里', '本地:', '02:00、2019年8月12日周一', '协调世界时:', '18:00、2019年8月11日周日', '来源:', '周期文件', '趋势:', '无重要变化', '露点:', '22°C', '晴空万里:', '真', '原始:', 'ZUUU 111800Z 22001MPS CAVOK 25/22 Q1003 NOSIG', '上午2:00', '25.0°C', '1,003毫巴', '每小时3.60公里, 西南', '9.90公里', '晴空万里', '本地:', '02:00、2019年8月12日周一', '协调世界时:', '18:00、2019年8月11日周日', '来源:', 'USAF 每小时地面观测', '报告类型:', 'METAR 航空例行天气报告', '露点:', '22.0°C', '晴空万里:', '真', '上午3:00', '24°C', '1,003毫巴', '每小时3.60公里, 西南', '≥ 10.00公里', '晴空万里', '本地:', '03:00、2019年8月12日周一', '协调世界时:', '19:00、2019年8月11日周日', '来源:', '周期文件', '趋势:', '无重要变化', '露点:', '21°C', '晴空万里:', '真', '原始:', 'ZUUU 111900Z 22001MPS CAVOK 24/21 Q1003 NOSIG', '上午3:00', '24.0°C', '1,003毫巴', '每小时3.60公里, 西南', '9.90公里', '晴空万里', '本地:', '03:00、2019年8月12日周一', '协调世界时:', '19:00、2019年8月11日周日', '来源:', 'USAF 每小时地面观测', '报告类型:', 'METAR 航空例行天气报告', '露点:', '21.0°C', '晴空万里:', '真', '上午4:00', '24°C', '1,003毫巴', '每小时3.60公里, 西南', '≥ 10.00公里', '晴空万里', '本地:', '04:00、2019年8月12日周一', '协调世界时:', '20:00、2019年8月11日周日', '来源:', '周期文件', '趋势:', '无重要变化', '露点:', '20°C', '晴空万里:', '真', '原始:', 'ZUUU 112000Z 22001MPS CAVOK 24/20 Q1003 NOSIG', '上午4:00', '24.0°C', '1,003毫巴', '每小时3.60公里, 西南', '9.90公里', '晴空万里', '本地:', '04:00、2019年8月12日周一', '协调世界时:', '20:00、2019年8月11日周日', '来源:', 'USAF 每小时地面观测', '报告类型:', 'METAR 航空例行天气报告', '露点:', '20.0°C', '晴空万里:', '真', '上午5:00', '23°C', '1,003毫巴', '每小时0公里', '≥ 10.00公里', '晴空万里', '本地:', '05:00、2019年8月12日周一', '协调世界时:', '21:00、2019年8月11日周日', '来源:', '周期文件', '趋势:', '无重要变化', '露点:', '20°C', '晴空万里:', '真', '原始:', 'ZUUU 112100Z 00000MPS CAVOK 23/20 Q1003 NOSIG', '上午5:00', '23.0°C', '1,003毫巴', '每小时0公里', '9.90公里', '晴空万里', '本地:', '05:00、2019年8月12日周一', '协调世界时:', '21:00、2019年8月11日周日', '来源:', 'USAF 每小时地面观测', '报告类型:', 'METAR 航空例行天气报告', '露点:', '20.0°C', '晴空万里:', '真', '上午6:00', '23°C', '1,003毫巴', '每小时0公里', '≥ 10.00公里', '晴空万里', '本地:', '06:00、2019年8月12日周一', '协调世界时:', '22:00、2019年8月11日周日', '来源:', '周期文件', '趋势:', '无重要变化', '露点:', '20°C', '晴空万里:', '真', '原始:', 'ZUUU 112200Z 00000MPS CAVOK 23/20 Q1003 NOSIG', '上午6:00', '23.0°C', '1,003毫巴', '每小时0公里', '9.90公里', '晴空万里', '本地:', '06:00、2019年8月12日周一', '协调世界时:', '22:00、2019年8月11日周日', '来源:', 'USAF 每小时地面观测', '报告类型:', 'METAR 航空例行天气报告', '露点:', '20.0°C', '晴空万里:', '真', '上午7:00', '23°C', '1,003毫巴', '每小时7.20公里, 西南', '≥ 10.00公里', '晴空万里', '本地:', '07:00、2019年8月12日周一', '协调世界时:', '23:00、2019年8月11日周日', '来源:', '周期文件', '趋势:', '无重要变化', '露点:', '20°C', '晴空万里:', '真', '原始:', 'ZUUU 112300Z 22002MPS CAVOK 23/20 Q1003 NOSIG', '上午7:00', '23.0°C', '1,003毫巴', '每小时7.20公里, 西南', '9.90公里', '晴空万里', '本地:', '07:00、2019年8月12日周一', '协调世界时:', '23:00、2019年8月11日周日', '来源:', 'USAF 每小时地面观测', '报告类型:', 'METAR 航空例行天气报告', '露点:', '20.0°C', '晴空万里:', '真', '上午8:00', '29°C', '1,004毫巴', '每小时0公里', '≥ 10.00公里', '晴空万里', '本地:', '08:00、2019年8月12日周一', '协调世界时:', '00:00、2019年8月12日周一', '来源:', '周期文件', '趋势:', '无重要变化', '露点:', '20°C', '晴空万里:', '真', '原始:', 'ZUUU 120000Z 00000MPS CAVOK 29/20 Q1004 NOSIG', '上午8:00', '29.0°C', '1,004毫巴', '每小时0公里', '9.90公里', '晴空万里', '本地:', '08:00、2019年8月12日周一', '协调世界时:', '00:00、2019年8月12日周一', '来源:', 'USAF 每小时地面观测', '报告类型:', 'METAR 航空例行天气报告', '露点:', '20.0°C', '晴空万里:', '真', '上午9:00', '30°C', '1,004毫巴', '每小时3.60公里', '≥ 10.00公里', '晴空万里', '本地:', '09:00、2019年8月12日周一', '协调世界时:', '01:00、2019年8月12日周一', '来源:', '周期文件', '趋势:', '无重要变化', '露点:', '17°C', '晴空万里:', '真', '原始:', 'ZUUU 120100Z VRB01MPS CAVOK 30/17 Q1004 NOSIG', '上午9:00', '30.0°C', '1,004毫巴', '每小时3.60公里', '9.90公里', '晴空万里', '本地:', '09:00、2019年8月12日周一', '协调世界时:', '01:00、2019年8月12日周一', '来源:', 'USAF 每小时地面观测', '报告类型:', 'METAR 航空例行天气报告', '露点:', '17.0°C', '晴空万里:', '真', '上午10:00', '32°C', '1,004毫巴', '每小时3.60公里', '≥ 10.00公里', '晴空万里', '本地:', '10:00、2019年8月12日周一', '协调世界时:', '02:00、2019年8月12日周一', '来源:', '周期文件', '趋势:', '无重要变化', '露点:', '17°C', '晴空万里:', '真', '原始:', 'ZUUU 120200Z VRB01MPS CAVOK 32/17 Q1004 NOSIG', '上午10:00', '32.0°C', '1,004毫巴', '每小时3.60公里', '9.90公里', '晴空万里', '本地:', '10:00、2019年8月12日周一', '协调世界时:', '02:00、2019年8月12日周一', '来源:', 'USAF 每小时地面观测', '报告类型:', 'METAR 航空例行天气报告', '露点:', '17.0°C', '晴空万里:', '真', '上午11:00', '33°C', '1,004毫巴', '每小时3.60公里', '≥ 10.00公里', '晴空万里', '本地:', '11:00、2019年8月12日周一', '协调世界时:', '03:00、2019年8月12日周一', '来源:', '周期文件', '趋势:', '无重要变化', '露点:', '17°C', '晴空万里:', '真', '原始:', 'ZUUU 120300Z VRB01MPS CAVOK 33/17 Q1004 NOSIG', '上午11:00', '33.0°C', '1,004毫巴', '每小时3.60公里', '9.90公里', '晴空万里', '本地:', '11:00、2019年8月12日周一', '协调世界时:', '03:00、2019年8月12日周一', '来源:', 'USAF 每小时地面观测', '报告类型:', 'METAR 航空例行天气报告', '露点:', '17.0°C', '晴空万里:', '真', '下午12:00', '35°C', '1,004毫巴', '每小时0公里', '≥ 10.00公里', '晴空万里', '本地:', '12:00、2019年8月12日周一', '协调世界时:', '04:00、2019年8月12日周一', '来源:', '周期文件', '趋势:', '无重要变化', '露点:', '20°C', '晴空万里:', '真', '原始:', 'ZUUU 120400Z 00000MPS CAVOK 35/20 Q1004 NOSIG', '下午12:00', '35.0°C', '1,004毫巴', '每小时0公里', '9.90公里', '晴空万里', '本地:', '12:00、2019年8月12日周一', '协调世界时:', '04:00、2019年8月12日周一', '来源:', 'USAF 每小时地面观测', '报告类型:', 'METAR 航空例行天气报告', '露点:', '20.0°C', '晴空万里:', '真', '下午1:00', '36°C', '1,003毫巴', '每小时3.60公里', '≥ 10.00公里', '晴空万里', '本地:', '13:00、2019年8月12日周一', '协调世界时:', '05:00、2019年8月12日周一', '来源:', '周期文件', '趋势:', '无重要变化', '露点:', '18°C', '晴空万里:', '真', '原始:', 'ZUUU 120500Z VRB01MPS CAVOK 36/18 Q1003 NOSIG', '下午1:00', '36.0°C', '1,003毫巴', '每小时3.60公里', '9.90公里', '晴空万里', '本地:', '13:00、2019年8月12日周一', '协调世界时:', '05:00、2019年8月12日周一', '来源:', 'USAF 每小时地面观测', '报告类型:', 'METAR 航空例行天气报告', '露点:', '18.0°C', '晴空万里:', '真', '下午2:00', '36°C', '1,002毫巴', '每小时7.20公里', '10.00公里', '大部分晴天 (792米)', '本地:', '14:00、2019年8月12日周一', '协调世界时:', '06:00、2019年8月12日周一', '来源:', '周期文件', '趋势:', '无重要变化', '露点:', '18°C', '原始:', 'ZUUU 120600Z VRB02MPS 9999 FEW026 36/18 Q1002 NOSIG', '下午2:00', '36.0°C', '1,002毫巴', '每小时7.20公里', '10.00公里', '大部分晴天 (792米)', '本地:', '14:00、2019年8月12日周一', '协调世界时:', '06:00、2019年8月12日周一', '来源:', 'USAF 每小时地面观测', '报告类型:', 'METAR 航空例行天气报告', '露点:', '18.0°C', '下午3:00', '36°C', '1,001毫巴', '每小时10.8公里, 西南', '10.00公里', '大部分晴天 (914米)', '本地:', '15:00、2019年8月12日周一', '协调世界时:', '07:00、2019年8月12日周一', '来源:', '周期文件', '趋势:', '无重要变化', '露点:', '18°C', '原始:', 'ZUUU 120700Z 22003MPS 160V280 9999 FEW030 36/18 Q1001 NOSIG', '下午3:00', '36.0°C', '1,001毫巴', '每小时10.8公里, 西南', '10.00公里', '大部分晴天 (914米)', '本地:', '15:00、2019年8月12日周一', '协调世界时:', '07:00、2019年8月12日周一', '来源:', 'USAF 每小时地面观测', '报告类型:', 'METAR 航空例行天气报告', '露点:', '18.0°C', '下午4:00', '37°C', '1,001毫巴', '每小时7.20公里, 西', '10.00公里', '大部分晴天 (914米)', '本地:', '16:00、2019年8月12日周一', '协调世界时:', '08:00、2019年8月12日周一', '来源:', '周期文件', '趋势:', '无重要变化', '露点:', '18°C', '原始:', 'ZUUU 120800Z 25002MPS 210V300 9999 FEW030 37/18 Q1001 NOSIG', '下午4:00', '37.0°C', '1,001毫巴', '每小时7.20公里, 西', '10.00公里', '大部分晴天 (914米)', '本地:', '16:00、2019年8月12日周一', '协调世界时:', '08:00、2019年8月12日周一', '来源:', 'USAF 每小时地面观测', '报告类型:', 'METAR 航空例行天气报告', '露点:', '18.0°C', '下午5:00', '37°C', '1,000毫巴', '每小时7.20公里, 西南', '10.00公里', '大部分晴天 (914米)', '本地:', '17:00、2019年8月12日周一', '协调世界时:', '09:00、2019年8月12日周一', '来源:', '周期文件', '趋势:', '无重要变化', '露点:', '21°C', '原始:', 'ZUUU 120900Z 23002MPS 180V290 9999 FEW030 37/21 Q1000 NOSIG', '下午5:00', '37.0°C', '1,000毫巴', '每小时7.20公里, 西南', '10.00公里', '大部分晴天 (914米)', '本地:', '17:00、2019年8月12日周一', '协调世界时:', '09:00、2019年8月12日周一', '来源:', 'USAF 每小时地面观测', '报告类型:', 'METAR 航空例行天气报告', '露点:', '21.0°C', '下午6:00', '36°C', '999.0毫巴', '每小时10.8公里, 西南', '10.00公里', '大部分晴天 (914米)', '本地:', '18:00、2019年8月12日周一', '协调世界时:', '10:00、2019年8月12日周一', '来源:', '周期文件', '趋势:', '无重要变化', '露点:', '21°C', '原始:', 'ZUUU 121000Z 23003MPS 190V260 9999 FEW030 36/21 Q0999 NOSIG', '下午6:00', '36.0°C', '999.0毫巴', '每小时10.8公里, 西南', '10.00公里', '大部分晴天 (914米)', '本地:', '18:00、2019年8月12日周一', '协调世界时:', '10:00、2019年8月12日周一', '来源:', 'USAF 每小时地面观测', '报告类型:', 'METAR 航空例行天气报告', '露点:', '21.0°C', '下午7:00', '34°C', '1,000毫巴', '每小时7.20公里, 西南', '≥ 10.00公里', '晴空万里', '本地:', '19:00、2019年8月12日周一', '协调世界时:', '11:00、2019年8月12日周一', '来源:', '周期文件', '趋势:', '无重要变化', '露点:', '19°C', '晴空万里:', '真', '原始:', 'ZUUU 121100Z 22002MPS CAVOK 34/19 Q1000 NOSIG', '下午7:00', '34.0°C', '1,000毫巴', '每小时7.20公里, 西南', '9.90公里', '晴空万里', '本地:', '19:00、2019年8月12日周一', '协调世界时:', '11:00、2019年8月12日周一', '来源:', 'USAF 每小时地面观测', '报告类型:', 'METAR 航空例行天气报告', '露点:', '19.0°C', '晴空万里:', '真', '下午8:00', '33°C', '1,000毫巴', '每小时7.20公里, 南', '≥ 10.00公里', '晴空万里', '本地:', '20:00、2019年8月12日周一', '协调世界时:', '12:00、2019年8月12日周一', '来源:', '周期文件', '趋势:', '无重要变化', '露点:', '18°C', '晴空万里:', '真', '原始:', 'ZUUU 121200Z 18002MPS 130V220 CAVOK 33/18 Q1000 NOSIG', '下午8:00', '33.0°C', '1,000毫巴', '每小时7.20公里, 南', '9.90公里', '晴空万里', '本地:', '20:00、2019年8月12日周一', '协调世界时:', '12:00、2019年8月12日周一', '来源:', 'USAF 每小时地面观测', '报告类型:', 'METAR 航空例行天气报告', '露点:', '18.0°C', '晴空万里:', '真', '下午9:00', '30°C', '1,001毫巴', '每小时3.60公里, 西南', '≥ 10.00公里', '晴空万里', '本地:', '21:00、2019年8月12日周一', '协调世界时:', '13:00、2019年8月12日周一', '来源:', '周期文件', '趋势:', '无重要变化', '露点:', '22°C', '晴空万里:', '真', '原始:', 'ZUUU 121300Z 22001MPS CAVOK 30/22 Q1001 NOSIG', '下午9:00', '30.0°C', '1,001毫巴', '每小时3.60公里, 西南', '9.90公里', '晴空万里', '本地:', '21:00、2019年8月12日周一', '协调世界时:', '13:00、2019年8月12日周一', '来源:', 'USAF 每小时地面观测', '报告类型:', 'METAR 航空例行天气报告', '露点:', '22.0°C', '晴空万里:', '真', '下午10:00', '30°C', '1,002毫巴', '每小时0公里', '≥ 10.00公里', '晴空万里', '本地:', '22:00、2019年8月12日周一', '协调世界时:', '14:00、2019年8月12日周一', '来源:', '周期文件', '趋势:', '无重要变化', '露点:', '21°C', '晴空万里:', '真', '原始:', 'ZUUU 121400Z 00000MPS CAVOK 30/21 Q1002 NOSIG', '下午10:00', '30.0°C', '1,002毫巴', '每小时0公里', '9.90公里', '晴空万里', '本地:', '22:00、2019年8月12日周一', '协调世界时:', '14:00、2019年8月12日周一', '来源:', 'USAF 每小时地面观测', '报告类型:', 'METAR 航空例行天气报告', '露点:', '21.0°C', '晴空万里:', '真', '下午11:00', '29°C', '1,002毫巴', '每小时0公里', '≥ 10.00公里', '晴空万里', '本地:', '23:00、2019年8月12日周一', '协调世界时:', '15:00、2019年8月12日周一', '来源:', '周期文件', '趋势:', '无重要变化', '露点:', '23°C', '晴空万里:', '真', '原始:', 'ZUUU 121500Z 00000MPS CAVOK 29/23 Q1002 NOSIG', '下午11:00', '29.0°C', '1,002毫巴', '每小时0公里', '9.90公里', '晴空万里', '本地:', '23:00、2019年8月12日周一', '协调世界时:', '15:00、2019年8月12日周一', '来源:', 'USAF 每小时地面观测', '报告类型:', 'METAR 航空例行天气报告', '露点:', '23.0°C', '晴空万里:', '真']