['Thunderstorm', 'TS、IWC17', 'Thunderstorm', 'TS、IWC17', 'Recent Thunderstorm', 'RETS', '上午12:00', '29°C', '1,005毫巴', '每小时7.20公里, 南', '≥ 10.00公里', '晴空万里', '本地:', '00:00、2019年4月26日周五', '协调世界时:', '16:00、2019年4月25日周四', '来源:', '周期文件', '趋势:', '无重要变化', '露点:', '19°C', '晴空万里:', '真', '原始:', 'ZUUU 251600Z 18002MPS 120V220 CAVOK 29/19 Q1005 NOSIG', '上午12:00', '29.0°C', '1,005毫巴', '每小时7.20公里, 南', '-', '晴空万里', '本地:', '00:00、2019年4月26日周五', '协调世界时:', '16:00、2019年4月25日周四', '来源:', 'USAF 每小时地面观测', '报告类型:', 'METAR 航空例行天气报告', '露点:', '19.0°C', '晴空万里:', '真', '上午1:00', '29°C', '1,005毫巴', '每小时7.20公里, 东南', '≥ 10.00公里', '晴空万里', '本地:', '01:00、2019年4月26日周五', '协调世界时:', '17:00、2019年4月25日周四', '来源:', '周期文件', '趋势:', '无重要变化', '露点:', '19°C', '晴空万里:', '真', '原始:', 'ZUUU 251700Z 13002MPS 020V180 CAVOK 29/19 Q1005 NOSIG', '上午1:00', '29.0°C', '1,005毫巴', '每小时7.20公里, 东南', '-', '晴空万里', '本地:', '01:00、2019年4月26日周五', '协调世界时:', '17:00、2019年4月25日周四', '来源:', 'USAF 每小时地面观测', '报告类型:', 'METAR 航空例行天气报告', '露点:', '19.0°C', '晴空万里:', '真', '上午2:00', '25°C', '1,004毫巴', '每小时3.60公里', '≥ 10.00公里', '晴空万里', '本地:', '02:00、2019年4月26日周五', '协调世界时:', '18:00、2019年4月25日周四', '来源:', '周期文件', '趋势:', '无重要变化', '露点:', '20°C', '晴空万里:', '真', '原始:', 'ZUUU 251800Z VRB01MPS CAVOK 25/20 Q1004 NOSIG', '上午2:00', '25.0°C', '1,004毫巴', '每小时3.60公里', '-', '晴空万里', '本地:', '02:00、2019年4月26日周五', '协调世界时:', '18:00、2019年4月25日周四', '来源:', 'USAF 每小时地面观测', '报告类型:', 'METAR 航空例行天气报告', '露点:', '20.0°C', '晴空万里:', '真', '上午3:00', '26°C', '1,005毫巴', '每小时7.20公里, 北', '≥ 10.00公里', '晴空万里', '本地:', '03:00、2019年4月26日周五', '协调世界时:', '19:00、2019年4月25日周四', '来源:', '周期文件', '趋势:', '无重要变化', '露点:', '19°C', '晴空万里:', '真', '原始:', 'ZUUU 251900Z 36002MPS 320V050 CAVOK 26/19 Q1005 NOSIG', '上午3:00', '26.0°C', '1,005毫巴', '每小时7.20公里, 北', '-', '晴空万里', '本地:', '03:00、2019年4月26日周五', '协调世界时:', '19:00、2019年4月25日周四', '来源:', 'USAF 每小时地面观测', '报告类型:', 'METAR 航空例行天气报告', '露点:', '19.0°C', '晴空万里:', '真', '上午4:00', '27°C', '1,005毫巴', '每小时7.20公里, 北', '≥ 10.00公里', '晴空万里', '本地:', '04:00、2019年4月26日周五', '协调世界时:', '20:00、2019年4月25日周四', '来源:', '周期文件', '趋势:', '无重要变化', '露点:', '20°C', '晴空万里:', '真', '原始:', 'ZUUU 252000Z 36002MPS 330V030 CAVOK 27/20 Q1005 NOSIG', '上午4:00', '27.0°C', '1,005毫巴', '每小时7.20公里, 北', '-', '晴空万里', '本地:', '04:00、2019年4月26日周五', '协调世界时:', '20:00、2019年4月25日周四', '来源:', 'USAF 每小时地面观测', '报告类型:', 'METAR 航空例行天气报告', '露点:', '20.0°C', '晴空万里:', '真', '上午5:00', '26°C', '1,005毫巴', '每小时3.60公里, 北', '≥ 10.00公里', '晴空万里', '本地:', '05:00、2019年4月26日周五', '协调世界时:', '21:00、2019年4月25日周四', '来源:', '周期文件', '趋势:', '无重要变化', '露点:', '20°C', '晴空万里:', '真', '原始:', 'ZUUU 252100Z 36001MPS CAVOK 26/20 Q1005 NOSIG', '上午5:00', '26.0°C', '1,005毫巴', '每小时3.60公里, 北', '-', '晴空万里', '本地:', '05:00、2019年4月26日周五', '协调世界时:', '21:00、2019年4月25日周四', '来源:', 'USAF 每小时地面观测', '报告类型:', 'METAR 航空例行天气报告', '露点:', '20.0°C', '晴空万里:', '真', '上午6:00', '26°C', '1,005毫巴', '每小时3.60公里, 西北', '≥ 10.00公里', '晴空万里', '本地:', '06:00、2019年4月26日周五', '协调世界时:', '22:00、2019年4月25日周四', '来源:', '周期文件', '趋势:', '无重要变化', '露点:', '20°C', '晴空万里:', '真', '原始:', 'ZUUU 252200Z 32001MPS CAVOK 26/20 Q1005 NOSIG', '上午6:00', '26.0°C', '1,005毫巴', '每小时3.60公里, 西北', '-', '晴空万里', '本地:', '06:00、2019年4月26日周五', '协调世界时:', '22:00、2019年4月25日周四', '来源:', 'USAF 每小时地面观测', '报告类型:', 'METAR 航空例行天气报告', '露点:', '20.0°C', '晴空万里:', '真', '上午7:00', '25°C', '1,005毫巴', '每小时7.20公里, 北', '≥ 10.00公里', '晴空万里', '本地:', '07:00、2019年4月26日周五', '协调世界时:', '23:00、2019年4月25日周四', '来源:', '周期文件', '趋势:', '无重要变化', '露点:', '20°C', '晴空万里:', '真', '原始:', 'ZUUU 252300Z 35002MPS 320V030 CAVOK 25/20 Q1005 NOSIG', '上午7:00', '25.0°C', '1,005毫巴', '每小时7.20公里, 北', '-', '晴空万里', '本地:', '07:00、2019年4月26日周五', '协调世界时:', '23:00、2019年4月25日周四', '来源:', 'USAF 每小时地面观测', '报告类型:', 'METAR 航空例行天气报告', '露点:', '20.0°C', '晴空万里:', '真', '上午8:00', '27°C', '1,006毫巴', '每小时0公里', '7.00公里', '无重要云', '本地:', '08:00、2019年4月26日周五', '协调世界时:', '00:00、2019年4月26日周五', '来源:', '周期文件', '趋势:', '无重要变化', '露点:', '20°C', '原始:', 'ZUUU 260000Z 00000MPS 7000 NSC 27/20 Q1006 NOSIG', '上午8:00', '27.0°C', '1,006毫巴', '每小时0公里', '7.00公里', '未检测到云', '本地:', '08:00、2019年4月26日周五', '协调世界时:', '00:00、2019年4月26日周五', '来源:', 'USAF 每小时地面观测', '报告类型:', 'METAR 航空例行天气报告', '露点:', '20.0°C', '上午9:00', '28°C', '1,006毫巴', '每小时7.20公里, 北', '6.00公里', '无重要云', '本地:', '09:00、2019年4月26日周五', '协调世界时:', '01:00、2019年4月26日周五', '来源:', '周期文件', '趋势:', '无重要变化', '露点:', '21°C', '原始:', 'ZUUU 260100Z 35002MPS 310V040 6000 NSC 28/21 Q1006 NOSIG', '上午9:00', '28.0°C', '1,006毫巴', '每小时7.20公里, 北', '6.00公里', '未检测到云', '本地:', '09:00、2019年4月26日周五', '协调世界时:', '01:00、2019年4月26日周五', '来源:', 'USAF 每小时地面观测', '报告类型:', 'METAR 航空例行天气报告', '露点:', '21.0°C', '上午10:00', '30°C', '1,007毫巴', '每小时7.20公里, 北', '8.00公里', '无重要云', '本地:', '10:00、2019年4月26日周五', '协调世界时:', '02:00、2019年4月26日周五', '来源:', '周期文件', '趋势:', '无重要变化', '露点:', '20°C', '原始:', 'ZUUU 260200Z 02002MPS 330V070 8000 NSC 30/20 Q1007 NOSIG', '上午10:00', '30.0°C', '1,007毫巴', '每小时7.20公里, 北', '8.00公里', '未检测到云', '本地:', '10:00、2019年4月26日周五', '协调世界时:', '02:00、2019年4月26日周五', '来源:', 'USAF 每小时地面观测', '报告类型:', 'METAR 航空例行天气报告', '露点:', '20.0°C', '上午11:00', '32°C', '1,006毫巴', '每小时3.60公里', '8.00公里', '无重要云', '本地:', '11:00、2019年4月26日周五', '协调世界时:', '03:00、2019年4月26日周五', '来源:', '周期文件', '趋势:', '无重要变化', '露点:', '20°C', '原始:', 'ZUUU 260300Z VRB01MPS 8000 NSC 32/20 Q1006 NOSIG', '上午11:00', '32.0°C', '1,006毫巴', '每小时3.60公里', '8.00公里', '未检测到云', '本地:', '11:00、2019年4月26日周五', '协调世界时:', '03:00、2019年4月26日周五', '来源:', 'USAF 每小时地面观测', '报告类型:', 'METAR 航空例行天气报告', '露点:', '20.0°C', '下午12:00', '33°C', '1,006毫巴', '每小时7.20公里', '≥ 10.00公里', '晴空万里', '本地:', '12:00、2019年4月26日周五', '协调世界时:', '04:00、2019年4月26日周五', '来源:', '周期文件', '趋势:', '无重要变化', '露点:', '19°C', '晴空万里:', '真', '原始:', 'ZUUU 260400Z VRB02MPS CAVOK 33/19 Q1006 NOSIG', '下午12:00', '33.0°C', '1,006毫巴', '每小时7.20公里', '-', '晴空万里', '本地:', '12:00、2019年4月26日周五', '协调世界时:', '04:00、2019年4月26日周五', '来源:', 'USAF 每小时地面观测', '报告类型:', 'METAR 航空例行天气报告', '露点:', '19.0°C', '晴空万里:', '真', '下午1:00', '34°C', '1,005毫巴', '每小时7.20公里, 北', '10.00公里', '大部分晴天 (792米)', '本地:', '13:00、2019年4月26日周五', '协调世界时:', '05:00、2019年4月26日周五', '来源:', '周期文件', '趋势:', '无重要变化', '露点:', '18°C', '原始:', 'ZUUU 260500Z 02002MPS 320V090 9999 FEW026 34/18 Q1005 NOSIG', '下午1:00', '34.0°C', '1,005毫巴', '每小时7.20公里, 北', '10.00公里', '大部分晴天 (792米)', '本地:', '13:00、2019年4月26日周五', '协调世界时:', '05:00、2019年4月26日周五', '来源:', 'USAF 每小时地面观测', '报告类型:', 'METAR 航空例行天气报告', '露点:', '18.0°C', '下午2:00', '34°C', '1,004毫巴', '每小时7.20公里, 北', '10.00公里', '大部分晴天 (792米)', '本地:', '14:00、2019年4月26日周五', '协调世界时:', '06:00、2019年4月26日周五', '来源:', '周期文件', '趋势:', '无重要变化', '露点:', '19°C', '原始:', 'ZUUU 260600Z 36002MPS 280V060 9999 FEW026 34/19 Q1004 NOSIG', '下午2:00', '34.0°C', '1,004毫巴', '每小时7.20公里, 北', '10.00公里', '大部分晴天 (792米)', '本地:', '14:00、2019年4月26日周五', '协调世界时:', '06:00、2019年4月26日周五', '来源:', 'USAF 每小时地面观测', '报告类型:', 'METAR 航空例行天气报告', '露点:', '19.0°C', '下午3:00', '35°C', '1,003毫巴', '每小时10.8公里, 东', '10.00公里', '部分多云 (914米)', '本地:', '15:00、2019年4月26日周五', '协调世界时:', '07:00、2019年4月26日周五', '来源:', '周期文件', '趋势:', '无重要变化', '露点:', '19°C', '原始:', 'ZUUU 260700Z 11003MPS 070V170 9999 SCT030 35/19 Q1003 NOSIG', '下午3:00', '35.0°C', '1,003毫巴', '每小时10.8公里, 东', '10.00公里', '部分多云 (914米)', '本地:', '15:00、2019年4月26日周五', '协调世界时:', '07:00、2019年4月26日周五', '来源:', 'USAF 每小时地面观测', '报告类型:', 'METAR 航空例行天气报告', '露点:', '19.0°C', '下午4:00', '35°C', '1,002毫巴', '每小时10.8公里, 东北', '10.00公里', '部分多云 (914米)', '本地:', '16:00、2019年4月26日周五', '协调世界时:', '08:00、2019年4月26日周五', '来源:', '周期文件', '趋势:', '无重要变化', '露点:', '19°C', '原始:', 'ZUUU 260800Z 05003MPS 350V120 9999 SCT030 35/19 Q1002 NOSIG', '下午4:00', '35.0°C', '1,002毫巴', '每小时10.8公里, 东北', '10.00公里', '部分多云 (914米)', '本地:', '16:00、2019年4月26日周五', '协调世界时:', '08:00、2019年4月26日周五', '来源:', 'USAF 每小时地面观测', '报告类型:', 'METAR 航空例行天气报告', '露点:', '19.0°C', '下午5:00', '34°C', '1,001毫巴', '每小时14.4公里, 东', '10.00公里', '大部分晴天 (914米)', '本地:', '17:00、2019年4月26日周五', '协调世界时:', '09:00、2019年4月26日周五', '来源:', '周期文件', '趋势:', '无重要变化', '露点:', '18°C', '原始:', 'ZUUU 260900Z 10004MPS 060V140 9999 FEW030TCU FEW030 34/18 Q1001 NOSIG', '下午5:00', '34.0°C', '1,001毫巴', '每小时14.4公里, 东', '10.00公里', '大部分晴天 (914米)', '本地:', '17:00、2019年4月26日周五', '协调世界时:', '09:00、2019年4月26日周五', '来源:', 'USAF 每小时地面观测', '报告类型:', 'METAR 航空例行天气报告', '露点:', '18.0°C', '下午6:00', '34°C', '1,001毫巴', '每小时10.8公里, 东南', '10.00公里', '大部分晴天 (914米)', '本地:', '18:00、2019年4月26日周五', '协调世界时:', '10:00、2019年4月26日周五', '来源:', '周期文件', '趋势:', '无重要变化', '露点:', '19°C', '原始:', 'ZUUU 261000Z 13003MPS 060V170 9999 FEW030 34/19 Q1001 NOSIG', '下午6:00', '34.0°C', '1,001毫巴', '每小时10.8公里, 东南', '10.00公里', '大部分晴天 (914米)', '本地:', '18:00、2019年4月26日周五', '协调世界时:', '10:00、2019年4月26日周五', '来源:', 'USAF 每小时地面观测', '报告类型:', 'METAR 航空例行天气报告', '露点:', '19.0°C', '下午7:00', '34°C', '1,001毫巴', '每小时10.8公里, 东', '10.00公里', '大部分晴天 (1,006米)', '本地:', '19:00、2019年4月26日周五', '协调世界时:', '11:00、2019年4月26日周五', '来源:', '周期文件', '趋势:', '无重要变化', '露点:', '18°C', '原始:', 'ZUUU 261100Z 11003MPS 060V140 9999 FEW033 34/18 Q1001 NOSIG', '下午7:00', '34.0°C', '1,001毫巴', '每小时10.8公里, 东', '10.00公里', '大部分晴天 (1,006米)', '本地:', '19:00、2019年4月26日周五', '协调世界时:', '11:00、2019年4月26日周五', '来源:', 'USAF 每小时地面观测', '报告类型:', 'METAR 航空例行天气报告', '露点:', '18.0°C', '下午8:00', '34°C', '1,002毫巴', '每小时7.20公里, 东南', '10.00公里', '大部分晴天 (914米)', '本地:', '20:00、2019年4月26日周五', '协调世界时:', '12:00、2019年4月26日周五', '来源:', '周期文件', '趋势:', '变化为', '露点:', '18°C', '天气:', 'Thunderstorm', '原始:', 'ZUUU 261200Z 13002MPS 080V160 9999 TS FEW030CB FEW030 34/18 Q1002 BECMG TL1300 NSW', '下午8:00', '34.0°C', '1,002毫巴', '每小时7.20公里, 东南', '10.00公里', '大部分晴天 (914米)', '本地:', '20:00、2019年4月26日周五', '协调世界时:', '12:00、2019年4月26日周五', '来源:', 'USAF 每小时地面观测', '报告类型:', 'METAR 航空例行天气报告', '露点:', '18.0°C', '天气:', 'Thunderstorm', '下午9:00', '31°C', '1,003毫巴', '每小时3.60公里', '10.00公里', '部分多云 (914米)', '本地:', '21:00、2019年4月26日周五', '协调世界时:', '13:00、2019年4月26日周五', '来源:', '周期文件', '趋势:', '变化为', '露点:', '20°C', '其他云层:', '大部分晴天 (914米)', '天气:', 'Thunderstorm', '原始:', 'ZUUU 261300Z VRB01MPS 9999 TS FEW030CB SCT030 31/20 Q1003 BECMG TL1430 NSW', '下午9:00', '31.0°C', '1,003毫巴', '每小时3.60公里', '10.00公里', '部分多云 (914米)', '本地:', '21:00、2019年4月26日周五', '协调世界时:', '13:00、2019年4月26日周五', '来源:', 'USAF 每小时地面观测', '报告类型:', 'METAR 航空例行天气报告', '露点:', '20.0°C', '其他云层:', '大部分晴天 (914米)', '天气:', 'Thunderstorm', '下午10:00', '29°C', '1,003毫巴', '每小时0公里', '10.00公里', '部分多云 (914米)', '本地:', '22:00、2019年4月26日周五', '协调世界时:', '14:00、2019年4月26日周五', '来源:', '周期文件', '趋势:', '无重要变化', '露点:', '22°C', '其他云层:', '大部分晴天 (914米)', '天气:', 'Recent Thunderstorm', '原始:', 'ZUUU 261400Z 00000MPS 9999 FEW030TCU SCT030 29/22 Q1003 RETS NOSIG', '下午10:00', '29.0°C', '1,003毫巴', '每小时0公里', '10.00公里', '部分多云 (914米)', '本地:', '22:00、2019年4月26日周五', '协调世界时:', '14:00、2019年4月26日周五', '来源:', 'USAF 每小时地面观测', '报告类型:', 'METAR 航空例行天气报告', '露点:', '22.0°C', '其他云层:', '大部分晴天 (914米)', '下午11:00', '29°C', '1,004毫巴', '每小时0公里', '10.00公里', '部分多云 (914米)', '本地:', '23:00、2019年4月26日周五', '协调世界时:', '15:00、2019年4月26日周五', '来源:', '周期文件', '趋势:', '无重要变化', '露点:', '22°C', '其他云层:', '大部分晴天 (914米)', '原始:', 'ZUUU 261500Z 00000MPS 9999 FEW030TCU SCT030 29/22 Q1004 NOSIG', '下午11:00', '29.0°C', '1,004毫巴', '每小时0公里', '10.00公里', '部分多云 (914米)', '本地:', '23:00、2019年4月26日周五', '协调世界时:', '15:00、2019年4月26日周五', '来源:', 'USAF 每小时地面观测', '报告类型:', 'METAR 航空例行天气报告', '露点:', '22.0°C', '其他云层:', '大部分晴天 (914米)']