['Showers of Light Rain', '-SHRA、IWC80', 'Showers of Rain、Showers of Light Rain、Mist', 'SHRA、-SHRA、IWC80、BR、IWC10', 'Mist', 'BR、IWC10', 'Showers of Light Rain', '-SHRA、IWC80', 'Mist', 'BR、IWC10', 'Showers of Light Rain、Mist', '-SHRA、IWC80、BR、IWC10', 'Mist', 'BR、IWC10', 'Mist', 'BR、IWC10', 'Mist', 'BR、IWC10', 'Mist', 'BR、IWC10', '上午12:00', '24°C', '1,004毫巴', '每小时7.20公里, 西南', '≥ 10.00公里', '晴空万里', '本地:', '00:00、2019年7月6日周六', '协调世界时:', '16:00、2019年7月5日周五', '来源:', '周期文件', '趋势:', '无重要变化', '露点:', '21°C', '晴空万里:', '真', '原始:', 'ZUUU 051600Z 21002MPS CAVOK 24/21 Q1004 NOSIG', '上午12:00', '24.0°C', '1,004毫巴', '每小时7.20公里, 西南', '9.90公里', '晴空万里', '本地:', '00:00、2019年7月6日周六', '协调世界时:', '16:00、2019年7月5日周五', '来源:', 'USAF 每小时地面观测', '报告类型:', 'METAR 航空例行天气报告', '露点:', '21.0°C', '晴空万里:', '真', '上午1:00', '24°C', '1,004毫巴', '每小时3.60公里', '≥ 10.00公里', '晴空万里', '本地:', '01:00、2019年7月6日周六', '协调世界时:', '17:00、2019年7月5日周五', '来源:', '周期文件', '趋势:', '无重要变化', '露点:', '21°C', '晴空万里:', '真', '原始:', 'ZUUU 051700Z VRB01MPS CAVOK 24/21 Q1004 NOSIG', '上午1:00', '24.0°C', '1,004毫巴', '每小时3.60公里', '9.90公里', '晴空万里', '本地:', '01:00、2019年7月6日周六', '协调世界时:', '17:00、2019年7月5日周五', '来源:', 'USAF 每小时地面观测', '报告类型:', 'METAR 航空例行天气报告', '露点:', '21.0°C', '晴空万里:', '真', '上午2:00', '24°C', '1,004毫巴', '每小时3.60公里, 西南', '≥ 10.00公里', '晴空万里', '本地:', '02:00、2019年7月6日周六', '协调世界时:', '18:00、2019年7月5日周五', '来源:', '周期文件', '趋势:', '无重要变化', '露点:', '20°C', '晴空万里:', '真', '原始:', 'ZUUU 051800Z 21001MPS CAVOK 24/20 Q1004 NOSIG', '上午2:00', '24.0°C', '1,004毫巴', '每小时3.60公里, 西南', '9.90公里', '晴空万里', '本地:', '02:00、2019年7月6日周六', '协调世界时:', '18:00、2019年7月5日周五', '来源:', 'USAF 每小时地面观测', '报告类型:', 'METAR 航空例行天气报告', '露点:', '20.0°C', '晴空万里:', '真', '上午3:00', '24°C', '1,004毫巴', '每小时0公里', '≥ 10.00公里', '晴空万里', '本地:', '03:00、2019年7月6日周六', '协调世界时:', '19:00、2019年7月5日周五', '来源:', '周期文件', '趋势:', '无重要变化', '露点:', '20°C', '晴空万里:', '真', '原始:', 'ZUUU 051900Z 00000MPS CAVOK 24/20 Q1004 NOSIG', '上午3:00', '24.0°C', '1,004毫巴', '每小时0公里', '9.90公里', '晴空万里', '本地:', '03:00、2019年7月6日周六', '协调世界时:', '19:00、2019年7月5日周五', '来源:', 'USAF 每小时地面观测', '报告类型:', 'METAR 航空例行天气报告', '露点:', '20.0°C', '晴空万里:', '真', '上午4:00', '24°C', '1,003毫巴', '每小时3.60公里', '≥ 10.00公里', '晴空万里', '本地:', '04:00、2019年7月6日周六', '协调世界时:', '20:00、2019年7月5日周五', '来源:', '周期文件', '趋势:', '无重要变化', '露点:', '20°C', '晴空万里:', '真', '原始:', 'ZUUU 052000Z VRB01MPS CAVOK 24/20 Q1003 NOSIG', '上午4:00', '24.0°C', '1,003毫巴', '每小时3.60公里', '9.90公里', '晴空万里', '本地:', '04:00、2019年7月6日周六', '协调世界时:', '20:00、2019年7月5日周五', '来源:', 'USAF 每小时地面观测', '报告类型:', 'METAR 航空例行天气报告', '露点:', '20.0°C', '晴空万里:', '真', '上午5:00', '24°C', '1,004毫巴', '每小时7.20公里, 东南', '≥ 10.00公里', '晴空万里', '本地:', '05:00、2019年7月6日周六', '协调世界时:', '21:00、2019年7月5日周五', '来源:', '周期文件', '趋势:', '无重要变化', '露点:', '20°C', '晴空万里:', '真', '原始:', 'ZUUU 052100Z 14002MPS 090V180 CAVOK 24/20 Q1004 NOSIG', '上午5:00', '24.0°C', '1,004毫巴', '每小时7.20公里, 东南', '9.90公里', '晴空万里', '本地:', '05:00、2019年7月6日周六', '协调世界时:', '21:00、2019年7月5日周五', '来源:', 'USAF 每小时地面观测', '报告类型:', 'METAR 航空例行天气报告', '露点:', '20.0°C', '晴空万里:', '真', '上午6:00', '23°C', '1,004毫巴', '每小时7.20公里, 南', '7.00公里', '大部分晴天 (1,524米)', '本地:', '06:00、2019年7月6日周六', '协调世界时:', '22:00、2019年7月5日周五', '来源:', '周期文件', '趋势:', '无重要变化', '露点:', '20°C', '原始:', 'ZUUU 052200Z 20002MPS 7000 FEW050 23/20 Q1004 NOSIG', '上午6:00', '23.0°C', '1,004毫巴', '每小时7.20公里, 南', '7.00公里', '大部分晴天 (1,524米)', '本地:', '06:00、2019年7月6日周六', '协调世界时:', '22:00、2019年7月5日周五', '来源:', 'USAF 每小时地面观测', '报告类型:', 'METAR 航空例行天气报告', '露点:', '20.0°C', '上午7:00', '23°C', '1,005毫巴', '每小时0公里', '6.00公里', '大部分晴天 (1,524米)', '本地:', '07:00、2019年7月6日周六', '协调世界时:', '23:00、2019年7月5日周五', '来源:', '周期文件', '趋势:', '无重要变化', '露点:', '21°C', '原始:', 'ZUUU 052300Z 00000MPS 6000 FEW050 23/21 Q1005 NOSIG', '上午7:00', '23.0°C', '1,005毫巴', '每小时0公里', '6.00公里', '大部分晴天 (1,524米)', '本地:', '07:00、2019年7月6日周六', '协调世界时:', '23:00、2019年7月5日周五', '来源:', 'USAF 每小时地面观测', '报告类型:', 'METAR 航空例行天气报告', '露点:', '21.0°C', '上午8:00', '24°C', '1,005毫巴', '每小时3.60公里', '6.00公里', '部分多云 (1,524米)', '本地:', '08:00、2019年7月6日周六', '协调世界时:', '00:00、2019年7月6日周六', '来源:', '周期文件', '趋势:', '无重要变化', '露点:', '21°C', '原始:', 'ZUUU 060000Z VRB01MPS 6000 SCT050 24/21 Q1005 NOSIG', '上午8:00', '24.0°C', '1,005毫巴', '每小时3.60公里', '6.00公里', '部分多云 (1,524米)', '本地:', '08:00、2019年7月6日周六', '协调世界时:', '00:00、2019年7月6日周六', '来源:', 'USAF 每小时地面观测', '报告类型:', 'METAR 航空例行天气报告', '露点:', '21.0°C', '上午9:00', '24°C', '1,005毫巴', '每小时3.60公里', '6.00公里', '部分多云 (1,219米)', '本地:', '09:00、2019年7月6日周六', '协调世界时:', '01:00、2019年7月6日周六', '来源:', '周期文件', '趋势:', '无重要变化', '露点:', '21°C', '其他云层:', '大部分晴天 (1,219米)', '天气:', 'Showers of Light Rain', '原始:', 'ZUUU 060100Z VRB01MPS 6000 -SHRA FEW040TCU SCT040 24/21 Q1005 NOSIG', '上午9:00', '24.0°C', '1,005毫巴', '每小时3.60公里', '6.00公里', '部分多云 (1,219米)', '本地:', '09:00、2019年7月6日周六', '协调世界时:', '01:00、2019年7月6日周六', '来源:', 'USAF 每小时地面观测', '报告类型:', 'METAR 航空例行天气报告', '露点:', '21.0°C', '其他云层:', '大部分晴天 (1,219米)', '天气:', 'Showers of Light Rain', '上午10:00', '24°C', '1,005毫巴', '每小时3.60公里', '5.00公里', '部分多云 (1,219米)', '本地:', '10:00、2019年7月6日周六', '协调世界时:', '02:00、2019年7月6日周六', '来源:', '周期文件', '趋势:', '变化为', '露点:', '21°C', '其他云层:', '大部分晴天 (1,219米)', '天气:', 'Showers of Light Rain、Mist、Showers of Rain', '原始:', 'ZUUU 060200Z VRB01MPS 5000 -SHRA BR FEW040TCU SCT040 24/21 Q1005 BECMG TL0230 SHRA', '上午10:00', '24.0°C', '1,005毫巴', '每小时3.60公里', '5.00公里', '部分多云 (1,219米)', '本地:', '10:00、2019年7月6日周六', '协调世界时:', '02:00、2019年7月6日周六', '来源:', 'USAF 每小时地面观测', '报告类型:', 'METAR 航空例行天气报告', '露点:', '21.0°C', '其他云层:', '大部分晴天 (1,219米)', '天气:', 'Mist、Showers of Light Rain', '上午11:00', '24°C', '1,005毫巴', '每小时10.8公里, 西南', '5.00公里', '部分多云 (1,219米)', '本地:', '11:00、2019年7月6日周六', '协调世界时:', '03:00、2019年7月6日周六', '来源:', '周期文件', '趋势:', '无重要变化', '露点:', '22°C', '其他云层:', '大部分晴天 (1,219米)', '天气:', 'Mist', '原始:', 'ZUUU 060300Z 22003MPS 180V250 5000 BR FEW040TCU SCT040 24/22 Q1005 NOSIG', '上午11:00', '24.0°C', '1,005毫巴', '每小时10.8公里, 西南', '5.00公里', '部分多云 (1,219米)', '本地:', '11:00、2019年7月6日周六', '协调世界时:', '03:00、2019年7月6日周六', '来源:', 'USAF 每小时地面观测', '报告类型:', 'METAR 航空例行天气报告', '露点:', '22.0°C', '其他云层:', '大部分晴天 (1,219米)', '天气:', 'Mist', '下午12:00', '26°C', '1,004毫巴', '每小时10.8公里, 东', '6.00公里', '部分多云 (1,219米)', '本地:', '12:00、2019年7月6日周六', '协调世界时:', '04:00、2019年7月6日周六', '来源:', '周期文件', '趋势:', '无重要变化', '露点:', '22°C', '其他云层:', '大部分晴天 (335米)、大部分晴天 (1,219米)', '天气:', 'Showers of Light Rain', '原始:', 'ZUUU 060400Z 10003MPS 040V130 6000 -SHRA FEW011 FEW040TCU SCT040 26/22 Q1004 NOSIG', '下午12:00', '26.0°C', '1,004毫巴', '每小时10.8公里, 东', '6.00公里', '部分多云 (1,219米)', '本地:', '12:00、2019年7月6日周六', '协调世界时:', '04:00、2019年7月6日周六', '来源:', 'USAF 每小时地面观测', '报告类型:', 'METAR 航空例行天气报告', '露点:', '22.0°C', '其他云层:', '大部分晴天 (335米)、大部分晴天 (1,219米)', '天气:', 'Showers of Light Rain', '下午1:00', '26°C', '1,004毫巴', '每小时3.60公里', '5.00公里', '部分多云 (1,524米)', '本地:', '13:00、2019年7月6日周六', '协调世界时:', '05:00、2019年7月6日周六', '来源:', '周期文件', '趋势:', '无重要变化', '露点:', '21°C', '天气:', 'Mist', '原始:', 'ZUUU 060500Z VRB01MPS 5000 BR SCT050 26/21 Q1004 NOSIG', '下午1:00', '26.0°C', '1,004毫巴', '每小时3.60公里', '5.00公里', '部分多云 (1,524米)', '本地:', '13:00、2019年7月6日周六', '协调世界时:', '05:00、2019年7月6日周六', '来源:', 'USAF 每小时地面观测', '报告类型:', 'METAR 航空例行天气报告', '露点:', '21.0°C', '天气:', 'Mist', '下午2:00', '26°C', '1,004毫巴', '每小时0公里', '5.00公里', '部分多云 (1,311米)', '本地:', '14:00、2019年7月6日周六', '协调世界时:', '06:00、2019年7月6日周六', '来源:', '周期文件', '趋势:', '无重要变化', '露点:', '22°C', '其他云层:', '大部分晴天 (701米)', '天气:', 'Showers of Light Rain、Mist', '原始:', 'ZUUU 060600Z 00000MPS 5000 -SHRA BR FEW023 SCT043 26/22 Q1004 NOSIG', '下午2:00', '26.0°C', '1,004毫巴', '每小时0公里', '5.00公里', '部分多云 (1,311米)', '本地:', '14:00、2019年7月6日周六', '协调世界时:', '06:00、2019年7月6日周六', '来源:', 'USAF 每小时地面观测', '报告类型:', 'METAR 航空例行天气报告', '露点:', '22.0°C', '其他云层:', '大部分晴天 (701米)', '天气:', 'Mist、Showers of Light Rain', '下午3:00', '27°C', '1,004毫巴', '每小时3.60公里', '6.00公里', '部分多云 (1,524米)', '本地:', '15:00、2019年7月6日周六', '协调世界时:', '07:00、2019年7月6日周六', '来源:', '周期文件', '趋势:', '无重要变化', '露点:', '22°C', '其他云层:', '大部分晴天 (701米)', '原始:', 'ZUUU 060700Z VRB01MPS 6000 FEW023 SCT050 27/22 Q1004 NOSIG', '下午3:00', '27.0°C', '1,004毫巴', '每小时3.60公里', '6.00公里', '部分多云 (1,524米)', '本地:', '15:00、2019年7月6日周六', '协调世界时:', '07:00、2019年7月6日周六', '来源:', 'USAF 每小时地面观测', '报告类型:', 'METAR 航空例行天气报告', '露点:', '22.0°C', '其他云层:', '大部分晴天 (701米)', '下午4:00', '27°C', '1,004毫巴', '每小时10.8公里, 东北', '6.00公里', '部分多云 (1,524米)', '本地:', '16:00、2019年7月6日周六', '协调世界时:', '08:00、2019年7月6日周六', '来源:', '周期文件', '趋势:', '无重要变化', '露点:', '21°C', '其他云层:', '大部分晴天 (792米)', '原始:', 'ZUUU 060800Z 04003MPS 350V080 6000 FEW026 SCT050 27/21 Q1004 NOSIG', '下午4:00', '27.0°C', '1,004毫巴', '每小时10.8公里, 东北', '6.00公里', '部分多云 (1,524米)', '本地:', '16:00、2019年7月6日周六', '协调世界时:', '08:00、2019年7月6日周六', '来源:', 'USAF 每小时地面观测', '报告类型:', 'METAR 航空例行天气报告', '露点:', '21.0°C', '其他云层:', '大部分晴天 (792米)', '下午5:00', '27°C', '1,004毫巴', '每小时7.20公里, 东北', '7.00公里', '部分多云 (1,524米)', '本地:', '17:00、2019年7月6日周六', '协调世界时:', '09:00、2019年7月6日周六', '来源:', '周期文件', '趋势:', '无重要变化', '露点:', '20°C', '其他云层:', '大部分晴天 (701米)', '原始:', 'ZUUU 060900Z 04002MPS 320V100 7000 FEW023 SCT050 27/20 Q1004 NOSIG', '下午5:00', '27.0°C', '1,004毫巴', '每小时7.20公里, 东北', '7.00公里', '部分多云 (1,524米)', '本地:', '17:00、2019年7月6日周六', '协调世界时:', '09:00、2019年7月6日周六', '来源:', 'USAF 每小时地面观测', '报告类型:', 'METAR 航空例行天气报告', '露点:', '20.0°C', '其他云层:', '大部分晴天 (701米)', '下午6:00', '27°C', '1,003毫巴', '每小时0公里', '7.00公里', '部分多云 (1,524米)', '本地:', '18:00、2019年7月6日周六', '协调世界时:', '10:00、2019年7月6日周六', '来源:', '周期文件', '趋势:', '无重要变化', '露点:', '20°C', '其他云层:', '大部分晴天 (701米)', '原始:', 'ZUUU 061000Z 00000MPS 7000 FEW023 SCT050 27/20 Q1003 NOSIG', '下午6:00', '27.0°C', '1,003毫巴', '每小时0公里', '7.00公里', '部分多云 (1,524米)', '本地:', '18:00、2019年7月6日周六', '协调世界时:', '10:00、2019年7月6日周六', '来源:', 'USAF 每小时地面观测', '报告类型:', 'METAR 航空例行天气报告', '露点:', '20.0°C', '其他云层:', '大部分晴天 (701米)', '下午7:00', '26°C', '1,004毫巴', '每小时3.60公里, 西南', '7.00公里', '部分多云 (1,524米)', '本地:', '19:00、2019年7月6日周六', '协调世界时:', '11:00、2019年7月6日周六', '来源:', '周期文件', '趋势:', '无重要变化', '露点:', '22°C', '其他云层:', '大部分晴天 (701米)', '原始:', 'ZUUU 061100Z 23001MPS 7000 FEW023 SCT050 26/22 Q1004 NOSIG', '下午7:00', '26.0°C', '1,004毫巴', '每小时3.60公里, 西南', '7.00公里', '部分多云 (1,524米)', '本地:', '19:00、2019年7月6日周六', '协调世界时:', '11:00、2019年7月6日周六', '来源:', 'USAF 每小时地面观测', '报告类型:', 'METAR 航空例行天气报告', '露点:', '22.0°C', '其他云层:', '大部分晴天 (701米)', '下午8:00', '26°C', '1,004毫巴', '每小时3.60公里, 西南', '5.00公里', '部分多云 (1,524米)', '本地:', '20:00、2019年7月6日周六', '协调世界时:', '12:00、2019年7月6日周六', '来源:', '周期文件', '趋势:', '无重要变化', '露点:', '22°C', '其他云层:', '大部分晴天 (701米)', '天气:', 'Mist', '原始:', 'ZUUU 061200Z 23001MPS 5000 BR FEW023 SCT050 26/22 Q1004 NOSIG', '下午8:00', '26.0°C', '1,004毫巴', '每小时3.60公里, 西南', '5.00公里', '部分多云 (1,524米)', '本地:', '20:00、2019年7月6日周六', '协调世界时:', '12:00、2019年7月6日周六', '来源:', 'USAF 每小时地面观测', '报告类型:', 'METAR 航空例行天气报告', '露点:', '22.0°C', '其他云层:', '大部分晴天 (701米)', '天气:', 'Mist', '下午9:00', '25°C', '1,005毫巴', '每小时3.60公里', '5.00公里', '部分多云 (1,524米)', '本地:', '21:00、2019年7月6日周六', '协调世界时:', '13:00、2019年7月6日周六', '来源:', '周期文件', '趋势:', '无重要变化', '露点:', '22°C', '天气:', 'Mist', '原始:', 'ZUUU 061300Z VRB01MPS 5000 BR SCT050 25/22 Q1005 NOSIG', '下午9:00', '25.0°C', '1,005毫巴', '每小时3.60公里', '5.00公里', '部分多云 (1,524米)', '本地:', '21:00、2019年7月6日周六', '协调世界时:', '13:00、2019年7月6日周六', '来源:', 'USAF 每小时地面观测', '报告类型:', 'METAR 航空例行天气报告', '露点:', '22.0°C', '天气:', 'Mist', '下午10:00', '25°C', '1,005毫巴', '每小时3.60公里', '5.00公里', '部分多云 (1,524米)', '本地:', '22:00、2019年7月6日周六', '协调世界时:', '14:00、2019年7月6日周六', '来源:', '周期文件', '趋势:', '无重要变化', '露点:', '22°C', '天气:', 'Mist', '原始:', 'ZUUU 061400Z VRB01MPS 5000 BR SCT050 25/22 Q1005 NOSIG', '下午10:00', '25.0°C', '1,005毫巴', '每小时3.60公里', '5.00公里', '部分多云 (1,524米)', '本地:', '22:00、2019年7月6日周六', '协调世界时:', '14:00、2019年7月6日周六', '来源:', 'USAF 每小时地面观测', '报告类型:', 'METAR 航空例行天气报告', '露点:', '22.0°C', '天气:', 'Mist', '下午11:00', '25°C', '1,005毫巴', '每小时3.60公里', '4.50公里', '部分多云 (1,524米)', '本地:', '23:00、2019年7月6日周六', '协调世界时:', '15:00、2019年7月6日周六', '来源:', '周期文件', '趋势:', '无重要变化', '露点:', '22°C', '天气:', 'Mist', '原始:', 'ZUUU 061500Z VRB01MPS 4500 BR SCT050 25/22 Q1005 NOSIG', '下午11:00', '25.0°C', '1,005毫巴', '每小时3.60公里', '4.50公里', '部分多云 (1,524米)', '本地:', '23:00、2019年7月6日周六', '协调世界时:', '15:00、2019年7月6日周六', '来源:', 'USAF 每小时地面观测', '报告类型:', 'METAR 航空例行天气报告', '露点:', '22.0°C', '天气:', 'Mist']