['Mist', 'BR、IWC10', 'Mist', 'BR、IWC10', 'Mist', 'BR、IWC10', 'Mist', 'BR、IWC10', 'Mist', 'BR、IWC10', 'Mist', 'BR、IWC10', 'Mist', 'BR、IWC10', 'Mist', 'BR、IWC10', 'Mist', 'BR、IWC10', 'Mist', 'BR、IWC10', 'Mist', 'BR、IWC10', 'Mist', 'BR、IWC10', 'Mist', 'BR、IWC10', '上午12:00', '23°C', '1,009毫巴', '每小时0公里', '8.00公里', '部分多云 (1,524米)', '本地:', '00:00、2019年9月6日周五', '协调世界时:', '16:00、2019年9月5日周四', '来源:', '周期文件', '趋势:', '无重要变化', '露点:', '21°C', '原始:', 'ZUUU 051600Z 00000MPS 8000 SCT050 23/21 Q1009 NOSIG', '上午12:00', '23.0°C', '1,009毫巴', '每小时0公里', '8.00公里', '部分多云 (1,524米)', '本地:', '00:00、2019年9月6日周五', '协调世界时:', '16:00、2019年9月5日周四', '来源:', 'USAF 每小时地面观测', '报告类型:', 'METAR 航空例行天气报告', '露点:', '21.0°C', '上午1:00', '23°C', '1,008毫巴', '每小时3.60公里, 西南', '7.00公里', '部分多云 (1,524米)', '本地:', '01:00、2019年9月6日周五', '协调世界时:', '17:00、2019年9月5日周四', '来源:', '周期文件', '趋势:', '无重要变化', '露点:', '21°C', '原始:', 'ZUUU 051700Z 23001MPS 7000 SCT050 23/21 Q1008 NOSIG', '上午1:00', '23.0°C', '1,008毫巴', '每小时3.60公里, 西南', '7.00公里', '部分多云 (1,524米)', '本地:', '01:00、2019年9月6日周五', '协调世界时:', '17:00、2019年9月5日周四', '来源:', 'USAF 每小时地面观测', '报告类型:', 'METAR 航空例行天气报告', '露点:', '21.0°C', '上午2:00', '22°C', '1,008毫巴', '每小时0公里', '7.00公里', '部分多云 (1,524米)', '本地:', '02:00、2019年9月6日周五', '协调世界时:', '18:00、2019年9月5日周四', '来源:', '周期文件', '趋势:', '无重要变化', '露点:', '21°C', '其他云层:', '大部分晴天 (792米)', '原始:', 'ZUUU 051800Z 00000MPS 7000 FEW026 SCT050 22/21 Q1008 NOSIG', '上午2:00', '22.0°C', '1,008毫巴', '每小时0公里', '7.00公里', '部分多云 (1,524米)', '本地:', '02:00、2019年9月6日周五', '协调世界时:', '18:00、2019年9月5日周四', '来源:', 'USAF 每小时地面观测', '报告类型:', 'METAR 航空例行天气报告', '露点:', '21.0°C', '其他云层:', '大部分晴天 (792米)', '上午3:00', '22°C', '1,007毫巴', '每小时0公里', '6.00公里', '部分多云 (1,524米)', '本地:', '03:00、2019年9月6日周五', '协调世界时:', '19:00、2019年9月5日周四', '来源:', '周期文件', '趋势:', '无重要变化', '露点:', '21°C', '原始:', 'ZUUU 051900Z 00000MPS 6000 SCT050 22/21 Q1007 NOSIG', '上午3:00', '22.0°C', '1,007毫巴', '每小时0公里', '6.00公里', '部分多云 (1,524米)', '本地:', '03:00、2019年9月6日周五', '协调世界时:', '19:00、2019年9月5日周四', '来源:', 'USAF 每小时地面观测', '报告类型:', 'METAR 航空例行天气报告', '露点:', '21.0°C', '上午4:00', '21°C', '1,007毫巴', '每小时0公里', '6.00公里', '部分多云 (1,524米)', '本地:', '04:00、2019年9月6日周五', '协调世界时:', '20:00、2019年9月5日周四', '来源:', '周期文件', '趋势:', '无重要变化', '露点:', '20°C', '原始:', 'ZUUU 052000Z 00000MPS 6000 SCT050 21/20 Q1007 NOSIG', '上午4:00', '21.0°C', '1,007毫巴', '每小时0公里', '6.00公里', '部分多云 (1,524米)', '本地:', '04:00、2019年9月6日周五', '协调世界时:', '20:00、2019年9月5日周四', '来源:', 'USAF 每小时地面观测', '报告类型:', 'METAR 航空例行天气报告', '露点:', '20.0°C', '上午5:00', '22°C', '1,007毫巴', '每小时0公里', '5.00公里', '大部分晴天 (1,524米)', '本地:', '05:00、2019年9月6日周五', '协调世界时:', '21:00、2019年9月5日周四', '来源:', '周期文件', '趋势:', '无重要变化', '露点:', '21°C', '天气:', 'Mist', '原始:', 'ZUUU 052100Z 00000MPS 5000 BR FEW050 22/21 Q1007 NOSIG', '上午5:00', '22.0°C', '1,007毫巴', '每小时0公里', '5.00公里', '大部分晴天 (1,524米)', '本地:', '05:00、2019年9月6日周五', '协调世界时:', '21:00、2019年9月5日周四', '来源:', 'USAF 每小时地面观测', '报告类型:', 'METAR 航空例行天气报告', '露点:', '21.0°C', '天气:', 'Mist', '上午6:00', '23°C', '1,007毫巴', '每小时0公里', '4.50公里', '部分多云 (1,219米)', '本地:', '06:00、2019年9月6日周五', '协调世界时:', '22:00、2019年9月5日周四', '来源:', '周期文件', '趋势:', '无重要变化', '露点:', '21°C', '天气:', 'Mist', '原始:', 'ZUUU 052200Z 00000MPS 4500 BR SCT040 23/21 Q1007 NOSIG', '上午6:00', '23.0°C', '1,007毫巴', '每小时0公里', '4.50公里', '部分多云 (1,219米)', '本地:', '06:00、2019年9月6日周五', '协调世界时:', '22:00、2019年9月5日周四', '来源:', 'USAF 每小时地面观测', '报告类型:', 'METAR 航空例行天气报告', '露点:', '21.0°C', '天气:', 'Mist', '上午7:00', '22°C', '1,008毫巴', '每小时0公里', '2.00公里', '部分多云 (1,219米)', '本地:', '07:00、2019年9月6日周五', '协调世界时:', '23:00、2019年9月5日周四', '来源:', '周期文件', '趋势:', '变化为', '露点:', '20°C', '天气:', 'Mist', '原始:', 'ZUUU 052300Z 00000MPS 2000 BR SCT040 22/20 Q1008 BECMG TL0030 3000', '上午7:00', '22.0°C', '1,008毫巴', '每小时0公里', '2.00公里', '部分多云 (1,219米)', '本地:', '07:00、2019年9月6日周五', '协调世界时:', '23:00、2019年9月5日周四', '来源:', 'USAF 每小时地面观测', '报告类型:', 'METAR 航空例行天气报告', '露点:', '20.0°C', '天气:', 'Mist', '上午8:00', '23°C', '1,008毫巴', '每小时0公里', '2.20公里', '部分多云 (1,219米)', '本地:', '08:00、2019年9月6日周五', '协调世界时:', '00:00、2019年9月6日周五', '来源:', '周期文件', '趋势:', '变化为', '露点:', '21°C', '其他云层:', '大部分晴天 (335米)', '天气:', 'Mist', '原始:', 'ZUUU 060000Z 00000MPS 2200 BR FEW011 SCT040 23/21 Q1008 BECMG TL0120 3000', '上午8:00', '23.0°C', '1,008毫巴', '每小时0公里', '2.20公里', '部分多云 (1,219米)', '本地:', '08:00、2019年9月6日周五', '协调世界时:', '00:00、2019年9月6日周五', '来源:', 'USAF 每小时地面观测', '报告类型:', 'METAR 航空例行天气报告', '露点:', '21.0°C', '其他云层:', '大部分晴天 (335米)', '天气:', 'Mist', '上午9:00', '24°C', '1,008毫巴', '每小时0公里', '2.50公里', '部分多云 (1,219米)', '本地:', '09:00、2019年9月6日周五', '协调世界时:', '01:00、2019年9月6日周五', '来源:', '周期文件', '趋势:', '变化为', '露点:', '21°C', '其他云层:', '大部分晴天 (610米)', '天气:', 'Mist', '原始:', 'ZUUU 060100Z 00000MPS 2500 BR FEW020 SCT040 24/21 Q1008 BECMG TL0130 3000', '上午9:00', '24.0°C', '1,008毫巴', '每小时0公里', '2.50公里', '部分多云 (1,219米)', '本地:', '09:00、2019年9月6日周五', '协调世界时:', '01:00、2019年9月6日周五', '来源:', 'USAF 每小时地面观测', '报告类型:', 'METAR 航空例行天气报告', '露点:', '21.0°C', '其他云层:', '大部分晴天 (610米)', '天气:', 'Mist', '上午10:00', '24°C', '1,009毫巴', '每小时3.60公里', '5.00公里', '大部分多云 (1,006米)', '本地:', '10:00、2019年9月6日周五', '协调世界时:', '02:00、2019年9月6日周五', '来源:', '周期文件', '趋势:', '无重要变化', '露点:', '20°C', '其他云层:', '部分多云 (244米)', '天气:', 'Mist', '原始:', 'ZUUU 060200Z VRB01MPS 5000 BR SCT008 BKN033 24/20 Q1009 NOSIG', '上午10:00', '24.0°C', '1,009毫巴', '每小时3.60公里', '5.00公里', '大部分多云 (1,006米)', '本地:', '10:00、2019年9月6日周五', '协调世界时:', '02:00、2019年9月6日周五', '来源:', 'USAF 每小时地面观测', '报告类型:', 'METAR 航空例行天气报告', '露点:', '20.0°C', '其他云层:', '部分多云 (244米)', '天气:', 'Mist', '上午11:00', '24°C', '1,009毫巴', '每小时7.20公里, 北', '5.00公里', '大部分多云 (1,006米)', '本地:', '11:00、2019年9月6日周五', '协调世界时:', '03:00、2019年9月6日周五', '来源:', '周期文件', '趋势:', '无重要变化', '露点:', '21°C', '其他云层:', '部分多云 (274米)', '天气:', 'Mist', '原始:', 'ZUUU 060300Z 36002MPS 320V030 5000 BR SCT009 BKN033 24/21 Q1009 NOSIG', '上午11:00', '24.0°C', '1,009毫巴', '每小时7.20公里, 北', '5.00公里', '大部分多云 (1,006米)', '本地:', '11:00、2019年9月6日周五', '协调世界时:', '03:00、2019年9月6日周五', '来源:', 'USAF 每小时地面观测', '报告类型:', 'METAR 航空例行天气报告', '露点:', '21.0°C', '其他云层:', '部分多云 (274米)', '天气:', 'Mist', '下午12:00', '25°C', '1,008毫巴', '每小时7.20公里, 北', '5.00公里', '大部分多云 (914米)', '本地:', '12:00、2019年9月6日周五', '协调世界时:', '04:00、2019年9月6日周五', '来源:', '周期文件', '趋势:', '无重要变化', '露点:', '21°C', '其他云层:', '部分多云 (274米)', '天气:', 'Mist', '原始:', 'ZUUU 060400Z 01002MPS 330V040 5000 BR SCT009 BKN030 25/21 Q1008 NOSIG', '下午12:00', '25.0°C', '1,008毫巴', '每小时7.20公里, 北', '5.00公里', '大部分多云 (914米)', '本地:', '12:00、2019年9月6日周五', '协调世界时:', '04:00、2019年9月6日周五', '来源:', 'USAF 每小时地面观测', '报告类型:', 'METAR 航空例行天气报告', '露点:', '21.0°C', '其他云层:', '部分多云 (274米)', '天气:', 'Mist', '下午1:00', '25°C', '1,007毫巴', '每小时7.20公里, 北', '5.00公里', '大部分多云 (914米)', '本地:', '13:00、2019年9月6日周五', '协调世界时:', '05:00、2019年9月6日周五', '来源:', '周期文件', '趋势:', '无重要变化', '露点:', '21°C', '其他云层:', '部分多云 (305米)', '天气:', 'Mist', '原始:', 'ZUUU 060500Z 01002MPS 330V080 5000 BR SCT010 BKN030 25/21 Q1007 NOSIG', '下午1:00', '25.0°C', '1,007毫巴', '每小时7.20公里, 北', '5.00公里', '大部分多云 (914米)', '本地:', '13:00、2019年9月6日周五', '协调世界时:', '05:00、2019年9月6日周五', '来源:', 'USAF 每小时地面观测', '报告类型:', 'METAR 航空例行天气报告', '露点:', '21.0°C', '其他云层:', '部分多云 (305米)', '天气:', 'Mist', '下午2:00', '26°C', '1,007毫巴', '每小时7.20公里, 东北', '6.00公里', '大部分多云 (914米)', '本地:', '14:00、2019年9月6日周五', '协调世界时:', '06:00、2019年9月6日周五', '来源:', '周期文件', '趋势:', '无重要变化', '露点:', '20°C', '其他云层:', '部分多云 (305米)', '原始:', 'ZUUU 060600Z 04002MPS 350V090 6000 SCT010 BKN030 26/20 Q1007 NOSIG', '下午2:00', '26.0°C', '1,007毫巴', '每小时7.20公里, 东北', '6.00公里', '大部分多云 (914米)', '本地:', '14:00、2019年9月6日周五', '协调世界时:', '06:00、2019年9月6日周五', '来源:', 'USAF 每小时地面观测', '报告类型:', 'METAR 航空例行天气报告', '露点:', '20.0°C', '其他云层:', '部分多云 (305米)', '下午3:00', '27°C', '1,006毫巴', '每小时7.20公里, 东北', '6.00公里', '部分多云 (792米)', '本地:', '15:00、2019年9月6日周五', '协调世界时:', '07:00、2019年9月6日周五', '来源:', '周期文件', '趋势:', '无重要变化', '露点:', '20°C', '其他云层:', '大部分晴天 (366米)', '原始:', 'ZUUU 060700Z 06002MPS 330V140 6000 FEW012 SCT026 27/20 Q1006 NOSIG', '下午3:00', '27.0°C', '1,006毫巴', '每小时7.20公里, 东北', '6.00公里', '部分多云 (792米)', '本地:', '15:00、2019年9月6日周五', '协调世界时:', '07:00、2019年9月6日周五', '来源:', 'USAF 每小时地面观测', '报告类型:', 'METAR 航空例行天气报告', '露点:', '20.0°C', '其他云层:', '大部分晴天 (366米)', '下午4:00', '26°C', '1,005毫巴', '每小时7.20公里, 东', '5.00公里', '部分多云 (792米)', '本地:', '16:00、2019年9月6日周五', '协调世界时:', '08:00、2019年9月6日周五', '来源:', '周期文件', '趋势:', '无重要变化', '露点:', '21°C', '其他云层:', '大部分晴天 (366米)、大部分晴天 (792米)', '天气:', 'Mist', '原始:', 'ZUUU 060800Z 10002MPS 040V150 5000 BR FEW012 FEW026TCU SCT026 26/21 Q1005 NOSIG', '下午4:00', '26.0°C', '1,005毫巴', '每小时7.20公里, 东', '5.00公里', '部分多云 (792米)', '本地:', '16:00、2019年9月6日周五', '协调世界时:', '08:00、2019年9月6日周五', '来源:', 'USAF 每小时地面观测', '报告类型:', 'METAR 航空例行天气报告', '露点:', '21.0°C', '其他云层:', '大部分晴天 (366米)、大部分晴天 (792米)', '天气:', 'Mist', '下午5:00', '26°C', '1,005毫巴', '每小时10.8公里, 东', '5.00公里', '部分多云 (792米)', '本地:', '17:00、2019年9月6日周五', '协调世界时:', '09:00、2019年9月6日周五', '来源:', '周期文件', '趋势:', '无重要变化', '露点:', '21°C', '其他云层:', '大部分晴天 (792米)', '天气:', 'Mist', '原始:', 'ZUUU 060900Z 08003MPS 010V110 5000 BR FEW026TCU SCT026 26/21 Q1005 NOSIG', '下午5:00', '26.0°C', '1,005毫巴', '每小时10.8公里, 东', '5.00公里', '部分多云 (792米)', '本地:', '17:00、2019年9月6日周五', '协调世界时:', '09:00、2019年9月6日周五', '来源:', 'USAF 每小时地面观测', '报告类型:', 'METAR 航空例行天气报告', '露点:', '21.0°C', '其他云层:', '大部分晴天 (792米)', '天气:', 'Mist', '下午6:00', '26°C', '1,005毫巴', '每小时7.20公里, 东北', '5.00公里', '部分多云 (792米)', '本地:', '18:00、2019年9月6日周五', '协调世界时:', '10:00、2019年9月6日周五', '来源:', '周期文件', '趋势:', '无重要变化', '露点:', '21°C', '其他云层:', '大部分晴天 (792米)', '天气:', 'Mist', '原始:', 'ZUUU 061000Z 05002MPS 010V100 5000 BR FEW026TCU SCT026 26/21 Q1005 NOSIG', '下午6:00', '26.0°C', '1,005毫巴', '每小时7.20公里, 东北', '5.00公里', '部分多云 (792米)', '本地:', '18:00、2019年9月6日周五', '协调世界时:', '10:00、2019年9月6日周五', '来源:', 'USAF 每小时地面观测', '报告类型:', 'METAR 航空例行天气报告', '露点:', '21.0°C', '其他云层:', '大部分晴天 (792米)', '天气:', 'Mist', '下午7:00', '26°C', '1,005毫巴', '每小时10.8公里, 东北', '5.00公里', '部分多云 (792米)', '本地:', '19:00、2019年9月6日周五', '协调世界时:', '11:00、2019年9月6日周五', '来源:', '周期文件', '趋势:', '无重要变化', '露点:', '21°C', '其他云层:', '大部分晴天 (792米)', '天气:', 'Mist', '原始:', 'ZUUU 061100Z 05003MPS 030V090 5000 BR FEW026TCU SCT026 26/21 Q1005 NOSIG', '下午7:00', '26.0°C', '1,005毫巴', '每小时10.8公里, 东北', '5.00公里', '部分多云 (792米)', '本地:', '19:00、2019年9月6日周五', '协调世界时:', '11:00、2019年9月6日周五', '来源:', 'USAF 每小时地面观测', '报告类型:', 'METAR 航空例行天气报告', '露点:', '21.0°C', '其他云层:', '大部分晴天 (792米)', '天气:', 'Mist', '下午8:00', '26°C', '1,006毫巴', '每小时7.20公里, 东北', '6.00公里', '部分多云 (792米)', '本地:', '20:00、2019年9月6日周五', '协调世界时:', '12:00、2019年9月6日周五', '来源:', '周期文件', '趋势:', '无重要变化', '露点:', '21°C', '原始:', 'ZUUU 061200Z 05002MPS 360V120 6000 SCT026 26/21 Q1006 NOSIG', '下午8:00', '26.0°C', '1,006毫巴', '每小时7.20公里, 东北', '6.00公里', '部分多云 (792米)', '本地:', '20:00、2019年9月6日周五', '协调世界时:', '12:00、2019年9月6日周五', '来源:', 'USAF 每小时地面观测', '报告类型:', 'METAR 航空例行天气报告', '露点:', '21.0°C', '下午9:00', '25°C', '1,007毫巴', '每小时3.60公里', '6.00公里', '部分多云 (1,219米)', '本地:', '21:00、2019年9月6日周五', '协调世界时:', '13:00、2019年9月6日周五', '来源:', '周期文件', '趋势:', '无重要变化', '露点:', '21°C', '原始:', 'ZUUU 061300Z VRB01MPS 6000 SCT040 25/21 Q1007 NOSIG', '下午9:00', '25.0°C', '1,007毫巴', '每小时3.60公里', '6.00公里', '部分多云 (1,219米)', '本地:', '21:00、2019年9月6日周五', '协调世界时:', '13:00、2019年9月6日周五', '来源:', 'USAF 每小时地面观测', '报告类型:', 'METAR 航空例行天气报告', '露点:', '21.0°C', '下午10:00', '25°C', '1,007毫巴', '每小时0公里', '6.00公里', '部分多云 (1,006米)', '本地:', '22:00、2019年9月6日周五', '协调世界时:', '14:00、2019年9月6日周五', '来源:', '周期文件', '趋势:', '无重要变化', '露点:', '21°C', '原始:', 'ZUUU 061400Z 00000MPS 6000 SCT033 25/21 Q1007 NOSIG', '下午10:00', '25.0°C', '1,007毫巴', '每小时0公里', '6.00公里', '部分多云 (1,006米)', '本地:', '22:00、2019年9月6日周五', '协调世界时:', '14:00、2019年9月6日周五', '来源:', 'USAF 每小时地面观测', '报告类型:', 'METAR 航空例行天气报告', '露点:', '21.0°C', '下午11:00', '24°C', '1,007毫巴', '每小时0公里', '6.00公里', '部分多云 (1,219米)', '本地:', '23:00、2019年9月6日周五', '协调世界时:', '15:00、2019年9月6日周五', '来源:', '周期文件', '趋势:', '无重要变化', '露点:', '21°C', '原始:', 'ZUUU 061500Z 00000MPS 6000 SCT040 24/21 Q1007 NOSIG']