['上午12:00', '26°C', '1,005毫巴', '每小时3.60公里', '≥ 10.00公里', '晴空万里', '本地:', '00:00、2019年8月11日周日', '协调世界时:', '16:00、2019年8月10日周六', '来源:', '周期文件', '趋势:', '无重要变化', '露点:', '22°C', '晴空万里:', '真', '原始:', 'ZUUU 101600Z VRB01MPS CAVOK 26/22 Q1005 NOSIG', '上午12:00', '26.0°C', '1,005毫巴', '每小时3.60公里', '9.90公里', '晴空万里', '本地:', '00:00、2019年8月11日周日', '协调世界时:', '16:00、2019年8月10日周六', '来源:', 'USAF 每小时地面观测', '报告类型:', 'METAR 航空例行天气报告', '露点:', '22.0°C', '晴空万里:', '真', '上午1:00', '25°C', '1,004毫巴', '每小时3.60公里, 西南', '≥ 10.00公里', '晴空万里', '本地:', '01:00、2019年8月11日周日', '协调世界时:', '17:00、2019年8月10日周六', '来源:', '周期文件', '趋势:', '无重要变化', '露点:', '22°C', '晴空万里:', '真', '原始:', 'ZUUU 101700Z 22001MPS CAVOK 25/22 Q1004 NOSIG', '上午1:00', '25.0°C', '1,004毫巴', '每小时3.60公里, 西南', '9.90公里', '晴空万里', '本地:', '01:00、2019年8月11日周日', '协调世界时:', '17:00、2019年8月10日周六', '来源:', 'USAF 每小时地面观测', '报告类型:', 'METAR 航空例行天气报告', '露点:', '22.0°C', '晴空万里:', '真', '上午2:00', '24°C', '1,004毫巴', '每小时7.20公里, 西南', '≥ 10.00公里', '晴空万里', '本地:', '02:00、2019年8月11日周日', '协调世界时:', '18:00、2019年8月10日周六', '来源:', '周期文件', '趋势:', '无重要变化', '露点:', '21°C', '晴空万里:', '真', '原始:', 'ZUUU 101800Z 21002MPS CAVOK 24/21 Q1004 NOSIG', '上午2:00', '24.0°C', '1,004毫巴', '每小时7.20公里, 西南', '9.90公里', '晴空万里', '本地:', '02:00、2019年8月11日周日', '协调世界时:', '18:00、2019年8月10日周六', '来源:', 'USAF 每小时地面观测', '报告类型:', 'METAR 航空例行天气报告', '露点:', '21.0°C', '晴空万里:', '真', '上午3:00', '24°C', '1,004毫巴', '每小时3.60公里, 西南', '≥ 10.00公里', '晴空万里', '本地:', '03:00、2019年8月11日周日', '协调世界时:', '19:00、2019年8月10日周六', '来源:', '周期文件', '趋势:', '无重要变化', '露点:', '22°C', '晴空万里:', '真', '原始:', 'ZUUU 101900Z 22001MPS CAVOK 24/22 Q1004 NOSIG', '上午3:00', '24.0°C', '1,004毫巴', '每小时3.60公里, 西南', '9.90公里', '晴空万里', '本地:', '03:00、2019年8月11日周日', '协调世界时:', '19:00、2019年8月10日周六', '来源:', 'USAF 每小时地面观测', '报告类型:', 'METAR 航空例行天气报告', '露点:', '22.0°C', '晴空万里:', '真', '上午4:00', '23°C', '1,003毫巴', '每小时0公里', '≥ 10.00公里', '晴空万里', '本地:', '04:00、2019年8月11日周日', '协调世界时:', '20:00、2019年8月10日周六', '来源:', '周期文件', '趋势:', '无重要变化', '露点:', '21°C', '晴空万里:', '真', '原始:', 'ZUUU 102000Z 00000MPS CAVOK 23/21 Q1003 NOSIG', '上午4:00', '23.0°C', '1,003毫巴', '每小时0公里', '9.90公里', '晴空万里', '本地:', '04:00、2019年8月11日周日', '协调世界时:', '20:00、2019年8月10日周六', '来源:', 'USAF 每小时地面观测', '报告类型:', 'METAR 航空例行天气报告', '露点:', '21.0°C', '晴空万里:', '真', '上午5:00', '22°C', '1,003毫巴', '每小时7.20公里, 南', '≥ 10.00公里', '晴空万里', '本地:', '05:00、2019年8月11日周日', '协调世界时:', '21:00、2019年8月10日周六', '来源:', '周期文件', '趋势:', '无重要变化', '露点:', '20°C', '晴空万里:', '真', '原始:', 'ZUUU 102100Z 20002MPS CAVOK 22/20 Q1003 NOSIG', '上午5:00', '22.0°C', '1,003毫巴', '每小时7.20公里, 南', '9.90公里', '晴空万里', '本地:', '05:00、2019年8月11日周日', '协调世界时:', '21:00、2019年8月10日周六', '来源:', 'USAF 每小时地面观测', '报告类型:', 'METAR 航空例行天气报告', '露点:', '20.0°C', '晴空万里:', '真', '上午6:00', '22°C', '1,003毫巴', '每小时0公里', '≥ 10.00公里', '晴空万里', '本地:', '06:00、2019年8月11日周日', '协调世界时:', '22:00、2019年8月10日周六', '来源:', '周期文件', '趋势:', '无重要变化', '露点:', '20°C', '晴空万里:', '真', '原始:', 'ZUUU 102200Z 00000MPS CAVOK 22/20 Q1003 NOSIG', '上午6:00', '22.0°C', '1,003毫巴', '每小时0公里', '9.90公里', '晴空万里', '本地:', '06:00、2019年8月11日周日', '协调世界时:', '22:00、2019年8月10日周六', '来源:', 'USAF 每小时地面观测', '报告类型:', 'METAR 航空例行天气报告', '露点:', '20.0°C', '晴空万里:', '真', '上午7:00', '23°C', '1,003毫巴', '每小时0公里', '≥ 10.00公里', '晴空万里', '本地:', '07:00、2019年8月11日周日', '协调世界时:', '23:00、2019年8月10日周六', '来源:', '周期文件', '趋势:', '无重要变化', '露点:', '21°C', '晴空万里:', '真', '原始:', 'ZUUU 102300Z 00000MPS CAVOK 23/21 Q1003 NOSIG', '上午7:00', '23.0°C', '1,003毫巴', '每小时0公里', '9.90公里', '晴空万里', '本地:', '07:00、2019年8月11日周日', '协调世界时:', '23:00、2019年8月10日周六', '来源:', 'USAF 每小时地面观测', '报告类型:', 'METAR 航空例行天气报告', '露点:', '21.0°C', '晴空万里:', '真', '上午8:00', '26°C', '1,003毫巴', '每小时0公里', '≥ 10.00公里', '晴空万里', '本地:', '08:00、2019年8月11日周日', '协调世界时:', '00:00、2019年8月11日周日', '来源:', '周期文件', '趋势:', '无重要变化', '露点:', '22°C', '晴空万里:', '真', '原始:', 'ZUUU 110000Z 00000MPS CAVOK 26/22 Q1003 NOSIG', '上午8:00', '26.0°C', '1,003毫巴', '每小时0公里', '9.90公里', '晴空万里', '本地:', '08:00、2019年8月11日周日', '协调世界时:', '00:00、2019年8月11日周日', '来源:', 'USAF 每小时地面观测', '报告类型:', 'METAR 航空例行天气报告', '露点:', '22.0°C', '晴空万里:', '真', '上午9:00', '28°C', '1,004毫巴', '每小时3.60公里, 西南', '≥ 10.00公里', '晴空万里', '本地:', '09:00、2019年8月11日周日', '协调世界时:', '01:00、2019年8月11日周日', '来源:', '周期文件', '趋势:', '无重要变化', '露点:', '21°C', '晴空万里:', '真', '原始:', 'ZUUU 110100Z 21001MPS CAVOK 28/21 Q1004 NOSIG', '上午9:00', '28.0°C', '1,004毫巴', '每小时3.60公里, 西南', '9.90公里', '晴空万里', '本地:', '09:00、2019年8月11日周日', '协调世界时:', '01:00、2019年8月11日周日', '来源:', 'USAF 每小时地面观测', '报告类型:', 'METAR 航空例行天气报告', '露点:', '21.0°C', '晴空万里:', '真', '上午10:00', '30°C', '1,004毫巴', '每小时3.60公里', '≥ 10.00公里', '晴空万里', '本地:', '10:00、2019年8月11日周日', '协调世界时:', '02:00、2019年8月11日周日', '来源:', '周期文件', '趋势:', '无重要变化', '露点:', '20°C', '晴空万里:', '真', '原始:', 'ZUUU 110200Z VRB01MPS CAVOK 30/20 Q1004 NOSIG', '上午10:00', '30.0°C', '1,004毫巴', '每小时3.60公里', '9.90公里', '晴空万里', '本地:', '10:00、2019年8月11日周日', '协调世界时:', '02:00、2019年8月11日周日', '来源:', 'USAF 每小时地面观测', '报告类型:', 'METAR 航空例行天气报告', '露点:', '20.0°C', '晴空万里:', '真', '上午11:00', '31°C', '1,004毫巴', '每小时10.8公里, 南', '≥ 10.00公里', '晴空万里', '本地:', '11:00、2019年8月11日周日', '协调世界时:', '03:00、2019年8月11日周日', '来源:', '周期文件', '趋势:', '无重要变化', '露点:', '20°C', '晴空万里:', '真', '原始:', 'ZUUU 110300Z 20003MPS 170V230 CAVOK 31/20 Q1004 NOSIG', '上午11:00', '31.0°C', '1,004毫巴', '每小时10.8公里, 南', '9.90公里', '晴空万里', '本地:', '11:00、2019年8月11日周日', '协调世界时:', '03:00、2019年8月11日周日', '来源:', 'USAF 每小时地面观测', '报告类型:', 'METAR 航空例行天气报告', '露点:', '20.0°C', '晴空万里:', '真', '下午12:00', '33°C', '1,003毫巴', '每小时7.20公里', '10.00公里', '大部分晴天 (701米)', '本地:', '12:00、2019年8月11日周日', '协调世界时:', '04:00、2019年8月11日周日', '来源:', '周期文件', '趋势:', '无重要变化', '露点:', '20°C', '原始:', 'ZUUU 110400Z VRB02MPS 9999 FEW023 33/20 Q1003 NOSIG', '下午12:00', '33.0°C', '1,003毫巴', '每小时7.20公里', '10.00公里', '大部分晴天 (701米)', '本地:', '12:00、2019年8月11日周日', '协调世界时:', '04:00、2019年8月11日周日', '来源:', 'USAF 每小时地面观测', '报告类型:', 'METAR 航空例行天气报告', '露点:', '20.0°C', '下午1:00', '34°C', '1,002毫巴', '每小时7.20公里, 西南', '10.00公里', '大部分晴天 (701米)', '本地:', '13:00、2019年8月11日周日', '协调世界时:', '05:00、2019年8月11日周日', '来源:', '周期文件', '趋势:', '无重要变化', '露点:', '19°C', '原始:', 'ZUUU 110500Z 24002MPS 200V320 9999 FEW023 34/19 Q1002 NOSIG', '下午1:00', '34.0°C', '1,002毫巴', '每小时7.20公里, 西南', '10.00公里', '大部分晴天 (701米)', '本地:', '13:00、2019年8月11日周日', '协调世界时:', '05:00、2019年8月11日周日', '来源:', 'USAF 每小时地面观测', '报告类型:', 'METAR 航空例行天气报告', '露点:', '19.0°C', '下午2:00', '35°C', '1,001毫巴', '每小时7.20公里, 西南', '10.00公里', '大部分晴天 (701米)', '本地:', '14:00、2019年8月11日周日', '协调世界时:', '06:00、2019年8月11日周日', '来源:', '周期文件', '趋势:', '无重要变化', '露点:', '19°C', '原始:', 'ZUUU 110600Z 21002MPS 140V260 9999 FEW023 35/19 Q1001 NOSIG', '下午2:00', '35.0°C', '1,001毫巴', '每小时7.20公里, 西南', '10.00公里', '大部分晴天 (701米)', '本地:', '14:00、2019年8月11日周日', '协调世界时:', '06:00、2019年8月11日周日', '来源:', 'USAF 每小时地面观测', '报告类型:', 'METAR 航空例行天气报告', '露点:', '19.0°C', '下午3:00', '36°C', '1,001毫巴', '每小时7.20公里, 西南', '10.00公里', '大部分晴天 (914米)', '本地:', '15:00、2019年8月11日周日', '协调世界时:', '07:00、2019年8月11日周日', '来源:', '周期文件', '趋势:', '无重要变化', '露点:', '21°C', '原始:', 'ZUUU 110700Z 24002MPS 180V350 9999 FEW030 36/21 Q1001 NOSIG', '下午3:00', '36.0°C', '1,001毫巴', '每小时7.20公里, 西南', '10.00公里', '大部分晴天 (914米)', '本地:', '15:00、2019年8月11日周日', '协调世界时:', '07:00、2019年8月11日周日', '来源:', 'USAF 每小时地面观测', '报告类型:', 'METAR 航空例行天气报告', '露点:', '21.0°C', '下午4:00', '36°C', '1,000毫巴', '每小时10.8公里, 西南', '10.00公里', '大部分晴天 (914米)', '本地:', '16:00、2019年8月11日周日', '协调世界时:', '08:00、2019年8月11日周日', '来源:', '周期文件', '趋势:', '无重要变化', '露点:', '18°C', '原始:', 'ZUUU 110800Z 22003MPS 190V260 9999 FEW030 36/18 Q1000 NOSIG', '下午4:00', '36.0°C', '1,000毫巴', '每小时10.8公里, 西南', '10.00公里', '大部分晴天 (914米)', '本地:', '16:00、2019年8月11日周日', '协调世界时:', '08:00、2019年8月11日周日', '来源:', 'USAF 每小时地面观测', '报告类型:', 'METAR 航空例行天气报告', '露点:', '18.0°C', '下午5:00', '36°C', '1,000毫巴', '每小时7.20公里', '10.00公里', '大部分晴天 (914米)', '本地:', '17:00、2019年8月11日周日', '协调世界时:', '09:00、2019年8月11日周日', '来源:', '周期文件', '趋势:', '无重要变化', '露点:', '18°C', '原始:', 'ZUUU 110900Z VRB02MPS 9999 FEW030 36/18 Q1000 NOSIG', '下午5:00', '36.0°C', '1,000毫巴', '每小时7.20公里', '10.00公里', '大部分晴天 (914米)', '本地:', '17:00、2019年8月11日周日', '协调世界时:', '09:00、2019年8月11日周日', '来源:', 'USAF 每小时地面观测', '报告类型:', 'METAR 航空例行天气报告', '露点:', '18.0°C', '下午6:00', '36°C', '999.0毫巴', '每小时7.20公里, 西南', '≥ 10.00公里', '晴空万里', '本地:', '18:00、2019年8月11日周日', '协调世界时:', '10:00、2019年8月11日周日', '来源:', '周期文件', '趋势:', '无重要变化', '露点:', '19°C', '晴空万里:', '真', '原始:', 'ZUUU 111000Z 22002MPS 180V260 CAVOK 36/19 Q0999 NOSIG', '下午6:00', '36.0°C', '999.0毫巴', '每小时7.20公里, 西南', '9.90公里', '晴空万里', '本地:', '18:00、2019年8月11日周日', '协调世界时:', '10:00、2019年8月11日周日', '来源:', 'USAF 每小时地面观测', '报告类型:', 'METAR 航空例行天气报告', '露点:', '19.0°C', '晴空万里:', '真', '下午7:00', '34°C', '1,000毫巴', '每小时7.20公里, 西南', '≥ 10.00公里', '晴空万里', '本地:', '19:00、2019年8月11日周日', '协调世界时:', '11:00、2019年8月11日周日', '来源:', '周期文件', '趋势:', '无重要变化', '露点:', '21°C', '晴空万里:', '真', '原始:', 'ZUUU 111100Z 21002MPS CAVOK 34/21 Q1000 NOSIG', '下午7:00', '34.0°C', '1,000毫巴', '每小时7.20公里, 西南', '9.90公里', '晴空万里', '本地:', '19:00、2019年8月11日周日', '协调世界时:', '11:00、2019年8月11日周日', '来源:', 'USAF 每小时地面观测', '报告类型:', 'METAR 航空例行天气报告', '露点:', '21.0°C', '晴空万里:', '真', '下午8:00', '32°C', '1,000毫巴', '每小时7.20公里, 西南', '≥ 10.00公里', '晴空万里', '本地:', '20:00、2019年8月11日周日', '协调世界时:', '12:00、2019年8月11日周日', '来源:', '周期文件', '趋势:', '无重要变化', '露点:', '19°C', '晴空万里:', '真', '原始:', 'ZUUU 111200Z 22002MPS 180V240 CAVOK 32/19 Q1000 NOSIG', '下午8:00', '32.0°C', '1,000毫巴', '每小时7.20公里, 西南', '9.90公里', '晴空万里', '本地:', '20:00、2019年8月11日周日', '协调世界时:', '12:00、2019年8月11日周日', '来源:', 'USAF 每小时地面观测', '报告类型:', 'METAR 航空例行天气报告', '露点:', '19.0°C', '晴空万里:', '真', '下午9:00', '29°C', '1,001毫巴', '每小时0公里', '≥ 10.00公里', '晴空万里', '本地:', '21:00、2019年8月11日周日', '协调世界时:', '13:00、2019年8月11日周日', '来源:', '周期文件', '趋势:', '无重要变化', '露点:', '23°C', '晴空万里:', '真', '原始:', 'ZUUU 111300Z 00000MPS CAVOK 29/23 Q1001 NOSIG', '下午9:00', '29.0°C', '1,001毫巴', '每小时0公里', '9.90公里', '晴空万里', '本地:', '21:00、2019年8月11日周日', '协调世界时:', '13:00、2019年8月11日周日', '来源:', 'USAF 每小时地面观测', '报告类型:', 'METAR 航空例行天气报告', '露点:', '23.0°C', '晴空万里:', '真', '下午10:00', '28°C', '1,002毫巴', '每小时0公里', '≥ 10.00公里', '晴空万里', '本地:', '22:00、2019年8月11日周日', '协调世界时:', '14:00、2019年8月11日周日', '来源:', '周期文件', '趋势:', '无重要变化', '露点:', '23°C', '晴空万里:', '真', '原始:', 'ZUUU 111400Z 00000MPS CAVOK 28/23 Q1002 NOSIG', '下午10:00', '28.0°C', '1,002毫巴', '每小时0公里', '9.90公里', '晴空万里', '本地:', '22:00、2019年8月11日周日', '协调世界时:', '14:00、2019年8月11日周日', '来源:', 'USAF 每小时地面观测', '报告类型:', 'METAR 航空例行天气报告', '露点:', '23.0°C', '晴空万里:', '真', '下午11:00', '28°C', '1,002毫巴', '每小时3.60公里, 西北', '≥ 10.00公里', '晴空万里', '本地:', '23:00、2019年8月11日周日', '协调世界时:', '15:00、2019年8月11日周日', '来源:', '周期文件', '趋势:', '无重要变化', '露点:', '23°C', '晴空万里:', '真', '原始:', 'ZUUU 111500Z 33001MPS CAVOK 28/23 Q1002 NOSIG', '下午11:00', '28.0°C', '1,002毫巴', '每小时3.60公里, 西北', '9.90公里', '晴空万里', '本地:', '23:00、2019年8月11日周日', '协调世界时:', '15:00、2019年8月11日周日', '来源:', 'USAF 每小时地面观测', '报告类型:', 'METAR 航空例行天气报告', '露点:', '23.0°C', '晴空万里:', '真']