['Thunderstorm with Light Rain', '-TSRA', 'Thunderstorm with Light Rain', '-TSRA', 'Thunderstorm', 'TS、IWC17', 'Thunderstorm with Light Rain、Thunderstorm with Rain、Showers of Light Rain', '-TSRA、IWC95、-SHRA', 'Thunderstorm with Light Rain、Thunderstorm with Rain、Showers of Light Rain', '-TSRA、IWC95、-SHRA', 'Thunderstorm with Light Rain、Thunderstorm with Rain、Showers of Light Rain', '-TSRA、IWC95、-SHRA', 'Recent Thunderstorm、Showers of Light Rain', 'RETS、-SHRA、IWC80', 'Thunderstorm', 'TS、IWC17', '上午12:00', '28°C', '1,002毫巴', '每小时0公里', '10.00公里', '大部分晴天 (914米)', '本地:', '00:00、2019年7月28日周日', '协调世界时:', '16:00、2019年7月27日周六', '来源:', '周期文件', '趋势:', '无重要变化', '露点:', '25°C', '原始:', 'ZUUU 271600Z 00000MPS 9999 FEW030CB 28/25 Q1002 NOSIG', '上午12:00', '28.0°C', '1,002毫巴', '每小时0公里', '10.00公里', '大部分晴天 (914米)', '本地:', '00:00、2019年7月28日周日', '协调世界时:', '16:00、2019年7月27日周六', '来源:', 'USAF 每小时地面观测', '报告类型:', 'METAR 航空例行天气报告', '露点:', '25.0°C', '上午1:00', '28°C', '1,001毫巴', '每小时3.60公里', '8.00公里', '大部分晴天 (914米)', '本地:', '01:00、2019年7月28日周日', '协调世界时:', '17:00、2019年7月27日周六', '来源:', '周期文件', '趋势:', '无重要变化', '露点:', '25°C', '原始:', 'ZUUU 271700Z VRB01MPS 8000 FEW030CB 28/25 Q1001 NOSIG', '上午1:00', '28.0°C', '1,001毫巴', '每小时3.60公里', '8.00公里', '大部分晴天 (914米)', '本地:', '01:00、2019年7月28日周日', '协调世界时:', '17:00、2019年7月27日周六', '来源:', 'USAF 每小时地面观测', '报告类型:', 'METAR 航空例行天气报告', '露点:', '25.0°C', '上午2:00', '29°C', '1,001毫巴', '每小时3.60公里', '8.00公里', '大部分晴天 (1,219米)', '本地:', '02:00、2019年7月28日周日', '协调世界时:', '18:00、2019年7月27日周六', '来源:', '周期文件', '趋势:', '无重要变化', '露点:', '25°C', '原始:', 'ZUUU 271800Z VRB01MPS 8000 FEW040 29/25 Q1001 NOSIG', '上午2:00', '29.0°C', '1,001毫巴', '每小时3.60公里', '8.00公里', '大部分晴天 (1,219米)', '本地:', '02:00、2019年7月28日周日', '协调世界时:', '18:00、2019年7月27日周六', '来源:', 'USAF 每小时地面观测', '报告类型:', 'METAR 航空例行天气报告', '露点:', '25.0°C', '上午3:00', '29°C', '1,001毫巴', '每小时10.8公里, 东北', '10.00公里', '大部分晴天 (1,219米)', '本地:', '03:00、2019年7月28日周日', '协调世界时:', '19:00、2019年7月27日周六', '来源:', '周期文件', '趋势:', '无重要变化', '露点:', '25°C', '原始:', 'ZUUU 271900Z 05003MPS 9999 FEW040 29/25 Q1001 NOSIG', '上午3:00', '29.0°C', '1,001毫巴', '每小时10.8公里, 东北', '10.00公里', '大部分晴天 (1,219米)', '本地:', '03:00、2019年7月28日周日', '协调世界时:', '19:00、2019年7月27日周六', '来源:', 'USAF 每小时地面观测', '报告类型:', 'METAR 航空例行天气报告', '露点:', '25.0°C', '上午4:00', '28°C', '1,001毫巴', '每小时0公里', '10.00公里', '大部分晴天 (1,524米)', '本地:', '04:00、2019年7月28日周日', '协调世界时:', '20:00、2019年7月27日周六', '来源:', '周期文件', '趋势:', '无重要变化', '露点:', '25°C', '原始:', 'ZUUU 272000Z 00000MPS 9999 FEW050 28/25 Q1001 NOSIG', '上午4:00', '28.0°C', '1,001毫巴', '每小时0公里', '10.00公里', '大部分晴天 (1,524米)', '本地:', '04:00、2019年7月28日周日', '协调世界时:', '20:00、2019年7月27日周六', '来源:', 'USAF 每小时地面观测', '报告类型:', 'METAR 航空例行天气报告', '露点:', '25.0°C', '上午5:00', '28°C', '1,000毫巴', '每小时7.20公里, 北', '10.00公里', '大部分晴天 (1,006米)', '本地:', '05:00、2019年7月28日周日', '协调世界时:', '21:00、2019年7月27日周六', '来源:', '周期文件', '趋势:', '无重要变化', '露点:', '24°C', '原始:', 'ZUUU 272100Z 36002MPS 310V030 9999 FEW033 28/24 Q1000 NOSIG', '上午5:00', '28.0°C', '1,000毫巴', '每小时7.20公里, 北', '10.00公里', '大部分晴天 (1,006米)', '本地:', '05:00、2019年7月28日周日', '协调世界时:', '21:00、2019年7月27日周六', '来源:', 'USAF 每小时地面观测', '报告类型:', 'METAR 航空例行天气报告', '露点:', '24.0°C', '上午6:00', '28°C', '1,001毫巴', '每小时3.60公里', '10.00公里', '大部分晴天 (1,219米)', '本地:', '06:00、2019年7月28日周日', '协调世界时:', '22:00、2019年7月27日周六', '来源:', '周期文件', '趋势:', '无重要变化', '露点:', '24°C', '原始:', 'ZUUU 272200Z VRB01MPS 9999 FEW040 28/24 Q1001 NOSIG', '上午6:00', '28.0°C', '1,001毫巴', '每小时3.60公里', '10.00公里', '大部分晴天 (1,219米)', '本地:', '06:00、2019年7月28日周日', '协调世界时:', '22:00、2019年7月27日周六', '来源:', 'USAF 每小时地面观测', '报告类型:', 'METAR 航空例行天气报告', '露点:', '24.0°C', '上午7:00', '28°C', '1,001毫巴', '每小时3.60公里', '10.00公里', '大部分晴天 (1,524米)', '本地:', '07:00、2019年7月28日周日', '协调世界时:', '23:00、2019年7月27日周六', '来源:', '周期文件', '趋势:', '无重要变化', '露点:', '24°C', '原始:', 'ZUUU 272300Z VRB01MPS 9999 FEW050 28/24 Q1001 NOSIG', '上午7:00', '28.0°C', '1,001毫巴', '每小时3.60公里', '10.00公里', '大部分晴天 (1,524米)', '本地:', '07:00、2019年7月28日周日', '协调世界时:', '23:00、2019年7月27日周六', '来源:', 'USAF 每小时地面观测', '报告类型:', 'METAR 航空例行天气报告', '露点:', '24.0°C', '上午8:00', '29°C', '1,002毫巴', '每小时3.60公里', '≥ 10.00公里', '晴空万里', '本地:', '08:00、2019年7月28日周日', '协调世界时:', '00:00、2019年7月28日周日', '来源:', '周期文件', '趋势:', '无重要变化', '露点:', '24°C', '晴空万里:', '真', '原始:', 'ZUUU 280000Z VRB01MPS CAVOK 29/24 Q1002 NOSIG', '上午8:00', '29.0°C', '1,002毫巴', '每小时3.60公里', '9.90公里', '晴空万里', '本地:', '08:00、2019年7月28日周日', '协调世界时:', '00:00、2019年7月28日周日', '来源:', 'USAF 每小时地面观测', '报告类型:', 'METAR 航空例行天气报告', '露点:', '24.0°C', '晴空万里:', '真', '上午9:00', '30°C', '1,002毫巴', '每小时3.60公里', '≥ 10.00公里', '晴空万里', '本地:', '09:00、2019年7月28日周日', '协调世界时:', '01:00、2019年7月28日周日', '来源:', '周期文件', '趋势:', '无重要变化', '露点:', '24°C', '晴空万里:', '真', '原始:', 'ZUUU 280100Z VRB01MPS CAVOK 30/24 Q1002 NOSIG', '上午9:00', '30.0°C', '1,002毫巴', '每小时3.60公里', '9.90公里', '晴空万里', '本地:', '09:00、2019年7月28日周日', '协调世界时:', '01:00、2019年7月28日周日', '来源:', 'USAF 每小时地面观测', '报告类型:', 'METAR 航空例行天气报告', '露点:', '24.0°C', '晴空万里:', '真', '上午10:00', '32°C', '1,002毫巴', '每小时3.60公里', '≥ 10.00公里', '晴空万里', '本地:', '10:00、2019年7月28日周日', '协调世界时:', '02:00、2019年7月28日周日', '来源:', '周期文件', '趋势:', '无重要变化', '露点:', '25°C', '晴空万里:', '真', '原始:', 'ZUUU 280200Z VRB01MPS CAVOK 32/25 Q1002 NOSIG', '上午10:00', '32.0°C', '1,002毫巴', '每小时3.60公里', '9.90公里', '晴空万里', '本地:', '10:00、2019年7月28日周日', '协调世界时:', '02:00、2019年7月28日周日', '来源:', 'USAF 每小时地面观测', '报告类型:', 'METAR 航空例行天气报告', '露点:', '25.0°C', '晴空万里:', '真', '上午11:00', '33°C', '1,002毫巴', '每小时3.60公里', '10.00公里', '大部分晴天 (792米)', '本地:', '11:00、2019年7月28日周日', '协调世界时:', '03:00、2019年7月28日周日', '来源:', '周期文件', '趋势:', '无重要变化', '露点:', '25°C', '原始:', 'ZUUU 280300Z VRB01MPS 9999 FEW026TCU FEW026 33/25 Q1002 NOSIG', '上午11:00', '33.0°C', '1,002毫巴', '每小时3.60公里', '10.00公里', '大部分晴天 (792米)', '本地:', '11:00、2019年7月28日周日', '协调世界时:', '03:00、2019年7月28日周日', '来源:', 'USAF 每小时地面观测', '报告类型:', 'METAR 航空例行天气报告', '露点:', '25.0°C', '下午12:00', '33°C', '1,002毫巴', '每小时3.60公里', '10.00公里', '部分多云 (792米)', '本地:', '12:00、2019年7月28日周日', '协调世界时:', '04:00、2019年7月28日周日', '来源:', '周期文件', '趋势:', '无重要变化', '露点:', '26°C', '其他云层:', '大部分晴天 (792米)', '原始:', 'ZUUU 280400Z VRB01MPS 9999 FEW026TCU SCT026 33/26 Q1002 NOSIG', '下午12:00', '33.0°C', '1,002毫巴', '每小时3.60公里', '10.00公里', '部分多云 (792米)', '本地:', '12:00、2019年7月28日周日', '协调世界时:', '04:00、2019年7月28日周日', '来源:', 'USAF 每小时地面观测', '报告类型:', 'METAR 航空例行天气报告', '露点:', '26.0°C', '其他云层:', '大部分晴天 (792米)', '下午1:00', '34°C', '1,001毫巴', '每小时10.8公里', '10.00公里', '部分多云 (792米)', '本地:', '13:00、2019年7月28日周日', '协调世界时:', '05:00、2019年7月28日周日', '来源:', '周期文件', '趋势:', '无重要变化', '露点:', '24°C', '其他云层:', '大部分晴天 (792米)', '原始:', 'ZUUU 280500Z VRB03MPS 9999 FEW026TCU SCT026 34/24 Q1001 NOSIG', '下午1:00', '34.0°C', '1,001毫巴', '每小时10.8公里', '10.00公里', '部分多云 (792米)', '本地:', '13:00、2019年7月28日周日', '协调世界时:', '05:00、2019年7月28日周日', '来源:', 'USAF 每小时地面观测', '报告类型:', 'METAR 航空例行天气报告', '露点:', '24.0°C', '其他云层:', '大部分晴天 (792米)', '下午2:00', '35°C', '1,000毫巴', '每小时10.8公里', '10.00公里', '部分多云 (792米)', '本地:', '14:00、2019年7月28日周日', '协调世界时:', '06:00、2019年7月28日周日', '来源:', '周期文件', '趋势:', '变化为', '露点:', '26°C', '其他云层:', '大部分晴天 (792米)', '天气:', 'Thunderstorm with Light Rain', '原始:', 'ZUUU 280600Z VRB03MPS 9999 FEW026TCU SCT026 35/26 Q1000 BECMG TL0700 08005MPS -TSRA', '下午2:00', '35.0°C', '1,000毫巴', '每小时10.8公里', '10.00公里', '部分多云 (792米)', '本地:', '14:00、2019年7月28日周日', '协调世界时:', '06:00、2019年7月28日周日', '来源:', 'USAF 每小时地面观测', '报告类型:', 'METAR 航空例行天气报告', '露点:', '26.0°C', '其他云层:', '大部分晴天 (792米)', '下午3:00', '36°C', '1,000毫巴', '每小时18.0公里, 东南', '10.00公里', '部分多云 (792米)', '本地:', '15:00、2019年7月28日周日', '协调世界时:', '07:00、2019年7月28日周日', '来源:', '周期文件', '趋势:', '变化为', '露点:', '25°C', '其他云层:', '大部分晴天 (792米)', '天气:', 'Thunderstorm with Light Rain', '原始:', 'ZUUU 280700Z 13005MPS 040V150 9999 FEW026TCU SCT026 36/25 Q1000 BECMG TL0800 30005MPS -TSRA', '下午3:00', '36.0°C', '1,000毫巴', '每小时18.0公里, 东南', '10.00公里', '部分多云 (792米)', '本地:', '15:00、2019年7月28日周日', '协调世界时:', '07:00、2019年7月28日周日', '来源:', 'USAF 每小时地面观测', '报告类型:', 'METAR 航空例行天气报告', '露点:', '25.0°C', '其他云层:', '大部分晴天 (792米)', '下午4:00', '33°C', '999.0毫巴', '每小时18.0公里, 东南', '10.00公里', '部分多云 (792米)', '本地:', '16:00、2019年7月28日周日', '协调世界时:', '08:00、2019年7月28日周日', '来源:', '周期文件', '趋势:', '变化为', '露点:', '25°C', '其他云层:', '大部分晴天 (792米)', '天气:', 'Thunderstorm', '原始:', 'ZUUU 280800Z 14005MPS 060V170 9999 TS FEW026CB SCT026 33/25 Q0999 BECMG TL0830 27005MPS NSW', '下午4:00', '33.0°C', '999.0毫巴', '每小时18.0公里, 东南', '10.00公里', '部分多云 (792米)', '本地:', '16:00、2019年7月28日周日', '协调世界时:', '08:00、2019年7月28日周日', '来源:', 'USAF 每小时地面观测', '报告类型:', 'METAR 航空例行天气报告', '露点:', '25.0°C', '其他云层:', '大部分晴天 (792米)', '天气:', 'Thunderstorm', '下午5:00', '28°C', '999.0毫巴', '每小时14.4公里, 北', '10.00公里', '部分多云 (792米)', '本地:', '17:00、2019年7月28日周日', '协调世界时:', '09:00、2019年7月28日周日', '来源:', '周期文件', '趋势:', '变化为', '露点:', '25°C', '其他云层:', '大部分晴天 (792米)', '天气:', 'Thunderstorm with Light Rain、Showers of Light Rain', '原始:', 'ZUUU 280900Z 34004MPS 280V040 9999 -TSRA FEW026CB SCT026 28/25 Q0999 BECMG TL1000 20005MPS -SHRA', '下午5:00', '28.0°C', '999.0毫巴', '每小时14.4公里, 北', '10.00公里', '部分多云 (792米)', '本地:', '17:00、2019年7月28日周日', '协调世界时:', '09:00、2019年7月28日周日', '来源:', 'USAF 每小时地面观测', '报告类型:', 'METAR 航空例行天气报告', '露点:', '25.0°C', '其他云层:', '大部分晴天 (792米)', '天气:', 'Thunderstorm with Rain', '下午6:00', '28°C', '1,000毫巴', '每小时10.8公里, 北', '10.00公里', '部分多云 (792米)', '本地:', '18:00、2019年7月28日周日', '协调世界时:', '10:00、2019年7月28日周日', '来源:', '周期文件', '趋势:', '变化为', '露点:', '24°C', '其他云层:', '大部分晴天 (792米)', '天气:', 'Thunderstorm with Light Rain、Showers of Light Rain', '原始:', 'ZUUU 281000Z 36003MPS 280V040 9999 -TSRA FEW026CB SCT026 28/24 Q1000 BECMG TL1140 -SHRA', '下午6:00', '28.0°C', '1,000毫巴', '每小时10.8公里, 北', '10.00公里', '部分多云 (792米)', '本地:', '18:00、2019年7月28日周日', '协调世界时:', '10:00、2019年7月28日周日', '来源:', 'USAF 每小时地面观测', '报告类型:', 'METAR 航空例行天气报告', '露点:', '24.0°C', '其他云层:', '大部分晴天 (792米)', '天气:', 'Thunderstorm with Rain', '下午7:00', '27°C', '1,000毫巴', '每小时10.8公里, 北', '10.00公里', '部分多云 (792米)', '本地:', '19:00、2019年7月28日周日', '协调世界时:', '11:00、2019年7月28日周日', '来源:', '周期文件', '趋势:', '变化为', '露点:', '25°C', '其他云层:', '大部分晴天 (792米)', '天气:', 'Thunderstorm with Light Rain、Showers of Light Rain', '原始:', 'ZUUU 281100Z 36003MPS 310V040 9999 -TSRA FEW026CB SCT026 27/25 Q1000 BECMG TL1140 -SHRA', '下午7:00', '27.0°C', '1,000毫巴', '每小时10.8公里, 北', '10.00公里', '部分多云 (792米)', '本地:', '19:00、2019年7月28日周日', '协调世界时:', '11:00、2019年7月28日周日', '来源:', 'USAF 每小时地面观测', '报告类型:', 'METAR 航空例行天气报告', '露点:', '25.0°C', '其他云层:', '大部分晴天 (792米)', '天气:', 'Thunderstorm with Rain', '下午8:00', '27°C', '1,000毫巴', '每小时7.20公里, 北', '10.00公里', '部分多云 (1,006米)', '本地:', '20:00、2019年7月28日周日', '协调世界时:', '12:00、2019年7月28日周日', '来源:', '周期文件', '趋势:', '无重要变化', '露点:', '24°C', '其他云层:', '大部分晴天 (1,006米)', '天气:', 'Showers of Light Rain、Recent Thunderstorm', '原始:', 'ZUUU 281200Z 01002MPS 330V030 9999 -SHRA FEW033TCU SCT033 27/24 Q1000 RETS NOSIG', '下午8:00', '27.0°C', '1,000毫巴', '每小时7.20公里, 北', '10.00公里', '部分多云 (1,006米)', '本地:', '20:00、2019年7月28日周日', '协调世界时:', '12:00、2019年7月28日周日', '来源:', 'USAF 每小时地面观测', '报告类型:', 'METAR 航空例行天气报告', '露点:', '24.0°C', '其他云层:', '大部分晴天 (1,006米)', '天气:', 'Showers of Light Rain', '下午9:00', '27°C', '1,001毫巴', '每小时3.60公里', '10.00公里', '部分多云 (1,006米)', '本地:', '21:00、2019年7月28日周日', '协调世界时:', '13:00、2019年7月28日周日', '来源:', '周期文件', '趋势:', '无重要变化', '露点:', '25°C', '其他云层:', '大部分晴天 (1,006米)', '原始:', 'ZUUU 281300Z VRB01MPS 9999 FEW033TCU SCT033 27/25 Q1001 NOSIG', '下午9:00', '27.0°C', '1,001毫巴', '每小时3.60公里', '10.00公里', '部分多云 (1,006米)', '本地:', '21:00、2019年7月28日周日', '协调世界时:', '13:00、2019年7月28日周日', '来源:', 'USAF 每小时地面观测', '报告类型:', 'METAR 航空例行天气报告', '露点:', '25.0°C', '其他云层:', '大部分晴天 (1,006米)', '下午10:00', '27°C', '1,002毫巴', '每小时0公里', '8.00公里', '部分多云 (1,006米)', '本地:', '22:00、2019年7月28日周日', '协调世界时:', '14:00、2019年7月28日周日', '来源:', '周期文件', '趋势:', '无重要变化', '露点:', '25°C', '其他云层:', '大部分晴天 (1,006米)', '原始:', 'ZUUU 281400Z 00000MPS 8000 FEW033TCU SCT033 27/25 Q1002 NOSIG', '下午10:00', '27.0°C', '1,002毫巴', '每小时0公里', '8.00公里', '部分多云 (1,006米)', '本地:', '22:00、2019年7月28日周日', '协调世界时:', '14:00、2019年7月28日周日', '来源:', 'USAF 每小时地面观测', '报告类型:', 'METAR 航空例行天气报告', '露点:', '25.0°C', '其他云层:', '大部分晴天 (1,006米)', '下午11:00', '27°C', '1,001毫巴', '每小时3.60公里', '6.00公里', '部分多云 (792米)', '本地:', '23:00、2019年7月28日周日', '协调世界时:', '15:00、2019年7月28日周日', '来源:', '周期文件', '趋势:', '变化为', '露点:', '24°C', '其他云层:', '大部分晴天 (792米)', '天气:', 'Thunderstorm', '原始:', 'ZUUU 281500Z VRB01MPS 6000 TS FEW026CB SCT026 27/24 Q1001 BECMG TL1540 NSW', '下午11:00', '27.0°C', '1,001毫巴', '每小时3.60公里', '6.00公里', '部分多云 (792米)', '本地:', '23:00、2019年7月28日周日', '协调世界时:', '15:00、2019年7月28日周日', '来源:', 'USAF 每小时地面观测', '报告类型:', 'METAR 航空例行天气报告', '露点:', '24.0°C', '其他云层:', '大部分晴天 (792米)', '天气:', 'Thunderstorm']