['Mist', 'BR、IWC10', 'Mist', 'BR、IWC10', 'Mist', 'BR、IWC10', 'Mist', 'BR、IWC10', 'Mist', 'BR、IWC10', 'Mist', 'BR、IWC10', 'Mist', 'BR、IWC10', 'Mist', 'BR、IWC10', 'Mist', 'BR、IWC10', 'Mist', 'BR、IWC10', 'Mist', 'BR、IWC10', 'Mist', 'BR、IWC10', 'Mist', 'BR、IWC10', 'Mist', 'BR、IWC10', 'Mist', 'BR、IWC10', 'Mist', 'BR、IWC10', 'Mist', 'BR、IWC10', 'Mist', 'BR、IWC10', 'Mist', 'BR、IWC10', 'Mist', 'BR、IWC10', 'Mist', 'BR、IWC10', 'Mist', 'BR、IWC10', 'Mist', 'BR、IWC10', 'Mist', 'BR、IWC10', '上午12:00', '10°C', '1,022毫巴', '每小时0公里', '3.50公里', '无重要云', '本地:', '00:00、2019年12月13日周五', '协调世界时:', '16:00、2019年12月12日周四', '来源:', '周期文件', '趋势:', '无重要变化', '露点:', '8°C', '天气:', 'Mist', '原始:', 'ZUUU 121600Z 00000MPS 3500 BR NSC 10/08 Q1022 NOSIG', '上午12:00', '10.0°C', '1,022毫巴', '每小时0公里', '3.50公里', '未检测到云', '本地:', '00:00、2019年12月13日周五', '协调世界时:', '16:00、2019年12月12日周四', '来源:', 'USAF 每小时地面观测', '报告类型:', 'METAR 航空例行天气报告', '露点:', '8.0°C', '天气:', 'Mist', '上午1:00', '10°C', '1,022毫巴', '每小时0公里', '3.50公里', '无重要云', '本地:', '01:00、2019年12月13日周五', '协调世界时:', '17:00、2019年12月12日周四', '来源:', '周期文件', '趋势:', '无重要变化', '露点:', '8°C', '天气:', 'Mist', '原始:', 'ZUUU 121700Z 00000MPS 3500 BR NSC 10/08 Q1022 NOSIG', '上午1:00', '10.0°C', '1,022毫巴', '每小时0公里', '3.50公里', '未检测到云', '本地:', '01:00、2019年12月13日周五', '协调世界时:', '17:00、2019年12月12日周四', '来源:', 'USAF 每小时地面观测', '报告类型:', 'METAR 航空例行天气报告', '露点:', '8.0°C', '天气:', 'Mist', '上午2:00', '10°C', '1,022毫巴', '每小时0公里', '3.50公里', '无重要云', '本地:', '02:00、2019年12月13日周五', '协调世界时:', '18:00、2019年12月12日周四', '来源:', '周期文件', '趋势:', '无重要变化', '露点:', '8°C', '天气:', 'Mist', '原始:', 'ZUUU 121800Z 00000MPS 3500 BR NSC 10/08 Q1022 NOSIG', '上午2:00', '10.0°C', '1,022毫巴', '每小时0公里', '3.50公里', '未检测到云', '本地:', '02:00、2019年12月13日周五', '协调世界时:', '18:00、2019年12月12日周四', '来源:', 'USAF 每小时地面观测', '报告类型:', 'METAR 航空例行天气报告', '露点:', '8.0°C', '天气:', 'Mist', '上午3:00', '10°C', '1,022毫巴', '每小时0公里', '3.50公里', '无重要云', '本地:', '03:00、2019年12月13日周五', '协调世界时:', '19:00、2019年12月12日周四', '来源:', '周期文件', '趋势:', '无重要变化', '露点:', '9°C', '天气:', 'Mist', '原始:', 'ZUUU 121900Z 00000MPS 3500 BR NSC 10/09 Q1022 NOSIG', '上午3:00', '10.0°C', '1,022毫巴', '每小时0公里', '3.50公里', '未检测到云', '本地:', '03:00、2019年12月13日周五', '协调世界时:', '19:00、2019年12月12日周四', '来源:', 'USAF 每小时地面观测', '报告类型:', 'METAR 航空例行天气报告', '露点:', '9.0°C', '天气:', 'Mist', '上午4:00', '11°C', '1,022毫巴', '每小时3.60公里', '3.50公里', '无重要云', '本地:', '04:00、2019年12月13日周五', '协调世界时:', '20:00、2019年12月12日周四', '来源:', '周期文件', '趋势:', '无重要变化', '露点:', '8°C', '天气:', 'Mist', '原始:', 'ZUUU 122000Z VRB01MPS 3500 BR NSC 11/08 Q1022 NOSIG', '上午4:00', '11.0°C', '1,022毫巴', '每小时3.60公里', '3.50公里', '未检测到云', '本地:', '04:00、2019年12月13日周五', '协调世界时:', '20:00、2019年12月12日周四', '来源:', 'USAF 每小时地面观测', '报告类型:', 'METAR 航空例行天气报告', '露点:', '8.0°C', '天气:', 'Mist', '上午5:00', '10°C', '1,022毫巴', '每小时3.60公里', '3.00公里', '无重要云', '本地:', '05:00、2019年12月13日周五', '协调世界时:', '21:00、2019年12月12日周四', '来源:', '周期文件', '趋势:', '变化为', '露点:', '9°C', '天气:', 'Mist、Mist', '原始:', 'ZUUU 122100Z VRB01MPS 3000 BR NSC 10/09 Q1022 BECMG TL2200 2700 BR', '上午5:00', '10.0°C', '1,022毫巴', '每小时3.60公里', '3.00公里', '未检测到云', '本地:', '05:00、2019年12月13日周五', '协调世界时:', '21:00、2019年12月12日周四', '来源:', 'USAF 每小时地面观测', '报告类型:', 'METAR 航空例行天气报告', '露点:', '9.0°C', '天气:', 'Mist', '上午6:00', '11°C', '1,022毫巴', '每小时7.20公里, 东', '3.00公里', '无重要云', '本地:', '06:00、2019年12月13日周五', '协调世界时:', '22:00、2019年12月12日周四', '来源:', '周期文件', '趋势:', '变化为', '露点:', '9°C', '天气:', 'Mist、Mist', '原始:', 'ZUUU 122200Z 10002MPS 080V140 3000 BR NSC 11/09 Q1022 BECMG TL2230 2300 BR', '上午6:00', '11.0°C', '1,022毫巴', '每小时7.20公里, 东', '3.00公里', '未检测到云', '本地:', '06:00、2019年12月13日周五', '协调世界时:', '22:00、2019年12月12日周四', '来源:', 'USAF 每小时地面观测', '报告类型:', 'METAR 航空例行天气报告', '露点:', '9.0°C', '天气:', 'Mist', '上午7:00', '11°C', '1,022毫巴', '每小时7.20公里, 东北', '3.00公里', '无重要云', '本地:', '07:00、2019年12月13日周五', '协调世界时:', '23:00、2019年12月12日周四', '来源:', '周期文件', '趋势:', '变化为', '露点:', '9°C', '天气:', 'Mist、Mist', '原始:', 'ZUUU 122300Z 05002MPS 360V140 3000 BR NSC 11/09 Q1022 BECMG TL2330 2300 BR', '上午7:00', '11.0°C', '1,022毫巴', '每小时7.20公里, 东北', '3.00公里', '未检测到云', '本地:', '07:00、2019年12月13日周五', '协调世界时:', '23:00、2019年12月12日周四', '来源:', 'USAF 每小时地面观测', '报告类型:', 'METAR 航空例行天气报告', '露点:', '9.0°C', '天气:', 'Mist', '上午8:00', '10°C', '1,023毫巴', '每小时0公里', '2.30公里', '无重要云', '本地:', '08:00、2019年12月13日周五', '协调世界时:', '00:00、2019年12月13日周五', '来源:', '周期文件', '趋势:', '无重要变化', '露点:', '9°C', '天气:', 'Mist', '原始:', 'ZUUU 130000Z 00000MPS 2300 BR NSC 10/09 Q1023 NOSIG', '上午8:00', '10.0°C', '1,023毫巴', '每小时0公里', '2.30公里', '未检测到云', '本地:', '08:00、2019年12月13日周五', '协调世界时:', '00:00、2019年12月13日周五', '来源:', 'USAF 每小时地面观测', '报告类型:', 'METAR 航空例行天气报告', '露点:', '9.0°C', '天气:', 'Mist', '上午9:00', '11°C', '1,024毫巴', '每小时0公里', '1.80公里', '无重要云', '本地:', '09:00、2019年12月13日周五', '协调世界时:', '01:00、2019年12月13日周五', '来源:', '周期文件', '趋势:', '无重要变化', '露点:', '9°C', '天气:', 'Mist', '原始:', 'ZUUU 130100Z 00000MPS 1800 BR NSC 11/09 Q1024 NOSIG', '上午9:00', '11.0°C', '1,024毫巴', '每小时0公里', '1.80公里', '未检测到云', '本地:', '09:00、2019年12月13日周五', '协调世界时:', '01:00、2019年12月13日周五', '来源:', 'USAF 每小时地面观测', '报告类型:', 'METAR 航空例行天气报告', '露点:', '9.0°C', '天气:', 'Mist', '上午10:00', '11°C', '1,025毫巴', '每小时3.60公里', '2.00公里', '部分多云 (1,524米)', '本地:', '10:00、2019年12月13日周五', '协调世界时:', '02:00、2019年12月13日周五', '来源:', '周期文件', '趋势:', '无重要变化', '露点:', '9°C', '天气:', 'Mist', '原始:', 'ZUUU 130200Z VRB01MPS 2000 BR SCT050 11/09 Q1025 NOSIG', '上午10:00', '11.0°C', '1,025毫巴', '每小时3.60公里', '2.00公里', '部分多云 (1,524米)', '本地:', '10:00、2019年12月13日周五', '协调世界时:', '02:00、2019年12月13日周五', '来源:', 'USAF 每小时地面观测', '报告类型:', 'METAR 航空例行天气报告', '露点:', '9.0°C', '天气:', 'Mist', '上午11:00', '11°C', '1,025毫巴', '每小时7.20公里, 北', '2.50公里', '部分多云 (1,524米)', '本地:', '11:00、2019年12月13日周五', '协调世界时:', '03:00、2019年12月13日周五', '来源:', '周期文件', '趋势:', '无重要变化', '露点:', '9°C', '天气:', 'Mist', '原始:', 'ZUUU 130300Z 35002MPS 320V020 2500 BR SCT050 11/09 Q1025 NOSIG', '上午11:00', '11.0°C', '1,025毫巴', '每小时7.20公里, 北', '2.50公里', '部分多云 (1,524米)', '本地:', '11:00、2019年12月13日周五', '协调世界时:', '03:00、2019年12月13日周五', '来源:', 'USAF 每小时地面观测', '报告类型:', 'METAR 航空例行天气报告', '露点:', '9.0°C', '天气:', 'Mist', '下午12:00', '11°C', '1,025毫巴', '每小时7.20公里, 北', '2.50公里', '部分多云 (1,524米)', '本地:', '12:00、2019年12月13日周五', '协调世界时:', '04:00、2019年12月13日周五', '来源:', '周期文件', '趋势:', '无重要变化', '露点:', '8°C', '天气:', 'Mist', '原始:', 'ZUUU 130400Z 35002MPS 300V040 2500 BR SCT050 11/08 Q1025 NOSIG', '下午12:00', '11.0°C', '1,025毫巴', '每小时7.20公里, 北', '2.50公里', '部分多云 (1,524米)', '本地:', '12:00、2019年12月13日周五', '协调世界时:', '04:00、2019年12月13日周五', '来源:', 'USAF 每小时地面观测', '报告类型:', 'METAR 航空例行天气报告', '露点:', '8.0°C', '天气:', 'Mist', '下午1:00', '11°C', '1,024毫巴', '每小时7.20公里, 北', '2.50公里', '部分多云 (1,524米)', '本地:', '13:00、2019年12月13日周五', '协调世界时:', '05:00、2019年12月13日周五', '来源:', '周期文件', '趋势:', '无重要变化', '露点:', '9°C', '天气:', 'Mist', '原始:', 'ZUUU 130500Z 36002MPS 310V050 2500 BR SCT050 11/09 Q1024 NOSIG', '下午1:00', '11.0°C', '1,024毫巴', '每小时7.20公里, 北', '2.50公里', '部分多云 (1,524米)', '本地:', '13:00、2019年12月13日周五', '协调世界时:', '05:00、2019年12月13日周五', '来源:', 'USAF 每小时地面观测', '报告类型:', 'METAR 航空例行天气报告', '露点:', '9.0°C', '天气:', 'Mist', '下午2:00', '11°C', '1,022毫巴', '每小时3.60公里', '2.50公里', '部分多云 (1,524米)', '本地:', '14:00、2019年12月13日周五', '协调世界时:', '06:00、2019年12月13日周五', '来源:', '周期文件', '趋势:', '无重要变化', '露点:', '9°C', '天气:', 'Mist', '原始:', 'ZUUU 130600Z VRB01MPS 2500 BR SCT050 11/09 Q1022 NOSIG', '下午2:00', '11.0°C', '1,022毫巴', '每小时3.60公里', '2.50公里', '部分多云 (1,524米)', '本地:', '14:00、2019年12月13日周五', '协调世界时:', '06:00、2019年12月13日周五', '来源:', 'USAF 每小时地面观测', '报告类型:', 'METAR 航空例行天气报告', '露点:', '9.0°C', '天气:', 'Mist', '下午3:00', '11°C', '1,022毫巴', '每小时0公里', '2.50公里', '部分多云 (1,524米)', '本地:', '15:00、2019年12月13日周五', '协调世界时:', '07:00、2019年12月13日周五', '来源:', '周期文件', '趋势:', '无重要变化', '露点:', '9°C', '天气:', 'Mist', '原始:', 'ZUUU 130700Z 00000MPS 2500 BR SCT050 11/09 Q1022 NOSIG', '下午3:00', '11.0°C', '1,022毫巴', '每小时0公里', '2.50公里', '部分多云 (1,524米)', '本地:', '15:00、2019年12月13日周五', '协调世界时:', '07:00、2019年12月13日周五', '来源:', 'USAF 每小时地面观测', '报告类型:', 'METAR 航空例行天气报告', '露点:', '9.0°C', '天气:', 'Mist', '下午4:00', '11°C', '1,021毫巴', '每小时0公里', '2.80公里', '部分多云 (1,524米)', '本地:', '16:00、2019年12月13日周五', '协调世界时:', '08:00、2019年12月13日周五', '来源:', '周期文件', '趋势:', '变化为', '露点:', '8°C', '天气:', 'Mist', '原始:', 'ZUUU 130800Z 00000MPS 2800 BR SCT050 11/08 Q1021 BECMG TL0930 3000', '下午4:00', '11.0°C', '1,021毫巴', '每小时0公里', '2.80公里', '部分多云 (1,524米)', '本地:', '16:00、2019年12月13日周五', '协调世界时:', '08:00、2019年12月13日周五', '来源:', 'USAF 每小时地面观测', '报告类型:', 'METAR 航空例行天气报告', '露点:', '8.0°C', '天气:', 'Mist', '下午5:00', '11°C', '1,022毫巴', '每小时0公里', '2.80公里', '部分多云 (1,524米)', '本地:', '17:00、2019年12月13日周五', '协调世界时:', '09:00、2019年12月13日周五', '来源:', '周期文件', '趋势:', '变化为', '露点:', '8°C', '天气:', 'Mist', '原始:', 'ZUUU 130900Z 00000MPS 2800 BR SCT050 11/08 Q1022 BECMG TL1030 3000', '下午5:00', '11.0°C', '1,022毫巴', '每小时0公里', '2.80公里', '部分多云 (1,524米)', '本地:', '17:00、2019年12月13日周五', '协调世界时:', '09:00、2019年12月13日周五', '来源:', 'USAF 每小时地面观测', '报告类型:', 'METAR 航空例行天气报告', '露点:', '8.0°C', '天气:', 'Mist', '下午6:00', '11°C', '1,022毫巴', '每小时3.60公里', '2.20公里', '部分多云 (1,219米)', '本地:', '18:00、2019年12月13日周五', '协调世界时:', '10:00、2019年12月13日周五', '来源:', '周期文件', '趋势:', '变化为', '露点:', '9°C', '天气:', 'Mist', '原始:', 'ZUUU 131000Z VRB01MPS 2200 BR SCT040 11/09 Q1022 BECMG TL1100 3000', '下午6:00', '11.0°C', '1,022毫巴', '每小时3.60公里', '2.20公里', '部分多云 (1,219米)', '本地:', '18:00、2019年12月13日周五', '协调世界时:', '10:00、2019年12月13日周五', '来源:', 'USAF 每小时地面观测', '报告类型:', 'METAR 航空例行天气报告', '露点:', '9.0°C', '天气:', 'Mist', '下午7:00', '11°C', '1,022毫巴', '每小时0公里', '3.20公里', '部分多云 (1,219米)', '本地:', '19:00、2019年12月13日周五', '协调世界时:', '11:00、2019年12月13日周五', '来源:', '周期文件', '趋势:', '无重要变化', '露点:', '9°C', '天气:', 'Mist', '原始:', 'ZUUU 131100Z 00000MPS 3200 BR SCT040 11/09 Q1022 NOSIG', '下午7:00', '11.0°C', '1,022毫巴', '每小时0公里', '3.20公里', '部分多云 (1,219米)', '本地:', '19:00、2019年12月13日周五', '协调世界时:', '11:00、2019年12月13日周五', '来源:', 'USAF 每小时地面观测', '报告类型:', 'METAR 航空例行天气报告', '露点:', '9.0°C', '天气:', 'Mist', '下午8:00', '11°C', '1,022毫巴', '每小时0公里', '3.20公里', '部分多云 (1,219米)', '本地:', '20:00、2019年12月13日周五', '协调世界时:', '12:00、2019年12月13日周五', '来源:', '周期文件', '趋势:', '无重要变化', '露点:', '9°C', '天气:', 'Mist', '原始:', 'ZUUU 131200Z 00000MPS 3200 BR SCT040 11/09 Q1022 NOSIG', '下午8:00', '11.0°C', '1,022毫巴', '每小时0公里', '3.20公里', '部分多云 (1,219米)', '本地:', '20:00、2019年12月13日周五', '协调世界时:', '12:00、2019年12月13日周五', '来源:', 'USAF 每小时地面观测', '报告类型:', 'METAR 航空例行天气报告', '露点:', '9.0°C', '天气:', 'Mist', '下午9:00', '10°C', '1,022毫巴', '每小时0公里', '3.00公里', '部分多云 (1,219米)', '本地:', '21:00、2019年12月13日周五', '协调世界时:', '13:00、2019年12月13日周五', '来源:', '周期文件', '趋势:', '无重要变化', '露点:', '9°C', '天气:', 'Mist', '原始:', 'ZUUU 131300Z 00000MPS 3000 BR SCT040 10/09 Q1022 NOSIG', '下午9:00', '10.0°C', '1,022毫巴', '每小时0公里', '3.00公里', '部分多云 (1,219米)', '本地:', '21:00、2019年12月13日周五', '协调世界时:', '13:00、2019年12月13日周五', '来源:', 'USAF 每小时地面观测', '报告类型:', 'METAR 航空例行天气报告', '露点:', '9.0°C', '天气:', 'Mist', '下午10:00', '11°C', '1,022毫巴', '每小时0公里', '3.00公里', '部分多云 (1,219米)', '本地:', '22:00、2019年12月13日周五', '协调世界时:', '14:00、2019年12月13日周五', '来源:', '周期文件', '趋势:', '无重要变化', '露点:', '9°C', '天气:', 'Mist', '原始:', 'ZUUU 131400Z 00000MPS 3000 BR SCT040 11/09 Q1022 NOSIG', '下午10:00', '11.0°C', '1,022毫巴', '每小时0公里', '3.00公里', '部分多云 (1,219米)', '本地:', '22:00、2019年12月13日周五', '协调世界时:', '14:00、2019年12月13日周五', '来源:', 'USAF 每小时地面观测', '报告类型:', 'METAR 航空例行天气报告', '露点:', '9.0°C', '天气:', 'Mist', '下午11:00', '11°C', '1,022毫巴', '每小时0公里', '3.00公里', '部分多云 (1,219米)', '本地:', '23:00、2019年12月13日周五', '协调世界时:', '15:00、2019年12月13日周五', '来源:', '周期文件', '趋势:', '无重要变化', '露点:', '9°C', '天气:', 'Mist', '原始:', 'ZUUU 131500Z 00000MPS 3000 BR SCT040 11/09 Q1022 NOSIG', '下午11:00', '11.0°C', '1,022毫巴', '每小时0公里', '3.00公里', '部分多云 (1,219米)', '本地:', '23:00、2019年12月13日周五', '协调世界时:', '15:00、2019年12月13日周五', '来源:', 'USAF 每小时地面观测', '报告类型:', 'METAR 航空例行天气报告', '露点:', '9.0°C', '天气:', 'Mist']