['Showers of Light Rain', '-SHRA、IWC80', 'Showers of Light Rain、Mist', '-SHRA、IWC80、BR、IWC10', 'Showers of Light Rain、Mist', '-SHRA、IWC80、BR、IWC10', 'Showers of Light Rain、Mist', '-SHRA、IWC80、BR、IWC10', 'Showers of Light Rain、Mist', '-SHRA、IWC80、BR、IWC10', 'Showers of Light Rain、Mist', '-SHRA、IWC80、BR、IWC10', 'Showers of Light Rain、Mist', '-SHRA、IWC80、BR、IWC10', 'Showers of Light Rain、Mist', '-SHRA、IWC80、BR、IWC10', 'Showers of Rain、Showers of Light Rain、Mist', 'SHRA、IWC81、-SHRA、BR、IWC10', 'Recent Showers of Rain、Showers of Light Rain、Mist', 'RESHRA、-SHRA、IWC80、BR、IWC10', 'Light Rain', '-RA、IWC61', 'Light Rain', '-RA、IWC61', 'Light Rain', '-RA、IWC61', 'Showers of Light Rain、Mist', '-SHRA、IWC80、BR、IWC10', 'Showers of Light Rain、Mist', '-SHRA、IWC80、BR、IWC10', 'Showers of Light Rain', '-SHRA、IWC80', '上午12:00', '22°C', '1,012毫巴', '每小时3.60公里', '7.00公里', '部分多云 (1,006米)', '本地:', '00:00、2019年9月4日周三', '协调世界时:', '16:00、2019年9月3日周二', '来源:', '周期文件', '趋势:', '无重要变化', '露点:', '19°C', '其他云层:', '大部分晴天 (305米)、大部分晴天 (1,006米)', '原始:', 'ZUUU 031600Z VRB01MPS 7000 FEW010 FEW033TCU SCT033 22/19 Q1012 NOSIG', '上午12:00', '22.0°C', '1,012毫巴', '每小时3.60公里', '7.00公里', '部分多云 (1,006米)', '本地:', '00:00、2019年9月4日周三', '协调世界时:', '16:00、2019年9月3日周二', '来源:', 'USAF 每小时地面观测', '报告类型:', 'METAR 航空例行天气报告', '露点:', '19.0°C', '其他云层:', '大部分晴天 (305米)、大部分晴天 (1,006米)', '上午1:00', '22°C', '1,011毫巴', '每小时3.60公里', '7.00公里', '部分多云 (1,006米)', '本地:', '01:00、2019年9月4日周三', '协调世界时:', '17:00、2019年9月3日周二', '来源:', '周期文件', '趋势:', '无重要变化', '露点:', '20°C', '其他云层:', '大部分晴天 (305米)、大部分晴天 (1,006米)', '原始:', 'ZUUU 031700Z VRB01MPS 7000 FEW010 FEW033TCU SCT033 22/20 Q1011 NOSIG', '上午1:00', '22.0°C', '1,011毫巴', '每小时3.60公里', '7.00公里', '部分多云 (1,006米)', '本地:', '01:00、2019年9月4日周三', '协调世界时:', '17:00、2019年9月3日周二', '来源:', 'USAF 每小时地面观测', '报告类型:', 'METAR 航空例行天气报告', '露点:', '20.0°C', '其他云层:', '大部分晴天 (305米)、大部分晴天 (1,006米)', '上午2:00', '22°C', '1,011毫巴', '每小时3.60公里', '7.00公里', '部分多云 (1,006米)', '本地:', '02:00、2019年9月4日周三', '协调世界时:', '18:00、2019年9月3日周二', '来源:', '周期文件', '趋势:', '无重要变化', '露点:', '20°C', '其他云层:', '大部分晴天 (305米)、大部分晴天 (1,006米)', '天气:', 'Showers of Light Rain', '原始:', 'ZUUU 031800Z VRB01MPS 7000 -SHRA FEW010 FEW033TCU SCT033 22/20 Q1011 NOSIG', '上午2:00', '22.0°C', '1,011毫巴', '每小时3.60公里', '7.00公里', '部分多云 (1,006米)', '本地:', '02:00、2019年9月4日周三', '协调世界时:', '18:00、2019年9月3日周二', '来源:', 'USAF 每小时地面观测', '报告类型:', 'METAR 航空例行天气报告', '露点:', '20.0°C', '其他云层:', '大部分晴天 (305米)、大部分晴天 (1,006米)', '天气:', 'Showers of Light Rain', '上午3:00', '21°C', '1,010毫巴', '每小时0公里', '5.00公里', '部分多云 (1,006米)', '本地:', '03:00、2019年9月4日周三', '协调世界时:', '19:00、2019年9月3日周二', '来源:', '周期文件', '趋势:', '变化为', '露点:', '20°C', '其他云层:', '大部分晴天 (1,006米)', '天气:', 'Showers of Light Rain、Mist、Mist', '原始:', 'ZUUU 031900Z 00000MPS 5000 -SHRA BR FEW033TCU SCT033 21/20 Q1010 BECMG TL2040 2700 BR', '上午3:00', '21.0°C', '1,010毫巴', '每小时0公里', '5.00公里', '部分多云 (1,006米)', '本地:', '03:00、2019年9月4日周三', '协调世界时:', '19:00、2019年9月3日周二', '来源:', 'USAF 每小时地面观测', '报告类型:', 'METAR 航空例行天气报告', '露点:', '20.0°C', '其他云层:', '大部分晴天 (1,006米)', '天气:', 'Mist、Showers of Light Rain', '上午4:00', '21°C', '1,010毫巴', '每小时0公里', '5.00公里', '部分多云 (1,006米)', '本地:', '04:00、2019年9月4日周三', '协调世界时:', '20:00、2019年9月3日周二', '来源:', '周期文件', '趋势:', '变化为', '露点:', '20°C', '其他云层:', '大部分晴天 (1,006米)', '天气:', 'Showers of Light Rain、Mist、Mist', '原始:', 'ZUUU 032000Z 00000MPS 5000 -SHRA BR FEW033TCU SCT033 21/20 Q1010 BECMG TL2130 2700 BR', '上午4:00', '21.0°C', '1,010毫巴', '每小时0公里', '5.00公里', '部分多云 (1,006米)', '本地:', '04:00、2019年9月4日周三', '协调世界时:', '20:00、2019年9月3日周二', '来源:', 'USAF 每小时地面观测', '报告类型:', 'METAR 航空例行天气报告', '露点:', '20.0°C', '其他云层:', '大部分晴天 (1,006米)', '天气:', 'Mist、Showers of Light Rain', '上午5:00', '21°C', '1,010毫巴', '每小时3.60公里', '3.00公里', '部分多云 (1,006米)', '本地:', '05:00、2019年9月4日周三', '协调世界时:', '21:00、2019年9月3日周二', '来源:', '周期文件', '趋势:', '变化为', '露点:', '20°C', '其他云层:', '大部分晴天 (213米)、大部分晴天 (1,006米)', '天气:', 'Showers of Light Rain、Mist、Mist', '原始:', 'ZUUU 032100Z VRB01MPS 3000 -SHRA BR FEW007 FEW033TCU SCT033 21/20 Q1010 BECMG TL2200 2300 BR', '上午5:00', '21.0°C', '1,010毫巴', '每小时3.60公里', '3.00公里', '部分多云 (1,006米)', '本地:', '05:00、2019年9月4日周三', '协调世界时:', '21:00、2019年9月3日周二', '来源:', 'USAF 每小时地面观测', '报告类型:', 'METAR 航空例行天气报告', '露点:', '20.0°C', '其他云层:', '大部分晴天 (213米)、大部分晴天 (1,006米)', '天气:', 'Mist、Showers of Light Rain', '上午6:00', '21°C', '1,010毫巴', '每小时3.60公里', '3.00公里', '部分多云 (1,006米)', '本地:', '06:00、2019年9月4日周三', '协调世界时:', '22:00、2019年9月3日周二', '来源:', '周期文件', '趋势:', '变化为', '露点:', '20°C', '其他云层:', '大部分晴天 (213米)、大部分晴天 (1,006米)', '天气:', 'Showers of Light Rain、Mist、Mist', '原始:', 'ZUUU 032200Z VRB01MPS 3000 -SHRA BR FEW007 FEW033TCU SCT033 21/20 Q1010 BECMG TL2300 2300 BR', '上午6:00', '21.0°C', '1,010毫巴', '每小时3.60公里', '3.00公里', '部分多云 (1,006米)', '本地:', '06:00、2019年9月4日周三', '协调世界时:', '22:00、2019年9月3日周二', '来源:', 'USAF 每小时地面观测', '报告类型:', 'METAR 航空例行天气报告', '露点:', '20.0°C', '其他云层:', '大部分晴天 (213米)、大部分晴天 (1,006米)', '天气:', 'Mist、Showers of Light Rain', '上午7:00', '21°C', '1,010毫巴', '每小时3.60公里', '2.70公里', '部分多云 (183米)', '本地:', '07:00、2019年9月4日周三', '协调世界时:', '23:00、2019年9月3日周二', '来源:', '周期文件', '趋势:', '无重要变化', '露点:', '20°C', '其他云层:', '大部分晴天 (792米)、部分多云 (792米)', '天气:', 'Showers of Light Rain、Mist', '原始:', 'ZUUU 032300Z VRB01MPS 2700 -SHRA BR SCT006 FEW026TCU SCT026 21/20 Q1010 NOSIG', '上午7:00', '21.0°C', '1,010毫巴', '每小时3.60公里', '2.70公里', '部分多云 (183米)', '本地:', '07:00、2019年9月4日周三', '协调世界时:', '23:00、2019年9月3日周二', '来源:', 'USAF 每小时地面观测', '报告类型:', 'METAR 航空例行天气报告', '露点:', '20.0°C', '其他云层:', '大部分晴天 (792米)、部分多云 (792米)', '天气:', 'Mist、Showers of Light Rain', '上午8:00', '21°C', '1,010毫巴', '每小时3.60公里', '3.00公里', '部分多云 (213米)', '本地:', '08:00、2019年9月4日周三', '协调世界时:', '00:00、2019年9月4日周三', '来源:', '周期文件', '趋势:', '无重要变化', '露点:', '20°C', '其他云层:', '大部分晴天 (792米)、部分多云 (792米)', '天气:', 'Showers of Light Rain、Mist', '原始:', 'ZUUU 040000Z VRB01MPS 3000 -SHRA BR SCT007 FEW026TCU SCT026 21/20 Q1010 NOSIG', '上午8:00', '21.0°C', '1,010毫巴', '每小时3.60公里', '3.00公里', '部分多云 (213米)', '本地:', '08:00、2019年9月4日周三', '协调世界时:', '00:00、2019年9月4日周三', '来源:', 'USAF 每小时地面观测', '报告类型:', 'METAR 航空例行天气报告', '露点:', '20.0°C', '其他云层:', '大部分晴天 (792米)、部分多云 (792米)', '天气:', 'Mist、Showers of Light Rain', '上午9:00', '21°C', '1,010毫巴', '每小时7.20公里, 北', '3.00公里', '部分多云 (792米)', '本地:', '09:00、2019年9月4日周三', '协调世界时:', '01:00、2019年9月4日周三', '来源:', '周期文件', '趋势:', '变化为', '露点:', '20°C', '其他云层:', '大部分晴天 (274米)、大部分晴天 (792米)', '天气:', 'Showers of Light Rain、Mist、Mist', '原始:', 'ZUUU 040100Z 35002MPS 320V050 3000 -SHRA BR FEW009 FEW026TCU SCT026 21/20 Q1010 BECMG TL0200 2700 BR', '上午9:00', '21.0°C', '1,010毫巴', '每小时7.20公里, 北', '3.00公里', '部分多云 (792米)', '本地:', '09:00、2019年9月4日周三', '协调世界时:', '01:00、2019年9月4日周三', '来源:', 'USAF 每小时地面观测', '报告类型:', 'METAR 航空例行天气报告', '露点:', '20.0°C', '其他云层:', '大部分晴天 (274米)、大部分晴天 (792米)', '天气:', 'Mist、Showers of Light Rain', '上午10:00', '21°C', '1,011毫巴', '每小时10.8公里, 北', '3.50公里', '部分多云 (792米)', '本地:', '10:00、2019年9月4日周三', '协调世界时:', '02:00、2019年9月4日周三', '来源:', '周期文件', '趋势:', '变化为', '露点:', '20°C', '其他云层:', '大部分晴天 (274米)、大部分晴天 (792米)', '天气:', 'Showers of Rain、Mist、Showers of Light Rain', '原始:', 'ZUUU 040200Z 01003MPS 320V040 3500 SHRA BR FEW009 FEW026TCU SCT026 21/20 Q1011 BECMG TL0230 -SHRA', '上午10:00', '21.0°C', '1,011毫巴', '每小时10.8公里, 北', '3.50公里', '部分多云 (792米)', '本地:', '10:00、2019年9月4日周三', '协调世界时:', '02:00、2019年9月4日周三', '来源:', 'USAF 每小时地面观测', '报告类型:', 'METAR 航空例行天气报告', '露点:', '20.0°C', '其他云层:', '大部分晴天 (274米)、大部分晴天 (792米)', '天气:', 'Mist、Showers of Rain', '上午11:00', '21°C', '1,011毫巴', '每小时7.20公里, 北', '5.00公里', '部分多云 (792米)', '本地:', '11:00、2019年9月4日周三', '协调世界时:', '03:00、2019年9月4日周三', '来源:', '周期文件', '趋势:', '无重要变化', '露点:', '20°C', '其他云层:', '大部分晴天 (152米)、大部分晴天 (792米)', '天气:', 'Showers of Light Rain、Mist、Recent Showers of Rain', '原始:', 'ZUUU 040300Z 36002MPS 330V040 5000 -SHRA BR FEW005 FEW026TCU SCT026 21/20 Q1011 RESHRA NOSIG', '上午11:00', '21.0°C', '1,011毫巴', '每小时7.20公里, 北', '5.00公里', '部分多云 (792米)', '本地:', '11:00、2019年9月4日周三', '协调世界时:', '03:00、2019年9月4日周三', '来源:', 'USAF 每小时地面观测', '报告类型:', 'METAR 航空例行天气报告', '露点:', '20.0°C', '其他云层:', '大部分晴天 (152米)、大部分晴天 (792米)', '天气:', 'Mist、Showers of Light Rain', '下午12:00', '22°C', '1,010毫巴', '每小时10.8公里, 北', '7.00公里', '部分多云 (792米)', '本地:', '12:00、2019年9月4日周三', '协调世界时:', '04:00、2019年9月4日周三', '来源:', '周期文件', '趋势:', '无重要变化', '露点:', '20°C', '其他云层:', '大部分晴天 (152米)', '天气:', 'Light Rain', '原始:', 'ZUUU 040400Z 01003MPS 330V040 7000 -RA FEW005 SCT026 22/20 Q1010 NOSIG', '下午12:00', '22.0°C', '1,010毫巴', '每小时10.8公里, 北', '7.00公里', '部分多云 (792米)', '本地:', '12:00、2019年9月4日周三', '协调世界时:', '04:00、2019年9月4日周三', '来源:', 'USAF 每小时地面观测', '报告类型:', 'METAR 航空例行天气报告', '露点:', '20.0°C', '其他云层:', '大部分晴天 (152米)', '天气:', 'Light Rain', '下午1:00', '22°C', '1,010毫巴', '每小时10.8公里, 北', '8.00公里', '大部分多云 (610米)', '本地:', '13:00、2019年9月4日周三', '协调世界时:', '05:00、2019年9月4日周三', '来源:', '周期文件', '趋势:', '无重要变化', '露点:', '20°C', '其他云层:', '大部分晴天 (183米)', '天气:', 'Light Rain', '原始:', 'ZUUU 040500Z 01003MPS 8000 -RA FEW006 BKN020 22/20 Q1010 NOSIG', '下午1:00', '22.0°C', '1,010毫巴', '每小时10.8公里, 北', '8.00公里', '大部分多云 (610米)', '本地:', '13:00、2019年9月4日周三', '协调世界时:', '05:00、2019年9月4日周三', '来源:', 'USAF 每小时地面观测', '报告类型:', 'METAR 航空例行天气报告', '露点:', '20.0°C', '其他云层:', '大部分晴天 (183米)', '天气:', 'Light Rain', '下午2:00', '22°C', '1,009毫巴', '每小时7.20公里, 北', '8.00公里', '大部分多云 (610米)', '本地:', '14:00、2019年9月4日周三', '协调世界时:', '06:00、2019年9月4日周三', '来源:', '周期文件', '趋势:', '无重要变化', '露点:', '20°C', '其他云层:', '部分多云 (244米)', '天气:', 'Light Rain', '原始:', 'ZUUU 040600Z 01002MPS 330V030 8000 -RA SCT008 BKN020 22/20 Q1009 NOSIG', '下午2:00', '22.0°C', '1,009毫巴', '每小时7.20公里, 北', '8.00公里', '大部分多云 (610米)', '本地:', '14:00、2019年9月4日周三', '协调世界时:', '06:00、2019年9月4日周三', '来源:', 'USAF 每小时地面观测', '报告类型:', 'METAR 航空例行天气报告', '露点:', '20.0°C', '其他云层:', '部分多云 (244米)', '天气:', 'Light Rain', '下午3:00', '22°C', '1,009毫巴', '每小时14.4公里, 东北', '8.00公里', '大部分多云 (610米)', '本地:', '15:00、2019年9月4日周三', '协调世界时:', '07:00、2019年9月4日周三', '来源:', '周期文件', '趋势:', '无重要变化', '露点:', '20°C', '其他云层:', '大部分晴天 (244米)', '原始:', 'ZUUU 040700Z 03004MPS 8000 FEW008 BKN020 22/20 Q1009 NOSIG', '下午3:00', '22.0°C', '1,009毫巴', '每小时14.4公里, 东北', '8.00公里', '大部分多云 (610米)', '本地:', '15:00、2019年9月4日周三', '协调世界时:', '07:00、2019年9月4日周三', '来源:', 'USAF 每小时地面观测', '报告类型:', 'METAR 航空例行天气报告', '露点:', '20.0°C', '其他云层:', '大部分晴天 (244米)', '下午4:00', '22°C', '1,009毫巴', '每小时10.8公里, 北', '10.00公里', '大部分多云 (610米)', '本地:', '16:00、2019年9月4日周三', '协调世界时:', '08:00、2019年9月4日周三', '来源:', '周期文件', '趋势:', '无重要变化', '露点:', '20°C', '其他云层:', '大部分晴天 (274米)、部分多云 (396米)', '原始:', 'ZUUU 040800Z 02003MPS 9999 FEW009 SCT013 BKN020 22/20 Q1009 NOSIG', '下午4:00', '22.0°C', '1,009毫巴', '每小时10.8公里, 北', '10.00公里', '大部分多云 (610米)', '本地:', '16:00、2019年9月4日周三', '协调世界时:', '08:00、2019年9月4日周三', '来源:', 'USAF 每小时地面观测', '报告类型:', 'METAR 航空例行天气报告', '露点:', '20.0°C', '其他云层:', '大部分晴天 (274米)、部分多云 (396米)', '下午5:00', '22°C', '1,009毫巴', '每小时14.4公里, 东北', '10.00公里', '大部分多云 (610米)', '本地:', '17:00、2019年9月4日周三', '协调世界时:', '09:00、2019年9月4日周三', '来源:', '周期文件', '趋势:', '无重要变化', '露点:', '20°C', '其他云层:', '大部分晴天 (305米)、部分多云 (396米)', '原始:', 'ZUUU 040900Z 03004MPS 9999 FEW010 SCT013 BKN020 22/20 Q1009 NOSIG', '下午5:00', '22.0°C', '1,009毫巴', '每小时14.4公里, 东北', '10.00公里', '大部分多云 (610米)', '本地:', '17:00、2019年9月4日周三', '协调世界时:', '09:00、2019年9月4日周三', '来源:', 'USAF 每小时地面观测', '报告类型:', 'METAR 航空例行天气报告', '露点:', '20.0°C', '其他云层:', '大部分晴天 (305米)、部分多云 (396米)', '下午6:00', '22°C', '1,010毫巴', '每小时10.8公里, 东北', '10.00公里', '大部分多云 (610米)', '本地:', '18:00、2019年9月4日周三', '协调世界时:', '10:00、2019年9月4日周三', '来源:', '周期文件', '趋势:', '无重要变化', '露点:', '20°C', '其他云层:', '大部分晴天 (305米)、部分多云 (396米)', '原始:', 'ZUUU 041000Z 03003MPS 360V070 9999 FEW010 SCT013 BKN020 22/20 Q1010 NOSIG', '下午6:00', '22.0°C', '1,010毫巴', '每小时10.8公里, 东北', '10.00公里', '大部分多云 (610米)', '本地:', '18:00、2019年9月4日周三', '协调世界时:', '10:00、2019年9月4日周三', '来源:', 'USAF 每小时地面观测', '报告类型:', 'METAR 航空例行天气报告', '露点:', '20.0°C', '其他云层:', '大部分晴天 (305米)、部分多云 (396米)', '下午7:00', '22°C', '1,010毫巴', '每小时14.4公里, 东北', '2.30公里', '大部分多云 (610米)', '本地:', '19:00、2019年9月4日周三', '协调世界时:', '11:00、2019年9月4日周三', '来源:', '周期文件', '趋势:', '变化为', '露点:', '20°C', '其他云层:', '大部分晴天 (305米)、部分多云 (396米)', '天气:', 'Showers of Light Rain、Mist', '原始:', 'ZUUU 041100Z 04004MPS 010V070 2300 -SHRA BR FEW010 SCT013 BKN020 22/20 Q1010 BECMG TL1230 3500', '下午7:00', '22.0°C', '1,010毫巴', '每小时14.4公里, 东北', '2.30公里', '大部分多云 (610米)', '本地:', '19:00、2019年9月4日周三', '协调世界时:', '11:00、2019年9月4日周三', '来源:', 'USAF 每小时地面观测', '报告类型:', 'METAR 航空例行天气报告', '露点:', '20.0°C', '其他云层:', '大部分晴天 (305米)、部分多云 (396米)', '天气:', 'Mist、Showers of Light Rain', '下午8:00', '21°C', '1,010毫巴', '每小时7.20公里, 东北', '4.00公里', '大部分多云 (610米)', '本地:', '20:00、2019年9月4日周三', '协调世界时:', '12:00、2019年9月4日周三', '来源:', '周期文件', '趋势:', '无重要变化', '露点:', '20°C', '其他云层:', '大部分晴天 (305米)、部分多云 (396米)', '天气:', 'Showers of Light Rain、Mist', '原始:', 'ZUUU 041200Z 06002MPS 030V100 4000 -SHRA BR FEW010 SCT013 BKN020 21/20 Q1010 NOSIG', '下午8:00', '21.0°C', '1,010毫巴', '每小时7.20公里, 东北', '4.00公里', '大部分多云 (610米)', '本地:', '20:00、2019年9月4日周三', '协调世界时:', '12:00、2019年9月4日周三', '来源:', 'USAF 每小时地面观测', '报告类型:', 'METAR 航空例行天气报告', '露点:', '20.0°C', '其他云层:', '大部分晴天 (305米)、部分多云 (396米)', '天气:', 'Mist、Showers of Light Rain', '下午9:00', '21°C', '1,011毫巴', '每小时7.20公里, 北', '6.00公里', '部分多云 (610米)', '本地:', '21:00、2019年9月4日周三', '协调世界时:', '13:00、2019年9月4日周三', '来源:', '周期文件', '趋势:', '无重要变化', '露点:', '20°C', '其他云层:', '大部分晴天 (213米)', '天气:', 'Showers of Light Rain', '原始:', 'ZUUU 041300Z 01002MPS 6000 -SHRA FEW007 SCT020 21/20 Q1011 NOSIG', '下午9:00', '21.0°C', '1,011毫巴', '每小时7.20公里, 北', '6.00公里', '部分多云 (610米)', '本地:', '21:00、2019年9月4日周三', '协调世界时:', '13:00、2019年9月4日周三', '来源:', 'USAF 每小时地面观测', '报告类型:', 'METAR 航空例行天气报告', '露点:', '20.0°C', '其他云层:', '大部分晴天 (213米)', '天气:', 'Showers of Light Rain', '下午10:00', '22°C', '1,011毫巴', '每小时3.60公里', '7.00公里', '部分多云 (610米)', '本地:', '22:00、2019年9月4日周三', '协调世界时:', '14:00、2019年9月4日周三', '来源:', '周期文件', '趋势:', '无重要变化', '露点:', '20°C', '其他云层:', '大部分晴天 (213米)', '原始:', 'ZUUU 041400Z VRB01MPS 7000 FEW007 SCT020 22/20 Q1011 NOSIG', '下午10:00', '22.0°C', '1,011毫巴', '每小时3.60公里', '7.00公里', '部分多云 (610米)', '本地:', '22:00、2019年9月4日周三', '协调世界时:', '14:00、2019年9月4日周三', '来源:', 'USAF 每小时地面观测', '报告类型:', 'METAR 航空例行天气报告', '露点:', '20.0°C', '其他云层:', '大部分晴天 (213米)', '下午11:00', '22°C', '1,011毫巴', '每小时3.60公里', '7.00公里', '部分多云 (610米)', '本地:', '23:00、2019年9月4日周三', '协调世界时:', '15:00、2019年9月4日周三', '来源:', '周期文件', '趋势:', '无重要变化', '露点:', '20°C', '其他云层:', '大部分晴天 (213米)', '原始:', 'ZUUU 041500Z VRB01MPS 7000 FEW007 SCT020 22/20 Q1011 NOSIG', '下午11:00', '22.0°C', '1,011毫巴', '每小时3.60公里', '7.00公里', '部分多云 (610米)', '本地:', '23:00、2019年9月4日周三', '协调世界时:', '15:00、2019年9月4日周三', '来源:', 'USAF 每小时地面观测', '报告类型:', 'METAR 航空例行天气报告', '露点:', '20.0°C', '其他云层:', '大部分晴天 (213米)']