['上午12:00', '11°C', '1,027毫巴', '每小时25.2公里, 东北', '10.00公里', '部分多云 (1,524米)', '本地:', '00:00、2019年12月26日周四', '协调世界时:', '16:00、2019年12月25日周三', '来源:', '周期文件', '趋势:', '无重要变化', '露点:', '-4°C', '原始:', 'ZUUU 251600Z 05007MPS 020V080 9999 SCT050 11/M04 Q1027 NOSIG', '上午12:00', '11.0°C', '1,027毫巴', '每小时25.2公里, 东北', '10.00公里', '部分多云 (1,524米)', '本地:', '00:00、2019年12月26日周四', '协调世界时:', '16:00、2019年12月25日周三', '来源:', 'USAF 每小时地面观测', '报告类型:', 'METAR 航空例行天气报告', '露点:', '-4.0°C', '上午1:00', '9°C', '1,027毫巴', '每小时14.4公里, 北', '≥ 10.00公里', '晴空万里', '本地:', '01:00、2019年12月26日周四', '协调世界时:', '17:00、2019年12月25日周三', '来源:', '周期文件', '趋势:', '无重要变化', '露点:', '-4°C', '晴空万里:', '真', '原始:', 'ZUUU 251700Z 02004MPS 360V060 CAVOK 09/M04 Q1027 NOSIG', '上午1:00', '9.0°C', '1,027毫巴', '每小时14.4公里, 北', '9.90公里', '晴空万里', '本地:', '01:00、2019年12月26日周四', '协调世界时:', '17:00、2019年12月25日周三', '来源:', 'USAF 每小时地面观测', '报告类型:', 'METAR 航空例行天气报告', '露点:', '-4.0°C', '晴空万里:', '真', '上午2:00', '9°C', '1,027毫巴', '每小时21.6公里, 东北', '10.00公里', '部分多云 (1,524米)', '本地:', '02:00、2019年12月26日周四', '协调世界时:', '18:00、2019年12月25日周三', '来源:', '周期文件', '趋势:', '无重要变化', '露点:', '-7°C', '原始:', 'ZUUU 251800Z 04006MPS 9999 SCT050 09/M07 Q1027 NOSIG', '上午2:00', '9.0°C', '1,027毫巴', '每小时21.6公里, 东北', '10.00公里', '部分多云 (1,524米)', '本地:', '02:00、2019年12月26日周四', '协调世界时:', '18:00、2019年12月25日周三', '来源:', 'USAF 每小时地面观测', '报告类型:', 'METAR 航空例行天气报告', '露点:', '-7.0°C', '上午3:00', '9°C', '1,028毫巴', '每小时21.6公里, 东北', '10.00公里', '大部分晴天 (1,524米)', '本地:', '03:00、2019年12月26日周四', '协调世界时:', '19:00、2019年12月25日周三', '来源:', '周期文件', '趋势:', '无重要变化', '露点:', '-8°C', '原始:', 'ZUUU 251900Z 04006MPS 9999 FEW050 09/M08 Q1028 NOSIG', '上午3:00', '9.0°C', '1,028毫巴', '每小时21.6公里, 东北', '10.00公里', '大部分晴天 (1,524米)', '本地:', '03:00、2019年12月26日周四', '协调世界时:', '19:00、2019年12月25日周三', '来源:', 'USAF 每小时地面观测', '报告类型:', 'METAR 航空例行天气报告', '露点:', '-8.0°C', '上午4:00', '8°C', '1,028毫巴', '每小时18.0公里, 东北', '10.00公里', '大部分晴天 (1,524米)', '本地:', '04:00、2019年12月26日周四', '协调世界时:', '20:00、2019年12月25日周三', '来源:', '周期文件', '趋势:', '无重要变化', '露点:', '-8°C', '原始:', 'ZUUU 252000Z 04005MPS 9999 FEW050 08/M08 Q1028 NOSIG', '上午4:00', '8.0°C', '1,028毫巴', '每小时18.0公里, 东北', '10.00公里', '大部分晴天 (1,524米)', '本地:', '04:00、2019年12月26日周四', '协调世界时:', '20:00、2019年12月25日周三', '来源:', 'USAF 每小时地面观测', '报告类型:', 'METAR 航空例行天气报告', '露点:', '-8.0°C', '上午5:00', '8°C', '1,028毫巴', '每小时18.0公里, 东北', '10.00公里', '部分多云 (1,524米)', '本地:', '05:00、2019年12月26日周四', '协调世界时:', '21:00、2019年12月25日周三', '来源:', '周期文件', '趋势:', '无重要变化', '露点:', '-8°C', '原始:', 'ZUUU 252100Z 04005MPS 9999 SCT050 08/M08 Q1028 NOSIG', '上午5:00', '8.0°C', '1,028毫巴', '每小时18.0公里, 东北', '10.00公里', '部分多云 (1,524米)', '本地:', '05:00、2019年12月26日周四', '协调世界时:', '21:00、2019年12月25日周三', '来源:', 'USAF 每小时地面观测', '报告类型:', 'METAR 航空例行天气报告', '露点:', '-8.0°C', '上午6:00', '8°C', '1,029毫巴', '每小时14.4公里, 北', '10.00公里', '部分多云 (1,524米)', '本地:', '06:00、2019年12月26日周四', '协调世界时:', '22:00、2019年12月25日周三', '来源:', '周期文件', '趋势:', '无重要变化', '露点:', '-10°C', '原始:', 'ZUUU 252200Z 02004MPS 350V050 9999 SCT050 08/M10 Q1029 NOSIG', '上午6:00', '8.0°C', '1,029毫巴', '每小时14.4公里, 北', '10.00公里', '部分多云 (1,524米)', '本地:', '06:00、2019年12月26日周四', '协调世界时:', '22:00、2019年12月25日周三', '来源:', 'USAF 每小时地面观测', '报告类型:', 'METAR 航空例行天气报告', '露点:', '-10.0°C', '上午7:00', '8°C', '1,030毫巴', '每小时10.8公里, 北', '10.00公里', '部分多云 (1,524米)', '本地:', '07:00、2019年12月26日周四', '协调世界时:', '23:00、2019年12月25日周三', '来源:', '周期文件', '趋势:', '无重要变化', '露点:', '-9°C', '原始:', 'ZUUU 252300Z 02003MPS 350V060 9999 SCT050 08/M09 Q1030 NOSIG', '上午7:00', '8.0°C', '1,030毫巴', '每小时10.8公里, 北', '10.00公里', '部分多云 (1,524米)', '本地:', '07:00、2019年12月26日周四', '协调世界时:', '23:00、2019年12月25日周三', '来源:', 'USAF 每小时地面观测', '报告类型:', 'METAR 航空例行天气报告', '露点:', '-9.0°C', '上午8:00', '8°C', '1,031毫巴', '每小时10.8公里, 北', '10.00公里', '部分多云 (1,524米)', '本地:', '08:00、2019年12月26日周四', '协调世界时:', '00:00、2019年12月26日周四', '来源:', '周期文件', '趋势:', '无重要变化', '露点:', '-11°C', '原始:', 'ZUUU 260000Z 01003MPS 330V040 9999 SCT050 08/M11 Q1031 NOSIG', '上午8:00', '8.0°C', '1,031毫巴', '每小时10.8公里, 北', '10.00公里', '部分多云 (1,524米)', '本地:', '08:00、2019年12月26日周四', '协调世界时:', '00:00、2019年12月26日周四', '来源:', 'USAF 每小时地面观测', '报告类型:', 'METAR 航空例行天气报告', '露点:', '-11.0°C', '上午9:00', '8°C', '1,032毫巴', '每小时7.20公里, 北', '10.00公里', '部分多云 (1,524米)', '本地:', '09:00、2019年12月26日周四', '协调世界时:', '01:00、2019年12月26日周四', '来源:', '周期文件', '趋势:', '无重要变化', '露点:', '-8°C', '原始:', 'ZUUU 260100Z 36002MPS 320V040 9999 SCT050 08/M08 Q1032 NOSIG', '上午9:00', '8.0°C', '1,032毫巴', '每小时7.20公里, 北', '10.00公里', '部分多云 (1,524米)', '本地:', '09:00、2019年12月26日周四', '协调世界时:', '01:00、2019年12月26日周四', '来源:', 'USAF 每小时地面观测', '报告类型:', 'METAR 航空例行天气报告', '露点:', '-8.0°C', '上午10:00', '8°C', '1,033毫巴', '每小时7.20公里, 北', '10.00公里', '部分多云 (1,524米)', '本地:', '10:00、2019年12月26日周四', '协调世界时:', '02:00、2019年12月26日周四', '来源:', '周期文件', '趋势:', '无重要变化', '露点:', '-5°C', '原始:', 'ZUUU 260200Z 35002MPS 310V030 9999 SCT050 08/M05 Q1033 NOSIG', '上午10:00', '8.0°C', '1,033毫巴', '每小时7.20公里, 北', '10.00公里', '部分多云 (1,524米)', '本地:', '10:00、2019年12月26日周四', '协调世界时:', '02:00、2019年12月26日周四', '来源:', 'USAF 每小时地面观测', '报告类型:', 'METAR 航空例行天气报告', '露点:', '-5.0°C', '上午11:00', '8°C', '1,033毫巴', '每小时7.20公里, 北', '10.00公里', '部分多云 (1,524米)', '本地:', '11:00、2019年12月26日周四', '协调世界时:', '03:00、2019年12月26日周四', '来源:', '周期文件', '趋势:', '无重要变化', '露点:', '-1°C', '原始:', 'ZUUU 260300Z 34002MPS 300V030 9999 SCT050 08/M01 Q1033 NOSIG', '上午11:00', '8.0°C', '1,033毫巴', '每小时7.20公里, 北', '10.00公里', '部分多云 (1,524米)', '本地:', '11:00、2019年12月26日周四', '协调世界时:', '03:00、2019年12月26日周四', '来源:', 'USAF 每小时地面观测', '报告类型:', 'METAR 航空例行天气报告', '露点:', '-1.0°C', '下午12:00', '9°C', '1,032毫巴', '每小时7.20公里, 北', '≥ 10.00公里', '晴空万里', '本地:', '12:00、2019年12月26日周四', '协调世界时:', '04:00、2019年12月26日周四', '来源:', '周期文件', '趋势:', '无重要变化', '露点:', '-3°C', '晴空万里:', '真', '原始:', 'ZUUU 260400Z 35002MPS 310V030 CAVOK 09/M03 Q1032 NOSIG', '下午12:00', '9.0°C', '1,032毫巴', '每小时7.20公里, 北', '9.90公里', '晴空万里', '本地:', '12:00、2019年12月26日周四', '协调世界时:', '04:00、2019年12月26日周四', '来源:', 'USAF 每小时地面观测', '报告类型:', 'METAR 航空例行天气报告', '露点:', '-3.0°C', '晴空万里:', '真', '下午1:00', '9°C', '1,031毫巴', '每小时0公里', '≥ 10.00公里', '晴空万里', '本地:', '13:00、2019年12月26日周四', '协调世界时:', '05:00、2019年12月26日周四', '来源:', '周期文件', '趋势:', '无重要变化', '露点:', '-4°C', '晴空万里:', '真', '原始:', 'ZUUU 260500Z 00000MPS CAVOK 09/M04 Q1031 NOSIG', '下午1:00', '9.0°C', '1,031毫巴', '每小时0公里', '9.90公里', '晴空万里', '本地:', '13:00、2019年12月26日周四', '协调世界时:', '05:00、2019年12月26日周四', '来源:', 'USAF 每小时地面观测', '报告类型:', 'METAR 航空例行天气报告', '露点:', '-4.0°C', '晴空万里:', '真', '下午2:00', '10°C', '1,029毫巴', '每小时0公里', '≥ 10.00公里', '晴空万里', '本地:', '14:00、2019年12月26日周四', '协调世界时:', '06:00、2019年12月26日周四', '来源:', '周期文件', '趋势:', '无重要变化', '露点:', '-6°C', '晴空万里:', '真', '原始:', 'ZUUU 260600Z 00000MPS CAVOK 10/M06 Q1029 NOSIG', '下午2:00', '10.0°C', '1,029毫巴', '每小时0公里', '9.90公里', '晴空万里', '本地:', '14:00、2019年12月26日周四', '协调世界时:', '06:00、2019年12月26日周四', '来源:', 'USAF 每小时地面观测', '报告类型:', 'METAR 航空例行天气报告', '露点:', '-6.0°C', '晴空万里:', '真', '下午3:00', '10°C', '1,028毫巴', '每小时7.20公里, 东', '≥ 10.00公里', '晴空万里', '本地:', '15:00、2019年12月26日周四', '协调世界时:', '07:00、2019年12月26日周四', '来源:', '周期文件', '趋势:', '无重要变化', '露点:', '-7°C', '晴空万里:', '真', '原始:', 'ZUUU 260700Z 10002MPS 360V170 CAVOK 10/M07 Q1028 NOSIG', '下午3:00', '10.0°C', '1,028毫巴', '每小时7.20公里, 东', '9.90公里', '晴空万里', '本地:', '15:00、2019年12月26日周四', '协调世界时:', '07:00、2019年12月26日周四', '来源:', 'USAF 每小时地面观测', '报告类型:', 'METAR 航空例行天气报告', '露点:', '-7.0°C', '晴空万里:', '真', '下午4:00', '11°C', '1,028毫巴', '每小时3.60公里', '≥ 10.00公里', '晴空万里', '本地:', '16:00、2019年12月26日周四', '协调世界时:', '08:00、2019年12月26日周四', '来源:', '周期文件', '趋势:', '无重要变化', '露点:', '-7°C', '晴空万里:', '真', '原始:', 'ZUUU 260800Z VRB01MPS CAVOK 11/M07 Q1028 NOSIG', '下午4:00', '11.0°C', '1,028毫巴', '每小时3.60公里', '9.90公里', '晴空万里', '本地:', '16:00、2019年12月26日周四', '协调世界时:', '08:00、2019年12月26日周四', '来源:', 'USAF 每小时地面观测', '报告类型:', 'METAR 航空例行天气报告', '露点:', '-7.0°C', '晴空万里:', '真', '下午5:00', '10°C', '1,028毫巴', '每小时3.60公里', '≥ 10.00公里', '晴空万里', '本地:', '17:00、2019年12月26日周四', '协调世界时:', '09:00、2019年12月26日周四', '来源:', '周期文件', '趋势:', '无重要变化', '露点:', '-7°C', '晴空万里:', '真', '原始:', 'ZUUU 260900Z VRB01MPS CAVOK 10/M07 Q1028 NOSIG', '下午5:00', '10.0°C', '1,028毫巴', '每小时3.60公里', '9.90公里', '晴空万里', '本地:', '17:00、2019年12月26日周四', '协调世界时:', '09:00、2019年12月26日周四', '来源:', 'USAF 每小时地面观测', '报告类型:', 'METAR 航空例行天气报告', '露点:', '-7.0°C', '晴空万里:', '真', '下午6:00', '9°C', '1,028毫巴', '每小时3.60公里, 西南', '≥ 10.00公里', '晴空万里', '本地:', '18:00、2019年12月26日周四', '协调世界时:', '10:00、2019年12月26日周四', '来源:', '周期文件', '趋势:', '无重要变化', '露点:', '-6°C', '晴空万里:', '真', '原始:', 'ZUUU 261000Z 21001MPS CAVOK 09/M06 Q1028 NOSIG', '下午6:00', '9.0°C', '1,028毫巴', '每小时3.60公里, 西南', '9.90公里', '晴空万里', '本地:', '18:00、2019年12月26日周四', '协调世界时:', '10:00、2019年12月26日周四', '来源:', 'USAF 每小时地面观测', '报告类型:', 'METAR 航空例行天气报告', '露点:', '-6.0°C', '晴空万里:', '真', '下午7:00', '8°C', '1,028毫巴', '每小时3.60公里, 西', '≥ 10.00公里', '晴空万里', '本地:', '19:00、2019年12月26日周四', '协调世界时:', '11:00、2019年12月26日周四', '来源:', '周期文件', '趋势:', '无重要变化', '露点:', '-4°C', '晴空万里:', '真', '原始:', 'ZUUU 261100Z 28001MPS CAVOK 08/M04 Q1028 NOSIG', '下午7:00', '8.0°C', '1,028毫巴', '每小时3.60公里, 西', '9.90公里', '晴空万里', '本地:', '19:00、2019年12月26日周四', '协调世界时:', '11:00、2019年12月26日周四', '来源:', 'USAF 每小时地面观测', '报告类型:', 'METAR 航空例行天气报告', '露点:', '-4.0°C', '晴空万里:', '真', '下午8:00', '8°C', '1,029毫巴', '每小时3.60公里, 西', '≥ 10.00公里', '晴空万里', '本地:', '20:00、2019年12月26日周四', '协调世界时:', '12:00、2019年12月26日周四', '来源:', '周期文件', '趋势:', '无重要变化', '露点:', '-3°C', '晴空万里:', '真', '原始:', 'ZUUU 261200Z 27001MPS CAVOK 08/M03 Q1029 NOSIG', '下午8:00', '8.0°C', '1,029毫巴', '每小时3.60公里, 西', '9.90公里', '晴空万里', '本地:', '20:00、2019年12月26日周四', '协调世界时:', '12:00、2019年12月26日周四', '来源:', 'USAF 每小时地面观测', '报告类型:', 'METAR 航空例行天气报告', '露点:', '-3.0°C', '晴空万里:', '真', '下午9:00', '7°C', '1,029毫巴', '每小时0公里', '≥ 10.00公里', '晴空万里', '本地:', '21:00、2019年12月26日周四', '协调世界时:', '13:00、2019年12月26日周四', '来源:', '周期文件', '趋势:', '无重要变化', '露点:', '1°C', '晴空万里:', '真', '原始:', 'ZUUU 261300Z 00000MPS CAVOK 07/01 Q1029 NOSIG', '下午9:00', '7.0°C', '1,029毫巴', '每小时0公里', '9.90公里', '晴空万里', '本地:', '21:00、2019年12月26日周四', '协调世界时:', '13:00、2019年12月26日周四', '来源:', 'USAF 每小时地面观测', '报告类型:', 'METAR 航空例行天气报告', '露点:', '1.0°C', '晴空万里:', '真', '下午10:00', '7°C', '1,029毫巴', '每小时3.60公里, 西南', '≥ 10.00公里', '晴空万里', '本地:', '22:00、2019年12月26日周四', '协调世界时:', '14:00、2019年12月26日周四', '来源:', '周期文件', '趋势:', '无重要变化', '露点:', '-1°C', '晴空万里:', '真', '原始:', 'ZUUU 261400Z 22001MPS CAVOK 07/M01 Q1029 NOSIG', '下午10:00', '7.0°C', '1,029毫巴', '每小时3.60公里, 西南', '9.90公里', '晴空万里', '本地:', '22:00、2019年12月26日周四', '协调世界时:', '14:00、2019年12月26日周四', '来源:', 'USAF 每小时地面观测', '报告类型:', 'METAR 航空例行天气报告', '露点:', '-1.0°C', '晴空万里:', '真', '下午11:00', '7°C', '1,029毫巴', '每小时0公里', '≥ 10.00公里', '晴空万里', '本地:', '23:00、2019年12月26日周四', '协调世界时:', '15:00、2019年12月26日周四', '来源:', '周期文件', '趋势:', '无重要变化', '露点:', '-1°C', '晴空万里:', '真', '原始:', 'ZUUU 261500Z 00000MPS CAVOK 07/M01 Q1029 NOSIG', '下午11:00', '7.0°C', '1,029毫巴', '每小时0公里', '9.90公里', '晴空万里', '本地:', '23:00、2019年12月26日周四', '协调世界时:', '15:00、2019年12月26日周四', '来源:', 'USAF 每小时地面观测', '报告类型:', 'METAR 航空例行天气报告', '露点:', '-1.0°C', '晴空万里:', '真']