['Mist', 'BR、IWC10', 'Mist', 'BR、IWC10', 'Mist', 'BR、IWC10', 'Mist', 'BR、IWC10', 'Mist', 'BR、IWC10', 'Mist', 'BR、IWC10', 'Mist', 'BR、IWC10', 'Mist', 'BR、IWC10', 'Mist', 'BR、IWC10', 'Showers of Light Rain、Mist', '-SHRA、IWC80、BR、IWC10', 'Showers of Light Rain、Mist', '-SHRA、IWC80、BR、IWC10', 'Mist', 'BR、IWC10', 'Showers of Light Rain、Mist', '-SHRA、IWC80、BR、IWC10', 'Showers of Light Rain、Mist', '-SHRA、IWC80、BR、IWC10', 'Showers of Light Rain', '-SHRA、IWC80', '上午12:00', '21°C', '1,016毫巴', '每小时3.60公里', '5.00公里', '大部分多云 (914米)', '本地:', '00:00、2019年9月3日周二', '协调世界时:', '16:00、2019年9月2日周一', '来源:', '周期文件', '趋势:', '无重要变化', '露点:', '19°C', '其他云层:', '部分多云 (305米)', '天气:', 'Mist', '原始:', 'ZUUU 021600Z VRB01MPS 5000 BR SCT010 BKN030 21/19 Q1016 NOSIG', '上午12:00', '21.0°C', '1,016毫巴', '每小时3.60公里', '5.00公里', '大部分多云 (914米)', '本地:', '00:00、2019年9月3日周二', '协调世界时:', '16:00、2019年9月2日周一', '来源:', 'USAF 每小时地面观测', '报告类型:', 'METAR 航空例行天气报告', '露点:', '19.0°C', '其他云层:', '部分多云 (305米)', '天气:', 'Mist', '上午1:00', '21°C', '1,015毫巴', '每小时3.60公里', '5.00公里', '大部分多云 (914米)', '本地:', '01:00、2019年9月3日周二', '协调世界时:', '17:00、2019年9月2日周一', '来源:', '周期文件', '趋势:', '无重要变化', '露点:', '19°C', '其他云层:', '大部分晴天 (305米)', '天气:', 'Mist', '原始:', 'ZUUU 021700Z VRB01MPS 5000 BR FEW010 BKN030 21/19 Q1015 NOSIG', '上午1:00', '21.0°C', '1,015毫巴', '每小时3.60公里', '5.00公里', '大部分多云 (914米)', '本地:', '01:00、2019年9月3日周二', '协调世界时:', '17:00、2019年9月2日周一', '来源:', 'USAF 每小时地面观测', '报告类型:', 'METAR 航空例行天气报告', '露点:', '19.0°C', '其他云层:', '大部分晴天 (305米)', '天气:', 'Mist', '上午2:00', '21°C', '1,014毫巴', '每小时3.60公里', '5.00公里', '大部分多云 (914米)', '本地:', '02:00、2019年9月3日周二', '协调世界时:', '18:00、2019年9月2日周一', '来源:', '周期文件', '趋势:', '无重要变化', '露点:', '19°C', '其他云层:', '大部分晴天 (366米)', '天气:', 'Mist', '原始:', 'ZUUU 021800Z VRB01MPS 5000 BR FEW012 BKN030 21/19 Q1014 NOSIG', '上午2:00', '21.0°C', '1,014毫巴', '每小时3.60公里', '5.00公里', '大部分多云 (914米)', '本地:', '02:00、2019年9月3日周二', '协调世界时:', '18:00、2019年9月2日周一', '来源:', 'USAF 每小时地面观测', '报告类型:', 'METAR 航空例行天气报告', '露点:', '19.0°C', '其他云层:', '大部分晴天 (366米)', '天气:', 'Mist', '上午3:00', '21°C', '1,014毫巴', '每小时3.60公里', '5.00公里', '大部分多云 (914米)', '本地:', '03:00、2019年9月3日周二', '协调世界时:', '19:00、2019年9月2日周一', '来源:', '周期文件', '趋势:', '无重要变化', '露点:', '18°C', '其他云层:', '大部分晴天 (366米)', '天气:', 'Mist', '原始:', 'ZUUU 021900Z VRB01MPS 5000 BR FEW012 BKN030 21/18 Q1014 NOSIG', '上午3:00', '21.0°C', '1,014毫巴', '每小时3.60公里', '5.00公里', '大部分多云 (914米)', '本地:', '03:00、2019年9月3日周二', '协调世界时:', '19:00、2019年9月2日周一', '来源:', 'USAF 每小时地面观测', '报告类型:', 'METAR 航空例行天气报告', '露点:', '18.0°C', '其他云层:', '大部分晴天 (366米)', '天气:', 'Mist', '上午4:00', '21°C', '1,014毫巴', '每小时3.60公里', '5.00公里', '大部分多云 (914米)', '本地:', '04:00、2019年9月3日周二', '协调世界时:', '20:00、2019年9月2日周一', '来源:', '周期文件', '趋势:', '无重要变化', '露点:', '18°C', '其他云层:', '大部分晴天 (366米)', '天气:', 'Mist', '原始:', 'ZUUU 022000Z VRB01MPS 5000 BR FEW012 BKN030 21/18 Q1014 NOSIG', '上午4:00', '21.0°C', '1,014毫巴', '每小时3.60公里', '5.00公里', '大部分多云 (914米)', '本地:', '04:00、2019年9月3日周二', '协调世界时:', '20:00、2019年9月2日周一', '来源:', 'USAF 每小时地面观测', '报告类型:', 'METAR 航空例行天气报告', '露点:', '18.0°C', '其他云层:', '大部分晴天 (366米)', '天气:', 'Mist', '上午5:00', '21°C', '1,014毫巴', '每小时3.60公里, 北', '5.00公里', '大部分多云 (914米)', '本地:', '05:00、2019年9月3日周二', '协调世界时:', '21:00、2019年9月2日周一', '来源:', '周期文件', '趋势:', '无重要变化', '露点:', '19°C', '其他云层:', '大部分晴天 (366米)', '天气:', 'Mist', '原始:', 'ZUUU 022100Z 02001MPS 5000 BR FEW012 BKN030 21/19 Q1014 NOSIG', '上午5:00', '21.0°C', '1,014毫巴', '每小时3.60公里, 北', '5.00公里', '大部分多云 (914米)', '本地:', '05:00、2019年9月3日周二', '协调世界时:', '21:00、2019年9月2日周一', '来源:', 'USAF 每小时地面观测', '报告类型:', 'METAR 航空例行天气报告', '露点:', '19.0°C', '其他云层:', '大部分晴天 (366米)', '天气:', 'Mist', '上午6:00', '21°C', '1,014毫巴', '每小时7.20公里, 东北', '5.00公里', '大部分多云 (914米)', '本地:', '06:00、2019年9月3日周二', '协调世界时:', '22:00、2019年9月2日周一', '来源:', '周期文件', '趋势:', '无重要变化', '露点:', '19°C', '其他云层:', '大部分晴天 (335米)', '天气:', 'Mist', '原始:', 'ZUUU 022200Z 04002MPS 360V060 5000 BR FEW011 BKN030 21/19 Q1014 NOSIG', '上午6:00', '21.0°C', '1,014毫巴', '每小时7.20公里, 东北', '5.00公里', '大部分多云 (914米)', '本地:', '06:00、2019年9月3日周二', '协调世界时:', '22:00、2019年9月2日周一', '来源:', 'USAF 每小时地面观测', '报告类型:', 'METAR 航空例行天气报告', '露点:', '19.0°C', '其他云层:', '大部分晴天 (335米)', '天气:', 'Mist', '上午7:00', '21°C', '1,014毫巴', '每小时7.20公里, 北', '4.50公里', '大部分多云 (1,006米)', '本地:', '07:00、2019年9月3日周二', '协调世界时:', '23:00、2019年9月2日周一', '来源:', '周期文件', '趋势:', '无重要变化', '露点:', '19°C', '其他云层:', '大部分晴天 (335米)', '天气:', 'Mist', '原始:', 'ZUUU 022300Z 36002MPS 320V030 4500 BR FEW011 BKN033 21/19 Q1014 NOSIG', '上午7:00', '21.0°C', '1,014毫巴', '每小时7.20公里, 北', '4.50公里', '大部分多云 (1,006米)', '本地:', '07:00、2019年9月3日周二', '协调世界时:', '23:00、2019年9月2日周一', '来源:', 'USAF 每小时地面观测', '报告类型:', 'METAR 航空例行天气报告', '露点:', '19.0°C', '其他云层:', '大部分晴天 (335米)', '天气:', 'Mist', '上午8:00', '21°C', '1,014毫巴', '每小时7.20公里, 北', '4.00公里', '大部分多云 (1,006米)', '本地:', '08:00、2019年9月3日周二', '协调世界时:', '00:00、2019年9月3日周二', '来源:', '周期文件', '趋势:', '无重要变化', '露点:', '19°C', '其他云层:', '大部分晴天 (335米)', '天气:', 'Mist', '原始:', 'ZUUU 030000Z 01002MPS 320V040 4000 BR FEW011 BKN033 21/19 Q1014 NOSIG', '上午8:00', '21.0°C', '1,014毫巴', '每小时7.20公里, 北', '4.00公里', '大部分多云 (1,006米)', '本地:', '08:00、2019年9月3日周二', '协调世界时:', '00:00、2019年9月3日周二', '来源:', 'USAF 每小时地面观测', '报告类型:', 'METAR 航空例行天气报告', '露点:', '19.0°C', '其他云层:', '大部分晴天 (335米)', '天气:', 'Mist', '上午9:00', '21°C', '1,014毫巴', '每小时7.20公里, 北', '4.50公里', '大部分多云 (1,006米)', '本地:', '09:00、2019年9月3日周二', '协调世界时:', '01:00、2019年9月3日周二', '来源:', '周期文件', '趋势:', '无重要变化', '露点:', '19°C', '其他云层:', '部分多云 (305米)', '天气:', 'Showers of Light Rain、Mist', '原始:', 'ZUUU 030100Z 01002MPS 300V040 4500 -SHRA BR SCT010 BKN033 21/19 Q1014 NOSIG', '上午9:00', '21.0°C', '1,014毫巴', '每小时7.20公里, 北', '4.50公里', '大部分多云 (1,006米)', '本地:', '09:00、2019年9月3日周二', '协调世界时:', '01:00、2019年9月3日周二', '来源:', 'USAF 每小时地面观测', '报告类型:', 'METAR 航空例行天气报告', '露点:', '19.0°C', '其他云层:', '部分多云 (305米)', '天气:', 'Mist、Showers of Light Rain', '上午10:00', '22°C', '1,014毫巴', '每小时7.20公里, 北', '5.00公里', '大部分多云 (1,219米)', '本地:', '10:00、2019年9月3日周二', '协调世界时:', '02:00、2019年9月3日周二', '来源:', '周期文件', '趋势:', '无重要变化', '露点:', '19°C', '其他云层:', '部分多云 (305米)', '天气:', 'Showers of Light Rain、Mist', '原始:', 'ZUUU 030200Z 01002MPS 330V040 5000 -SHRA BR SCT010 BKN040 22/19 Q1014 NOSIG', '上午10:00', '22.0°C', '1,014毫巴', '每小时7.20公里, 北', '5.00公里', '大部分多云 (1,219米)', '本地:', '10:00、2019年9月3日周二', '协调世界时:', '02:00、2019年9月3日周二', '来源:', 'USAF 每小时地面观测', '报告类型:', 'METAR 航空例行天气报告', '露点:', '19.0°C', '其他云层:', '部分多云 (305米)', '天气:', 'Mist、Showers of Light Rain', '上午11:00', '22°C', '1,014毫巴', '每小时7.20公里, 北', '8.00公里', '大部分多云 (1,311米)', '本地:', '11:00、2019年9月3日周二', '协调世界时:', '03:00、2019年9月3日周二', '来源:', '周期文件', '趋势:', '无重要变化', '露点:', '19°C', '其他云层:', '大部分晴天 (305米)', '原始:', 'ZUUU 030300Z 01002MPS 320V040 8000 FEW010 BKN043 22/19 Q1014 NOSIG', '上午11:00', '22.0°C', '1,014毫巴', '每小时7.20公里, 北', '8.00公里', '大部分多云 (1,311米)', '本地:', '11:00、2019年9月3日周二', '协调世界时:', '03:00、2019年9月3日周二', '来源:', 'USAF 每小时地面观测', '报告类型:', 'METAR 航空例行天气报告', '露点:', '19.0°C', '其他云层:', '大部分晴天 (305米)', '下午12:00', '22°C', '1,014毫巴', '每小时7.20公里, 东北', '4.50公里', '大部分多云 (1,219米)', '本地:', '12:00、2019年9月3日周二', '协调世界时:', '04:00、2019年9月3日周二', '来源:', '周期文件', '趋势:', '无重要变化', '露点:', '19°C', '其他云层:', '大部分晴天 (305米)', '天气:', 'Mist', '原始:', 'ZUUU 030400Z 04002MPS 360V090 4500 BR FEW010 BKN040 22/19 Q1014 NOSIG', '下午12:00', '22.0°C', '1,014毫巴', '每小时7.20公里, 东北', '4.50公里', '大部分多云 (1,219米)', '本地:', '12:00、2019年9月3日周二', '协调世界时:', '04:00、2019年9月3日周二', '来源:', 'USAF 每小时地面观测', '报告类型:', 'METAR 航空例行天气报告', '露点:', '19.0°C', '其他云层:', '大部分晴天 (305米)', '天气:', 'Mist', '下午1:00', '22°C', '1,013毫巴', '每小时10.8公里, 东北', '2.50公里', '大部分多云 (1,219米)', '本地:', '13:00、2019年9月3日周二', '协调世界时:', '05:00、2019年9月3日周二', '来源:', '周期文件', '趋势:', '变化为', '露点:', '20°C', '其他云层:', '大部分晴天 (305米)', '天气:', 'Showers of Light Rain、Mist', '原始:', 'ZUUU 030500Z 04003MPS 010V080 2500 -SHRA BR FEW010 BKN040 22/20 Q1013 BECMG TL0630 3500', '下午1:00', '22.0°C', '1,013毫巴', '每小时10.8公里, 东北', '2.50公里', '大部分多云 (1,219米)', '本地:', '13:00、2019年9月3日周二', '协调世界时:', '05:00、2019年9月3日周二', '来源:', 'USAF 每小时地面观测', '报告类型:', 'METAR 航空例行天气报告', '露点:', '20.0°C', '其他云层:', '大部分晴天 (305米)', '天气:', 'Mist、Showers of Light Rain', '下午2:00', '22°C', '1,012毫巴', '每小时7.20公里, 北', '4.00公里', '大部分多云 (1,006米)', '本地:', '14:00、2019年9月3日周二', '协调世界时:', '06:00、2019年9月3日周二', '来源:', '周期文件', '趋势:', '无重要变化', '露点:', '20°C', '其他云层:', '大部分晴天 (305米)', '天气:', 'Showers of Light Rain、Mist', '原始:', 'ZUUU 030600Z 02002MPS 340V060 4000 -SHRA BR FEW010 BKN033 22/20 Q1012 NOSIG', '下午2:00', '22.0°C', '1,012毫巴', '每小时7.20公里, 北', '4.00公里', '大部分多云 (1,006米)', '本地:', '14:00、2019年9月3日周二', '协调世界时:', '06:00、2019年9月3日周二', '来源:', 'USAF 每小时地面观测', '报告类型:', 'METAR 航空例行天气报告', '露点:', '20.0°C', '其他云层:', '大部分晴天 (305米)', '天气:', 'Mist、Showers of Light Rain', '下午3:00', '23°C', '1,012毫巴', '每小时7.20公里, 北', '7.00公里', '大部分多云 (1,006米)', '本地:', '15:00、2019年9月3日周二', '协调世界时:', '07:00、2019年9月3日周二', '来源:', '周期文件', '趋势:', '无重要变化', '露点:', '20°C', '其他云层:', '大部分晴天 (305米)', '原始:', 'ZUUU 030700Z 01002MPS 330V050 7000 FEW010 BKN033 23/20 Q1012 NOSIG', '下午3:00', '23.0°C', '1,012毫巴', '每小时7.20公里, 北', '7.00公里', '大部分多云 (1,006米)', '本地:', '15:00、2019年9月3日周二', '协调世界时:', '07:00、2019年9月3日周二', '来源:', 'USAF 每小时地面观测', '报告类型:', 'METAR 航空例行天气报告', '露点:', '20.0°C', '其他云层:', '大部分晴天 (305米)', '下午4:00', '23°C', '1,011毫巴', '每小时7.20公里, 北', '7.00公里', '大部分多云 (1,006米)', '本地:', '16:00、2019年9月3日周二', '协调世界时:', '08:00、2019年9月3日周二', '来源:', '周期文件', '趋势:', '无重要变化', '露点:', '20°C', '其他云层:', '大部分晴天 (305米)', '原始:', 'ZUUU 030800Z 36002MPS 330V040 7000 FEW010 BKN033 23/20 Q1011 NOSIG', '下午4:00', '23.0°C', '1,011毫巴', '每小时7.20公里, 北', '7.00公里', '大部分多云 (1,006米)', '本地:', '16:00、2019年9月3日周二', '协调世界时:', '08:00、2019年9月3日周二', '来源:', 'USAF 每小时地面观测', '报告类型:', 'METAR 航空例行天气报告', '露点:', '20.0°C', '其他云层:', '大部分晴天 (305米)', '下午5:00', '23°C', '1,010毫巴', '每小时3.60公里', '7.00公里', '大部分多云 (1,006米)', '本地:', '17:00、2019年9月3日周二', '协调世界时:', '09:00、2019年9月3日周二', '来源:', '周期文件', '趋势:', '无重要变化', '露点:', '20°C', '其他云层:', '大部分晴天 (305米)', '原始:', 'ZUUU 030900Z VRB01MPS 7000 FEW010 BKN033 23/20 Q1010 NOSIG', '下午5:00', '23.0°C', '1,010毫巴', '每小时3.60公里', '7.00公里', '大部分多云 (1,006米)', '本地:', '17:00、2019年9月3日周二', '协调世界时:', '09:00、2019年9月3日周二', '来源:', 'USAF 每小时地面观测', '报告类型:', 'METAR 航空例行天气报告', '露点:', '20.0°C', '其他云层:', '大部分晴天 (305米)', '下午6:00', '23°C', '1,010毫巴', '每小时7.20公里, 北', '7.00公里', '大部分多云 (1,006米)', '本地:', '18:00、2019年9月3日周二', '协调世界时:', '10:00、2019年9月3日周二', '来源:', '周期文件', '趋势:', '无重要变化', '露点:', '20°C', '其他云层:', '大部分晴天 (305米)', '原始:', 'ZUUU 031000Z 36002MPS 330V030 7000 FEW010 BKN033 23/20 Q1010 NOSIG', '下午6:00', '23.0°C', '1,010毫巴', '每小时7.20公里, 北', '7.00公里', '大部分多云 (1,006米)', '本地:', '18:00、2019年9月3日周二', '协调世界时:', '10:00、2019年9月3日周二', '来源:', 'USAF 每小时地面观测', '报告类型:', 'METAR 航空例行天气报告', '露点:', '20.0°C', '其他云层:', '大部分晴天 (305米)', '下午7:00', '23°C', '1,010毫巴', '每小时3.60公里', '7.00公里', '大部分多云 (1,006米)', '本地:', '19:00、2019年9月3日周二', '协调世界时:', '11:00、2019年9月3日周二', '来源:', '周期文件', '趋势:', '无重要变化', '露点:', '20°C', '其他云层:', '大部分晴天 (305米)', '原始:', 'ZUUU 031100Z VRB01MPS 7000 FEW010 BKN033 23/20 Q1010 NOSIG', '下午7:00', '23.0°C', '1,010毫巴', '每小时3.60公里', '7.00公里', '大部分多云 (1,006米)', '本地:', '19:00、2019年9月3日周二', '协调世界时:', '11:00、2019年9月3日周二', '来源:', 'USAF 每小时地面观测', '报告类型:', 'METAR 航空例行天气报告', '露点:', '20.0°C', '其他云层:', '大部分晴天 (305米)', '下午8:00', '23°C', '1,011毫巴', '每小时7.20公里, 北', '7.00公里', '部分多云 (1,219米)', '本地:', '20:00、2019年9月3日周二', '协调世界时:', '12:00、2019年9月3日周二', '来源:', '周期文件', '趋势:', '无重要变化', '露点:', '20°C', '其他云层:', '大部分晴天 (335米)', '原始:', 'ZUUU 031200Z 35002MPS 310V030 7000 FEW011 SCT040 23/20 Q1011 NOSIG', '下午8:00', '23.0°C', '1,011毫巴', '每小时7.20公里, 北', '7.00公里', '部分多云 (1,219米)', '本地:', '20:00、2019年9月3日周二', '协调世界时:', '12:00、2019年9月3日周二', '来源:', 'USAF 每小时地面观测', '报告类型:', 'METAR 航空例行天气报告', '露点:', '20.0°C', '其他云层:', '大部分晴天 (335米)', '下午9:00', '23°C', '1,011毫巴', '每小时3.60公里', '7.00公里', '部分多云 (1,219米)', '本地:', '21:00、2019年9月3日周二', '协调世界时:', '13:00、2019年9月3日周二', '来源:', '周期文件', '趋势:', '无重要变化', '露点:', '20°C', '其他云层:', '大部分晴天 (335米)、大部分晴天 (1,219米)', '天气:', 'Showers of Light Rain', '原始:', 'ZUUU 031300Z VRB01MPS 7000 -SHRA FEW011 FEW040TCU SCT040 23/20 Q1011 NOSIG', '下午9:00', '23.0°C', '1,011毫巴', '每小时3.60公里', '7.00公里', '部分多云 (1,219米)', '本地:', '21:00、2019年9月3日周二', '协调世界时:', '13:00、2019年9月3日周二', '来源:', 'USAF 每小时地面观测', '报告类型:', 'METAR 航空例行天气报告', '露点:', '20.0°C', '其他云层:', '大部分晴天 (335米)、大部分晴天 (1,219米)', '天气:', 'Showers of Light Rain', '下午10:00', '22°C', '1,012毫巴', '每小时7.20公里, 北', '7.00公里', '部分多云 (1,219米)', '本地:', '22:00、2019年9月3日周二', '协调世界时:', '14:00、2019年9月3日周二', '来源:', '周期文件', '趋势:', '无重要变化', '露点:', '20°C', '其他云层:', '大部分晴天 (335米)、大部分晴天 (1,219米)', '原始:', 'ZUUU 031400Z 36002MPS 330V030 7000 FEW011 FEW040TCU SCT040 22/20 Q1012 NOSIG', '下午10:00', '22.0°C', '1,012毫巴', '每小时7.20公里, 北', '7.00公里', '部分多云 (1,219米)', '本地:', '22:00、2019年9月3日周二', '协调世界时:', '14:00、2019年9月3日周二', '来源:', 'USAF 每小时地面观测', '报告类型:', 'METAR 航空例行天气报告', '露点:', '20.0°C', '其他云层:', '大部分晴天 (335米)、大部分晴天 (1,219米)', '下午11:00', '22°C', '1,012毫巴', '每小时7.20公里, 北', '7.00公里', '部分多云 (1,219米)', '本地:', '23:00、2019年9月3日周二', '协调世界时:', '15:00、2019年9月3日周二', '来源:', '周期文件', '趋势:', '无重要变化', '露点:', '20°C', '其他云层:', '大部分晴天 (1,219米)', '原始:', 'ZUUU 031500Z 36002MPS 320V030 7000 FEW040TCU SCT040 22/20 Q1012 NOSIG', '下午11:00', '22.0°C', '1,012毫巴', '每小时7.20公里, 北', '7.00公里', '部分多云 (1,219米)', '本地:', '23:00、2019年9月3日周二', '协调世界时:', '15:00、2019年9月3日周二', '来源:', 'USAF 每小时地面观测', '报告类型:', 'METAR 航空例行天气报告', '露点:', '20.0°C', '其他云层:', '大部分晴天 (1,219米)']