['Showers of Light Rain、Mist', '-SHRA、BR', 'Showers of Light Rain', '-SHRA', 'Showers of Light Rain、Mist', '-SHRA、BR', 'Mist', 'BR', 'Mist', 'BR', 'Mist', 'BR', 'Mist', 'BR', 'Mist', 'BR', 'Mist', 'BR', 'Mist', 'BR', 'Showers of Light Rain', '-SHRA', '上午12:00', '22°C', '1,005毫巴', '每小时0公里', '5.00公里', '部分多云 (1,219米)', '本地:', '00:00、2019年5月18日周六', '协调世界时:', '16:00、2019年5月17日周五', '来源:', '周期文件', '趋势:', '无重要变化', '露点:', '21°C', '其他云层:', '大部分晴天 (1,219米)', '天气:', 'Showers of Light Rain、Mist', '原始:', 'ZUUU 171600Z 00000MPS 5000 -SHRA BR FEW040CB SCT040 22/21 Q1005 NOSIG', '上午1:00', '23°C', '1,004毫巴', '每小时3.60公里', '6.00公里', '部分多云 (1,219米)', '本地:', '01:00、2019年5月18日周六', '协调世界时:', '17:00、2019年5月17日周五', '来源:', '周期文件', '趋势:', '无重要变化', '露点:', '21°C', '其他云层:', '大部分晴天 (1,219米)', '天气:', 'Showers of Light Rain', '原始:', 'ZUUU 171700Z VRB01MPS 6000 -SHRA FEW040CB SCT040 23/21 Q1004 NOSIG', '上午2:00', '22°C', '1,004毫巴', '每小时0公里', '4.00公里', '部分多云 (1,219米)', '本地:', '02:00、2019年5月18日周六', '协调世界时:', '18:00、2019年5月17日周五', '来源:', '周期文件', '趋势:', '无重要变化', '露点:', '21°C', '其他云层:', '大部分晴天 (305米)、大部分晴天 (1,219米)', '天气:', 'Showers of Light Rain、Mist', '原始:', 'ZUUU 171800Z 00000MPS 4000 -SHRA BR FEW010 FEW040CB SCT040 22/21 Q1004 NOSIG', '上午3:00', '22°C', '1,003毫巴', '每小时3.60公里', '4.50公里', '部分多云 (1,219米)', '本地:', '03:00、2019年5月18日周六', '协调世界时:', '19:00、2019年5月17日周五', '来源:', '周期文件', '趋势:', '无重要变化', '露点:', '22°C', '其他云层:', '大部分晴天 (305米)、大部分晴天 (1,219米)', '天气:', 'Mist', '原始:', 'ZUUU 171900Z VRB01MPS 4500 BR FEW010 FEW040CB SCT040 22/22 Q1003 NOSIG', '上午4:00', '22°C', '1,003毫巴', '每小时7.20公里, 北', '4.50公里', '部分多云 (1,219米)', '本地:', '04:00、2019年5月18日周六', '协调世界时:', '20:00、2019年5月17日周五', '来源:', '周期文件', '趋势:', '无重要变化', '露点:', '21°C', '其他云层:', '大部分晴天 (305米)、大部分晴天 (1,219米)', '天气:', 'Mist', '原始:', 'ZUUU 172000Z 35002MPS 290V030 4500 BR FEW010 FEW040CB SCT040 22/21 Q1003 NOSIG', '上午5:00', '22°C', '1,003毫巴', '每小时0公里', '5.00公里', '部分多云 (1,524米)', '本地:', '05:00、2019年5月18日周六', '协调世界时:', '21:00、2019年5月17日周五', '来源:', '周期文件', '趋势:', '无重要变化', '露点:', '21°C', '其他云层:', '大部分晴天 (244米)', '天气:', 'Mist', '原始:', 'ZUUU 172100Z 00000MPS 5000 BR FEW008 SCT050 22/21 Q1003 NOSIG', '上午6:00', '21°C', '1,003毫巴', '每小时7.20公里, 北', '4.50公里', '部分多云 (1,524米)', '本地:', '06:00、2019年5月18日周六', '协调世界时:', '22:00、2019年5月17日周五', '来源:', '周期文件', '趋势:', '无重要变化', '露点:', '21°C', '天气:', 'Mist', '原始:', 'ZUUU 172200Z 01002MPS 340V040 4500 BR SCT050 21/21 Q1003 NOSIG', '上午7:00', '21°C', '1,003毫巴', '每小时7.20公里, 北', '3.50公里', '部分多云 (1,524米)', '本地:', '07:00、2019年5月18日周六', '协调世界时:', '23:00、2019年5月17日周五', '来源:', '周期文件', '趋势:', '无重要变化', '露点:', '20°C', '天气:', 'Mist', '原始:', 'ZUUU 172300Z 01002MPS 340V040 3500 BR SCT050 21/20 Q1003 NOSIG', '上午8:00', '22°C', '1,004毫巴', '每小时14.4公里, 东北', '4.00公里', '部分多云 (1,524米)', '本地:', '08:00、2019年5月18日周六', '协调世界时:', '00:00、2019年5月18日周六', '来源:', '周期文件', '趋势:', '无重要变化', '露点:', '20°C', '其他云层:', '大部分晴天 (792米)', '天气:', 'Mist', '原始:', 'ZUUU 180000Z 04004MPS 360V070 4000 BR FEW026 SCT050 22/20 Q1004 NOSIG', '上午9:00', '22°C', '1,004毫巴', '每小时10.8公里, 东北', '4.00公里', '部分多云 (1,524米)', '本地:', '09:00、2019年5月18日周六', '协调世界时:', '01:00、2019年5月18日周六', '来源:', '周期文件', '趋势:', '无重要变化', '露点:', '20°C', '其他云层:', '大部分晴天 (914米)', '天气:', 'Mist', '原始:', 'ZUUU 180100Z 03003MPS 360V060 4000 BR FEW030 SCT050 22/20 Q1004 NOSIG', '上午10:00', '23°C', '1,004毫巴', '每小时3.60公里', '7.00公里', '部分多云 (1,524米)', '本地:', '10:00、2019年5月18日周六', '协调世界时:', '02:00、2019年5月18日周六', '来源:', '周期文件', '趋势:', '无重要变化', '露点:', '21°C', '其他云层:', '大部分晴天 (914米)', '原始:', 'ZUUU 180200Z VRB01MPS 7000 FEW030 SCT050 23/21 Q1004 NOSIG', '上午11:00', '23°C', '1,004毫巴', '每小时7.20公里, 北', '10.00公里', '大部分多云 (1,219米)', '本地:', '11:00、2019年5月18日周六', '协调世界时:', '03:00、2019年5月18日周六', '来源:', '周期文件', '趋势:', '无重要变化', '露点:', '20°C', '原始:', 'ZUUU 180300Z 01002MPS 330V040 9999 BKN040 23/20 Q1004 NOSIG', '下午12:00', '23°C', '1,004毫巴', '每小时3.60公里', '10.00公里', '大部分多云 (1,402米)', '本地:', '12:00、2019年5月18日周六', '协调世界时:', '04:00、2019年5月18日周六', '来源:', '周期文件', '趋势:', '无重要变化', '露点:', '21°C', '原始:', 'ZUUU 180400Z VRB01MPS 9999 BKN046 23/21 Q1004 NOSIG', '下午1:00', '24°C', '1,004毫巴', '每小时3.60公里', '7.00公里', '部分多云 (1,219米)', '本地:', '13:00、2019年5月18日周六', '协调世界时:', '05:00、2019年5月18日周六', '来源:', '周期文件', '趋势:', '无重要变化', '露点:', '21°C', '其他云层:', '大部分晴天 (792米)、大部分晴天 (1,219米)', '原始:', 'ZUUU 180500Z VRB01MPS 7000 FEW026 FEW040TCU SCT040 24/21 Q1004 NOSIG', '下午2:00', '24°C', '1,003毫巴', '每小时0公里', '7.00公里', '部分多云 (1,219米)', '本地:', '14:00、2019年5月18日周六', '协调世界时:', '06:00、2019年5月18日周六', '来源:', '周期文件', '趋势:', '无重要变化', '露点:', '21°C', '其他云层:', '大部分晴天 (1,219米)', '原始:', 'ZUUU 180600Z 00000MPS 7000 FEW040TCU SCT040 24/21 Q1003 NOSIG', '下午3:00', '26°C', '1,003毫巴', '每小时3.60公里', '7.00公里', '大部分晴天 (1,524米)', '本地:', '15:00、2019年5月18日周六', '协调世界时:', '07:00、2019年5月18日周六', '来源:', '周期文件', '趋势:', '无重要变化', '露点:', '21°C', '原始:', 'ZUUU 180700Z VRB01MPS 7000 FEW050 26/21 Q1003 NOSIG', '下午4:00', '26°C', '1,002毫巴', '每小时3.60公里', '7.00公里', '部分多云 (1,006米)', '本地:', '16:00、2019年5月18日周六', '协调世界时:', '08:00、2019年5月18日周六', '来源:', '周期文件', '趋势:', '无重要变化', '露点:', '21°C', '原始:', 'ZUUU 180800Z VRB01MPS 7000 SCT033 26/21 Q1002 NOSIG', '下午5:00', '26°C', '1,002毫巴', '每小时7.20公里, 西', '6.00公里', '部分多云 (1,006米)', '本地:', '17:00、2019年5月18日周六', '协调世界时:', '09:00、2019年5月18日周六', '来源:', '周期文件', '趋势:', '无重要变化', '露点:', '21°C', '其他云层:', '大部分晴天 (610米)', '原始:', 'ZUUU 180900Z 26002MPS 230V300 6000 FEW020 SCT033 26/21 Q1002 NOSIG', '下午6:00', '26°C', '1,002毫巴', '每小时7.20公里, 西', '7.00公里', '部分多云 (1,006米)', '本地:', '18:00、2019年5月18日周六', '协调世界时:', '10:00、2019年5月18日周六', '来源:', '周期文件', '趋势:', '无重要变化', '露点:', '21°C', '其他云层:', '大部分晴天 (1,006米)', '原始:', 'ZUUU 181000Z 27002MPS 230V330 7000 FEW033TCU SCT033 26/21 Q1002 NOSIG', '下午7:00', '26°C', '1,003毫巴', '每小时0公里', '8.00公里', '大部分晴天 (1,006米)', '本地:', '19:00、2019年5月18日周六', '协调世界时:', '11:00、2019年5月18日周六', '来源:', '周期文件', '趋势:', '无重要变化', '露点:', '21°C', '原始:', 'ZUUU 181100Z 00000MPS 8000 FEW033TCU FEW033 26/21 Q1003 NOSIG', '下午8:00', '25°C', '1,004毫巴', '每小时0公里', '8.00公里', '大部分晴天 (1,006米)', '本地:', '20:00、2019年5月18日周六', '协调世界时:', '12:00、2019年5月18日周六', '来源:', '周期文件', '趋势:', '无重要变化', '露点:', '22°C', '原始:', 'ZUUU 181200Z 00000MPS 8000 FEW033TCU FEW033 25/22 Q1004 NOSIG', '下午9:00', '24°C', '1,005毫巴', '每小时0公里', '8.00公里', '部分多云 (1,006米)', '本地:', '21:00、2019年5月18日周六', '协调世界时:', '13:00、2019年5月18日周六', '来源:', '周期文件', '趋势:', '无重要变化', '露点:', '21°C', '其他云层:', '大部分晴天 (1,006米)', '原始:', 'ZUUU 181300Z 00000MPS 8000 FEW033TCU SCT033 24/21 Q1005 NOSIG', '下午10:00', '24°C', '1,006毫巴', '每小时7.20公里, 西', '7.00公里', '部分多云 (1,006米)', '本地:', '22:00、2019年5月18日周六', '协调世界时:', '14:00、2019年5月18日周六', '来源:', '周期文件', '趋势:', '无重要变化', '露点:', '22°C', '其他云层:', '大部分晴天 (1,006米)', '原始:', 'ZUUU 181400Z 26002MPS 230V290 7000 FEW033CB SCT033 24/22 Q1006 NOSIG', '下午11:00', '24°C', '1,007毫巴', '每小时7.20公里, 西南', '7.00公里', '部分多云 (1,006米)', '本地:', '23:00、2019年5月18日周六', '协调世界时:', '15:00、2019年5月18日周六', '来源:', '周期文件', '趋势:', '无重要变化', '露点:', '22°C', '其他云层:', '大部分晴天 (1,006米)', '天气:', 'Showers of Light Rain', '原始:', 'ZUUU 181500Z 21002MPS 190V250 7000 -SHRA FEW033CB SCT033 24/22 Q1007 NOSIG']