['上午12:00', '17°C', '1,006毫巴', '每小时0公里', '≥ 10.00公里', '晴空万里', '本地:', '00:00、2019年3月21日周四', '协调世界时:', '16:00、2019年3月20日周三', '来源:', '周期文件', '趋势:', '无重要变化', '露点:', '12°C', '晴空万里:', '真', '原始:', 'ZUUU 201600Z 00000MPS CAVOK 17/12 Q1006 NOSIG', '上午12:00', '17.0°C', '1,006毫巴', '每小时0公里', '-', '晴空万里', '本地:', '00:00、2019年3月21日周四', '协调世界时:', '16:00、2019年3月20日周三', '来源:', 'USAF 每小时地面观测', '报告类型:', 'METAR 航空例行天气报告', '露点:', '12.0°C', '晴空万里:', '真', '上午1:00', '15°C', '1,006毫巴', '每小时0公里', '≥ 10.00公里', '晴空万里', '本地:', '01:00、2019年3月21日周四', '协调世界时:', '17:00、2019年3月20日周三', '来源:', '周期文件', '趋势:', '无重要变化', '露点:', '12°C', '晴空万里:', '真', '原始:', 'ZUUU 201700Z 00000MPS CAVOK 15/12 Q1006 NOSIG', '上午1:00', '15.0°C', '1,006毫巴', '每小时0公里', '-', '晴空万里', '本地:', '01:00、2019年3月21日周四', '协调世界时:', '17:00、2019年3月20日周三', '来源:', 'USAF 每小时地面观测', '报告类型:', 'METAR 航空例行天气报告', '露点:', '12.0°C', '晴空万里:', '真', '上午2:00', '13°C', '1,006毫巴', '每小时0公里', '≥ 10.00公里', '晴空万里', '本地:', '02:00、2019年3月21日周四', '协调世界时:', '18:00、2019年3月20日周三', '来源:', '周期文件', '趋势:', '无重要变化', '露点:', '11°C', '晴空万里:', '真', '原始:', 'ZUUU 201800Z 00000MPS CAVOK 13/11 Q1006 NOSIG', '上午2:00', '13.0°C', '1,006毫巴', '每小时0公里', '-', '晴空万里', '本地:', '02:00、2019年3月21日周四', '协调世界时:', '18:00、2019年3月20日周三', '来源:', 'USAF 每小时地面观测', '报告类型:', 'METAR 航空例行天气报告', '露点:', '11.0°C', '晴空万里:', '真', '上午3:00', '14°C', '1,005毫巴', '每小时0公里', '≥ 10.00公里', '晴空万里', '本地:', '03:00、2019年3月21日周四', '协调世界时:', '19:00、2019年3月20日周三', '来源:', '周期文件', '趋势:', '无重要变化', '露点:', '12°C', '晴空万里:', '真', '原始:', 'ZUUU 201900Z 00000MPS CAVOK 14/12 Q1005 NOSIG', '上午3:00', '14.0°C', '1,005毫巴', '每小时0公里', '-', '晴空万里', '本地:', '03:00、2019年3月21日周四', '协调世界时:', '19:00、2019年3月20日周三', '来源:', 'USAF 每小时地面观测', '报告类型:', 'METAR 航空例行天气报告', '露点:', '12.0°C', '晴空万里:', '真', '上午4:00', '14°C', '1,006毫巴', '每小时0公里', '≥ 10.00公里', '晴空万里', '本地:', '04:00、2019年3月21日周四', '协调世界时:', '20:00、2019年3月20日周三', '来源:', '周期文件', '趋势:', '无重要变化', '露点:', '12°C', '晴空万里:', '真', '原始:', 'ZUUU 202000Z 00000MPS CAVOK 14/12 Q1006 NOSIG', '上午4:00', '14.0°C', '1,006毫巴', '每小时0公里', '-', '晴空万里', '本地:', '04:00、2019年3月21日周四', '协调世界时:', '20:00、2019年3月20日周三', '来源:', 'USAF 每小时地面观测', '报告类型:', 'METAR 航空例行天气报告', '露点:', '12.0°C', '晴空万里:', '真', '上午5:00', '14°C', '1,006毫巴', '每小时0公里', '≥ 10.00公里', '晴空万里', '本地:', '05:00、2019年3月21日周四', '协调世界时:', '21:00、2019年3月20日周三', '来源:', '周期文件', '趋势:', '无重要变化', '露点:', '12°C', '晴空万里:', '真', '原始:', 'ZUUU 202100Z 00000MPS CAVOK 14/12 Q1006 NOSIG', '上午5:00', '14.0°C', '1,006毫巴', '每小时0公里', '-', '晴空万里', '本地:', '05:00、2019年3月21日周四', '协调世界时:', '21:00、2019年3月20日周三', '来源:', 'USAF 每小时地面观测', '报告类型:', 'METAR 航空例行天气报告', '露点:', '12.0°C', '晴空万里:', '真', '上午6:00', '15°C', '1,006毫巴', '每小时3.60公里', '≥ 10.00公里', '晴空万里', '本地:', '06:00、2019年3月21日周四', '协调世界时:', '22:00、2019年3月20日周三', '来源:', '周期文件', '趋势:', '无重要变化', '露点:', '12°C', '晴空万里:', '真', '原始:', 'ZUUU 202200Z VRB01MPS CAVOK 15/12 Q1006 NOSIG', '上午6:00', '15.0°C', '1,006毫巴', '每小时3.60公里', '-', '晴空万里', '本地:', '06:00、2019年3月21日周四', '协调世界时:', '22:00、2019年3月20日周三', '来源:', 'USAF 每小时地面观测', '报告类型:', 'METAR 航空例行天气报告', '露点:', '12.0°C', '晴空万里:', '真', '上午7:00', '18°C', '1,008毫巴', '每小时18.0公里, 东北', '10.00公里', '部分多云 (1,524米)', '本地:', '07:00、2019年3月21日周四', '协调世界时:', '23:00、2019年3月20日周三', '来源:', '周期文件', '趋势:', '无重要变化', '露点:', '6°C', '原始:', 'ZUUU 202300Z 04005MPS 9999 SCT050 18/06 Q1008 NOSIG', '上午7:00', '18.0°C', '1,008毫巴', '每小时18.0公里, 东北', '10.00公里', '部分多云 (1,524米)', '本地:', '07:00、2019年3月21日周四', '协调世界时:', '23:00、2019年3月20日周三', '来源:', 'USAF 每小时地面观测', '报告类型:', 'METAR 航空例行天气报告', '露点:', '6.0°C', '上午8:00', '17°C', '1,009毫巴', '每小时10.8公里, 北', '≥ 10.00公里', '晴空万里', '本地:', '08:00、2019年3月21日周四', '协调世界时:', '00:00、2019年3月21日周四', '来源:', '周期文件', '趋势:', '无重要变化', '露点:', '6°C', '晴空万里:', '真', '原始:', 'ZUUU 210000Z 01003MPS CAVOK 17/06 Q1009 NOSIG', '上午8:00', '17.0°C', '1,009毫巴', '每小时10.8公里, 北', '-', '晴空万里', '本地:', '08:00、2019年3月21日周四', '协调世界时:', '00:00、2019年3月21日周四', '来源:', 'USAF 每小时地面观测', '报告类型:', 'METAR 航空例行天气报告', '露点:', '6.0°C', '晴空万里:', '真', '上午9:00', '17°C', '1,010毫巴', '每小时10.8公里, 北', '10.00公里', '部分多云 (1,524米)', '本地:', '09:00、2019年3月21日周四', '协调世界时:', '01:00、2019年3月21日周四', '来源:', '周期文件', '趋势:', '无重要变化', '露点:', '7°C', '原始:', 'ZUUU 210100Z 02003MPS 350V050 9999 SCT050 17/07 Q1010 NOSIG', '上午9:00', '17.0°C', '1,010毫巴', '每小时10.8公里, 北', '10.00公里', '部分多云 (1,524米)', '本地:', '09:00、2019年3月21日周四', '协调世界时:', '01:00、2019年3月21日周四', '来源:', 'USAF 每小时地面观测', '报告类型:', 'METAR 航空例行天气报告', '露点:', '7.0°C', '上午10:00', '17°C', '1,012毫巴', '每小时10.8公里, 北', '10.00公里', '部分多云 (1,524米)', '本地:', '10:00、2019年3月21日周四', '协调世界时:', '02:00、2019年3月21日周四', '来源:', '周期文件', '趋势:', '无重要变化', '露点:', '6°C', '原始:', 'ZUUU 210200Z 01003MPS 9999 SCT050 17/06 Q1012 NOSIG', '上午10:00', '17.0°C', '1,012毫巴', '每小时10.8公里, 北', '10.00公里', '部分多云 (1,524米)', '本地:', '10:00、2019年3月21日周四', '协调世界时:', '02:00、2019年3月21日周四', '来源:', 'USAF 每小时地面观测', '报告类型:', 'METAR 航空例行天气报告', '露点:', '6.0°C', '上午11:00', '17°C', '1,012毫巴', '每小时10.8公里, 北', '≥ 10.00公里', '晴空万里', '本地:', '11:00、2019年3月21日周四', '协调世界时:', '03:00、2019年3月21日周四', '来源:', '周期文件', '趋势:', '无重要变化', '露点:', '5°C', '晴空万里:', '真', '原始:', 'ZUUU 210300Z 01003MPS 340V040 CAVOK 17/05 Q1012 NOSIG', '上午11:00', '17.0°C', '1,012毫巴', '每小时10.8公里, 北', '-', '晴空万里', '本地:', '11:00、2019年3月21日周四', '协调世界时:', '03:00、2019年3月21日周四', '来源:', 'USAF 每小时地面观测', '报告类型:', 'METAR 航空例行天气报告', '露点:', '5.0°C', '晴空万里:', '真', '下午12:00', '17°C', '1,013毫巴', '每小时14.4公里, 东北', '≥ 10.00公里', '晴空万里', '本地:', '12:00、2019年3月21日周四', '协调世界时:', '04:00、2019年3月21日周四', '来源:', '周期文件', '趋势:', '无重要变化', '露点:', '5°C', '晴空万里:', '真', '原始:', 'ZUUU 210400Z 03004MPS 360V060 CAVOK 17/05 Q1013 NOSIG', '下午12:00', '17.0°C', '1,013毫巴', '每小时14.4公里, 东北', '-', '晴空万里', '本地:', '12:00、2019年3月21日周四', '协调世界时:', '04:00、2019年3月21日周四', '来源:', 'USAF 每小时地面观测', '报告类型:', 'METAR 航空例行天气报告', '露点:', '5.0°C', '晴空万里:', '真', '下午1:00', '17°C', '1,012毫巴', '每小时18.0公里, 东北', '≥ 10.00公里', '晴空万里', '本地:', '13:00、2019年3月21日周四', '协调世界时:', '05:00、2019年3月21日周四', '来源:', '周期文件', '趋势:', '无重要变化', '露点:', '4°C', '晴空万里:', '真', '原始:', 'ZUUU 210500Z 03005MPS 360V070 CAVOK 17/04 Q1012 NOSIG', '下午1:00', '17.0°C', '1,012毫巴', '每小时18.0公里, 东北', '-', '晴空万里', '本地:', '13:00、2019年3月21日周四', '协调世界时:', '05:00、2019年3月21日周四', '来源:', 'USAF 每小时地面观测', '报告类型:', 'METAR 航空例行天气报告', '露点:', '4.0°C', '晴空万里:', '真', '下午2:00', '17°C', '1,012毫巴', '每小时18.0公里, 东北', '≥ 10.00公里', '晴空万里', '本地:', '14:00、2019年3月21日周四', '协调世界时:', '06:00、2019年3月21日周四', '来源:', '周期文件', '趋势:', '无重要变化', '露点:', '4°C', '晴空万里:', '真', '原始:', 'ZUUU 210600Z 05005MPS 020V090 CAVOK 17/04 Q1012 NOSIG', '下午2:00', '17.0°C', '1,012毫巴', '每小时18.0公里, 东北', '-', '晴空万里', '本地:', '14:00、2019年3月21日周四', '协调世界时:', '06:00、2019年3月21日周四', '来源:', 'USAF 每小时地面观测', '报告类型:', 'METAR 航空例行天气报告', '露点:', '4.0°C', '晴空万里:', '真', '下午3:00', '18°C', '1,012毫巴', '每小时18.0公里, 东北', '≥ 10.00公里', '晴空万里', '本地:', '15:00、2019年3月21日周四', '协调世界时:', '07:00、2019年3月21日周四', '来源:', '周期文件', '趋势:', '无重要变化', '露点:', '3°C', '晴空万里:', '真', '原始:', 'ZUUU 210700Z 05005MPS 010V080 CAVOK 18/03 Q1012 NOSIG', '下午3:00', '18.0°C', '1,012毫巴', '每小时18.0公里, 东北', '-', '晴空万里', '本地:', '15:00、2019年3月21日周四', '协调世界时:', '07:00、2019年3月21日周四', '来源:', 'USAF 每小时地面观测', '报告类型:', 'METAR 航空例行天气报告', '露点:', '3.0°C', '晴空万里:', '真', '下午4:00', '19°C', '1,011毫巴', '每小时18.0公里, 东', '≥ 10.00公里', '晴空万里', '本地:', '16:00、2019年3月21日周四', '协调世界时:', '08:00、2019年3月21日周四', '来源:', '周期文件', '趋势:', '无重要变化', '露点:', '2°C', '晴空万里:', '真', '原始:', 'ZUUU 210800Z 07005MPS 040V100 CAVOK 19/02 Q1011 NOSIG', '下午4:00', '19.0°C', '1,011毫巴', '每小时18.0公里, 东', '-', '晴空万里', '本地:', '16:00、2019年3月21日周四', '协调世界时:', '08:00、2019年3月21日周四', '来源:', 'USAF 每小时地面观测', '报告类型:', 'METAR 航空例行天气报告', '露点:', '2.0°C', '晴空万里:', '真', '下午5:00', '19°C', '1,011毫巴', '每小时18.0公里, 东', '≥ 10.00公里', '晴空万里', '本地:', '17:00、2019年3月21日周四', '协调世界时:', '09:00、2019年3月21日周四', '来源:', '周期文件', '趋势:', '无重要变化', '露点:', '2°C', '晴空万里:', '真', '原始:', 'ZUUU 210900Z 07005MPS 010V100 CAVOK 19/02 Q1011 NOSIG', '下午5:00', '19.0°C', '1,011毫巴', '每小时18.0公里, 东', '-', '晴空万里', '本地:', '17:00、2019年3月21日周四', '协调世界时:', '09:00、2019年3月21日周四', '来源:', 'USAF 每小时地面观测', '报告类型:', 'METAR 航空例行天气报告', '露点:', '2.0°C', '晴空万里:', '真', '下午6:00', '18°C', '1,013毫巴', '每小时18.0公里, 东北', '≥ 10.00公里', '晴空万里', '本地:', '18:00、2019年3月21日周四', '协调世界时:', '10:00、2019年3月21日周四', '来源:', '周期文件', '趋势:', '无重要变化', '露点:', '3°C', '晴空万里:', '真', '原始:', 'ZUUU 211000Z 05005MPS 030V090 CAVOK 18/03 Q1013 NOSIG', '下午6:00', '18.0°C', '1,013毫巴', '每小时18.0公里, 东北', '-', '晴空万里', '本地:', '18:00、2019年3月21日周四', '协调世界时:', '10:00、2019年3月21日周四', '来源:', 'USAF 每小时地面观测', '报告类型:', 'METAR 航空例行天气报告', '露点:', '3.0°C', '晴空万里:', '真', '下午7:00', '17°C', '1,013毫巴', '每小时18.0公里, 东北', '≥ 10.00公里', '晴空万里', '本地:', '19:00、2019年3月21日周四', '协调世界时:', '11:00、2019年3月21日周四', '来源:', '周期文件', '趋势:', '无重要变化', '露点:', '3°C', '晴空万里:', '真', '原始:', 'ZUUU 211100Z 05005MPS CAVOK 17/03 Q1013 NOSIG', '下午7:00', '17.0°C', '1,013毫巴', '每小时18.0公里, 东北', '-', '晴空万里', '本地:', '19:00、2019年3月21日周四', '协调世界时:', '11:00、2019年3月21日周四', '来源:', 'USAF 每小时地面观测', '报告类型:', 'METAR 航空例行天气报告', '露点:', '3.0°C', '晴空万里:', '真', '下午8:00', '16°C', '1,015毫巴', '每小时14.4公里, 东北', '10.00公里', '部分多云 (1,524米)', '本地:', '20:00、2019年3月21日周四', '协调世界时:', '12:00、2019年3月21日周四', '来源:', '周期文件', '趋势:', '无重要变化', '露点:', '4°C', '原始:', 'ZUUU 211200Z 06004MPS 9999 SCT050 16/04 Q1015 NOSIG', '下午8:00', '16.0°C', '1,015毫巴', '每小时14.4公里, 东北', '10.00公里', '部分多云 (1,524米)', '本地:', '20:00、2019年3月21日周四', '协调世界时:', '12:00、2019年3月21日周四', '来源:', 'USAF 每小时地面观测', '报告类型:', 'METAR 航空例行天气报告', '露点:', '4.0°C', '下午9:00', '16°C', '1,016毫巴', '每小时10.8公里, 东', '10.00公里', '部分多云 (1,524米)', '本地:', '21:00、2019年3月21日周四', '协调世界时:', '13:00、2019年3月21日周四', '来源:', '周期文件', '趋势:', '无重要变化', '露点:', '5°C', '原始:', 'ZUUU 211300Z 07003MPS 9999 SCT050 16/05 Q1016 NOSIG', '下午9:00', '16.0°C', '1,016毫巴', '每小时10.8公里, 东', '10.00公里', '部分多云 (1,524米)', '本地:', '21:00、2019年3月21日周四', '协调世界时:', '13:00、2019年3月21日周四', '来源:', 'USAF 每小时地面观测', '报告类型:', 'METAR 航空例行天气报告', '露点:', '5.0°C', '下午10:00', '16°C', '1,017毫巴', '每小时10.8公里, 东', '≥ 10.00公里', '晴空万里', '本地:', '22:00、2019年3月21日周四', '协调世界时:', '14:00、2019年3月21日周四', '来源:', '周期文件', '趋势:', '无重要变化', '露点:', '5°C', '晴空万里:', '真', '原始:', 'ZUUU 211400Z 08003MPS 020V120 CAVOK 16/05 Q1017 NOSIG', '下午10:00', '16.0°C', '1,017毫巴', '每小时10.8公里, 东', '-', '晴空万里', '本地:', '22:00、2019年3月21日周四', '协调世界时:', '14:00、2019年3月21日周四', '来源:', 'USAF 每小时地面观测', '报告类型:', 'METAR 航空例行天气报告', '露点:', '5.0°C', '晴空万里:', '真', '下午11:00', '15°C', '1,018毫巴', '每小时0公里', '≥ 10.00公里', '晴空万里', '本地:', '23:00、2019年3月21日周四', '协调世界时:', '15:00、2019年3月21日周四', '来源:', '周期文件', '趋势:', '无重要变化', '露点:', '6°C', '晴空万里:', '真', '原始:', 'ZUUU 211500Z 00000MPS CAVOK 15/06 Q1018 NOSIG', '下午11:00', '15.0°C', '1,018毫巴', '每小时0公里', '-', '晴空万里', '本地:', '23:00、2019年3月21日周四', '协调世界时:', '15:00、2019年3月21日周四', '来源:', 'USAF 每小时地面观测', '报告类型:', 'METAR 航空例行天气报告', '露点:', '6.0°C', '晴空万里:', '真']