['Mist', 'BR、IWC10', 'Mist', 'BR、IWC10', 'Mist', 'BR、IWC10', '上午12:00', '15°C', '1,017毫巴', '每小时0公里', '7.00公里', '大部分晴天 (1,006米)', '本地:', '00:00、2019年3月13日周三', '协调世界时:', '16:00、2019年3月12日周二', '来源:', '周期文件', '趋势:', '无重要变化', '露点:', '10°C', '原始:', 'ZUUU 121600Z 00000MPS 7000 FEW033 15/10 Q1017 NOSIG', '上午12:00', '15.0°C', '1,017毫巴', '每小时0公里', '7.00公里', '大部分晴天 (1,006米)', '本地:', '00:00、2019年3月13日周三', '协调世界时:', '16:00、2019年3月12日周二', '来源:', 'USAF 每小时地面观测', '报告类型:', 'METAR 航空例行天气报告', '露点:', '10.0°C', '上午1:00', '15°C', '1,017毫巴', '每小时0公里', '7.00公里', '大部分晴天 (1,006米)', '本地:', '01:00、2019年3月13日周三', '协调世界时:', '17:00、2019年3月12日周二', '来源:', '周期文件', '趋势:', '无重要变化', '露点:', '10°C', '原始:', 'ZUUU 121700Z 00000MPS 7000 FEW033 15/10 Q1017 NOSIG', '上午1:00', '15.0°C', '1,017毫巴', '每小时0公里', '7.00公里', '大部分晴天 (1,006米)', '本地:', '01:00、2019年3月13日周三', '协调世界时:', '17:00、2019年3月12日周二', '来源:', 'USAF 每小时地面观测', '报告类型:', 'METAR 航空例行天气报告', '露点:', '10.0°C', '上午2:00', '14°C', '1,015毫巴', '每小时0公里', '6.00公里', '部分多云 (1,219米)', '本地:', '02:00、2019年3月13日周三', '协调世界时:', '18:00、2019年3月12日周二', '来源:', '周期文件', '趋势:', '无重要变化', '露点:', '10°C', '原始:', 'ZUUU 121800Z 00000MPS 6000 SCT040 14/10 Q1015 NOSIG', '上午2:00', '14.0°C', '1,015毫巴', '每小时0公里', '6.00公里', '部分多云 (1,219米)', '本地:', '02:00、2019年3月13日周三', '协调世界时:', '18:00、2019年3月12日周二', '来源:', 'USAF 每小时地面观测', '报告类型:', 'METAR 航空例行天气报告', '露点:', '10.0°C', '上午3:00', '15°C', '1,016毫巴', '每小时7.20公里, 西', '6.00公里', '部分多云 (1,219米)', '本地:', '03:00、2019年3月13日周三', '协调世界时:', '19:00、2019年3月12日周二', '来源:', '周期文件', '趋势:', '无重要变化', '露点:', '10°C', '原始:', 'ZUUU 121900Z 26002MPS 230V290 6000 SCT040 15/10 Q1016 NOSIG', '上午3:00', '15.0°C', '1,016毫巴', '每小时7.20公里, 西', '6.00公里', '部分多云 (1,219米)', '本地:', '03:00、2019年3月13日周三', '协调世界时:', '19:00、2019年3月12日周二', '来源:', 'USAF 每小时地面观测', '报告类型:', 'METAR 航空例行天气报告', '露点:', '10.0°C', '上午4:00', '14°C', '1,015毫巴', '每小时3.60公里', '6.00公里', '部分多云 (1,219米)', '本地:', '04:00、2019年3月13日周三', '协调世界时:', '20:00、2019年3月12日周二', '来源:', '周期文件', '趋势:', '无重要变化', '露点:', '10°C', '原始:', 'ZUUU 122000Z VRB01MPS 6000 SCT040 14/10 Q1015 NOSIG', '上午4:00', '14.0°C', '1,015毫巴', '每小时3.60公里', '6.00公里', '部分多云 (1,219米)', '本地:', '04:00、2019年3月13日周三', '协调世界时:', '20:00、2019年3月12日周二', '来源:', 'USAF 每小时地面观测', '报告类型:', 'METAR 航空例行天气报告', '露点:', '10.0°C', '上午5:00', '14°C', '1,015毫巴', '每小时3.60公里', '6.00公里', '部分多云 (1,219米)', '本地:', '05:00、2019年3月13日周三', '协调世界时:', '21:00、2019年3月12日周二', '来源:', '周期文件', '趋势:', '无重要变化', '露点:', '10°C', '原始:', 'ZUUU 122100Z VRB01MPS 6000 SCT040 14/10 Q1015 NOSIG', '上午5:00', '14.0°C', '1,015毫巴', '每小时3.60公里', '6.00公里', '部分多云 (1,219米)', '本地:', '05:00、2019年3月13日周三', '协调世界时:', '21:00、2019年3月12日周二', '来源:', 'USAF 每小时地面观测', '报告类型:', 'METAR 航空例行天气报告', '露点:', '10.0°C', '上午6:00', '14°C', '1,015毫巴', '每小时7.20公里, 北', '6.00公里', '部分多云 (1,219米)', '本地:', '06:00、2019年3月13日周三', '协调世界时:', '22:00、2019年3月12日周二', '来源:', '周期文件', '趋势:', '无重要变化', '露点:', '10°C', '原始:', 'ZUUU 122200Z 36002MPS 330V030 6000 SCT040 14/10 Q1015 NOSIG', '上午6:00', '14.0°C', '1,015毫巴', '每小时7.20公里, 北', '6.00公里', '部分多云 (1,219米)', '本地:', '06:00、2019年3月13日周三', '协调世界时:', '22:00、2019年3月12日周二', '来源:', 'USAF 每小时地面观测', '报告类型:', 'METAR 航空例行天气报告', '露点:', '10.0°C', '上午7:00', '14°C', '1,016毫巴', '每小时7.20公里, 北', '6.00公里', '部分多云 (1,524米)', '本地:', '07:00、2019年3月13日周三', '协调世界时:', '23:00、2019年3月12日周二', '来源:', '周期文件', '趋势:', '无重要变化', '露点:', '10°C', '原始:', 'ZUUU 122300Z 36002MPS 330V030 6000 SCT050 14/10 Q1016 NOSIG', '上午7:00', '14.0°C', '1,016毫巴', '每小时7.20公里, 北', '6.00公里', '部分多云 (1,524米)', '本地:', '07:00、2019年3月13日周三', '协调世界时:', '23:00、2019年3月12日周二', '来源:', 'USAF 每小时地面观测', '报告类型:', 'METAR 航空例行天气报告', '露点:', '10.0°C', '上午8:00', '14°C', '1,017毫巴', '每小时7.20公里, 北', '5.00公里', '部分多云 (1,524米)', '本地:', '08:00、2019年3月13日周三', '协调世界时:', '00:00、2019年3月13日周三', '来源:', '周期文件', '趋势:', '无重要变化', '露点:', '10°C', '天气:', 'Mist', '原始:', 'ZUUU 130000Z 36002MPS 320V040 5000 BR SCT050 14/10 Q1017 NOSIG', '上午8:00', '14.0°C', '1,017毫巴', '每小时7.20公里, 北', '5.00公里', '部分多云 (1,524米)', '本地:', '08:00、2019年3月13日周三', '协调世界时:', '00:00、2019年3月13日周三', '来源:', 'USAF 每小时地面观测', '报告类型:', 'METAR 航空例行天气报告', '露点:', '10.0°C', '天气:', 'Mist', '上午9:00', '14°C', '1,018毫巴', '每小时3.60公里', '4.50公里', '部分多云 (1,524米)', '本地:', '09:00、2019年3月13日周三', '协调世界时:', '01:00、2019年3月13日周三', '来源:', '周期文件', '趋势:', '无重要变化', '露点:', '10°C', '天气:', 'Mist', '原始:', 'ZUUU 130100Z VRB01MPS 4500 BR SCT050 14/10 Q1018 NOSIG', '上午9:00', '14.0°C', '1,018毫巴', '每小时3.60公里', '4.50公里', '部分多云 (1,524米)', '本地:', '09:00、2019年3月13日周三', '协调世界时:', '01:00、2019年3月13日周三', '来源:', 'USAF 每小时地面观测', '报告类型:', 'METAR 航空例行天气报告', '露点:', '10.0°C', '天气:', 'Mist', '上午10:00', '15°C', '1,018毫巴', '每小时7.20公里, 北', '5.00公里', '无重要云', '本地:', '10:00、2019年3月13日周三', '协调世界时:', '02:00、2019年3月13日周三', '来源:', '周期文件', '趋势:', '无重要变化', '露点:', '10°C', '天气:', 'Mist', '原始:', 'ZUUU 130200Z 02002MPS 350V050 5000 BR NSC 15/10 Q1018 NOSIG', '上午10:00', '15.0°C', '1,018毫巴', '每小时7.20公里, 北', '5.00公里', '未检测到云', '本地:', '10:00、2019年3月13日周三', '协调世界时:', '02:00、2019年3月13日周三', '来源:', 'USAF 每小时地面观测', '报告类型:', 'METAR 航空例行天气报告', '露点:', '10.0°C', '天气:', 'Mist', '上午11:00', '16°C', '1,018毫巴', '每小时7.20公里, 北', '6.00公里', '无重要云', '本地:', '11:00、2019年3月13日周三', '协调世界时:', '03:00、2019年3月13日周三', '来源:', '周期文件', '趋势:', '无重要变化', '露点:', '10°C', '原始:', 'ZUUU 130300Z 02002MPS 320V060 6000 NSC 16/10 Q1018 NOSIG', '上午11:00', '16.0°C', '1,018毫巴', '每小时7.20公里, 北', '6.00公里', '未检测到云', '本地:', '11:00、2019年3月13日周三', '协调世界时:', '03:00、2019年3月13日周三', '来源:', 'USAF 每小时地面观测', '报告类型:', 'METAR 航空例行天气报告', '露点:', '10.0°C', '下午12:00', '16°C', '1,018毫巴', '每小时7.20公里, 北', '6.00公里', '大部分晴天 (1,524米)', '本地:', '12:00、2019年3月13日周三', '协调世界时:', '04:00、2019年3月13日周三', '来源:', '周期文件', '趋势:', '无重要变化', '露点:', '10°C', '原始:', 'ZUUU 130400Z 36002MPS 310V050 6000 FEW050 16/10 Q1018 NOSIG', '下午12:00', '16.0°C', '1,018毫巴', '每小时7.20公里, 北', '6.00公里', '大部分晴天 (1,524米)', '本地:', '12:00、2019年3月13日周三', '协调世界时:', '04:00、2019年3月13日周三', '来源:', 'USAF 每小时地面观测', '报告类型:', 'METAR 航空例行天气报告', '露点:', '10.0°C', '下午1:00', '16°C', '1,018毫巴', '每小时10.8公里, 北', '7.00公里', '部分多云 (1,524米)', '本地:', '13:00、2019年3月13日周三', '协调世界时:', '05:00、2019年3月13日周三', '来源:', '周期文件', '趋势:', '无重要变化', '露点:', '9°C', '原始:', 'ZUUU 130500Z 01003MPS 330V040 7000 SCT050 16/09 Q1018 NOSIG', '下午1:00', '16.0°C', '1,018毫巴', '每小时10.8公里, 北', '7.00公里', '部分多云 (1,524米)', '本地:', '13:00、2019年3月13日周三', '协调世界时:', '05:00、2019年3月13日周三', '来源:', 'USAF 每小时地面观测', '报告类型:', 'METAR 航空例行天气报告', '露点:', '9.0°C', '下午2:00', '16°C', '1,017毫巴', '每小时10.8公里, 北', '7.00公里', '部分多云 (1,219米)', '本地:', '14:00、2019年3月13日周三', '协调世界时:', '06:00、2019年3月13日周三', '来源:', '周期文件', '趋势:', '无重要变化', '露点:', '10°C', '原始:', 'ZUUU 130600Z 01003MPS 320V040 7000 SCT040 16/10 Q1017 NOSIG', '下午2:00', '16.0°C', '1,017毫巴', '每小时10.8公里, 北', '7.00公里', '部分多云 (1,219米)', '本地:', '14:00、2019年3月13日周三', '协调世界时:', '06:00、2019年3月13日周三', '来源:', 'USAF 每小时地面观测', '报告类型:', 'METAR 航空例行天气报告', '露点:', '10.0°C', '下午3:00', '16°C', '1,017毫巴', '每小时14.4公里, 北', '8.00公里', '部分多云 (1,524米)', '本地:', '15:00、2019年3月13日周三', '协调世界时:', '07:00、2019年3月13日周三', '来源:', '周期文件', '趋势:', '无重要变化', '露点:', '10°C', '原始:', 'ZUUU 130700Z 02004MPS 8000 SCT050 16/10 Q1017 NOSIG', '下午3:00', '16.0°C', '1,017毫巴', '每小时14.4公里, 北', '8.00公里', '部分多云 (1,524米)', '本地:', '15:00、2019年3月13日周三', '协调世界时:', '07:00、2019年3月13日周三', '来源:', 'USAF 每小时地面观测', '报告类型:', 'METAR 航空例行天气报告', '露点:', '10.0°C', '下午4:00', '16°C', '1,017毫巴', '每小时10.8公里, 北', '7.00公里', '部分多云 (1,524米)', '本地:', '16:00、2019年3月13日周三', '协调世界时:', '08:00、2019年3月13日周三', '来源:', '周期文件', '趋势:', '无重要变化', '露点:', '11°C', '原始:', 'ZUUU 130800Z 36003MPS 310V050 7000 SCT050 16/11 Q1017 NOSIG', '下午4:00', '16.0°C', '1,017毫巴', '每小时10.8公里, 北', '7.00公里', '部分多云 (1,524米)', '本地:', '16:00、2019年3月13日周三', '协调世界时:', '08:00、2019年3月13日周三', '来源:', 'USAF 每小时地面观测', '报告类型:', 'METAR 航空例行天气报告', '露点:', '11.0°C', '下午5:00', '16°C', '1,018毫巴', '每小时14.4公里, 北', '7.00公里', '部分多云 (1,219米)', '本地:', '17:00、2019年3月13日周三', '协调世界时:', '09:00、2019年3月13日周三', '来源:', '周期文件', '趋势:', '无重要变化', '露点:', '10°C', '原始:', 'ZUUU 130900Z 01004MPS 330V050 7000 SCT040 16/10 Q1018 NOSIG', '下午5:00', '16.0°C', '1,018毫巴', '每小时14.4公里, 北', '7.00公里', '部分多云 (1,219米)', '本地:', '17:00、2019年3月13日周三', '协调世界时:', '09:00、2019年3月13日周三', '来源:', 'USAF 每小时地面观测', '报告类型:', 'METAR 航空例行天气报告', '露点:', '10.0°C', '下午6:00', '16°C', '1,020毫巴', '每小时18.0公里, 北', '7.00公里', '部分多云 (1,006米)', '本地:', '18:00、2019年3月13日周三', '协调世界时:', '10:00、2019年3月13日周三', '来源:', '周期文件', '趋势:', '无重要变化', '露点:', '10°C', '原始:', 'ZUUU 131000Z 02005MPS 7000 SCT033 16/10 Q1020 NOSIG', '下午6:00', '16.0°C', '1,020毫巴', '每小时18.0公里, 北', '7.00公里', '部分多云 (1,006米)', '本地:', '18:00、2019年3月13日周三', '协调世界时:', '10:00、2019年3月13日周三', '来源:', 'USAF 每小时地面观测', '报告类型:', 'METAR 航空例行天气报告', '露点:', '10.0°C', '下午7:00', '16°C', '1,022毫巴', '每小时18.0公里, 东北', '8.00公里', '大部分多云 (914米)', '本地:', '19:00、2019年3月13日周三', '协调世界时:', '11:00、2019年3月13日周三', '来源:', '周期文件', '趋势:', '无重要变化', '露点:', '10°C', '原始:', 'ZUUU 131100Z 03005MPS 8000 BKN030 16/10 Q1022 NOSIG', '下午8:00', '16°C', '1,024毫巴', '每小时21.6公里, 东北', '10.00公里', '部分多云 (1,524米)', '本地:', '20:00、2019年3月13日周三', '协调世界时:', '12:00、2019年3月13日周三', '来源:', '周期文件', '趋势:', '无重要变化', '露点:', '9°C', '其他云层:', '大部分晴天 (1,006米)', '原始:', 'ZUUU 131200Z 04006MPS 360V070 9999 FEW033 SCT050 16/09 Q1024 NOSIG', '下午9:00', '15°C', '1,025毫巴', '每小时14.4公里, 东北', '10.00公里', '大部分晴天 (1,006米)', '本地:', '21:00、2019年3月13日周三', '协调世界时:', '13:00、2019年3月13日周三', '来源:', '周期文件', '趋势:', '无重要变化', '露点:', '9°C', '阵风风速:', '每小时32.4公里', '原始:', 'ZUUU 131300Z 03004G09MPS 360V060 9999 FEW033 15/09 Q1025 NOSIG', '下午10:00', '15°C', '1,027毫巴', '每小时18.0公里, 东', '10.00公里', '大部分晴天 (1,219米)', '本地:', '22:00、2019年3月13日周三', '协调世界时:', '14:00、2019年3月13日周三', '来源:', '周期文件', '趋势:', '无重要变化', '露点:', '6°C', '原始:', 'ZUUU 131400Z 07005MPS 9999 FEW040 15/06 Q1027 NOSIG', '下午11:00', '15°C', '1,028毫巴', '每小时18.0公里, 东北', '≥ 10.00公里', '晴空万里', '本地:', '23:00、2019年3月13日周三', '协调世界时:', '15:00、2019年3月13日周三', '来源:', '周期文件', '趋势:', '无重要变化', '露点:', '4°C', '晴空万里:', '真', '原始:', 'ZUUU 131500Z 04005MPS 360V070 CAVOK 15/04 Q1028 NOSIG']