['Showers of Light Rain', '-SHRA、IWC80', 'Showers of Light Rain', '-SHRA、IWC80', 'Showers of Light Rain', '-SHRA、IWC80', 'Showers of Light Rain', '-SHRA、IWC80', 'Showers of Light Rain、Mist', '-SHRA、IWC80、BR、IWC10', 'Showers of Rain、Showers of Light Rain、Mist', 'SHRA、IWC81、-SHRA、BR、IWC10', 'Showers of Rain', 'SHRA', 'Showers of Light Rain、Mist', '-SHRA、IWC80、BR、IWC10', 'Showers of Light Rain、Mist', '-SHRA、IWC80、BR、IWC10', 'Showers of Light Rain、Mist', '-SHRA、IWC80、BR、IWC10', 'Mist', 'BR、IWC10', '上午12:00', '26°C', '1,005毫巴', '每小时0公里', '≥ 10.00公里', '晴空万里', '本地:', '00:00、2019年7月24日周三', '协调世界时:', '16:00、2019年7月23日周二', '来源:', '周期文件', '趋势:', '无重要变化', '露点:', '23°C', '晴空万里:', '真', '原始:', 'ZUUU 231600Z 00000MPS CAVOK 26/23 Q1005 NOSIG', '上午12:00', '26.0°C', '1,005毫巴', '每小时0公里', '9.90公里', '晴空万里', '本地:', '00:00、2019年7月24日周三', '协调世界时:', '16:00、2019年7月23日周二', '来源:', 'USAF 每小时地面观测', '报告类型:', 'METAR 航空例行天气报告', '露点:', '23.0°C', '晴空万里:', '真', '上午1:00', '25°C', '1,005毫巴', '每小时3.60公里', '10.00公里', '部分多云 (1,524米)', '本地:', '01:00、2019年7月24日周三', '协调世界时:', '17:00、2019年7月23日周二', '来源:', '周期文件', '趋势:', '无重要变化', '露点:', '22°C', '原始:', 'ZUUU 231700Z VRB01MPS 9999 SCT050 25/22 Q1005 NOSIG', '上午1:00', '25.0°C', '1,005毫巴', '每小时3.60公里', '10.00公里', '部分多云 (1,524米)', '本地:', '01:00、2019年7月24日周三', '协调世界时:', '17:00、2019年7月23日周二', '来源:', 'USAF 每小时地面观测', '报告类型:', 'METAR 航空例行天气报告', '露点:', '22.0°C', '上午2:00', '25°C', '1,005毫巴', '每小时0公里', '10.00公里', '部分多云 (1,219米)', '本地:', '02:00、2019年7月24日周三', '协调世界时:', '18:00、2019年7月23日周二', '来源:', '周期文件', '趋势:', '无重要变化', '露点:', '23°C', '其他云层:', '大部分晴天 (1,219米)', '原始:', 'ZUUU 231800Z 00000MPS 9999 FEW040TCU SCT040 25/23 Q1005 NOSIG', '上午2:00', '25.0°C', '1,005毫巴', '每小时0公里', '10.00公里', '部分多云 (1,219米)', '本地:', '02:00、2019年7月24日周三', '协调世界时:', '18:00、2019年7月23日周二', '来源:', 'USAF 每小时地面观测', '报告类型:', 'METAR 航空例行天气报告', '露点:', '23.0°C', '其他云层:', '大部分晴天 (1,219米)', '上午3:00', '25°C', '1,005毫巴', '每小时0公里', '10.00公里', '部分多云 (1,219米)', '本地:', '03:00、2019年7月24日周三', '协调世界时:', '19:00、2019年7月23日周二', '来源:', '周期文件', '趋势:', '无重要变化', '露点:', '23°C', '其他云层:', '大部分晴天 (1,219米)', '原始:', 'ZUUU 231900Z 00000MPS 9999 FEW040TCU SCT040 25/23 Q1005 NOSIG', '上午3:00', '25.0°C', '1,005毫巴', '每小时0公里', '10.00公里', '部分多云 (1,219米)', '本地:', '03:00、2019年7月24日周三', '协调世界时:', '19:00、2019年7月23日周二', '来源:', 'USAF 每小时地面观测', '报告类型:', 'METAR 航空例行天气报告', '露点:', '23.0°C', '其他云层:', '大部分晴天 (1,219米)', '上午4:00', '25°C', '1,005毫巴', '每小时3.60公里', '10.00公里', '部分多云 (1,219米)', '本地:', '04:00、2019年7月24日周三', '协调世界时:', '20:00、2019年7月23日周二', '来源:', '周期文件', '趋势:', '无重要变化', '露点:', '21°C', '其他云层:', '大部分晴天 (1,219米)', '天气:', 'Showers of Light Rain', '原始:', 'ZUUU 232000Z VRB01MPS 9999 -SHRA FEW040TCU SCT040 25/21 Q1005 NOSIG', '上午4:00', '25.0°C', '1,005毫巴', '每小时3.60公里', '10.00公里', '部分多云 (1,219米)', '本地:', '04:00、2019年7月24日周三', '协调世界时:', '20:00、2019年7月23日周二', '来源:', 'USAF 每小时地面观测', '报告类型:', 'METAR 航空例行天气报告', '露点:', '21.0°C', '其他云层:', '大部分晴天 (1,219米)', '天气:', 'Showers of Light Rain', '上午5:00', '24°C', '1,005毫巴', '每小时3.60公里', '8.00公里', '部分多云 (1,006米)', '本地:', '05:00、2019年7月24日周三', '协调世界时:', '21:00、2019年7月23日周二', '来源:', '周期文件', '趋势:', '无重要变化', '露点:', '22°C', '其他云层:', '大部分晴天 (1,006米)', '天气:', 'Showers of Light Rain', '原始:', 'ZUUU 232100Z VRB01MPS 8000 -SHRA FEW033CB SCT033 24/22 Q1005 NOSIG', '上午5:00', '24.0°C', '1,005毫巴', '每小时3.60公里', '8.00公里', '部分多云 (1,006米)', '本地:', '05:00、2019年7月24日周三', '协调世界时:', '21:00、2019年7月23日周二', '来源:', 'USAF 每小时地面观测', '报告类型:', 'METAR 航空例行天气报告', '露点:', '22.0°C', '其他云层:', '大部分晴天 (1,006米)', '天气:', 'Showers of Light Rain', '上午6:00', '24°C', '1,005毫巴', '每小时0公里', '7.00公里', '部分多云 (1,006米)', '本地:', '06:00、2019年7月24日周三', '协调世界时:', '22:00、2019年7月23日周二', '来源:', '周期文件', '趋势:', '无重要变化', '露点:', '22°C', '其他云层:', '大部分晴天 (244米)、大部分晴天 (1,006米)', '天气:', 'Showers of Light Rain', '原始:', 'ZUUU 232200Z 00000MPS 7000 -SHRA FEW008 FEW033CB SCT033 24/22 Q1005 NOSIG', '上午6:00', '24.0°C', '1,005毫巴', '每小时0公里', '7.00公里', '部分多云 (1,006米)', '本地:', '06:00、2019年7月24日周三', '协调世界时:', '22:00、2019年7月23日周二', '来源:', 'USAF 每小时地面观测', '报告类型:', 'METAR 航空例行天气报告', '露点:', '22.0°C', '其他云层:', '大部分晴天 (244米)、大部分晴天 (1,006米)', '天气:', 'Showers of Light Rain', '上午7:00', '24°C', '1,006毫巴', '每小时0公里', '8.00公里', '部分多云 (1,006米)', '本地:', '07:00、2019年7月24日周三', '协调世界时:', '23:00、2019年7月23日周二', '来源:', '周期文件', '趋势:', '无重要变化', '露点:', '22°C', '其他云层:', '大部分晴天 (1,006米)', '天气:', 'Showers of Light Rain', '原始:', 'ZUUU 232300Z 00000MPS 8000 -SHRA FEW033CB SCT033 24/22 Q1006 NOSIG', '上午7:00', '24.0°C', '1,006毫巴', '每小时0公里', '8.00公里', '部分多云 (1,006米)', '本地:', '07:00、2019年7月24日周三', '协调世界时:', '23:00、2019年7月23日周二', '来源:', 'USAF 每小时地面观测', '报告类型:', 'METAR 航空例行天气报告', '露点:', '22.0°C', '其他云层:', '大部分晴天 (1,006米)', '天气:', 'Showers of Light Rain', '上午8:00', '24°C', '1,006毫巴', '每小时3.60公里', '4.00公里', '部分多云 (1,006米)', '本地:', '08:00、2019年7月24日周三', '协调世界时:', '00:00、2019年7月24日周三', '来源:', '周期文件', '趋势:', '无重要变化', '露点:', '23°C', '其他云层:', '大部分晴天 (1,006米)', '天气:', 'Showers of Light Rain、Mist', '原始:', 'ZUUU 240000Z VRB01MPS 4000 -SHRA BR FEW033CB SCT033 24/23 Q1006 NOSIG', '上午8:00', '24.0°C', '1,006毫巴', '每小时3.60公里', '4.00公里', '部分多云 (1,006米)', '本地:', '08:00、2019年7月24日周三', '协调世界时:', '00:00、2019年7月24日周三', '来源:', 'USAF 每小时地面观测', '报告类型:', 'METAR 航空例行天气报告', '露点:', '23.0°C', '其他云层:', '大部分晴天 (1,006米)', '天气:', 'Mist、Showers of Light Rain', '上午9:00', '24°C', '1,007毫巴', '每小时3.60公里, 东北', '4.00公里', '部分多云 (1,006米)', '本地:', '09:00、2019年7月24日周三', '协调世界时:', '01:00、2019年7月24日周三', '来源:', '周期文件', '趋势:', '变化为', '露点:', '23°C', '其他云层:', '大部分晴天 (244米)、大部分晴天 (1,006米)', '天气:', 'Showers of Rain、Mist、Showers of Light Rain', '原始:', 'ZUUU 240100Z 03001MPS 4000 SHRA BR FEW008 FEW033CB SCT033 24/23 Q1007 BECMG TL0140 -SHRA', '上午9:00', '24.0°C', '1,007毫巴', '每小时3.60公里, 东北', '4.00公里', '部分多云 (1,006米)', '本地:', '09:00、2019年7月24日周三', '协调世界时:', '01:00、2019年7月24日周三', '来源:', 'USAF 每小时地面观测', '报告类型:', 'METAR 航空例行天气报告', '露点:', '23.0°C', '其他云层:', '大部分晴天 (244米)、大部分晴天 (1,006米)', '天气:', 'Mist、Showers of Rain', '上午10:00', '24°C', '1,007毫巴', '每小时0公里', '8.00公里', '部分多云 (1,006米)', '本地:', '10:00、2019年7月24日周三', '协调世界时:', '02:00、2019年7月24日周三', '来源:', '周期文件', '趋势:', '变化为', '露点:', '22°C', '其他云层:', '大部分晴天 (1,006米)', '天气:', 'Showers of Rain', '原始:', 'ZUUU 240200Z 00000MPS 8000 FEW033CB SCT033 24/22 Q1007 BECMG TL0230 SHRA', '上午10:00', '24.0°C', '1,007毫巴', '每小时0公里', '8.00公里', '部分多云 (1,006米)', '本地:', '10:00、2019年7月24日周三', '协调世界时:', '02:00、2019年7月24日周三', '来源:', 'USAF 每小时地面观测', '报告类型:', 'METAR 航空例行天气报告', '露点:', '22.0°C', '其他云层:', '大部分晴天 (1,006米)', '上午11:00', '25°C', '1,007毫巴', '每小时3.60公里', '4.00公里', '部分多云 (1,006米)', '本地:', '11:00、2019年7月24日周三', '协调世界时:', '03:00、2019年7月24日周三', '来源:', '周期文件', '趋势:', '无重要变化', '露点:', '23°C', '其他云层:', '大部分晴天 (244米)、大部分晴天 (1,006米)', '天气:', 'Showers of Light Rain、Mist', '原始:', 'ZUUU 240300Z VRB01MPS 4000 -SHRA BR FEW008 FEW033CB SCT033 25/23 Q1007 NOSIG', '上午11:00', '25.0°C', '1,007毫巴', '每小时3.60公里', '4.00公里', '部分多云 (1,006米)', '本地:', '11:00、2019年7月24日周三', '协调世界时:', '03:00、2019年7月24日周三', '来源:', 'USAF 每小时地面观测', '报告类型:', 'METAR 航空例行天气报告', '露点:', '23.0°C', '其他云层:', '大部分晴天 (244米)、大部分晴天 (1,006米)', '天气:', 'Mist、Showers of Light Rain', '下午12:00', '25°C', '1,007毫巴', '每小时3.60公里', '4.00公里', '部分多云 (1,006米)', '本地:', '12:00、2019年7月24日周三', '协调世界时:', '04:00、2019年7月24日周三', '来源:', '周期文件', '趋势:', '无重要变化', '露点:', '23°C', '其他云层:', '大部分晴天 (244米)、大部分晴天 (1,006米)', '天气:', 'Showers of Light Rain、Mist', '原始:', 'ZUUU 240400Z VRB01MPS 4000 -SHRA BR FEW008 FEW033CB SCT033 25/23 Q1007 NOSIG', '下午12:00', '25.0°C', '1,007毫巴', '每小时3.60公里', '4.00公里', '部分多云 (1,006米)', '本地:', '12:00、2019年7月24日周三', '协调世界时:', '04:00、2019年7月24日周三', '来源:', 'USAF 每小时地面观测', '报告类型:', 'METAR 航空例行天气报告', '露点:', '23.0°C', '其他云层:', '大部分晴天 (244米)、大部分晴天 (1,006米)', '天气:', 'Mist、Showers of Light Rain', '下午1:00', '26°C', '1,007毫巴', '每小时0公里', '4.50公里', '大部分多云 (1,006米)', '本地:', '13:00、2019年7月24日周三', '协调世界时:', '05:00、2019年7月24日周三', '来源:', '周期文件', '趋势:', '无重要变化', '露点:', '24°C', '其他云层:', '大部分晴天 (244米)、大部分晴天 (1,006米)', '天气:', 'Showers of Light Rain、Mist', '原始:', 'ZUUU 240500Z 00000MPS 4500 -SHRA BR FEW008 FEW033CB BKN033 26/24 Q1007 NOSIG', '下午1:00', '26.0°C', '1,007毫巴', '每小时0公里', '4.50公里', '大部分多云 (1,006米)', '本地:', '13:00、2019年7月24日周三', '协调世界时:', '05:00、2019年7月24日周三', '来源:', 'USAF 每小时地面观测', '报告类型:', 'METAR 航空例行天气报告', '露点:', '24.0°C', '其他云层:', '大部分晴天 (244米)、大部分晴天 (1,006米)', '天气:', 'Mist、Showers of Light Rain', '下午2:00', '28°C', '1,006毫巴', '每小时3.60公里', '5.00公里', '部分多云 (1,006米)', '本地:', '14:00、2019年7月24日周三', '协调世界时:', '06:00、2019年7月24日周三', '来源:', '周期文件', '趋势:', '无重要变化', '露点:', '24°C', '其他云层:', '大部分晴天 (244米)', '天气:', 'Mist', '原始:', 'ZUUU 240600Z VRB01MPS 5000 BR FEW008 SCT033 28/24 Q1006 NOSIG', '下午2:00', '28.0°C', '1,006毫巴', '每小时3.60公里', '5.00公里', '部分多云 (1,006米)', '本地:', '14:00、2019年7月24日周三', '协调世界时:', '06:00、2019年7月24日周三', '来源:', 'USAF 每小时地面观测', '报告类型:', 'METAR 航空例行天气报告', '露点:', '24.0°C', '其他云层:', '大部分晴天 (244米)', '天气:', 'Mist', '下午3:00', '29°C', '1,005毫巴', '每小时3.60公里', '7.00公里', '部分多云 (1,524米)', '本地:', '15:00、2019年7月24日周三', '协调世界时:', '07:00、2019年7月24日周三', '来源:', '周期文件', '趋势:', '无重要变化', '露点:', '24°C', '原始:', 'ZUUU 240700Z VRB01MPS 7000 SCT050 29/24 Q1005 NOSIG', '下午3:00', '29.0°C', '1,005毫巴', '每小时3.60公里', '7.00公里', '部分多云 (1,524米)', '本地:', '15:00、2019年7月24日周三', '协调世界时:', '07:00、2019年7月24日周三', '来源:', 'USAF 每小时地面观测', '报告类型:', 'METAR 航空例行天气报告', '露点:', '24.0°C', '下午4:00', '29°C', '1,005毫巴', '每小时7.20公里, 西南', '7.00公里', '部分多云 (701米)', '本地:', '16:00、2019年7月24日周三', '协调世界时:', '08:00、2019年7月24日周三', '来源:', '周期文件', '趋势:', '无重要变化', '露点:', '23°C', '原始:', 'ZUUU 240800Z 21002MPS 170V240 7000 SCT023 29/23 Q1005 NOSIG', '下午4:00', '29.0°C', '1,005毫巴', '每小时7.20公里, 西南', '7.00公里', '部分多云 (701米)', '本地:', '16:00、2019年7月24日周三', '协调世界时:', '08:00、2019年7月24日周三', '来源:', 'USAF 每小时地面观测', '报告类型:', 'METAR 航空例行天气报告', '露点:', '23.0°C', '下午5:00', '30°C', '1,005毫巴', '每小时7.20公里, 西南', '10.00公里', '部分多云 (1,524米)', '本地:', '17:00、2019年7月24日周三', '协调世界时:', '09:00、2019年7月24日周三', '来源:', '周期文件', '趋势:', '无重要变化', '露点:', '24°C', '其他云层:', '大部分晴天 (701米)', '原始:', 'ZUUU 240900Z 21002MPS 140V260 9999 FEW023 SCT050 30/24 Q1005 NOSIG', '下午5:00', '30.0°C', '1,005毫巴', '每小时7.20公里, 西南', '10.00公里', '部分多云 (1,524米)', '本地:', '17:00、2019年7月24日周三', '协调世界时:', '09:00、2019年7月24日周三', '来源:', 'USAF 每小时地面观测', '报告类型:', 'METAR 航空例行天气报告', '露点:', '24.0°C', '其他云层:', '大部分晴天 (701米)', '下午6:00', '29°C', '1,005毫巴', '每小时7.20公里, 西南', '10.00公里', '部分多云 (1,524米)', '本地:', '18:00、2019年7月24日周三', '协调世界时:', '10:00、2019年7月24日周三', '来源:', '周期文件', '趋势:', '无重要变化', '露点:', '25°C', '原始:', 'ZUUU 241000Z 21002MPS 180V240 9999 SCT050 29/25 Q1005 NOSIG', '下午6:00', '29.0°C', '1,005毫巴', '每小时7.20公里, 西南', '10.00公里', '部分多云 (1,524米)', '本地:', '18:00、2019年7月24日周三', '协调世界时:', '10:00、2019年7月24日周三', '来源:', 'USAF 每小时地面观测', '报告类型:', 'METAR 航空例行天气报告', '露点:', '25.0°C', '下午7:00', '28°C', '1,005毫巴', '每小时7.20公里, 西南', '≥ 10.00公里', '晴空万里', '本地:', '19:00、2019年7月24日周三', '协调世界时:', '11:00、2019年7月24日周三', '来源:', '周期文件', '趋势:', '无重要变化', '露点:', '24°C', '晴空万里:', '真', '原始:', 'ZUUU 241100Z 23002MPS CAVOK 28/24 Q1005 NOSIG', '下午7:00', '28.0°C', '1,005毫巴', '每小时7.20公里, 西南', '9.90公里', '晴空万里', '本地:', '19:00、2019年7月24日周三', '协调世界时:', '11:00、2019年7月24日周三', '来源:', 'USAF 每小时地面观测', '报告类型:', 'METAR 航空例行天气报告', '露点:', '24.0°C', '晴空万里:', '真', '下午8:00', '28°C', '1,006毫巴', '每小时3.60公里, 西南', '≥ 10.00公里', '晴空万里', '本地:', '20:00、2019年7月24日周三', '协调世界时:', '12:00、2019年7月24日周三', '来源:', '周期文件', '趋势:', '无重要变化', '露点:', '25°C', '晴空万里:', '真', '原始:', 'ZUUU 241200Z 23001MPS CAVOK 28/25 Q1006 NOSIG', '下午8:00', '28.0°C', '1,006毫巴', '每小时3.60公里, 西南', '9.90公里', '晴空万里', '本地:', '20:00、2019年7月24日周三', '协调世界时:', '12:00、2019年7月24日周三', '来源:', 'USAF 每小时地面观测', '报告类型:', 'METAR 航空例行天气报告', '露点:', '25.0°C', '晴空万里:', '真', '下午9:00', '27°C', '1,006毫巴', '每小时0公里', '≥ 10.00公里', '晴空万里', '本地:', '21:00、2019年7月24日周三', '协调世界时:', '13:00、2019年7月24日周三', '来源:', '周期文件', '趋势:', '无重要变化', '露点:', '25°C', '晴空万里:', '真', '原始:', 'ZUUU 241300Z 00000MPS CAVOK 27/25 Q1006 NOSIG', '下午9:00', '27.0°C', '1,006毫巴', '每小时0公里', '9.90公里', '晴空万里', '本地:', '21:00、2019年7月24日周三', '协调世界时:', '13:00、2019年7月24日周三', '来源:', 'USAF 每小时地面观测', '报告类型:', 'METAR 航空例行天气报告', '露点:', '25.0°C', '晴空万里:', '真', '下午10:00', '27°C', '1,007毫巴', '每小时7.20公里, 西南', '≥ 10.00公里', '晴空万里', '本地:', '22:00、2019年7月24日周三', '协调世界时:', '14:00、2019年7月24日周三', '来源:', '周期文件', '趋势:', '无重要变化', '露点:', '24°C', '晴空万里:', '真', '原始:', 'ZUUU 241400Z 21002MPS CAVOK 27/24 Q1007 NOSIG', '下午10:00', '27.0°C', '1,007毫巴', '每小时7.20公里, 西南', '9.90公里', '晴空万里', '本地:', '22:00、2019年7月24日周三', '协调世界时:', '14:00、2019年7月24日周三', '来源:', 'USAF 每小时地面观测', '报告类型:', 'METAR 航空例行天气报告', '露点:', '24.0°C', '晴空万里:', '真', '下午11:00', '26°C', '1,008毫巴', '每小时7.20公里, 西南', '≥ 10.00公里', '晴空万里', '本地:', '23:00、2019年7月24日周三', '协调世界时:', '15:00、2019年7月24日周三', '来源:', '周期文件', '趋势:', '无重要变化', '露点:', '24°C', '晴空万里:', '真', '原始:', 'ZUUU 241500Z 23002MPS CAVOK 26/24 Q1008 NOSIG', '下午11:00', '26.0°C', '1,008毫巴', '每小时7.20公里, 西南', '9.90公里', '晴空万里', '本地:', '23:00、2019年7月24日周三', '协调世界时:', '15:00、2019年7月24日周三', '来源:', 'USAF 每小时地面观测', '报告类型:', 'METAR 航空例行天气报告', '露点:', '24.0°C', '晴空万里:', '真']