['Mist', 'BR、IWC10', 'Mist', 'BR、IWC10', 'Mist', 'BR、IWC10', 'Mist', 'BR、IWC10', 'Mist', 'BR、IWC10', 'Mist', 'BR、IWC10', 'Mist', 'BR、IWC10', 'Mist', 'BR、IWC10', 'Mist', 'BR、IWC10', 'Mist', 'BR、IWC10', '上午12:00', '18°C', '1,023毫巴', '每小时0公里', '≥ 10.00公里', '晴空万里', '本地:', '00:00、2019年9月27日周五', '协调世界时:', '16:00、2019年9月26日周四', '来源:', '周期文件', '趋势:', '无重要变化', '露点:', '17°C', '晴空万里:', '真', '原始:', 'ZUUU 261600Z 00000MPS CAVOK 18/17 Q1023 NOSIG', '上午12:00', '18.0°C', '1,023毫巴', '每小时0公里', '9.90公里', '晴空万里', '本地:', '00:00、2019年9月27日周五', '协调世界时:', '16:00、2019年9月26日周四', '来源:', 'USAF 每小时地面观测', '报告类型:', 'METAR 航空例行天气报告', '露点:', '17.0°C', '晴空万里:', '真', '上午1:00', '18°C', '1,023毫巴', '每小时0公里', '5.00公里', '无重要云', '本地:', '01:00、2019年9月27日周五', '协调世界时:', '17:00、2019年9月26日周四', '来源:', '周期文件', '趋势:', '无重要变化', '露点:', '16°C', '天气:', 'Mist', '原始:', 'ZUUU 261700Z 00000MPS 5000 BR NSC 18/16 Q1023 NOSIG', '上午1:00', '18.0°C', '1,023毫巴', '每小时0公里', '5.00公里', '未检测到云', '本地:', '01:00、2019年9月27日周五', '协调世界时:', '17:00、2019年9月26日周四', '来源:', 'USAF 每小时地面观测', '报告类型:', 'METAR 航空例行天气报告', '露点:', '16.0°C', '天气:', 'Mist', '上午2:00', '17°C', '1,022毫巴', '每小时0公里', '4.50公里', '无重要云', '本地:', '02:00、2019年9月27日周五', '协调世界时:', '18:00、2019年9月26日周四', '来源:', '周期文件', '趋势:', '无重要变化', '露点:', '16°C', '天气:', 'Mist', '原始:', 'ZUUU 261800Z 00000MPS 4500 BR NSC 17/16 Q1022 NOSIG', '上午2:00', '17.0°C', '1,022毫巴', '每小时0公里', '4.50公里', '未检测到云', '本地:', '02:00、2019年9月27日周五', '协调世界时:', '18:00、2019年9月26日周四', '来源:', 'USAF 每小时地面观测', '报告类型:', 'METAR 航空例行天气报告', '露点:', '16.0°C', '天气:', 'Mist', '上午3:00', '17°C', '1,022毫巴', '每小时3.60公里, 西南', '3.50公里', '无重要云', '本地:', '03:00、2019年9月27日周五', '协调世界时:', '19:00、2019年9月26日周四', '来源:', '周期文件', '趋势:', '无重要变化', '露点:', '16°C', '天气:', 'Mist', '原始:', 'ZUUU 261900Z 21001MPS 3500 BR NSC 17/16 Q1022 NOSIG', '上午3:00', '17.0°C', '1,022毫巴', '每小时3.60公里, 西南', '3.50公里', '未检测到云', '本地:', '03:00、2019年9月27日周五', '协调世界时:', '19:00、2019年9月26日周四', '来源:', 'USAF 每小时地面观测', '报告类型:', 'METAR 航空例行天气报告', '露点:', '16.0°C', '天气:', 'Mist', '上午4:00', '17°C', '1,021毫巴', '每小时0公里', '3.50公里', '无重要云', '本地:', '04:00、2019年9月27日周五', '协调世界时:', '20:00、2019年9月26日周四', '来源:', '周期文件', '趋势:', '无重要变化', '露点:', '16°C', '天气:', 'Mist', '原始:', 'ZUUU 262000Z 00000MPS 3500 BR NSC 17/16 Q1021 NOSIG', '上午4:00', '17.0°C', '1,021毫巴', '每小时0公里', '3.50公里', '未检测到云', '本地:', '04:00、2019年9月27日周五', '协调世界时:', '20:00、2019年9月26日周四', '来源:', 'USAF 每小时地面观测', '报告类型:', 'METAR 航空例行天气报告', '露点:', '16.0°C', '天气:', 'Mist', '上午5:00', '16°C', '1,021毫巴', '每小时7.20公里, 西南', '3.50公里', '无重要云', '本地:', '05:00、2019年9月27日周五', '协调世界时:', '21:00、2019年9月26日周四', '来源:', '周期文件', '趋势:', '无重要变化', '露点:', '16°C', '天气:', 'Mist', '原始:', 'ZUUU 262100Z 24002MPS 210V280 3500 BR NSC 16/16 Q1021 NOSIG', '上午5:00', '16.0°C', '1,021毫巴', '每小时7.20公里, 西南', '3.50公里', '未检测到云', '本地:', '05:00、2019年9月27日周五', '协调世界时:', '21:00、2019年9月26日周四', '来源:', 'USAF 每小时地面观测', '报告类型:', 'METAR 航空例行天气报告', '露点:', '16.0°C', '天气:', 'Mist', '上午6:00', '16°C', '1,022毫巴', '每小时0公里', '3.00公里', '无重要云', '本地:', '06:00、2019年9月27日周五', '协调世界时:', '22:00、2019年9月26日周四', '来源:', '周期文件', '趋势:', '变化为', '露点:', '15°C', '天气:', 'Mist、Mist', '原始:', 'ZUUU 262200Z 00000MPS 3000 BR NSC 16/15 Q1022 BECMG TL2240 2500 BR', '上午6:00', '16.0°C', '1,022毫巴', '每小时0公里', '3.00公里', '未检测到云', '本地:', '06:00、2019年9月27日周五', '协调世界时:', '22:00、2019年9月26日周四', '来源:', 'USAF 每小时地面观测', '报告类型:', 'METAR 航空例行天气报告', '露点:', '15.0°C', '天气:', 'Mist', '上午7:00', '16°C', '1,022毫巴', '每小时0公里', '1.50公里', '无重要云', '本地:', '07:00、2019年9月27日周五', '协调世界时:', '23:00、2019年9月26日周四', '来源:', '周期文件', '趋势:', '无重要变化', '露点:', '15°C', '天气:', 'Mist', '原始:', 'ZUUU 262300Z 00000MPS 1500 BR NSC 16/15 Q1022 NOSIG', '上午7:00', '16.0°C', '1,022毫巴', '每小时0公里', '1.50公里', '未检测到云', '本地:', '07:00、2019年9月27日周五', '协调世界时:', '23:00、2019年9月26日周四', '来源:', 'USAF 每小时地面观测', '报告类型:', 'METAR 航空例行天气报告', '露点:', '15.0°C', '天气:', 'Mist', '上午8:00', '17°C', '1,023毫巴', '每小时0公里', '1.80公里', '无重要云', '本地:', '08:00、2019年9月27日周五', '协调世界时:', '00:00、2019年9月27日周五', '来源:', '周期文件', '趋势:', '无重要变化', '露点:', '16°C', '天气:', 'Mist', '原始:', 'ZUUU 270000Z 00000MPS 1800 BR NSC 17/16 Q1023 NOSIG', '上午8:00', '17.0°C', '1,023毫巴', '每小时0公里', '1.80公里', '未检测到云', '本地:', '08:00、2019年9月27日周五', '协调世界时:', '00:00、2019年9月27日周五', '来源:', 'USAF 每小时地面观测', '报告类型:', 'METAR 航空例行天气报告', '露点:', '16.0°C', '天气:', 'Mist', '上午9:00', '20°C', '1,024毫巴', '每小时0公里', '3.50公里', '无重要云', '本地:', '09:00、2019年9月27日周五', '协调世界时:', '01:00、2019年9月27日周五', '来源:', '周期文件', '趋势:', '无重要变化', '露点:', '17°C', '天气:', 'Mist', '原始:', 'ZUUU 270100Z 00000MPS 3500 BR NSC 20/17 Q1024 NOSIG', '上午9:00', '20.0°C', '1,024毫巴', '每小时0公里', '3.50公里', '未检测到云', '本地:', '09:00、2019年9月27日周五', '协调世界时:', '01:00、2019年9月27日周五', '来源:', 'USAF 每小时地面观测', '报告类型:', 'METAR 航空例行天气报告', '露点:', '17.0°C', '天气:', 'Mist', '上午10:00', '22°C', '1,024毫巴', '每小时3.60公里', '5.00公里', '无重要云', '本地:', '10:00、2019年9月27日周五', '协调世界时:', '02:00、2019年9月27日周五', '来源:', '周期文件', '趋势:', '无重要变化', '露点:', '16°C', '天气:', 'Mist', '原始:', 'ZUUU 270200Z VRB01MPS 5000 BR NSC 22/16 Q1024 NOSIG', '上午10:00', '22.0°C', '1,024毫巴', '每小时3.60公里', '5.00公里', '未检测到云', '本地:', '10:00、2019年9月27日周五', '协调世界时:', '02:00、2019年9月27日周五', '来源:', 'USAF 每小时地面观测', '报告类型:', 'METAR 航空例行天气报告', '露点:', '16.0°C', '天气:', 'Mist', '上午11:00', '25°C', '1,023毫巴', '每小时3.60公里', '7.00公里', '无重要云', '本地:', '11:00、2019年9月27日周五', '协调世界时:', '03:00、2019年9月27日周五', '来源:', '周期文件', '趋势:', '无重要变化', '露点:', '16°C', '原始:', 'ZUUU 270300Z VRB01MPS 7000 NSC 25/16 Q1023 NOSIG', '上午11:00', '25.0°C', '1,023毫巴', '每小时3.60公里', '7.00公里', '未检测到云', '本地:', '11:00、2019年9月27日周五', '协调世界时:', '03:00、2019年9月27日周五', '来源:', 'USAF 每小时地面观测', '报告类型:', 'METAR 航空例行天气报告', '露点:', '16.0°C', '下午12:00', '26°C', '1,023毫巴', '每小时3.60公里', '8.00公里', '部分多云 (792米)', '本地:', '12:00、2019年9月27日周五', '协调世界时:', '04:00、2019年9月27日周五', '来源:', '周期文件', '趋势:', '无重要变化', '露点:', '15°C', '原始:', 'ZUUU 270400Z VRB01MPS 8000 SCT026 26/15 Q1023 NOSIG', '下午12:00', '26.0°C', '1,023毫巴', '每小时3.60公里', '8.00公里', '部分多云 (792米)', '本地:', '12:00、2019年9月27日周五', '协调世界时:', '04:00、2019年9月27日周五', '来源:', 'USAF 每小时地面观测', '报告类型:', 'METAR 航空例行天气报告', '露点:', '15.0°C', '下午1:00', '26°C', '1,022毫巴', '每小时7.20公里', '10.00公里', '部分多云 (1,006米)', '本地:', '13:00、2019年9月27日周五', '协调世界时:', '05:00、2019年9月27日周五', '来源:', '周期文件', '趋势:', '无重要变化', '露点:', '15°C', '原始:', 'ZUUU 270500Z VRB02MPS 9999 SCT033 26/15 Q1022 NOSIG', '下午1:00', '26.0°C', '1,022毫巴', '每小时7.20公里', '10.00公里', '部分多云 (1,006米)', '本地:', '13:00、2019年9月27日周五', '协调世界时:', '05:00、2019年9月27日周五', '来源:', 'USAF 每小时地面观测', '报告类型:', 'METAR 航空例行天气报告', '露点:', '15.0°C', '下午2:00', '26°C', '1,021毫巴', '每小时7.20公里', '10.00公里', '部分多云 (1,006米)', '本地:', '14:00、2019年9月27日周五', '协调世界时:', '06:00、2019年9月27日周五', '来源:', '周期文件', '趋势:', '无重要变化', '露点:', '15°C', '原始:', 'ZUUU 270600Z VRB02MPS 9999 SCT033 26/15 Q1021 NOSIG', '下午2:00', '26.0°C', '1,021毫巴', '每小时7.20公里', '10.00公里', '部分多云 (1,006米)', '本地:', '14:00、2019年9月27日周五', '协调世界时:', '06:00、2019年9月27日周五', '来源:', 'USAF 每小时地面观测', '报告类型:', 'METAR 航空例行天气报告', '露点:', '15.0°C', '下午3:00', '27°C', '1,019毫巴', '每小时7.20公里', '10.00公里', '部分多云 (1,006米)', '本地:', '15:00、2019年9月27日周五', '协调世界时:', '07:00、2019年9月27日周五', '来源:', '周期文件', '趋势:', '无重要变化', '露点:', '15°C', '原始:', 'ZUUU 270700Z VRB02MPS 9999 SCT033 27/15 Q1019 NOSIG', '下午4:00', '28°C', '1,019毫巴', '每小时7.20公里, 西南', '10.00公里', '大部分晴天 (792米)', '本地:', '16:00、2019年9月27日周五', '协调世界时:', '08:00、2019年9月27日周五', '来源:', '周期文件', '趋势:', '无重要变化', '露点:', '14°C', '原始:', 'ZUUU 270800Z 22002MPS 150V250 9999 FEW026 28/14 Q1019 NOSIG', '下午4:00', '28.0°C', '1,019毫巴', '每小时7.20公里, 西南', '10.00公里', '大部分晴天 (792米)', '本地:', '16:00、2019年9月27日周五', '协调世界时:', '08:00、2019年9月27日周五', '来源:', 'USAF 每小时地面观测', '报告类型:', 'METAR 航空例行天气报告', '露点:', '14.0°C', '下午5:00', '27°C', '1,019毫巴', '每小时3.60公里', '10.00公里', '部分多云 (1,219米)', '本地:', '17:00、2019年9月27日周五', '协调世界时:', '09:00、2019年9月27日周五', '来源:', '周期文件', '趋势:', '无重要变化', '露点:', '14°C', '原始:', 'ZUUU 270900Z VRB01MPS 9999 SCT040 27/14 Q1019 NOSIG', '下午5:00', '27.0°C', '1,019毫巴', '每小时3.60公里', '10.00公里', '部分多云 (1,219米)', '本地:', '17:00、2019年9月27日周五', '协调世界时:', '09:00、2019年9月27日周五', '来源:', 'USAF 每小时地面观测', '报告类型:', 'METAR 航空例行天气报告', '露点:', '14.0°C', '下午6:00', '26°C', '1,019毫巴', '每小时7.20公里, 西南', '10.00公里', '大部分晴天 (1,219米)', '本地:', '18:00、2019年9月27日周五', '协调世界时:', '10:00、2019年9月27日周五', '来源:', '周期文件', '趋势:', '无重要变化', '露点:', '16°C', '原始:', 'ZUUU 271000Z 21002MPS 170V240 9999 FEW040 26/16 Q1019 NOSIG', '下午6:00', '26.0°C', '1,019毫巴', '每小时7.20公里, 西南', '10.00公里', '大部分晴天 (1,219米)', '本地:', '18:00、2019年9月27日周五', '协调世界时:', '10:00、2019年9月27日周五', '来源:', 'USAF 每小时地面观测', '报告类型:', 'METAR 航空例行天气报告', '露点:', '16.0°C', '下午7:00', '25°C', '1,019毫巴', '每小时7.20公里, 东南', '10.00公里', '大部分晴天 (1,524米)', '本地:', '19:00、2019年9月27日周五', '协调世界时:', '11:00、2019年9月27日周五', '来源:', '周期文件', '趋势:', '无重要变化', '露点:', '15°C', '原始:', 'ZUUU 271100Z 13002MPS 070V180 9999 FEW050 25/15 Q1019 NOSIG', '下午7:00', '25.0°C', '1,019毫巴', '每小时7.20公里, 东南', '10.00公里', '大部分晴天 (1,524米)', '本地:', '19:00、2019年9月27日周五', '协调世界时:', '11:00、2019年9月27日周五', '来源:', 'USAF 每小时地面观测', '报告类型:', 'METAR 航空例行天气报告', '露点:', '15.0°C', '下午8:00', '22°C', '1,020毫巴', '每小时3.60公里, 西南', '≥ 10.00公里', '晴空万里', '本地:', '20:00、2019年9月27日周五', '协调世界时:', '12:00、2019年9月27日周五', '来源:', '周期文件', '趋势:', '无重要变化', '露点:', '17°C', '晴空万里:', '真', '原始:', 'ZUUU 271200Z 23001MPS CAVOK 22/17 Q1020 NOSIG', '下午8:00', '22.0°C', '1,020毫巴', '每小时3.60公里, 西南', '9.90公里', '晴空万里', '本地:', '20:00、2019年9月27日周五', '协调世界时:', '12:00、2019年9月27日周五', '来源:', 'USAF 每小时地面观测', '报告类型:', 'METAR 航空例行天气报告', '露点:', '17.0°C', '晴空万里:', '真', '下午9:00', '22°C', '1,020毫巴', '每小时3.60公里', '≥ 10.00公里', '晴空万里', '本地:', '21:00、2019年9月27日周五', '协调世界时:', '13:00、2019年9月27日周五', '来源:', '周期文件', '趋势:', '无重要变化', '露点:', '17°C', '晴空万里:', '真', '原始:', 'ZUUU 271300Z VRB01MPS CAVOK 22/17 Q1020 NOSIG', '下午9:00', '22.0°C', '1,020毫巴', '每小时3.60公里', '9.90公里', '晴空万里', '本地:', '21:00、2019年9月27日周五', '协调世界时:', '13:00、2019年9月27日周五', '来源:', 'USAF 每小时地面观测', '报告类型:', 'METAR 航空例行天气报告', '露点:', '17.0°C', '晴空万里:', '真', '下午10:00', '21°C', '1,021毫巴', '每小时0公里', '≥ 10.00公里', '晴空万里', '本地:', '22:00、2019年9月27日周五', '协调世界时:', '14:00、2019年9月27日周五', '来源:', '周期文件', '趋势:', '无重要变化', '露点:', '18°C', '晴空万里:', '真', '原始:', 'ZUUU 271400Z 00000MPS CAVOK 21/18 Q1021 NOSIG', '下午10:00', '21.0°C', '1,021毫巴', '每小时0公里', '9.90公里', '晴空万里', '本地:', '22:00、2019年9月27日周五', '协调世界时:', '14:00、2019年9月27日周五', '来源:', 'USAF 每小时地面观测', '报告类型:', 'METAR 航空例行天气报告', '露点:', '18.0°C', '晴空万里:', '真', '下午11:00', '21°C', '1,021毫巴', '每小时0公里', '≥ 10.00公里', '晴空万里', '本地:', '23:00、2019年9月27日周五', '协调世界时:', '15:00、2019年9月27日周五', '来源:', '周期文件', '趋势:', '无重要变化', '露点:', '18°C', '晴空万里:', '真', '原始:', 'ZUUU 271500Z 00000MPS CAVOK 21/18 Q1021 NOSIG', '下午11:00', '21.0°C', '1,021毫巴', '每小时0公里', '9.90公里', '晴空万里', '本地:', '23:00、2019年9月27日周五', '协调世界时:', '15:00、2019年9月27日周五', '来源:', 'USAF 每小时地面观测', '报告类型:', 'METAR 航空例行天气报告', '露点:', '18.0°C', '晴空万里:', '真']