['Light Rain', '-RA、IWC61', 'Mist', 'BR、IWC10', 'Mist', 'BR、IWC10', 'Mist', 'BR、IWC10', 'Mist', 'BR、IWC10', 'Mist', 'BR、IWC10', 'Light Rain、Mist', '-RA、IWC61、BR、IWC10', 'Light Rain、Mist', '-RA、IWC61、BR、IWC10', 'Light Rain、Mist', '-RA、IWC61、BR、IWC10', 'Light Rain、Mist', '-RA、IWC61、BR、IWC10', 'Light Rain、Mist', '-RA、IWC61、BR、IWC10', 'Light Rain、Mist', '-RA、IWC61、BR、IWC10', 'Light Rain', '-RA、IWC61', 'Light Rain、Mist', '-RA、IWC61、BR、IWC10', 'Light Rain、Mist', '-RA、IWC61、BR、IWC10', 'Light Rain', '-RA、IWC61', 'Light Rain、Mist', '-RA、IWC61、BR、IWC10', 'Light Rain、Mist', '-RA、IWC61、BR、IWC10', 'Light Rain', '-RA、IWC61', '上午12:00', '17°C', '1,024毫巴', '每小时0公里', '10.00公里', '部分多云 (1,219米)', '本地:', '00:00、2019年11月4日周一', '协调世界时:', '16:00、2019年11月3日周日', '来源:', '周期文件', '趋势:', '无重要变化', '露点:', '14°C', '其他云层:', '大部分晴天 (701米)', '原始:', 'ZUUU 031600Z 00000MPS 9999 FEW023 SCT040 17/14 Q1024 NOSIG', '上午12:00', '17.0°C', '1,024毫巴', '每小时0公里', '10.00公里', '部分多云 (1,219米)', '本地:', '00:00、2019年11月4日周一', '协调世界时:', '16:00、2019年11月3日周日', '来源:', 'USAF 每小时地面观测', '报告类型:', 'METAR 航空例行天气报告', '露点:', '14.0°C', '其他云层:', '大部分晴天 (701米)', '上午1:00', '17°C', '1,023毫巴', '每小时0公里', '10.00公里', '部分多云 (1,219米)', '本地:', '01:00、2019年11月4日周一', '协调世界时:', '17:00、2019年11月3日周日', '来源:', '周期文件', '趋势:', '无重要变化', '露点:', '14°C', '其他云层:', '大部分晴天 (701米)', '原始:', 'ZUUU 031700Z 00000MPS 9999 FEW023 SCT040 17/14 Q1023 NOSIG', '上午1:00', '17.0°C', '1,023毫巴', '每小时0公里', '10.00公里', '部分多云 (1,219米)', '本地:', '01:00、2019年11月4日周一', '协调世界时:', '17:00、2019年11月3日周日', '来源:', 'USAF 每小时地面观测', '报告类型:', 'METAR 航空例行天气报告', '露点:', '14.0°C', '其他云层:', '大部分晴天 (701米)', '上午2:00', '16°C', '1,023毫巴', '每小时3.60公里', '6.00公里', '部分多云 (1,219米)', '本地:', '02:00、2019年11月4日周一', '协调世界时:', '18:00、2019年11月3日周日', '来源:', '周期文件', '趋势:', '无重要变化', '露点:', '15°C', '其他云层:', '大部分晴天 (701米)', '天气:', 'Light Rain', '原始:', 'ZUUU 031800Z VRB01MPS 6000 -RA FEW023 SCT040 16/15 Q1023 NOSIG', '上午2:00', '16.0°C', '1,023毫巴', '每小时3.60公里', '6.00公里', '部分多云 (1,219米)', '本地:', '02:00、2019年11月4日周一', '协调世界时:', '18:00、2019年11月3日周日', '来源:', 'USAF 每小时地面观测', '报告类型:', 'METAR 航空例行天气报告', '露点:', '15.0°C', '其他云层:', '大部分晴天 (701米)', '天气:', 'Light Rain', '上午3:00', '16°C', '1,023毫巴', '每小时0公里', '6.00公里', '部分多云 (1,219米)', '本地:', '03:00、2019年11月4日周一', '协调世界时:', '19:00、2019年11月3日周日', '来源:', '周期文件', '趋势:', '无重要变化', '露点:', '15°C', '其他云层:', '大部分晴天 (701米)', '原始:', 'ZUUU 031900Z 00000MPS 6000 FEW023 SCT040 16/15 Q1023 NOSIG', '上午3:00', '16.0°C', '1,023毫巴', '每小时0公里', '6.00公里', '部分多云 (1,219米)', '本地:', '03:00、2019年11月4日周一', '协调世界时:', '19:00、2019年11月3日周日', '来源:', 'USAF 每小时地面观测', '报告类型:', 'METAR 航空例行天气报告', '露点:', '15.0°C', '其他云层:', '大部分晴天 (701米)', '上午4:00', '16°C', '1,023毫巴', '每小时0公里', '5.00公里', '部分多云 (1,219米)', '本地:', '04:00、2019年11月4日周一', '协调世界时:', '20:00、2019年11月3日周日', '来源:', '周期文件', '趋势:', '无重要变化', '露点:', '14°C', '其他云层:', '大部分晴天 (701米)', '天气:', 'Mist', '原始:', 'ZUUU 032000Z 00000MPS 5000 BR FEW023 SCT040 16/14 Q1023 NOSIG', '上午4:00', '16.0°C', '1,023毫巴', '每小时0公里', '5.00公里', '部分多云 (1,219米)', '本地:', '04:00、2019年11月4日周一', '协调世界时:', '20:00、2019年11月3日周日', '来源:', 'USAF 每小时地面观测', '报告类型:', 'METAR 航空例行天气报告', '露点:', '14.0°C', '其他云层:', '大部分晴天 (701米)', '天气:', 'Mist', '上午5:00', '16°C', '1,023毫巴', '每小时0公里', '4.50公里', '部分多云 (1,219米)', '本地:', '05:00、2019年11月4日周一', '协调世界时:', '21:00、2019年11月3日周日', '来源:', '周期文件', '趋势:', '无重要变化', '露点:', '14°C', '天气:', 'Mist', '原始:', 'ZUUU 032100Z 00000MPS 4500 BR SCT040 16/14 Q1023 NOSIG', '上午5:00', '16.0°C', '1,023毫巴', '每小时0公里', '4.50公里', '部分多云 (1,219米)', '本地:', '05:00、2019年11月4日周一', '协调世界时:', '21:00、2019年11月3日周日', '来源:', 'USAF 每小时地面观测', '报告类型:', 'METAR 航空例行天气报告', '露点:', '14.0°C', '天气:', 'Mist', '上午6:00', '16°C', '1,023毫巴', '每小时0公里', '4.50公里', '部分多云 (1,219米)', '本地:', '06:00、2019年11月4日周一', '协调世界时:', '22:00、2019年11月3日周日', '来源:', '周期文件', '趋势:', '无重要变化', '露点:', '14°C', '天气:', 'Mist', '原始:', 'ZUUU 032200Z 00000MPS 4500 BR SCT040 16/14 Q1023 NOSIG', '上午6:00', '16.0°C', '1,023毫巴', '每小时0公里', '4.50公里', '部分多云 (1,219米)', '本地:', '06:00、2019年11月4日周一', '协调世界时:', '22:00、2019年11月3日周日', '来源:', 'USAF 每小时地面观测', '报告类型:', 'METAR 航空例行天气报告', '露点:', '14.0°C', '天气:', 'Mist', '上午7:00', '16°C', '1,023毫巴', '每小时3.60公里', '4.50公里', '部分多云 (1,219米)', '本地:', '07:00、2019年11月4日周一', '协调世界时:', '23:00、2019年11月3日周日', '来源:', '周期文件', '趋势:', '无重要变化', '露点:', '14°C', '天气:', 'Mist', '原始:', 'ZUUU 032300Z VRB01MPS 4500 BR SCT040 16/14 Q1023 NOSIG', '上午7:00', '16.0°C', '1,023毫巴', '每小时3.60公里', '4.50公里', '部分多云 (1,219米)', '本地:', '07:00、2019年11月4日周一', '协调世界时:', '23:00、2019年11月3日周日', '来源:', 'USAF 每小时地面观测', '报告类型:', 'METAR 航空例行天气报告', '露点:', '14.0°C', '天气:', 'Mist', '上午8:00', '17°C', '1,024毫巴', '每小时7.20公里, 东', '2.70公里', '部分多云 (1,219米)', '本地:', '08:00、2019年11月4日周一', '协调世界时:', '00:00、2019年11月4日周一', '来源:', '周期文件', '趋势:', '变化为', '露点:', '14°C', '天气:', 'Mist', '原始:', 'ZUUU 040000Z 07002MPS 030V100 2700 BR SCT040 17/14 Q1024 BECMG TL0130 3000', '上午8:00', '17.0°C', '1,024毫巴', '每小时7.20公里, 东', '2.70公里', '部分多云 (1,219米)', '本地:', '08:00、2019年11月4日周一', '协调世界时:', '00:00、2019年11月4日周一', '来源:', 'USAF 每小时地面观测', '报告类型:', 'METAR 航空例行天气报告', '露点:', '14.0°C', '天气:', 'Mist', '上午9:00', '17°C', '1,024毫巴', '每小时3.60公里', '3.00公里', '部分多云 (1,219米)', '本地:', '09:00、2019年11月4日周一', '协调世界时:', '01:00、2019年11月4日周一', '来源:', '周期文件', '趋势:', '无重要变化', '露点:', '14°C', '天气:', 'Light Rain、Mist', '原始:', 'ZUUU 040100Z VRB01MPS 3000 -RA BR SCT040 17/14 Q1024 NOSIG', '上午9:00', '17.0°C', '1,024毫巴', '每小时3.60公里', '3.00公里', '部分多云 (1,219米)', '本地:', '09:00、2019年11月4日周一', '协调世界时:', '01:00、2019年11月4日周一', '来源:', 'USAF 每小时地面观测', '报告类型:', 'METAR 航空例行天气报告', '露点:', '14.0°C', '天气:', 'Mist、Light Rain', '上午10:00', '17°C', '1,025毫巴', '每小时3.60公里', '2.60公里', '部分多云 (1,006米)', '本地:', '10:00、2019年11月4日周一', '协调世界时:', '02:00、2019年11月4日周一', '来源:', '周期文件', '趋势:', '变化为', '露点:', '15°C', '其他云层:', '大部分晴天 (610米)', '天气:', 'Light Rain、Mist', '原始:', 'ZUUU 040200Z VRB01MPS 2600 -RA BR FEW020 SCT033 17/15 Q1025 BECMG TL0330 3000', '上午10:00', '17.0°C', '1,025毫巴', '每小时3.60公里', '2.60公里', '部分多云 (1,006米)', '本地:', '10:00、2019年11月4日周一', '协调世界时:', '02:00、2019年11月4日周一', '来源:', 'USAF 每小时地面观测', '报告类型:', 'METAR 航空例行天气报告', '露点:', '15.0°C', '其他云层:', '大部分晴天 (610米)', '天气:', 'Mist、Light Rain', '上午11:00', '16°C', '1,024毫巴', '每小时0公里', '2.00公里', '部分多云 (1,006米)', '本地:', '11:00、2019年11月4日周一', '协调世界时:', '03:00、2019年11月4日周一', '来源:', '周期文件', '趋势:', '变化为', '露点:', '15°C', '其他云层:', '大部分晴天 (305米)', '天气:', 'Light Rain、Mist', '原始:', 'ZUUU 040300Z 00000MPS 2000 -RA BR FEW010 SCT033 16/15 Q1024 BECMG TL0420 3000', '上午11:00', '16.0°C', '1,024毫巴', '每小时0公里', '2.00公里', '部分多云 (1,006米)', '本地:', '11:00、2019年11月4日周一', '协调世界时:', '03:00、2019年11月4日周一', '来源:', 'USAF 每小时地面观测', '报告类型:', 'METAR 航空例行天气报告', '露点:', '15.0°C', '其他云层:', '大部分晴天 (305米)', '天气:', 'Mist、Light Rain', '下午12:00', '16°C', '1,023毫巴', '每小时10.8公里, 东', '4.00公里', '部分多云 (701米)', '本地:', '12:00、2019年11月4日周一', '协调世界时:', '04:00、2019年11月4日周一', '来源:', '周期文件', '趋势:', '无重要变化', '露点:', '15°C', '其他云层:', '大部分晴天 (213米)', '天气:', 'Light Rain、Mist', '原始:', 'ZUUU 040400Z 11003MPS 060V150 4000 -RA BR FEW007 SCT023 16/15 Q1023 NOSIG', '下午12:00', '16.0°C', '1,023毫巴', '每小时10.8公里, 东', '4.00公里', '部分多云 (701米)', '本地:', '12:00、2019年11月4日周一', '协调世界时:', '04:00、2019年11月4日周一', '来源:', 'USAF 每小时地面观测', '报告类型:', 'METAR 航空例行天气报告', '露点:', '15.0°C', '其他云层:', '大部分晴天 (213米)', '天气:', 'Mist、Light Rain', '下午1:00', '17°C', '1,022毫巴', '每小时10.8公里, 东', '5.00公里', '部分多云 (701米)', '本地:', '13:00、2019年11月4日周一', '协调世界时:', '05:00、2019年11月4日周一', '来源:', '周期文件', '趋势:', '无重要变化', '露点:', '14°C', '其他云层:', '大部分晴天 (213米)', '天气:', 'Light Rain、Mist', '原始:', 'ZUUU 040500Z 10003MPS 040V150 5000 -RA BR FEW007 SCT023 17/14 Q1022 NOSIG', '下午1:00', '17.0°C', '1,022毫巴', '每小时10.8公里, 东', '5.00公里', '部分多云 (701米)', '本地:', '13:00、2019年11月4日周一', '协调世界时:', '05:00、2019年11月4日周一', '来源:', 'USAF 每小时地面观测', '报告类型:', 'METAR 航空例行天气报告', '露点:', '14.0°C', '其他云层:', '大部分晴天 (213米)', '天气:', 'Mist、Light Rain', '下午2:00', '16°C', '1,022毫巴', '每小时10.8公里, 东', '3.50公里', '部分多云 (701米)', '本地:', '14:00、2019年11月4日周一', '协调世界时:', '06:00、2019年11月4日周一', '来源:', '周期文件', '趋势:', '无重要变化', '露点:', '15°C', '其他云层:', '大部分晴天 (213米)', '天气:', 'Light Rain、Mist', '原始:', 'ZUUU 040600Z 10003MPS 030V150 3500 -RA BR FEW007 SCT023 16/15 Q1022 NOSIG', '下午2:00', '16.0°C', '1,022毫巴', '每小时10.8公里, 东', '3.50公里', '部分多云 (701米)', '本地:', '14:00、2019年11月4日周一', '协调世界时:', '06:00、2019年11月4日周一', '来源:', 'USAF 每小时地面观测', '报告类型:', 'METAR 航空例行天气报告', '露点:', '15.0°C', '其他云层:', '大部分晴天 (213米)', '天气:', 'Mist、Light Rain', '下午3:00', '16°C', '1,021毫巴', '每小时10.8公里, 东', '6.00公里', '部分多云 (701米)', '本地:', '15:00、2019年11月4日周一', '协调世界时:', '07:00、2019年11月4日周一', '来源:', '周期文件', '趋势:', '无重要变化', '露点:', '14°C', '其他云层:', '大部分晴天 (213米)', '天气:', 'Light Rain', '原始:', 'ZUUU 040700Z 08003MPS 020V140 6000 -RA FEW007 SCT023 16/14 Q1021 NOSIG', '下午3:00', '16.0°C', '1,021毫巴', '每小时10.8公里, 东', '6.00公里', '部分多云 (701米)', '本地:', '15:00、2019年11月4日周一', '协调世界时:', '07:00、2019年11月4日周一', '来源:', 'USAF 每小时地面观测', '报告类型:', 'METAR 航空例行天气报告', '露点:', '14.0°C', '其他云层:', '大部分晴天 (213米)', '天气:', 'Light Rain', '下午4:00', '16°C', '1,021毫巴', '每小时10.8公里, 东', '5.00公里', '部分多云 (792米)', '本地:', '16:00、2019年11月4日周一', '协调世界时:', '08:00、2019年11月4日周一', '来源:', '周期文件', '趋势:', '无重要变化', '露点:', '14°C', '其他云层:', '大部分晴天 (183米)', '天气:', 'Light Rain、Mist', '原始:', 'ZUUU 040800Z 08003MPS 050V110 5000 -RA BR FEW006 SCT026 16/14 Q1021 NOSIG', '下午4:00', '16.0°C', '1,021毫巴', '每小时10.8公里, 东', '5.00公里', '部分多云 (792米)', '本地:', '16:00、2019年11月4日周一', '协调世界时:', '08:00、2019年11月4日周一', '来源:', 'USAF 每小时地面观测', '报告类型:', 'METAR 航空例行天气报告', '露点:', '14.0°C', '其他云层:', '大部分晴天 (183米)', '天气:', 'Mist、Light Rain', '下午5:00', '16°C', '1,021毫巴', '每小时7.20公里, 东北', '4.50公里', '部分多云 (792米)', '本地:', '17:00、2019年11月4日周一', '协调世界时:', '09:00、2019年11月4日周一', '来源:', '周期文件', '趋势:', '无重要变化', '露点:', '14°C', '其他云层:', '大部分晴天 (183米)', '天气:', 'Light Rain、Mist', '原始:', 'ZUUU 040900Z 06002MPS 020V110 4500 -RA BR FEW006 SCT026 16/14 Q1021 NOSIG', '下午5:00', '16.0°C', '1,021毫巴', '每小时7.20公里, 东北', '4.50公里', '部分多云 (792米)', '本地:', '17:00、2019年11月4日周一', '协调世界时:', '09:00、2019年11月4日周一', '来源:', 'USAF 每小时地面观测', '报告类型:', 'METAR 航空例行天气报告', '露点:', '14.0°C', '其他云层:', '大部分晴天 (183米)', '天气:', 'Mist、Light Rain', '下午6:00', '16°C', '1,021毫巴', '每小时7.20公里, 东北', '6.00公里', '部分多云 (792米)', '本地:', '18:00、2019年11月4日周一', '协调世界时:', '10:00、2019年11月4日周一', '来源:', '周期文件', '趋势:', '无重要变化', '露点:', '14°C', '其他云层:', '大部分晴天 (183米)', '天气:', 'Light Rain', '原始:', 'ZUUU 041000Z 05002MPS 020V090 6000 -RA FEW006 SCT026 16/14 Q1021 NOSIG', '下午6:00', '16.0°C', '1,021毫巴', '每小时7.20公里, 东北', '6.00公里', '部分多云 (792米)', '本地:', '18:00、2019年11月4日周一', '协调世界时:', '10:00、2019年11月4日周一', '来源:', 'USAF 每小时地面观测', '报告类型:', 'METAR 航空例行天气报告', '露点:', '14.0°C', '其他云层:', '大部分晴天 (183米)', '天气:', 'Light Rain', '下午7:00', '16°C', '1,021毫巴', '每小时3.60公里', '6.00公里', '部分多云 (1,006米)', '本地:', '19:00、2019年11月4日周一', '协调世界时:', '11:00、2019年11月4日周一', '来源:', '周期文件', '趋势:', '无重要变化', '露点:', '14°C', '其他云层:', '大部分晴天 (274米)', '原始:', 'ZUUU 041100Z VRB01MPS 6000 FEW009 SCT033 16/14 Q1021 NOSIG', '下午7:00', '16.0°C', '1,021毫巴', '每小时3.60公里', '6.00公里', '部分多云 (1,006米)', '本地:', '19:00、2019年11月4日周一', '协调世界时:', '11:00、2019年11月4日周一', '来源:', 'USAF 每小时地面观测', '报告类型:', 'METAR 航空例行天气报告', '露点:', '14.0°C', '其他云层:', '大部分晴天 (274米)', '下午8:00', '16°C', '1,022毫巴', '每小时10.8公里, 东北', '6.00公里', '部分多云 (1,006米)', '本地:', '20:00、2019年11月4日周一', '协调世界时:', '12:00、2019年11月4日周一', '来源:', '周期文件', '趋势:', '无重要变化', '露点:', '14°C', '其他云层:', '大部分晴天 (274米)', '原始:', 'ZUUU 041200Z 04003MPS 010V080 6000 FEW009 SCT033 16/14 Q1022 NOSIG', '下午8:00', '16.0°C', '1,022毫巴', '每小时10.8公里, 东北', '6.00公里', '部分多云 (1,006米)', '本地:', '20:00、2019年11月4日周一', '协调世界时:', '12:00、2019年11月4日周一', '来源:', 'USAF 每小时地面观测', '报告类型:', 'METAR 航空例行天气报告', '露点:', '14.0°C', '其他云层:', '大部分晴天 (274米)', '下午9:00', '16°C', '1,022毫巴', '每小时7.20公里, 北', '5.00公里', '部分多云 (792米)', '本地:', '21:00、2019年11月4日周一', '协调世界时:', '13:00、2019年11月4日周一', '来源:', '周期文件', '趋势:', '无重要变化', '露点:', '14°C', '其他云层:', '大部分晴天 (274米)', '天气:', 'Light Rain、Mist', '原始:', 'ZUUU 041300Z 01002MPS 340V050 5000 -RA BR FEW009 SCT026 16/14 Q1022 NOSIG', '下午9:00', '16.0°C', '1,022毫巴', '每小时7.20公里, 北', '5.00公里', '部分多云 (792米)', '本地:', '21:00、2019年11月4日周一', '协调世界时:', '13:00、2019年11月4日周一', '来源:', 'USAF 每小时地面观测', '报告类型:', 'METAR 航空例行天气报告', '露点:', '14.0°C', '其他云层:', '大部分晴天 (274米)', '天气:', 'Mist、Light Rain', '下午10:00', '15°C', '1,023毫巴', '每小时7.20公里, 北', '4.50公里', '部分多云 (792米)', '本地:', '22:00、2019年11月4日周一', '协调世界时:', '14:00、2019年11月4日周一', '来源:', '周期文件', '趋势:', '无重要变化', '露点:', '14°C', '其他云层:', '大部分晴天 (274米)', '天气:', 'Light Rain、Mist', '原始:', 'ZUUU 041400Z 36002MPS 330V040 4500 -RA BR FEW009 SCT026 15/14 Q1023 NOSIG', '下午10:00', '15.0°C', '1,023毫巴', '每小时7.20公里, 北', '4.50公里', '部分多云 (792米)', '本地:', '22:00、2019年11月4日周一', '协调世界时:', '14:00、2019年11月4日周一', '来源:', 'USAF 每小时地面观测', '报告类型:', 'METAR 航空例行天气报告', '露点:', '14.0°C', '其他云层:', '大部分晴天 (274米)', '天气:', 'Mist、Light Rain', '下午11:00', '15°C', '1,023毫巴', '每小时10.8公里, 东南', '7.00公里', '部分多云 (610米)', '本地:', '23:00、2019年11月4日周一', '协调世界时:', '15:00、2019年11月4日周一', '来源:', '周期文件', '趋势:', '无重要变化', '露点:', '13°C', '其他云层:', '大部分晴天 (274米)', '天气:', 'Light Rain', '原始:', 'ZUUU 041500Z 13003MPS 050V170 7000 -RA FEW009 SCT020 15/13 Q1023 NOSIG', '下午11:00', '15.0°C', '1,023毫巴', '每小时10.8公里, 东南', '7.00公里', '部分多云 (610米)', '本地:', '23:00、2019年11月4日周一', '协调世界时:', '15:00、2019年11月4日周一', '来源:', 'USAF 每小时地面观测', '报告类型:', 'METAR 航空例行天气报告', '露点:', '13.0°C', '其他云层:', '大部分晴天 (274米)', '天气:', 'Light Rain']