['Showers of Light Rain', '-SHRA、IWC80', 'Showers of Light Rain', '-SHRA、IWC80', 'Showers of Light Rain', '-SHRA、IWC80', '上午12:00', '28°C', '1,008毫巴', '每小时3.60公里', '10.00公里', '部分多云 (1,006米)', '本地:', '00:00、2019年8月14日周三', '协调世界时:', '16:00、2019年8月13日周二', '来源:', '周期文件', '趋势:', '无重要变化', '露点:', '19°C', '其他云层:', '大部分晴天 (1,006米)', '天气:', 'Showers of Light Rain', '原始:', 'ZUUU 131600Z VRB01MPS 9999 -SHRA FEW033CB SCT033 28/19 Q1008 NOSIG', '上午12:00', '28.0°C', '1,008毫巴', '每小时3.60公里', '10.00公里', '部分多云 (1,006米)', '本地:', '00:00、2019年8月14日周三', '协调世界时:', '16:00、2019年8月13日周二', '来源:', 'USAF 每小时地面观测', '报告类型:', 'METAR 航空例行天气报告', '露点:', '19.0°C', '其他云层:', '大部分晴天 (1,006米)', '天气:', 'Showers of Light Rain', '上午1:00', '25°C', '1,008毫巴', '每小时3.60公里, 北', '10.00公里', '部分多云 (1,006米)', '本地:', '01:00、2019年8月14日周三', '协调世界时:', '17:00、2019年8月13日周二', '来源:', '周期文件', '趋势:', '无重要变化', '露点:', '21°C', '其他云层:', '大部分晴天 (1,006米)', '天气:', 'Showers of Light Rain', '原始:', 'ZUUU 131700Z 34001MPS 9999 -SHRA FEW033CB SCT033 25/21 Q1008 NOSIG', '上午1:00', '25.0°C', '1,008毫巴', '每小时3.60公里, 北', '10.00公里', '部分多云 (1,006米)', '本地:', '01:00、2019年8月14日周三', '协调世界时:', '17:00、2019年8月13日周二', '来源:', 'USAF 每小时地面观测', '报告类型:', 'METAR 航空例行天气报告', '露点:', '21.0°C', '其他云层:', '大部分晴天 (1,006米)', '天气:', 'Showers of Light Rain', '上午2:00', '25°C', '1,008毫巴', '每小时0公里', '10.00公里', '部分多云 (1,006米)', '本地:', '02:00、2019年8月14日周三', '协调世界时:', '18:00、2019年8月13日周二', '来源:', '周期文件', '趋势:', '无重要变化', '露点:', '22°C', '其他云层:', '大部分晴天 (1,006米)', '原始:', 'ZUUU 131800Z 00000MPS 9999 FEW033CB SCT033 25/22 Q1008 NOSIG', '上午2:00', '25.0°C', '1,008毫巴', '每小时0公里', '10.00公里', '部分多云 (1,006米)', '本地:', '02:00、2019年8月14日周三', '协调世界时:', '18:00、2019年8月13日周二', '来源:', 'USAF 每小时地面观测', '报告类型:', 'METAR 航空例行天气报告', '露点:', '22.0°C', '其他云层:', '大部分晴天 (1,006米)', '上午3:00', '25°C', '1,009毫巴', '每小时18.0公里, 西南', '10.00公里', '部分多云 (1,006米)', '本地:', '03:00、2019年8月14日周三', '协调世界时:', '19:00、2019年8月13日周二', '来源:', '周期文件', '趋势:', '无重要变化', '露点:', '22°C', '其他云层:', '大部分晴天 (1,006米)', '天气:', 'Showers of Light Rain', '原始:', 'ZUUU 131900Z 22005MPS 9999 -SHRA FEW033CB SCT033 25/22 Q1009 NOSIG', '上午3:00', '25.0°C', '1,009毫巴', '每小时18.0公里, 西南', '10.00公里', '部分多云 (1,006米)', '本地:', '03:00、2019年8月14日周三', '协调世界时:', '19:00、2019年8月13日周二', '来源:', 'USAF 每小时地面观测', '报告类型:', 'METAR 航空例行天气报告', '露点:', '22.0°C', '其他云层:', '大部分晴天 (1,006米)', '天气:', 'Showers of Light Rain', '上午4:00', '25°C', '1,008毫巴', '每小时14.4公里, 西南', '10.00公里', '部分多云 (1,006米)', '本地:', '04:00、2019年8月14日周三', '协调世界时:', '20:00、2019年8月13日周二', '来源:', '周期文件', '趋势:', '无重要变化', '露点:', '22°C', '其他云层:', '大部分晴天 (1,006米)', '原始:', 'ZUUU 132000Z 22004MPS 190V260 9999 FEW033CB SCT033 25/22 Q1008 NOSIG', '上午4:00', '25.0°C', '1,008毫巴', '每小时14.4公里, 西南', '10.00公里', '部分多云 (1,006米)', '本地:', '04:00、2019年8月14日周三', '协调世界时:', '20:00、2019年8月13日周二', '来源:', 'USAF 每小时地面观测', '报告类型:', 'METAR 航空例行天气报告', '露点:', '22.0°C', '其他云层:', '大部分晴天 (1,006米)', '上午5:00', '25°C', '1,009毫巴', '每小时14.4公里, 西南', '10.00公里', '部分多云 (1,006米)', '本地:', '05:00、2019年8月14日周三', '协调世界时:', '21:00、2019年8月13日周二', '来源:', '周期文件', '趋势:', '无重要变化', '露点:', '21°C', '其他云层:', '大部分晴天 (1,006米)', '原始:', 'ZUUU 132100Z 24004MPS 200V290 9999 FEW033CB SCT033 25/21 Q1009 NOSIG', '上午5:00', '25.0°C', '1,009毫巴', '每小时14.4公里, 西南', '10.00公里', '部分多云 (1,006米)', '本地:', '05:00、2019年8月14日周三', '协调世界时:', '21:00、2019年8月13日周二', '来源:', 'USAF 每小时地面观测', '报告类型:', 'METAR 航空例行天气报告', '露点:', '21.0°C', '其他云层:', '大部分晴天 (1,006米)', '上午6:00', '24°C', '1,008毫巴', '每小时14.4公里, 西南', '10.00公里', '部分多云 (1,524米)', '本地:', '06:00、2019年8月14日周三', '协调世界时:', '22:00、2019年8月13日周二', '来源:', '周期文件', '趋势:', '无重要变化', '露点:', '21°C', '原始:', 'ZUUU 132200Z 22004MPS 190V250 9999 SCT050 24/21 Q1008 NOSIG', '上午6:00', '24.0°C', '1,008毫巴', '每小时14.4公里, 西南', '10.00公里', '部分多云 (1,524米)', '本地:', '06:00、2019年8月14日周三', '协调世界时:', '22:00、2019年8月13日周二', '来源:', 'USAF 每小时地面观测', '报告类型:', 'METAR 航空例行天气报告', '露点:', '21.0°C', '上午7:00', '24°C', '1,008毫巴', '每小时7.20公里, 西南', '10.00公里', '部分多云 (1,524米)', '本地:', '07:00、2019年8月14日周三', '协调世界时:', '23:00、2019年8月13日周二', '来源:', '周期文件', '趋势:', '无重要变化', '露点:', '21°C', '原始:', 'ZUUU 132300Z 21002MPS 9999 SCT050 24/21 Q1008 NOSIG', '上午7:00', '24.0°C', '1,008毫巴', '每小时7.20公里, 西南', '10.00公里', '部分多云 (1,524米)', '本地:', '07:00、2019年8月14日周三', '协调世界时:', '23:00、2019年8月13日周二', '来源:', 'USAF 每小时地面观测', '报告类型:', 'METAR 航空例行天气报告', '露点:', '21.0°C', '上午8:00', '25°C', '1,009毫巴', '每小时3.60公里', '10.00公里', '部分多云 (1,524米)', '本地:', '08:00、2019年8月14日周三', '协调世界时:', '00:00、2019年8月14日周三', '来源:', '周期文件', '趋势:', '无重要变化', '露点:', '21°C', '原始:', 'ZUUU 140000Z VRB01MPS 9999 SCT050 25/21 Q1009 NOSIG', '上午8:00', '25.0°C', '1,009毫巴', '每小时3.60公里', '10.00公里', '部分多云 (1,524米)', '本地:', '08:00、2019年8月14日周三', '协调世界时:', '00:00、2019年8月14日周三', '来源:', 'USAF 每小时地面观测', '报告类型:', 'METAR 航空例行天气报告', '露点:', '21.0°C', '上午9:00', '25°C', '1,009毫巴', '每小时10.8公里, 西南', '10.00公里', '部分多云 (1,524米)', '本地:', '09:00、2019年8月14日周三', '协调世界时:', '01:00、2019年8月14日周三', '来源:', '周期文件', '趋势:', '无重要变化', '露点:', '21°C', '原始:', 'ZUUU 140100Z 21003MPS 170V250 9999 SCT050 25/21 Q1009 NOSIG', '上午9:00', '25.0°C', '1,009毫巴', '每小时10.8公里, 西南', '10.00公里', '部分多云 (1,524米)', '本地:', '09:00、2019年8月14日周三', '协调世界时:', '01:00、2019年8月14日周三', '来源:', 'USAF 每小时地面观测', '报告类型:', 'METAR 航空例行天气报告', '露点:', '21.0°C', '上午10:00', '27°C', '1,009毫巴', '每小时10.8公里, 西南', '≥ 10.00公里', '晴空万里', '本地:', '10:00、2019年8月14日周三', '协调世界时:', '02:00、2019年8月14日周三', '来源:', '周期文件', '趋势:', '无重要变化', '露点:', '21°C', '晴空万里:', '真', '原始:', 'ZUUU 140200Z 23003MPS 200V260 CAVOK 27/21 Q1009 NOSIG', '上午10:00', '27.0°C', '1,009毫巴', '每小时10.8公里, 西南', '9.90公里', '晴空万里', '本地:', '10:00、2019年8月14日周三', '协调世界时:', '02:00、2019年8月14日周三', '来源:', 'USAF 每小时地面观测', '报告类型:', 'METAR 航空例行天气报告', '露点:', '21.0°C', '晴空万里:', '真', '上午11:00', '28°C', '1,009毫巴', '每小时7.20公里', '10.00公里', '大部分晴天 (914米)', '本地:', '11:00、2019年8月14日周三', '协调世界时:', '03:00、2019年8月14日周三', '来源:', '周期文件', '趋势:', '无重要变化', '露点:', '22°C', '原始:', 'ZUUU 140300Z VRB02MPS 9999 FEW030 28/22 Q1009 NOSIG', '上午11:00', '28.0°C', '1,009毫巴', '每小时7.20公里', '10.00公里', '大部分晴天 (914米)', '本地:', '11:00、2019年8月14日周三', '协调世界时:', '03:00、2019年8月14日周三', '来源:', 'USAF 每小时地面观测', '报告类型:', 'METAR 航空例行天气报告', '露点:', '22.0°C', '下午12:00', '29°C', '1,008毫巴', '每小时7.20公里, 西南', '≥ 10.00公里', '晴空万里', '本地:', '12:00、2019年8月14日周三', '协调世界时:', '04:00、2019年8月14日周三', '来源:', '周期文件', '趋势:', '无重要变化', '露点:', '22°C', '晴空万里:', '真', '原始:', 'ZUUU 140400Z 21002MPS 170V270 CAVOK 29/22 Q1008 NOSIG', '下午12:00', '29.0°C', '1,008毫巴', '每小时7.20公里, 西南', '9.90公里', '晴空万里', '本地:', '12:00、2019年8月14日周三', '协调世界时:', '04:00、2019年8月14日周三', '来源:', 'USAF 每小时地面观测', '报告类型:', 'METAR 航空例行天气报告', '露点:', '22.0°C', '晴空万里:', '真', '下午1:00', '31°C', '1,008毫巴', '每小时7.20公里, 南', '≥ 10.00公里', '晴空万里', '本地:', '13:00、2019年8月14日周三', '协调世界时:', '05:00、2019年8月14日周三', '来源:', '周期文件', '趋势:', '无重要变化', '露点:', '22°C', '晴空万里:', '真', '原始:', 'ZUUU 140500Z 19002MPS 100V240 CAVOK 31/22 Q1008 NOSIG', '下午1:00', '31.0°C', '1,008毫巴', '每小时7.20公里, 南', '9.90公里', '晴空万里', '本地:', '13:00、2019年8月14日周三', '协调世界时:', '05:00、2019年8月14日周三', '来源:', 'USAF 每小时地面观测', '报告类型:', 'METAR 航空例行天气报告', '露点:', '22.0°C', '晴空万里:', '真', '下午2:00', '33°C', '1,007毫巴', '每小时7.20公里, 南', '≥ 10.00公里', '晴空万里', '本地:', '14:00、2019年8月14日周三', '协调世界时:', '06:00、2019年8月14日周三', '来源:', '周期文件', '趋势:', '无重要变化', '露点:', '20°C', '晴空万里:', '真', '原始:', 'ZUUU 140600Z 16002MPS 080V220 CAVOK 33/20 Q1007 NOSIG', '下午2:00', '33.0°C', '1,007毫巴', '每小时7.20公里, 南', '9.90公里', '晴空万里', '本地:', '14:00、2019年8月14日周三', '协调世界时:', '06:00、2019年8月14日周三', '来源:', 'USAF 每小时地面观测', '报告类型:', 'METAR 航空例行天气报告', '露点:', '20.0°C', '晴空万里:', '真', '下午3:00', '35°C', '1,006毫巴', '每小时10.8公里, 南', '≥ 10.00公里', '晴空万里', '本地:', '15:00、2019年8月14日周三', '协调世界时:', '07:00、2019年8月14日周三', '来源:', '周期文件', '趋势:', '无重要变化', '露点:', '21°C', '晴空万里:', '真', '原始:', 'ZUUU 140700Z 16003MPS 080V220 CAVOK 35/21 Q1006 NOSIG', '下午3:00', '35.0°C', '1,006毫巴', '每小时10.8公里, 南', '9.90公里', '晴空万里', '本地:', '15:00、2019年8月14日周三', '协调世界时:', '07:00、2019年8月14日周三', '来源:', 'USAF 每小时地面观测', '报告类型:', 'METAR 航空例行天气报告', '露点:', '21.0°C', '晴空万里:', '真', '下午4:00', '35°C', '1,005毫巴', '每小时14.4公里, 西南', '≥ 10.00公里', '晴空万里', '本地:', '16:00、2019年8月14日周三', '协调世界时:', '08:00、2019年8月14日周三', '来源:', '周期文件', '趋势:', '无重要变化', '露点:', '18°C', '晴空万里:', '真', '原始:', 'ZUUU 140800Z 22004MPS 170V250 CAVOK 35/18 Q1005 NOSIG', '下午4:00', '35.0°C', '1,005毫巴', '每小时14.4公里, 西南', '9.90公里', '晴空万里', '本地:', '16:00、2019年8月14日周三', '协调世界时:', '08:00、2019年8月14日周三', '来源:', 'USAF 每小时地面观测', '报告类型:', 'METAR 航空例行天气报告', '露点:', '18.0°C', '晴空万里:', '真', '下午5:00', '33°C', '1,005毫巴', '每小时10.8公里, 西南', '≥ 10.00公里', '晴空万里', '本地:', '17:00、2019年8月14日周三', '协调世界时:', '09:00、2019年8月14日周三', '来源:', '周期文件', '趋势:', '无重要变化', '露点:', '19°C', '晴空万里:', '真', '原始:', 'ZUUU 140900Z 22003MPS 180V240 CAVOK 33/19 Q1005 NOSIG', '下午5:00', '33.0°C', '1,005毫巴', '每小时10.8公里, 西南', '9.90公里', '晴空万里', '本地:', '17:00、2019年8月14日周三', '协调世界时:', '09:00、2019年8月14日周三', '来源:', 'USAF 每小时地面观测', '报告类型:', 'METAR 航空例行天气报告', '露点:', '19.0°C', '晴空万里:', '真', '下午6:00', '33°C', '1,004毫巴', '每小时7.20公里, 南', '≥ 10.00公里', '晴空万里', '本地:', '18:00、2019年8月14日周三', '协调世界时:', '10:00、2019年8月14日周三', '来源:', '周期文件', '趋势:', '无重要变化', '露点:', '18°C', '晴空万里:', '真', '原始:', 'ZUUU 141000Z 20002MPS 140V240 CAVOK 33/18 Q1004 NOSIG', '下午6:00', '33.0°C', '1,004毫巴', '每小时7.20公里, 南', '9.90公里', '晴空万里', '本地:', '18:00、2019年8月14日周三', '协调世界时:', '10:00、2019年8月14日周三', '来源:', 'USAF 每小时地面观测', '报告类型:', 'METAR 航空例行天气报告', '露点:', '18.0°C', '晴空万里:', '真', '下午7:00', '32°C', '1,004毫巴', '每小时7.20公里, 南', '≥ 10.00公里', '晴空万里', '本地:', '19:00、2019年8月14日周三', '协调世界时:', '11:00、2019年8月14日周三', '来源:', '周期文件', '趋势:', '无重要变化', '露点:', '18°C', '晴空万里:', '真', '原始:', 'ZUUU 141100Z 20002MPS 150V240 CAVOK 32/18 Q1004 NOSIG', '下午7:00', '32.0°C', '1,004毫巴', '每小时7.20公里, 南', '9.90公里', '晴空万里', '本地:', '19:00、2019年8月14日周三', '协调世界时:', '11:00、2019年8月14日周三', '来源:', 'USAF 每小时地面观测', '报告类型:', 'METAR 航空例行天气报告', '露点:', '18.0°C', '晴空万里:', '真', '下午8:00', '29°C', '1,005毫巴', '每小时7.20公里, 南', '≥ 10.00公里', '晴空万里', '本地:', '20:00、2019年8月14日周三', '协调世界时:', '12:00、2019年8月14日周三', '来源:', '周期文件', '趋势:', '无重要变化', '露点:', '19°C', '晴空万里:', '真', '原始:', 'ZUUU 141200Z 20002MPS CAVOK 29/19 Q1005 NOSIG', '下午8:00', '29.0°C', '1,005毫巴', '每小时7.20公里, 南', '9.90公里', '晴空万里', '本地:', '20:00、2019年8月14日周三', '协调世界时:', '12:00、2019年8月14日周三', '来源:', 'USAF 每小时地面观测', '报告类型:', 'METAR 航空例行天气报告', '露点:', '19.0°C', '晴空万里:', '真', '下午9:00', '28°C', '1,005毫巴', '每小时3.60公里, 西南', '≥ 10.00公里', '晴空万里', '本地:', '21:00、2019年8月14日周三', '协调世界时:', '13:00、2019年8月14日周三', '来源:', '周期文件', '趋势:', '无重要变化', '露点:', '20°C', '晴空万里:', '真', '原始:', 'ZUUU 141300Z 21001MPS CAVOK 28/20 Q1005 NOSIG', '下午9:00', '28.0°C', '1,005毫巴', '每小时3.60公里, 西南', '9.90公里', '晴空万里', '本地:', '21:00、2019年8月14日周三', '协调世界时:', '13:00、2019年8月14日周三', '来源:', 'USAF 每小时地面观测', '报告类型:', 'METAR 航空例行天气报告', '露点:', '20.0°C', '晴空万里:', '真', '下午10:00', '26°C', '1,006毫巴', '每小时7.20公里, 西南', '≥ 10.00公里', '晴空万里', '本地:', '22:00、2019年8月14日周三', '协调世界时:', '14:00、2019年8月14日周三', '来源:', '周期文件', '趋势:', '无重要变化', '露点:', '21°C', '晴空万里:', '真', '原始:', 'ZUUU 141400Z 22002MPS 190V270 CAVOK 26/21 Q1006 NOSIG', '下午10:00', '26.0°C', '1,006毫巴', '每小时7.20公里, 西南', '9.90公里', '晴空万里', '本地:', '22:00、2019年8月14日周三', '协调世界时:', '14:00、2019年8月14日周三', '来源:', 'USAF 每小时地面观测', '报告类型:', 'METAR 航空例行天气报告', '露点:', '21.0°C', '晴空万里:', '真', '下午11:00', '26°C', '1,006毫巴', '每小时3.60公里', '≥ 10.00公里', '晴空万里', '本地:', '23:00、2019年8月14日周三', '协调世界时:', '15:00、2019年8月14日周三', '来源:', '周期文件', '趋势:', '无重要变化', '露点:', '21°C', '晴空万里:', '真', '原始:', 'ZUUU 141500Z VRB01MPS CAVOK 26/21 Q1006 NOSIG', '下午11:00', '26.0°C', '1,006毫巴', '每小时3.60公里', '9.90公里', '晴空万里', '本地:', '23:00、2019年8月14日周三', '协调世界时:', '15:00、2019年8月14日周三', '来源:', 'USAF 每小时地面观测', '报告类型:', 'METAR 航空例行天气报告', '露点:', '21.0°C', '晴空万里:', '真']