['Mist', 'BR、IWC10', 'Mist', 'BR、IWC10', 'Mist', 'BR、IWC10', 'Mist', 'BR、IWC10', 'Mist', 'BR、IWC10', 'Mist', 'BR、IWC10', '上午12:00', '6°C', '1,025毫巴', '每小时0公里', '8.00公里', '无重要云', '本地:', '00:00、2019年1月11日周五', '协调世界时:', '16:00、2019年1月10日周四', '来源:', '周期文件', '趋势:', '无重要变化', '露点:', '2°C', '原始:', 'ZUUU 101600Z 00000MPS 8000 NSC 06/02 Q1025 NOSIG', '上午12:00', '6.0°C', '1,025毫巴', '每小时0公里', '8.00公里', '未检测到云', '本地:', '00:00、2019年1月11日周五', '协调世界时:', '16:00、2019年1月10日周四', '来源:', 'USAF 每小时地面观测', '报告类型:', 'METAR 航空例行天气报告', '露点:', '2.0°C', '上午1:00', '6°C', '1,025毫巴', '每小时0公里', '8.00公里', '无重要云', '本地:', '01:00、2019年1月11日周五', '协调世界时:', '17:00、2019年1月10日周四', '来源:', '周期文件', '趋势:', '无重要变化', '露点:', '3°C', '原始:', 'ZUUU 101700Z 00000MPS 8000 NSC 06/03 Q1025 NOSIG', '上午1:00', '6.0°C', '1,025毫巴', '每小时0公里', '8.00公里', '未检测到云', '本地:', '01:00、2019年1月11日周五', '协调世界时:', '17:00、2019年1月10日周四', '来源:', 'USAF 每小时地面观测', '报告类型:', 'METAR 航空例行天气报告', '露点:', '3.0°C', '上午2:00', '5°C', '1,025毫巴', '每小时0公里', '8.00公里', '无重要云', '本地:', '02:00、2019年1月11日周五', '协调世界时:', '18:00、2019年1月10日周四', '来源:', '周期文件', '趋势:', '无重要变化', '露点:', '3°C', '原始:', 'ZUUU 101800Z 00000MPS 8000 NSC 05/03 Q1025 NOSIG', '上午2:00', '5.0°C', '1,025毫巴', '每小时0公里', '8.00公里', '未检测到云', '本地:', '02:00、2019年1月11日周五', '协调世界时:', '18:00、2019年1月10日周四', '来源:', 'USAF 每小时地面观测', '报告类型:', 'METAR 航空例行天气报告', '露点:', '3.0°C', '上午3:00', '6°C', '1,025毫巴', '每小时7.20公里, 西', '8.00公里', '无重要云', '本地:', '03:00、2019年1月11日周五', '协调世界时:', '19:00、2019年1月10日周四', '来源:', '周期文件', '趋势:', '无重要变化', '露点:', '3°C', '原始:', 'ZUUU 101900Z 27002MPS 250V310 8000 NSC 06/03 Q1025 NOSIG', '上午3:00', '6.0°C', '1,025毫巴', '每小时7.20公里, 西', '8.00公里', '未检测到云', '本地:', '03:00、2019年1月11日周五', '协调世界时:', '19:00、2019年1月10日周四', '来源:', 'USAF 每小时地面观测', '报告类型:', 'METAR 航空例行天气报告', '露点:', '3.0°C', '上午4:00', '4°C', '1,024毫巴', '每小时0公里', '6.00公里', '无重要云', '本地:', '04:00、2019年1月11日周五', '协调世界时:', '20:00、2019年1月10日周四', '来源:', '周期文件', '趋势:', '无重要变化', '露点:', '2°C', '原始:', 'ZUUU 102000Z 00000MPS 6000 NSC 04/02 Q1024 NOSIG', '上午4:00', '4.0°C', '1,024毫巴', '每小时0公里', '6.00公里', '未检测到云', '本地:', '04:00、2019年1月11日周五', '协调世界时:', '20:00、2019年1月10日周四', '来源:', 'USAF 每小时地面观测', '报告类型:', 'METAR 航空例行天气报告', '露点:', '2.0°C', '上午5:00', '3°C', '1,024毫巴', '每小时3.60公里, 南', '4.00公里', '无重要云', '本地:', '05:00、2019年1月11日周五', '协调世界时:', '21:00、2019年1月10日周四', '来源:', '周期文件', '趋势:', '无重要变化', '露点:', '2°C', '天气:', 'Mist', '原始:', 'ZUUU 102100Z 19001MPS 4000 BR NSC 03/02 Q1024 NOSIG', '上午5:00', '3.0°C', '1,024毫巴', '每小时3.60公里, 南', '4.00公里', '未检测到云', '本地:', '05:00、2019年1月11日周五', '协调世界时:', '21:00、2019年1月10日周四', '来源:', 'USAF 每小时地面观测', '报告类型:', 'METAR 航空例行天气报告', '露点:', '2.0°C', '天气:', 'Mist', '上午6:00', '3°C', '1,023毫巴', '每小时0公里', '3.50公里', '无重要云', '本地:', '06:00、2019年1月11日周五', '协调世界时:', '22:00、2019年1月10日周四', '来源:', '周期文件', '趋势:', '无重要变化', '露点:', '3°C', '天气:', 'Mist', '原始:', 'ZUUU 102200Z 00000MPS 3500 BR NSC 03/03 Q1023 NOSIG', '上午6:00', '3.0°C', '1,023毫巴', '每小时0公里', '3.50公里', '未检测到云', '本地:', '06:00、2019年1月11日周五', '协调世界时:', '22:00、2019年1月10日周四', '来源:', 'USAF 每小时地面观测', '报告类型:', 'METAR 航空例行天气报告', '露点:', '3.0°C', '天气:', 'Mist', '上午7:00', '3°C', '1,024毫巴', '每小时0公里', '3.50公里', '无重要云', '本地:', '07:00、2019年1月11日周五', '协调世界时:', '23:00、2019年1月10日周四', '来源:', '周期文件', '趋势:', '变化为', '露点:', '3°C', '天气:', 'Mist、Mist', '原始:', 'ZUUU 102300Z 00000MPS 3500 BR NSC 03/03 Q1024 BECMG TL2340 2500 BR', '上午7:00', '3.0°C', '1,024毫巴', '每小时0公里', '3.50公里', '未检测到云', '本地:', '07:00、2019年1月11日周五', '协调世界时:', '23:00、2019年1月10日周四', '来源:', 'USAF 每小时地面观测', '报告类型:', 'METAR 航空例行天气报告', '露点:', '3.0°C', '天气:', 'Mist', '上午8:00', '2°C', '1,024毫巴', '每小时0公里', '2.70公里', '无重要云', '本地:', '08:00、2019年1月11日周五', '协调世界时:', '00:00、2019年1月11日周五', '来源:', '周期文件', '趋势:', '无重要变化', '露点:', '2°C', '天气:', 'Mist', '原始:', 'ZUUU 110000Z 00000MPS 2700 BR NSC 02/02 Q1024 NOSIG', '上午8:00', '2.0°C', '1,024毫巴', '每小时0公里', '2.70公里', '未检测到云', '本地:', '08:00、2019年1月11日周五', '协调世界时:', '00:00、2019年1月11日周五', '来源:', 'USAF 每小时地面观测', '报告类型:', 'METAR 航空例行天气报告', '露点:', '2.0°C', '天气:', 'Mist', '上午9:00', '3°C', '1,025毫巴', '每小时0公里', '4.00公里', '无重要云', '本地:', '09:00、2019年1月11日周五', '协调世界时:', '01:00、2019年1月11日周五', '来源:', '周期文件', '趋势:', '无重要变化', '露点:', '3°C', '天气:', 'Mist', '原始:', 'ZUUU 110100Z 00000MPS 4000 BR NSC 03/03 Q1025 NOSIG', '上午9:00', '3.0°C', '1,025毫巴', '每小时0公里', '4.00公里', '未检测到云', '本地:', '09:00、2019年1月11日周五', '协调世界时:', '01:00、2019年1月11日周五', '来源:', 'USAF 每小时地面观测', '报告类型:', 'METAR 航空例行天气报告', '露点:', '3.0°C', '天气:', 'Mist', '上午10:00', '6°C', '1,024毫巴', '每小时0公里', '5.00公里', '无重要云', '本地:', '10:00、2019年1月11日周五', '协调世界时:', '02:00、2019年1月11日周五', '来源:', '周期文件', '趋势:', '无重要变化', '露点:', '4°C', '天气:', 'Mist', '原始:', 'ZUUU 110200Z 00000MPS 5000 BR NSC 06/04 Q1024 NOSIG', '上午10:00', '6.0°C', '1,024毫巴', '每小时0公里', '5.00公里', '未检测到云', '本地:', '10:00、2019年1月11日周五', '协调世界时:', '02:00、2019年1月11日周五', '来源:', 'USAF 每小时地面观测', '报告类型:', 'METAR 航空例行天气报告', '露点:', '4.0°C', '天气:', 'Mist', '上午11:00', '8°C', '1,024毫巴', '每小时0公里', '7.00公里', '无重要云', '本地:', '11:00、2019年1月11日周五', '协调世界时:', '03:00、2019年1月11日周五', '来源:', '周期文件', '趋势:', '无重要变化', '露点:', '3°C', '原始:', 'ZUUU 110300Z 00000MPS 7000 NSC 08/03 Q1024 NOSIG', '上午11:00', '8.0°C', '1,024毫巴', '每小时0公里', '7.00公里', '未检测到云', '本地:', '11:00、2019年1月11日周五', '协调世界时:', '03:00、2019年1月11日周五', '来源:', 'USAF 每小时地面观测', '报告类型:', 'METAR 航空例行天气报告', '露点:', '3.0°C', '下午12:00', '10°C', '1,023毫巴', '每小时7.20公里, 西南', '≥ 10.00公里', '晴空万里', '本地:', '12:00、2019年1月11日周五', '协调世界时:', '04:00、2019年1月11日周五', '来源:', '周期文件', '趋势:', '无重要变化', '露点:', '1°C', '晴空万里:', '真', '原始:', 'ZUUU 110400Z 23002MPS 190V260 CAVOK 10/01 Q1023 NOSIG', '下午12:00', '10.0°C', '1,023毫巴', '每小时7.20公里, 西南', '-', '晴空万里', '本地:', '12:00、2019年1月11日周五', '协调世界时:', '04:00、2019年1月11日周五', '来源:', 'USAF 每小时地面观测', '报告类型:', 'METAR 航空例行天气报告', '露点:', '1.0°C', '晴空万里:', '真', '下午1:00', '11°C', '1,021毫巴', '每小时7.20公里, 东南', '≥ 10.00公里', '晴空万里', '本地:', '13:00、2019年1月11日周五', '协调世界时:', '05:00、2019年1月11日周五', '来源:', '周期文件', '趋势:', '无重要变化', '露点:', '-1°C', '晴空万里:', '真', '原始:', 'ZUUU 110500Z 12002MPS 050V190 CAVOK 11/M01 Q1021 NOSIG', '下午1:00', '11.0°C', '1,021毫巴', '每小时7.20公里, 东南', '-', '晴空万里', '本地:', '13:00、2019年1月11日周五', '协调世界时:', '05:00、2019年1月11日周五', '来源:', 'USAF 每小时地面观测', '报告类型:', 'METAR 航空例行天气报告', '露点:', '-1.0°C', '晴空万里:', '真', '下午2:00', '12°C', '1,020毫巴', '每小时7.20公里', '≥ 10.00公里', '晴空万里', '本地:', '14:00、2019年1月11日周五', '协调世界时:', '06:00、2019年1月11日周五', '来源:', '周期文件', '趋势:', '无重要变化', '露点:', '-1°C', '晴空万里:', '真', '原始:', 'ZUUU 110600Z VRB02MPS CAVOK 12/M01 Q1020 NOSIG', '下午2:00', '12.0°C', '1,020毫巴', '每小时7.20公里', '-', '晴空万里', '本地:', '14:00、2019年1月11日周五', '协调世界时:', '06:00、2019年1月11日周五', '来源:', 'USAF 每小时地面观测', '报告类型:', 'METAR 航空例行天气报告', '露点:', '-1.0°C', '晴空万里:', '真', '下午3:00', '12°C', '1,020毫巴', '每小时7.20公里', '≥ 10.00公里', '晴空万里', '本地:', '15:00、2019年1月11日周五', '协调世界时:', '07:00、2019年1月11日周五', '来源:', '周期文件', '趋势:', '无重要变化', '露点:', '-2°C', '晴空万里:', '真', '原始:', 'ZUUU 110700Z VRB02MPS CAVOK 12/M02 Q1020 NOSIG', '下午3:00', '12.0°C', '1,020毫巴', '每小时7.20公里', '-', '晴空万里', '本地:', '15:00、2019年1月11日周五', '协调世界时:', '07:00、2019年1月11日周五', '来源:', 'USAF 每小时地面观测', '报告类型:', 'METAR 航空例行天气报告', '露点:', '-2.0°C', '晴空万里:', '真', '下午4:00', '13°C', '1,019毫巴', '每小时7.20公里', '≥ 10.00公里', '晴空万里', '本地:', '16:00、2019年1月11日周五', '协调世界时:', '08:00、2019年1月11日周五', '来源:', '周期文件', '趋势:', '无重要变化', '露点:', '-1°C', '晴空万里:', '真', '原始:', 'ZUUU 110800Z VRB02MPS CAVOK 13/M01 Q1019 NOSIG', '下午4:00', '13.0°C', '1,019毫巴', '每小时7.20公里', '-', '晴空万里', '本地:', '16:00、2019年1月11日周五', '协调世界时:', '08:00、2019年1月11日周五', '来源:', 'USAF 每小时地面观测', '报告类型:', 'METAR 航空例行天气报告', '露点:', '-1.0°C', '晴空万里:', '真', '下午5:00', '12°C', '1,019毫巴', '每小时7.20公里, 东', '≥ 10.00公里', '晴空万里', '本地:', '17:00、2019年1月11日周五', '协调世界时:', '09:00、2019年1月11日周五', '来源:', '周期文件', '趋势:', '无重要变化', '露点:', '-2°C', '晴空万里:', '真', '原始:', 'ZUUU 110900Z 09002MPS 010V130 CAVOK 12/M02 Q1019 NOSIG', '下午5:00', '12.0°C', '1,019毫巴', '每小时7.20公里, 东', '-', '晴空万里', '本地:', '17:00、2019年1月11日周五', '协调世界时:', '09:00、2019年1月11日周五', '来源:', 'USAF 每小时地面观测', '报告类型:', 'METAR 航空例行天气报告', '露点:', '-2.0°C', '晴空万里:', '真', '下午6:00', '11°C', '1,020毫巴', '每小时10.8公里, 东南', '≥ 10.00公里', '晴空万里', '本地:', '18:00、2019年1月11日周五', '协调世界时:', '10:00、2019年1月11日周五', '来源:', '周期文件', '趋势:', '无重要变化', '露点:', '1°C', '晴空万里:', '真', '原始:', 'ZUUU 111000Z 12003MPS 070V150 CAVOK 11/01 Q1020 NOSIG', '下午6:00', '11.0°C', '1,020毫巴', '每小时10.8公里, 东南', '-', '晴空万里', '本地:', '18:00、2019年1月11日周五', '协调世界时:', '10:00、2019年1月11日周五', '来源:', 'USAF 每小时地面观测', '报告类型:', 'METAR 航空例行天气报告', '露点:', '1.0°C', '晴空万里:', '真', '下午7:00', '10°C', '1,020毫巴', '每小时10.8公里, 东南', '≥ 10.00公里', '晴空万里', '本地:', '19:00、2019年1月11日周五', '协调世界时:', '11:00、2019年1月11日周五', '来源:', '周期文件', '趋势:', '无重要变化', '露点:', '2°C', '晴空万里:', '真', '原始:', 'ZUUU 111100Z 12003MPS 050V140 CAVOK 10/02 Q1020 NOSIG', '下午7:00', '10.0°C', '1,020毫巴', '每小时10.8公里, 东南', '-', '晴空万里', '本地:', '19:00、2019年1月11日周五', '协调世界时:', '11:00、2019年1月11日周五', '来源:', 'USAF 每小时地面观测', '报告类型:', 'METAR 航空例行天气报告', '露点:', '2.0°C', '晴空万里:', '真', '下午8:00', '9°C', '1,021毫巴', '每小时7.20公里, 东南', '7.00公里', '无重要云', '本地:', '20:00、2019年1月11日周五', '协调世界时:', '12:00、2019年1月11日周五', '来源:', '周期文件', '趋势:', '无重要变化', '露点:', '2°C', '原始:', 'ZUUU 111200Z 13002MPS 010V160 7000 NSC 09/02 Q1021 NOSIG', '下午8:00', '9.0°C', '1,021毫巴', '每小时7.20公里, 东南', '7.00公里', '未检测到云', '本地:', '20:00、2019年1月11日周五', '协调世界时:', '12:00、2019年1月11日周五', '来源:', 'USAF 每小时地面观测', '报告类型:', 'METAR 航空例行天气报告', '露点:', '2.0°C', '下午9:00', '9°C', '1,021毫巴', '每小时7.20公里, 东', '7.00公里', '无重要云', '本地:', '21:00、2019年1月11日周五', '协调世界时:', '13:00、2019年1月11日周五', '来源:', '周期文件', '趋势:', '无重要变化', '露点:', '2°C', '原始:', 'ZUUU 111300Z 11002MPS 020V140 7000 NSC 09/02 Q1021 NOSIG', '下午9:00', '9.0°C', '1,021毫巴', '每小时7.20公里, 东', '7.00公里', '未检测到云', '本地:', '21:00、2019年1月11日周五', '协调世界时:', '13:00、2019年1月11日周五', '来源:', 'USAF 每小时地面观测', '报告类型:', 'METAR 航空例行天气报告', '露点:', '2.0°C', '下午10:00', '8°C', '1,021毫巴', '每小时3.60公里', '7.00公里', '无重要云', '本地:', '22:00、2019年1月11日周五', '协调世界时:', '14:00、2019年1月11日周五', '来源:', '周期文件', '趋势:', '无重要变化', '露点:', '2°C', '原始:', 'ZUUU 111400Z VRB01MPS 7000 NSC 08/02 Q1021 NOSIG', '下午10:00', '8.0°C', '1,021毫巴', '每小时3.60公里', '7.00公里', '未检测到云', '本地:', '22:00、2019年1月11日周五', '协调世界时:', '14:00、2019年1月11日周五', '来源:', 'USAF 每小时地面观测', '报告类型:', 'METAR 航空例行天气报告', '露点:', '2.0°C', '下午11:00', '8°C', '1,021毫巴', '每小时3.60公里', '7.00公里', '无重要云', '本地:', '23:00、2019年1月11日周五', '协调世界时:', '15:00、2019年1月11日周五', '来源:', '周期文件', '趋势:', '无重要变化', '露点:', '2°C', '原始:', 'ZUUU 111500Z VRB01MPS 7000 NSC 08/02 Q1021 NOSIG', '下午11:00', '8.0°C', '1,021毫巴', '每小时3.60公里', '7.00公里', '未检测到云', '本地:', '23:00、2019年1月11日周五', '协调世界时:', '15:00、2019年1月11日周五', '来源:', 'USAF 每小时地面观测', '报告类型:', 'METAR 航空例行天气报告', '露点:', '2.0°C']