['Light Rain', '-RA、IWC61', 'Light Rain', '-RA、IWC61', 'Light Rain', '-RA、IWC61', 'Light Rain、Mist', '-RA、IWC61、BR、IWC10', 'Light Rain、Mist', '-RA、IWC61、BR、IWC10', 'Light Rain', '-RA、IWC61', 'Light Rain', '-RA', 'Light Rain', '-RA', 'Light Rain', '-RA', 'Light Rain', '-RA、IWC61', 'Light Rain', '-RA、IWC61', 'Light Rain', '-RA、IWC61', 'Light Rain', '-RA、IWC61', 'Light Rain', '-RA、IWC61', 'Light Rain', '-RA、IWC61', 'Light Rain', '-RA、IWC61', 'Light Rain', '-RA、IWC61', 'Light Rain', '-RA、IWC61', 'Light Rain', '-RA、IWC61', 'Light Rain', '-RA、IWC61', 'Light Rain', '-RA、IWC61', 'Light Rain', '-RA、IWC61', 'Light Rain', '-RA、IWC61', '上午12:00', '12°C', '1,025毫巴', '每小时3.60公里', '6.00公里', '大部分多云 (701米)', '本地:', '00:00、2019年10月26日周六', '协调世界时:', '16:00、2019年10月25日周五', '来源:', '周期文件', '趋势:', '无重要变化', '露点:', '11°C', '其他云层:', '部分多云 (244米)', '天气:', 'Light Rain', '原始:', 'ZUUU 251600Z VRB01MPS 6000 -RA SCT008 BKN023 12/11 Q1025 NOSIG', '上午12:00', '12.0°C', '1,025毫巴', '每小时3.60公里', '6.00公里', '大部分多云 (701米)', '本地:', '00:00、2019年10月26日周六', '协调世界时:', '16:00、2019年10月25日周五', '来源:', 'USAF 每小时地面观测', '报告类型:', 'METAR 航空例行天气报告', '露点:', '11.0°C', '其他云层:', '部分多云 (244米)', '天气:', 'Light Rain', '上午1:00', '12°C', '1,025毫巴', '每小时0公里', '6.00公里', '大部分多云 (701米)', '本地:', '01:00、2019年10月26日周六', '协调世界时:', '17:00、2019年10月25日周五', '来源:', '周期文件', '趋势:', '无重要变化', '露点:', '12°C', '其他云层:', '大部分晴天 (183米)、部分多云 (274米)', '天气:', 'Light Rain', '原始:', 'ZUUU 251700Z 00000MPS 6000 -RA FEW006 SCT009 BKN023 12/12 Q1025 NOSIG', '上午1:00', '12.0°C', '1,025毫巴', '每小时0公里', '6.00公里', '大部分多云 (701米)', '本地:', '01:00、2019年10月26日周六', '协调世界时:', '17:00、2019年10月25日周五', '来源:', 'USAF 每小时地面观测', '报告类型:', 'METAR 航空例行天气报告', '露点:', '12.0°C', '其他云层:', '大部分晴天 (183米)、部分多云 (274米)', '天气:', 'Light Rain', '上午2:00', '12°C', '1,025毫巴', '每小时7.20公里, 北', '7.00公里', '大部分多云 (701米)', '本地:', '02:00、2019年10月26日周六', '协调世界时:', '18:00、2019年10月25日周五', '来源:', '周期文件', '趋势:', '无重要变化', '露点:', '11°C', '其他云层:', '大部分晴天 (183米)、部分多云 (274米)', '天气:', 'Light Rain', '原始:', 'ZUUU 251800Z 36002MPS 320V030 7000 -RA FEW006 SCT009 BKN023 12/11 Q1025 NOSIG', '上午2:00', '12.0°C', '1,025毫巴', '每小时7.20公里, 北', '7.00公里', '大部分多云 (701米)', '本地:', '02:00、2019年10月26日周六', '协调世界时:', '18:00、2019年10月25日周五', '来源:', 'USAF 每小时地面观测', '报告类型:', 'METAR 航空例行天气报告', '露点:', '11.0°C', '其他云层:', '大部分晴天 (183米)、部分多云 (274米)', '天气:', 'Light Rain', '上午3:00', '12°C', '1,025毫巴', '每小时3.60公里', '5.00公里', '大部分多云 (701米)', '本地:', '03:00、2019年10月26日周六', '协调世界时:', '19:00、2019年10月25日周五', '来源:', '周期文件', '趋势:', '无重要变化', '露点:', '12°C', '其他云层:', '大部分晴天 (152米)、部分多云 (274米)', '天气:', 'Light Rain、Mist', '原始:', 'ZUUU 251900Z VRB01MPS 5000 -RA BR FEW005 SCT009 BKN023 12/12 Q1025 NOSIG', '上午3:00', '12.0°C', '1,025毫巴', '每小时3.60公里', '5.00公里', '大部分多云 (701米)', '本地:', '03:00、2019年10月26日周六', '协调世界时:', '19:00、2019年10月25日周五', '来源:', 'USAF 每小时地面观测', '报告类型:', 'METAR 航空例行天气报告', '露点:', '12.0°C', '其他云层:', '大部分晴天 (152米)、部分多云 (274米)', '天气:', 'Mist、Light Rain', '上午4:00', '12°C', '1,024毫巴', '每小时7.20公里, 东北', '4.50公里', '大部分多云 (701米)', '本地:', '04:00、2019年10月26日周六', '协调世界时:', '20:00、2019年10月25日周五', '来源:', '周期文件', '趋势:', '无重要变化', '露点:', '11°C', '其他云层:', '大部分晴天 (122米)、部分多云 (274米)', '天气:', 'Light Rain、Mist', '原始:', 'ZUUU 252000Z 04002MPS 4500 -RA BR FEW004 SCT009 BKN023 12/11 Q1024 NOSIG', '上午4:00', '12.0°C', '1,024毫巴', '每小时7.20公里, 东北', '4.50公里', '大部分多云 (701米)', '本地:', '04:00、2019年10月26日周六', '协调世界时:', '20:00、2019年10月25日周五', '来源:', 'USAF 每小时地面观测', '报告类型:', 'METAR 航空例行天气报告', '露点:', '11.0°C', '其他云层:', '大部分晴天 (122米)、部分多云 (274米)', '天气:', 'Mist、Light Rain', '上午5:00', '12°C', '1,024毫巴', '每小时7.20公里, 北', '10.00公里', '大部分多云 (792米)', '本地:', '05:00、2019年10月26日周六', '协调世界时:', '21:00、2019年10月25日周五', '来源:', '周期文件', '趋势:', '无重要变化', '露点:', '11°C', '其他云层:', '大部分晴天 (183米)、部分多云 (305米)', '天气:', 'Light Rain', '原始:', 'ZUUU 252100Z 01002MPS 320V060 9999 -RA FEW006 SCT010 BKN026 12/11 Q1024 NOSIG', '上午5:00', '12.0°C', '1,024毫巴', '每小时7.20公里, 北', '10.00公里', '大部分多云 (792米)', '本地:', '05:00、2019年10月26日周六', '协调世界时:', '21:00、2019年10月25日周五', '来源:', 'USAF 每小时地面观测', '报告类型:', 'METAR 航空例行天气报告', '露点:', '11.0°C', '其他云层:', '大部分晴天 (183米)、部分多云 (305米)', '天气:', 'Light Rain', '上午6:00', '12°C', '1,025毫巴', '每小时3.60公里', '10.00公里', '大部分多云 (914米)', '本地:', '06:00、2019年10月26日周六', '协调世界时:', '22:00、2019年10月25日周五', '来源:', '周期文件', '趋势:', '无重要变化', '露点:', '11°C', '其他云层:', '大部分晴天 (274米)', '天气:', 'Light Rain', '原始:', 'ZUUU 252200Z VRB01MPS 9999 -RA FEW009 BKN030 12/11 Q1025 NOSIG', '上午7:00', '12°C', '1,025毫巴', '每小时14.4公里, 东北', '10.00公里', '大部分多云 (914米)', '本地:', '07:00、2019年10月26日周六', '协调世界时:', '23:00、2019年10月25日周五', '来源:', '周期文件', '趋势:', '无重要变化', '露点:', '10°C', '其他云层:', '大部分晴天 (274米)', '天气:', 'Light Rain', '原始:', 'ZUUU 252300Z 03004MPS 360V060 9999 -RA FEW009 BKN030 12/10 Q1025 NOSIG', '上午8:00', '12°C', '1,026毫巴', '每小时3.60公里', '10.00公里', '大部分多云 (914米)', '本地:', '08:00、2019年10月26日周六', '协调世界时:', '00:00、2019年10月26日周六', '来源:', '周期文件', '趋势:', '无重要变化', '露点:', '10°C', '其他云层:', '大部分晴天 (274米)', '天气:', 'Light Rain', '原始:', 'ZUUU 260000Z VRB01MPS 9999 -RA FEW009 BKN030 12/10 Q1026 NOSIG', '上午9:00', '12°C', '1,027毫巴', '每小时0公里', '10.00公里', '部分多云 (1,219米)', '本地:', '09:00、2019年10月26日周六', '协调世界时:', '01:00、2019年10月26日周六', '来源:', '周期文件', '趋势:', '无重要变化', '露点:', '11°C', '其他云层:', '大部分晴天 (335米)', '天气:', 'Light Rain', '原始:', 'ZUUU 260100Z 00000MPS 9999 -RA FEW011 SCT040 12/11 Q1027 NOSIG', '上午9:00', '12.0°C', '1,027毫巴', '每小时0公里', '10.00公里', '部分多云 (1,219米)', '本地:', '09:00、2019年10月26日周六', '协调世界时:', '01:00、2019年10月26日周六', '来源:', 'USAF 每小时地面观测', '报告类型:', 'METAR 航空例行天气报告', '露点:', '11.0°C', '其他云层:', '大部分晴天 (335米)', '天气:', 'Light Rain', '上午10:00', '13°C', '1,027毫巴', '每小时3.60公里', '10.00公里', '部分多云 (1,524米)', '本地:', '10:00、2019年10月26日周六', '协调世界时:', '02:00、2019年10月26日周六', '来源:', '周期文件', '趋势:', '无重要变化', '露点:', '11°C', '其他云层:', '大部分晴天 (610米)', '天气:', 'Light Rain', '原始:', 'ZUUU 260200Z VRB01MPS 9999 -RA FEW020 SCT050 13/11 Q1027 NOSIG', '上午10:00', '13.0°C', '1,027毫巴', '每小时3.60公里', '10.00公里', '部分多云 (1,524米)', '本地:', '10:00、2019年10月26日周六', '协调世界时:', '02:00、2019年10月26日周六', '来源:', 'USAF 每小时地面观测', '报告类型:', 'METAR 航空例行天气报告', '露点:', '11.0°C', '其他云层:', '大部分晴天 (610米)', '天气:', 'Light Rain', '上午11:00', '13°C', '1,027毫巴', '每小时7.20公里, 西', '8.00公里', '部分多云 (1,524米)', '本地:', '11:00、2019年10月26日周六', '协调世界时:', '03:00、2019年10月26日周六', '来源:', '周期文件', '趋势:', '无重要变化', '露点:', '11°C', '其他云层:', '大部分晴天 (610米)', '天气:', 'Light Rain', '原始:', 'ZUUU 260300Z 29002MPS 250V320 8000 -RA FEW020 SCT050 13/11 Q1027 NOSIG', '上午11:00', '13.0°C', '1,027毫巴', '每小时7.20公里, 西', '8.00公里', '部分多云 (1,524米)', '本地:', '11:00、2019年10月26日周六', '协调世界时:', '03:00、2019年10月26日周六', '来源:', 'USAF 每小时地面观测', '报告类型:', 'METAR 航空例行天气报告', '露点:', '11.0°C', '其他云层:', '大部分晴天 (610米)', '天气:', 'Light Rain', '下午12:00', '13°C', '1,026毫巴', '每小时10.8公里, 西', '6.00公里', '大部分多云 (1,219米)', '本地:', '12:00、2019年10月26日周六', '协调世界时:', '04:00、2019年10月26日周六', '来源:', '周期文件', '趋势:', '无重要变化', '露点:', '12°C', '其他云层:', '大部分晴天 (274米)', '天气:', 'Light Rain', '原始:', 'ZUUU 260400Z 26003MPS 230V290 6000 -RA FEW009 BKN040 13/12 Q1026 NOSIG', '下午12:00', '13.0°C', '1,026毫巴', '每小时10.8公里, 西', '6.00公里', '大部分多云 (1,219米)', '本地:', '12:00、2019年10月26日周六', '协调世界时:', '04:00、2019年10月26日周六', '来源:', 'USAF 每小时地面观测', '报告类型:', 'METAR 航空例行天气报告', '露点:', '12.0°C', '其他云层:', '大部分晴天 (274米)', '天气:', 'Light Rain', '下午1:00', '14°C', '1,025毫巴', '每小时10.8公里, 西', '7.00公里', '大部分多云 (1,219米)', '本地:', '13:00、2019年10月26日周六', '协调世界时:', '05:00、2019年10月26日周六', '来源:', '周期文件', '趋势:', '无重要变化', '露点:', '12°C', '其他云层:', '大部分晴天 (274米)', '天气:', 'Light Rain', '原始:', 'ZUUU 260500Z 27003MPS 240V300 7000 -RA FEW009 BKN040 14/12 Q1025 NOSIG', '下午1:00', '14.0°C', '1,025毫巴', '每小时10.8公里, 西', '7.00公里', '大部分多云 (1,219米)', '本地:', '13:00、2019年10月26日周六', '协调世界时:', '05:00、2019年10月26日周六', '来源:', 'USAF 每小时地面观测', '报告类型:', 'METAR 航空例行天气报告', '露点:', '12.0°C', '其他云层:', '大部分晴天 (274米)', '天气:', 'Light Rain', '下午2:00', '14°C', '1,024毫巴', '每小时7.20公里, 西', '10.00公里', '大部分多云 (1,219米)', '本地:', '14:00、2019年10月26日周六', '协调世界时:', '06:00、2019年10月26日周六', '来源:', '周期文件', '趋势:', '无重要变化', '露点:', '12°C', '其他云层:', '部分多云 (305米)', '天气:', 'Light Rain', '原始:', 'ZUUU 260600Z 25002MPS 220V280 9999 -RA SCT010 BKN040 14/12 Q1024 NOSIG', '下午2:00', '14.0°C', '1,024毫巴', '每小时7.20公里, 西', '10.00公里', '大部分多云 (1,219米)', '本地:', '14:00、2019年10月26日周六', '协调世界时:', '06:00、2019年10月26日周六', '来源:', 'USAF 每小时地面观测', '报告类型:', 'METAR 航空例行天气报告', '露点:', '12.0°C', '其他云层:', '部分多云 (305米)', '天气:', 'Light Rain', '下午3:00', '14°C', '1,023毫巴', '每小时7.20公里, 西', '10.00公里', '大部分多云 (1,219米)', '本地:', '15:00、2019年10月26日周六', '协调世界时:', '07:00、2019年10月26日周六', '来源:', '周期文件', '趋势:', '无重要变化', '露点:', '12°C', '其他云层:', '大部分晴天 (335米)', '天气:', 'Light Rain', '原始:', 'ZUUU 260700Z 26002MPS 200V320 9999 -RA FEW011 BKN040 14/12 Q1023 NOSIG', '下午3:00', '14.0°C', '1,023毫巴', '每小时7.20公里, 西', '10.00公里', '大部分多云 (1,219米)', '本地:', '15:00、2019年10月26日周六', '协调世界时:', '07:00、2019年10月26日周六', '来源:', 'USAF 每小时地面观测', '报告类型:', 'METAR 航空例行天气报告', '露点:', '12.0°C', '其他云层:', '大部分晴天 (335米)', '天气:', 'Light Rain', '下午4:00', '15°C', '1,023毫巴', '每小时7.20公里, 西南', '10.00公里', '大部分多云 (1,219米)', '本地:', '16:00、2019年10月26日周六', '协调世界时:', '08:00、2019年10月26日周六', '来源:', '周期文件', '趋势:', '无重要变化', '露点:', '12°C', '其他云层:', '大部分晴天 (335米)', '天气:', 'Light Rain', '原始:', 'ZUUU 260800Z 23002MPS 9999 -RA FEW011 BKN040 15/12 Q1023 NOSIG', '下午4:00', '15.0°C', '1,023毫巴', '每小时7.20公里, 西南', '10.00公里', '大部分多云 (1,219米)', '本地:', '16:00、2019年10月26日周六', '协调世界时:', '08:00、2019年10月26日周六', '来源:', 'USAF 每小时地面观测', '报告类型:', 'METAR 航空例行天气报告', '露点:', '12.0°C', '其他云层:', '大部分晴天 (335米)', '天气:', 'Light Rain', '下午5:00', '14°C', '1,023毫巴', '每小时10.8公里, 西南', '10.00公里', '大部分多云 (1,219米)', '本地:', '17:00、2019年10月26日周六', '协调世界时:', '09:00、2019年10月26日周六', '来源:', '周期文件', '趋势:', '无重要变化', '露点:', '12°C', '其他云层:', '大部分晴天 (335米)', '天气:', 'Light Rain', '原始:', 'ZUUU 260900Z 23003MPS 9999 -RA FEW011 BKN040 14/12 Q1023 NOSIG', '下午5:00', '14.0°C', '1,023毫巴', '每小时10.8公里, 西南', '10.00公里', '大部分多云 (1,219米)', '本地:', '17:00、2019年10月26日周六', '协调世界时:', '09:00、2019年10月26日周六', '来源:', 'USAF 每小时地面观测', '报告类型:', 'METAR 航空例行天气报告', '露点:', '12.0°C', '其他云层:', '大部分晴天 (335米)', '天气:', 'Light Rain', '下午6:00', '14°C', '1,023毫巴', '每小时7.20公里, 西南', '10.00公里', '大部分多云 (1,219米)', '本地:', '18:00、2019年10月26日周六', '协调世界时:', '10:00、2019年10月26日周六', '来源:', '周期文件', '趋势:', '无重要变化', '露点:', '12°C', '其他云层:', '大部分晴天 (335米)', '天气:', 'Light Rain', '原始:', 'ZUUU 261000Z 22002MPS 190V250 9999 -RA FEW011 BKN040 14/12 Q1023 NOSIG', '下午6:00', '14.0°C', '1,023毫巴', '每小时7.20公里, 西南', '10.00公里', '大部分多云 (1,219米)', '本地:', '18:00、2019年10月26日周六', '协调世界时:', '10:00、2019年10月26日周六', '来源:', 'USAF 每小时地面观测', '报告类型:', 'METAR 航空例行天气报告', '露点:', '12.0°C', '其他云层:', '大部分晴天 (335米)', '天气:', 'Light Rain', '下午7:00', '13°C', '1,023毫巴', '每小时7.20公里, 西南', '10.00公里', '大部分多云 (1,219米)', '本地:', '19:00、2019年10月26日周六', '协调世界时:', '11:00、2019年10月26日周六', '来源:', '周期文件', '趋势:', '无重要变化', '露点:', '12°C', '其他云层:', '大部分晴天 (335米)', '天气:', 'Light Rain', '原始:', 'ZUUU 261100Z 21002MPS 9999 -RA FEW011 BKN040 13/12 Q1023 NOSIG', '下午7:00', '13.0°C', '1,023毫巴', '每小时7.20公里, 西南', '10.00公里', '大部分多云 (1,219米)', '本地:', '19:00、2019年10月26日周六', '协调世界时:', '11:00、2019年10月26日周六', '来源:', 'USAF 每小时地面观测', '报告类型:', 'METAR 航空例行天气报告', '露点:', '12.0°C', '其他云层:', '大部分晴天 (335米)', '天气:', 'Light Rain', '下午8:00', '14°C', '1,024毫巴', '每小时0公里', '10.00公里', '部分多云 (1,219米)', '本地:', '20:00、2019年10月26日周六', '协调世界时:', '12:00、2019年10月26日周六', '来源:', '周期文件', '趋势:', '无重要变化', '露点:', '12°C', '天气:', 'Light Rain', '原始:', 'ZUUU 261200Z 00000MPS 9999 -RA SCT040 14/12 Q1024 NOSIG', '下午8:00', '14.0°C', '1,024毫巴', '每小时0公里', '10.00公里', '部分多云 (1,219米)', '本地:', '20:00、2019年10月26日周六', '协调世界时:', '12:00、2019年10月26日周六', '来源:', 'USAF 每小时地面观测', '报告类型:', 'METAR 航空例行天气报告', '露点:', '12.0°C', '天气:', 'Light Rain', '下午9:00', '13°C', '1,025毫巴', '每小时3.60公里', '10.00公里', '部分多云 (1,219米)', '本地:', '21:00、2019年10月26日周六', '协调世界时:', '13:00、2019年10月26日周六', '来源:', '周期文件', '趋势:', '无重要变化', '露点:', '12°C', '其他云层:', '大部分晴天 (335米)', '天气:', 'Light Rain', '原始:', 'ZUUU 261300Z VRB01MPS 9999 -RA FEW011 SCT040 13/12 Q1025 NOSIG', '下午9:00', '13.0°C', '1,025毫巴', '每小时3.60公里', '10.00公里', '部分多云 (1,219米)', '本地:', '21:00、2019年10月26日周六', '协调世界时:', '13:00、2019年10月26日周六', '来源:', 'USAF 每小时地面观测', '报告类型:', 'METAR 航空例行天气报告', '露点:', '12.0°C', '其他云层:', '大部分晴天 (335米)', '天气:', 'Light Rain', '下午10:00', '13°C', '1,024毫巴', '每小时7.20公里, 西南', '10.00公里', '部分多云 (1,219米)', '本地:', '22:00、2019年10月26日周六', '协调世界时:', '14:00、2019年10月26日周六', '来源:', '周期文件', '趋势:', '无重要变化', '露点:', '11°C', '其他云层:', '大部分晴天 (335米)', '原始:', 'ZUUU 261400Z 21002MPS 180V240 9999 FEW011 SCT040 13/11 Q1024 NOSIG', '下午10:00', '13.0°C', '1,024毫巴', '每小时7.20公里, 西南', '10.00公里', '部分多云 (1,219米)', '本地:', '22:00、2019年10月26日周六', '协调世界时:', '14:00、2019年10月26日周六', '来源:', 'USAF 每小时地面观测', '报告类型:', 'METAR 航空例行天气报告', '露点:', '11.0°C', '其他云层:', '大部分晴天 (335米)', '下午11:00', '13°C', '1,024毫巴', '每小时7.20公里, 西', '10.00公里', '部分多云 (1,524米)', '本地:', '23:00、2019年10月26日周六', '协调世界时:', '15:00、2019年10月26日周六', '来源:', '周期文件', '趋势:', '无重要变化', '露点:', '11°C', '天气:', 'Light Rain', '原始:', 'ZUUU 261500Z 25002MPS 9999 -RA SCT050 13/11 Q1024 NOSIG', '下午11:00', '13.0°C', '1,024毫巴', '每小时7.20公里, 西', '10.00公里', '部分多云 (1,524米)', '本地:', '23:00、2019年10月26日周六', '协调世界时:', '15:00、2019年10月26日周六', '来源:', 'USAF 每小时地面观测', '报告类型:', 'METAR 航空例行天气报告', '露点:', '11.0°C', '天气:', 'Light Rain']