['上午12:00', '29°C', '1,009毫巴', '每小时3.60公里', '10.00公里', '部分多云 (1,524米)', '本地:', '00:00、2019年8月25日周日', '协调世界时:', '16:00、2019年8月24日周六', '来源:', '周期文件', '趋势:', '无重要变化', '露点:', '22°C', '原始:', 'ZUUU 241600Z VRB01MPS 9999 SCT050 29/22 Q1009 NOSIG', '上午12:00', '29.0°C', '1,009毫巴', '每小时3.60公里', '10.00公里', '部分多云 (1,524米)', '本地:', '00:00、2019年8月25日周日', '协调世界时:', '16:00、2019年8月24日周六', '来源:', 'USAF 每小时地面观测', '报告类型:', 'METAR 航空例行天气报告', '露点:', '22.0°C', '上午1:00', '28°C', '1,009毫巴', '每小时7.20公里, 北', '10.00公里', '大部分晴天 (1,524米)', '本地:', '01:00、2019年8月25日周日', '协调世界时:', '17:00、2019年8月24日周六', '来源:', '周期文件', '趋势:', '无重要变化', '露点:', '21°C', '原始:', 'ZUUU 241700Z 36002MPS 320V040 9999 FEW050 28/21 Q1009 NOSIG', '上午1:00', '28.0°C', '1,009毫巴', '每小时7.20公里, 北', '10.00公里', '大部分晴天 (1,524米)', '本地:', '01:00、2019年8月25日周日', '协调世界时:', '17:00、2019年8月24日周六', '来源:', 'USAF 每小时地面观测', '报告类型:', 'METAR 航空例行天气报告', '露点:', '21.0°C', '上午2:00', '27°C', '1,009毫巴', '每小时7.20公里, 北', '≥ 10.00公里', '晴空万里', '本地:', '02:00、2019年8月25日周日', '协调世界时:', '18:00、2019年8月24日周六', '来源:', '周期文件', '趋势:', '无重要变化', '露点:', '21°C', '晴空万里:', '真', '原始:', 'ZUUU 241800Z 02002MPS CAVOK 27/21 Q1009 NOSIG', '上午2:00', '27.0°C', '1,009毫巴', '每小时7.20公里, 北', '9.90公里', '晴空万里', '本地:', '02:00、2019年8月25日周日', '协调世界时:', '18:00、2019年8月24日周六', '来源:', 'USAF 每小时地面观测', '报告类型:', 'METAR 航空例行天气报告', '露点:', '21.0°C', '晴空万里:', '真', '上午3:00', '27°C', '1,008毫巴', '每小时0公里', '≥ 10.00公里', '晴空万里', '本地:', '03:00、2019年8月25日周日', '协调世界时:', '19:00、2019年8月24日周六', '来源:', '周期文件', '趋势:', '无重要变化', '露点:', '22°C', '晴空万里:', '真', '原始:', 'ZUUU 241900Z 00000MPS CAVOK 27/22 Q1008 NOSIG', '上午3:00', '27.0°C', '1,008毫巴', '每小时0公里', '9.90公里', '晴空万里', '本地:', '03:00、2019年8月25日周日', '协调世界时:', '19:00、2019年8月24日周六', '来源:', 'USAF 每小时地面观测', '报告类型:', 'METAR 航空例行天气报告', '露点:', '22.0°C', '晴空万里:', '真', '上午4:00', '26°C', '1,008毫巴', '每小时0公里', '≥ 10.00公里', '晴空万里', '本地:', '04:00、2019年8月25日周日', '协调世界时:', '20:00、2019年8月24日周六', '来源:', '周期文件', '趋势:', '无重要变化', '露点:', '21°C', '晴空万里:', '真', '原始:', 'ZUUU 242000Z 00000MPS CAVOK 26/21 Q1008 NOSIG', '上午4:00', '26.0°C', '1,008毫巴', '每小时0公里', '9.90公里', '晴空万里', '本地:', '04:00、2019年8月25日周日', '协调世界时:', '20:00、2019年8月24日周六', '来源:', 'USAF 每小时地面观测', '报告类型:', 'METAR 航空例行天气报告', '露点:', '21.0°C', '晴空万里:', '真', '上午5:00', '27°C', '1,008毫巴', '每小时7.20公里, 西', '≥ 10.00公里', '晴空万里', '本地:', '05:00、2019年8月25日周日', '协调世界时:', '21:00、2019年8月24日周六', '来源:', '周期文件', '趋势:', '无重要变化', '露点:', '21°C', '晴空万里:', '真', '原始:', 'ZUUU 242100Z 29002MPS 250V320 CAVOK 27/21 Q1008 NOSIG', '上午5:00', '27.0°C', '1,008毫巴', '每小时7.20公里, 西', '9.90公里', '晴空万里', '本地:', '05:00、2019年8月25日周日', '协调世界时:', '21:00、2019年8月24日周六', '来源:', 'USAF 每小时地面观测', '报告类型:', 'METAR 航空例行天气报告', '露点:', '21.0°C', '晴空万里:', '真', '上午6:00', '26°C', '1,008毫巴', '每小时3.60公里', '≥ 10.00公里', '晴空万里', '本地:', '06:00、2019年8月25日周日', '协调世界时:', '22:00、2019年8月24日周六', '来源:', '周期文件', '趋势:', '无重要变化', '露点:', '22°C', '晴空万里:', '真', '原始:', 'ZUUU 242200Z VRB01MPS CAVOK 26/22 Q1008 NOSIG', '上午6:00', '26.0°C', '1,008毫巴', '每小时3.60公里', '9.90公里', '晴空万里', '本地:', '06:00、2019年8月25日周日', '协调世界时:', '22:00、2019年8月24日周六', '来源:', 'USAF 每小时地面观测', '报告类型:', 'METAR 航空例行天气报告', '露点:', '22.0°C', '晴空万里:', '真', '上午7:00', '27°C', '1,008毫巴', '每小时7.20公里, 西', '≥ 10.00公里', '晴空万里', '本地:', '07:00、2019年8月25日周日', '协调世界时:', '23:00、2019年8月24日周六', '来源:', '周期文件', '趋势:', '无重要变化', '露点:', '21°C', '晴空万里:', '真', '原始:', 'ZUUU 242300Z 29002MPS 260V330 CAVOK 27/21 Q1008 NOSIG', '上午7:00', '27.0°C', '1,008毫巴', '每小时7.20公里, 西', '9.90公里', '晴空万里', '本地:', '07:00、2019年8月25日周日', '协调世界时:', '23:00、2019年8月24日周六', '来源:', 'USAF 每小时地面观测', '报告类型:', 'METAR 航空例行天气报告', '露点:', '21.0°C', '晴空万里:', '真', '上午8:00', '27°C', '1,009毫巴', '每小时7.20公里, 西南', '≥ 10.00公里', '晴空万里', '本地:', '08:00、2019年8月25日周日', '协调世界时:', '00:00、2019年8月25日周日', '来源:', '周期文件', '趋势:', '无重要变化', '露点:', '22°C', '晴空万里:', '真', '原始:', 'ZUUU 250000Z 24002MPS 210V280 CAVOK 27/22 Q1009 NOSIG', '上午8:00', '27.0°C', '1,009毫巴', '每小时7.20公里, 西南', '9.90公里', '晴空万里', '本地:', '08:00、2019年8月25日周日', '协调世界时:', '00:00、2019年8月25日周日', '来源:', 'USAF 每小时地面观测', '报告类型:', 'METAR 航空例行天气报告', '露点:', '22.0°C', '晴空万里:', '真', '上午9:00', '27°C', '1,009毫巴', '每小时10.8公里, 西', '7.00公里', '部分多云 (1,524米)', '本地:', '09:00、2019年8月25日周日', '协调世界时:', '01:00、2019年8月25日周日', '来源:', '周期文件', '趋势:', '无重要变化', '露点:', '23°C', '原始:', 'ZUUU 250100Z 25003MPS 210V320 7000 SCT050 27/23 Q1009 NOSIG', '上午9:00', '27.0°C', '1,009毫巴', '每小时10.8公里, 西', '7.00公里', '部分多云 (1,524米)', '本地:', '09:00、2019年8月25日周日', '协调世界时:', '01:00、2019年8月25日周日', '来源:', 'USAF 每小时地面观测', '报告类型:', 'METAR 航空例行天气报告', '露点:', '23.0°C', '上午10:00', '28°C', '1,010毫巴', '每小时3.60公里', '7.00公里', '部分多云 (1,524米)', '本地:', '10:00、2019年8月25日周日', '协调世界时:', '02:00、2019年8月25日周日', '来源:', '周期文件', '趋势:', '无重要变化', '露点:', '23°C', '原始:', 'ZUUU 250200Z VRB01MPS 7000 SCT050 28/23 Q1010 NOSIG', '上午10:00', '28.0°C', '1,010毫巴', '每小时3.60公里', '7.00公里', '部分多云 (1,524米)', '本地:', '10:00、2019年8月25日周日', '协调世界时:', '02:00、2019年8月25日周日', '来源:', 'USAF 每小时地面观测', '报告类型:', 'METAR 航空例行天气报告', '露点:', '23.0°C', '上午11:00', '29°C', '1,010毫巴', '每小时7.20公里, 西北', '7.00公里', '大部分多云 (1,524米)', '本地:', '11:00、2019年8月25日周日', '协调世界时:', '03:00、2019年8月25日周日', '来源:', '周期文件', '趋势:', '无重要变化', '露点:', '22°C', '原始:', 'ZUUU 250300Z 31002MPS 270V350 7000 BKN050 29/22 Q1010 NOSIG', '上午11:00', '29.0°C', '1,010毫巴', '每小时7.20公里, 西北', '7.00公里', '大部分多云 (1,524米)', '本地:', '11:00、2019年8月25日周日', '协调世界时:', '03:00、2019年8月25日周日', '来源:', 'USAF 每小时地面观测', '报告类型:', 'METAR 航空例行天气报告', '露点:', '22.0°C', '下午12:00', '29°C', '1,009毫巴', '每小时10.8公里, 西', '7.00公里', '大部分多云 (1,524米)', '本地:', '12:00、2019年8月25日周日', '协调世界时:', '04:00、2019年8月25日周日', '来源:', '周期文件', '趋势:', '无重要变化', '露点:', '22°C', '原始:', 'ZUUU 250400Z 28003MPS 240V320 7000 BKN050 29/22 Q1009 NOSIG', '下午12:00', '29.0°C', '1,009毫巴', '每小时10.8公里, 西', '7.00公里', '大部分多云 (1,524米)', '本地:', '12:00、2019年8月25日周日', '协调世界时:', '04:00、2019年8月25日周日', '来源:', 'USAF 每小时地面观测', '报告类型:', 'METAR 航空例行天气报告', '露点:', '22.0°C', '下午1:00', '30°C', '1,009毫巴', '每小时7.20公里, 西北', '10.00公里', '部分多云 (1,524米)', '本地:', '13:00、2019年8月25日周日', '协调世界时:', '05:00、2019年8月25日周日', '来源:', '周期文件', '趋势:', '无重要变化', '露点:', '23°C', '原始:', 'ZUUU 250500Z 33002MPS 270V040 9999 SCT050 30/23 Q1009 NOSIG', '下午1:00', '30.0°C', '1,009毫巴', '每小时7.20公里, 西北', '10.00公里', '部分多云 (1,524米)', '本地:', '13:00、2019年8月25日周日', '协调世界时:', '05:00、2019年8月25日周日', '来源:', 'USAF 每小时地面观测', '报告类型:', 'METAR 航空例行天气报告', '露点:', '23.0°C', '下午2:00', '32°C', '1,008毫巴', '每小时7.20公里, 北', '≥ 10.00公里', '晴空万里', '本地:', '14:00、2019年8月25日周日', '协调世界时:', '06:00、2019年8月25日周日', '来源:', '周期文件', '趋势:', '无重要变化', '露点:', '23°C', '晴空万里:', '真', '原始:', 'ZUUU 250600Z 35002MPS 280V050 CAVOK 32/23 Q1008 NOSIG', '下午2:00', '32.0°C', '1,008毫巴', '每小时7.20公里, 北', '9.90公里', '晴空万里', '本地:', '14:00、2019年8月25日周日', '协调世界时:', '06:00、2019年8月25日周日', '来源:', 'USAF 每小时地面观测', '报告类型:', 'METAR 航空例行天气报告', '露点:', '23.0°C', '晴空万里:', '真', '下午3:00', '33°C', '1,007毫巴', '每小时10.8公里, 北', '≥ 10.00公里', '晴空万里', '本地:', '15:00、2019年8月25日周日', '协调世界时:', '07:00、2019年8月25日周日', '来源:', '周期文件', '趋势:', '无重要变化', '露点:', '20°C', '晴空万里:', '真', '原始:', 'ZUUU 250700Z 01003MPS 330V060 CAVOK 33/20 Q1007 NOSIG', '下午3:00', '33.0°C', '1,007毫巴', '每小时10.8公里, 北', '9.90公里', '晴空万里', '本地:', '15:00、2019年8月25日周日', '协调世界时:', '07:00、2019年8月25日周日', '来源:', 'USAF 每小时地面观测', '报告类型:', 'METAR 航空例行天气报告', '露点:', '20.0°C', '晴空万里:', '真', '下午4:00', '33°C', '1,006毫巴', '每小时7.20公里', '≥ 10.00公里', '晴空万里', '本地:', '16:00、2019年8月25日周日', '协调世界时:', '08:00、2019年8月25日周日', '来源:', '周期文件', '趋势:', '无重要变化', '露点:', '20°C', '晴空万里:', '真', '原始:', 'ZUUU 250800Z VRB02MPS CAVOK 33/20 Q1006 NOSIG', '下午4:00', '33.0°C', '1,006毫巴', '每小时7.20公里', '9.90公里', '晴空万里', '本地:', '16:00、2019年8月25日周日', '协调世界时:', '08:00、2019年8月25日周日', '来源:', 'USAF 每小时地面观测', '报告类型:', 'METAR 航空例行天气报告', '露点:', '20.0°C', '晴空万里:', '真', '下午5:00', '34°C', '1,005毫巴', '每小时7.20公里, 北', '≥ 10.00公里', '晴空万里', '本地:', '17:00、2019年8月25日周日', '协调世界时:', '09:00、2019年8月25日周日', '来源:', '周期文件', '趋势:', '无重要变化', '露点:', '21°C', '晴空万里:', '真', '原始:', 'ZUUU 250900Z 36002MPS 280V040 CAVOK 34/21 Q1005 NOSIG', '下午5:00', '34.0°C', '1,005毫巴', '每小时7.20公里, 北', '9.90公里', '晴空万里', '本地:', '17:00、2019年8月25日周日', '协调世界时:', '09:00、2019年8月25日周日', '来源:', 'USAF 每小时地面观测', '报告类型:', 'METAR 航空例行天气报告', '露点:', '21.0°C', '晴空万里:', '真', '下午6:00', '34°C', '1,005毫巴', '每小时7.20公里, 西北', '≥ 10.00公里', '晴空万里', '本地:', '18:00、2019年8月25日周日', '协调世界时:', '10:00、2019年8月25日周日', '来源:', '周期文件', '趋势:', '无重要变化', '露点:', '22°C', '晴空万里:', '真', '原始:', 'ZUUU 251000Z 33002MPS 260V030 CAVOK 34/22 Q1005 NOSIG', '下午6:00', '34.0°C', '1,005毫巴', '每小时7.20公里, 西北', '9.90公里', '晴空万里', '本地:', '18:00、2019年8月25日周日', '协调世界时:', '10:00、2019年8月25日周日', '来源:', 'USAF 每小时地面观测', '报告类型:', 'METAR 航空例行天气报告', '露点:', '22.0°C', '晴空万里:', '真', '下午7:00', '32°C', '1,005毫巴', '每小时3.60公里', '≥ 10.00公里', '晴空万里', '本地:', '19:00、2019年8月25日周日', '协调世界时:', '11:00、2019年8月25日周日', '来源:', '周期文件', '趋势:', '无重要变化', '露点:', '21°C', '晴空万里:', '真', '原始:', 'ZUUU 251100Z VRB01MPS CAVOK 32/21 Q1005 NOSIG', '下午7:00', '32.0°C', '1,005毫巴', '每小时3.60公里', '9.90公里', '晴空万里', '本地:', '19:00、2019年8月25日周日', '协调世界时:', '11:00、2019年8月25日周日', '来源:', 'USAF 每小时地面观测', '报告类型:', 'METAR 航空例行天气报告', '露点:', '21.0°C', '晴空万里:', '真', '下午8:00', '31°C', '1,006毫巴', '每小时3.60公里', '≥ 10.00公里', '晴空万里', '本地:', '20:00、2019年8月25日周日', '协调世界时:', '12:00、2019年8月25日周日', '来源:', '周期文件', '趋势:', '无重要变化', '露点:', '22°C', '晴空万里:', '真', '原始:', 'ZUUU 251200Z VRB01MPS CAVOK 31/22 Q1006 NOSIG', '下午8:00', '31.0°C', '1,006毫巴', '每小时3.60公里', '9.90公里', '晴空万里', '本地:', '20:00、2019年8月25日周日', '协调世界时:', '12:00、2019年8月25日周日', '来源:', 'USAF 每小时地面观测', '报告类型:', 'METAR 航空例行天气报告', '露点:', '22.0°C', '晴空万里:', '真', '下午9:00', '31°C', '1,006毫巴', '每小时3.60公里, 北', '≥ 10.00公里', '晴空万里', '本地:', '21:00、2019年8月25日周日', '协调世界时:', '13:00、2019年8月25日周日', '来源:', '周期文件', '趋势:', '无重要变化', '露点:', '21°C', '晴空万里:', '真', '原始:', 'ZUUU 251300Z 34001MPS CAVOK 31/21 Q1006 NOSIG', '下午9:00', '31.0°C', '1,006毫巴', '每小时3.60公里, 北', '9.90公里', '晴空万里', '本地:', '21:00、2019年8月25日周日', '协调世界时:', '13:00、2019年8月25日周日', '来源:', 'USAF 每小时地面观测', '报告类型:', 'METAR 航空例行天气报告', '露点:', '21.0°C', '晴空万里:', '真', '下午10:00', '30°C', '1,007毫巴', '每小时3.60公里, 北', '10.00公里', '大部分晴天 (1,615米)', '本地:', '22:00、2019年8月25日周日', '协调世界时:', '14:00、2019年8月25日周日', '来源:', '周期文件', '趋势:', '无重要变化', '露点:', '22°C', '原始:', 'ZUUU 251400Z 34001MPS 9999 FEW053 30/22 Q1007 NOSIG', '下午10:00', '30.0°C', '1,007毫巴', '每小时3.60公里, 北', '10.00公里', '大部分晴天 (1,615米)', '本地:', '22:00、2019年8月25日周日', '协调世界时:', '14:00、2019年8月25日周日', '来源:', 'USAF 每小时地面观测', '报告类型:', 'METAR 航空例行天气报告', '露点:', '22.0°C', '下午11:00', '29°C', '1,007毫巴', '每小时3.60公里, 西北', '≥ 10.00公里', '晴空万里', '本地:', '23:00、2019年8月25日周日', '协调世界时:', '15:00、2019年8月25日周日', '来源:', '周期文件', '趋势:', '无重要变化', '露点:', '22°C', '晴空万里:', '真', '原始:', 'ZUUU 251500Z 32001MPS CAVOK 29/22 Q1007 NOSIG', '下午11:00', '29.0°C', '1,007毫巴', '每小时3.60公里, 西北', '9.90公里', '晴空万里', '本地:', '23:00、2019年8月25日周日', '协调世界时:', '15:00、2019年8月25日周日', '来源:', 'USAF 每小时地面观测', '报告类型:', 'METAR 航空例行天气报告', '露点:', '22.0°C', '晴空万里:', '真']