['上午12:00', '18°C', '1,018毫巴', '每小时10.8公里, 西北', '10.00公里', '部分多云 (1,524米)', '本地:', '00:00、2019年3月28日周四', '协调世界时:', '16:00、2019年3月27日周三', '来源:', '周期文件', '趋势:', '无重要变化', '露点:', '12°C', '原始:', 'ZUUU 271600Z 32003MPS 290V030 9999 SCT050 18/12 Q1018 NOSIG', '上午12:00', '18.0°C', '1,018毫巴', '每小时10.8公里, 西北', '10.00公里', '部分多云 (1,524米)', '本地:', '00:00、2019年3月28日周四', '协调世界时:', '16:00、2019年3月27日周三', '来源:', 'USAF 每小时地面观测', '报告类型:', 'METAR 航空例行天气报告', '露点:', '12.0°C', '上午1:00', '17°C', '1,017毫巴', '每小时3.60公里', '10.00公里', '部分多云 (1,524米)', '本地:', '01:00、2019年3月28日周四', '协调世界时:', '17:00、2019年3月27日周三', '来源:', '周期文件', '趋势:', '无重要变化', '露点:', '12°C', '原始:', 'ZUUU 271700Z VRB01MPS 9999 SCT050 17/12 Q1017 NOSIG', '上午1:00', '17.0°C', '1,017毫巴', '每小时3.60公里', '10.00公里', '部分多云 (1,524米)', '本地:', '01:00、2019年3月28日周四', '协调世界时:', '17:00、2019年3月27日周三', '来源:', 'USAF 每小时地面观测', '报告类型:', 'METAR 航空例行天气报告', '露点:', '12.0°C', '上午2:00', '16°C', '1,016毫巴', '每小时7.20公里, 西', '≥ 10.00公里', '晴空万里', '本地:', '02:00、2019年3月28日周四', '协调世界时:', '18:00、2019年3月27日周三', '来源:', '周期文件', '趋势:', '无重要变化', '露点:', '10°C', '晴空万里:', '真', '原始:', 'ZUUU 271800Z 27002MPS 240V310 CAVOK 16/10 Q1016 NOSIG', '上午2:00', '16.0°C', '1,016毫巴', '每小时7.20公里, 西', '-', '晴空万里', '本地:', '02:00、2019年3月28日周四', '协调世界时:', '18:00、2019年3月27日周三', '来源:', 'USAF 每小时地面观测', '报告类型:', 'METAR 航空例行天气报告', '露点:', '10.0°C', '晴空万里:', '真', '上午3:00', '15°C', '1,016毫巴', '每小时7.20公里, 西南', '≥ 10.00公里', '晴空万里', '本地:', '03:00、2019年3月28日周四', '协调世界时:', '19:00、2019年3月27日周三', '来源:', '周期文件', '趋势:', '无重要变化', '露点:', '10°C', '晴空万里:', '真', '原始:', 'ZUUU 271900Z 24002MPS CAVOK 15/10 Q1016 NOSIG', '上午3:00', '15.0°C', '1,016毫巴', '每小时7.20公里, 西南', '-', '晴空万里', '本地:', '03:00、2019年3月28日周四', '协调世界时:', '19:00、2019年3月27日周三', '来源:', 'USAF 每小时地面观测', '报告类型:', 'METAR 航空例行天气报告', '露点:', '10.0°C', '晴空万里:', '真', '上午4:00', '14°C', '1,015毫巴', '每小时0公里', '≥ 10.00公里', '晴空万里', '本地:', '04:00、2019年3月28日周四', '协调世界时:', '20:00、2019年3月27日周三', '来源:', '周期文件', '趋势:', '无重要变化', '露点:', '10°C', '晴空万里:', '真', '原始:', 'ZUUU 272000Z 00000MPS CAVOK 14/10 Q1015 NOSIG', '上午4:00', '14.0°C', '1,015毫巴', '每小时0公里', '-', '晴空万里', '本地:', '04:00、2019年3月28日周四', '协调世界时:', '20:00、2019年3月27日周三', '来源:', 'USAF 每小时地面观测', '报告类型:', 'METAR 航空例行天气报告', '露点:', '10.0°C', '晴空万里:', '真', '上午5:00', '13°C', '1,015毫巴', '每小时0公里', '≥ 10.00公里', '晴空万里', '本地:', '05:00、2019年3月28日周四', '协调世界时:', '21:00、2019年3月27日周三', '来源:', '周期文件', '趋势:', '无重要变化', '露点:', '10°C', '晴空万里:', '真', '原始:', 'ZUUU 272100Z 00000MPS CAVOK 13/10 Q1015 NOSIG', '上午5:00', '13.0°C', '1,015毫巴', '每小时0公里', '-', '晴空万里', '本地:', '05:00、2019年3月28日周四', '协调世界时:', '21:00、2019年3月27日周三', '来源:', 'USAF 每小时地面观测', '报告类型:', 'METAR 航空例行天气报告', '露点:', '10.0°C', '晴空万里:', '真', '上午6:00', '11°C', '1,014毫巴', '每小时0公里', '≥ 10.00公里', '晴空万里', '本地:', '06:00、2019年3月28日周四', '协调世界时:', '22:00、2019年3月27日周三', '来源:', '周期文件', '趋势:', '无重要变化', '露点:', '10°C', '晴空万里:', '真', '原始:', 'ZUUU 272200Z 00000MPS CAVOK 11/10 Q1014 NOSIG', '上午6:00', '11.0°C', '1,014毫巴', '每小时0公里', '-', '晴空万里', '本地:', '06:00、2019年3月28日周四', '协调世界时:', '22:00、2019年3月27日周三', '来源:', 'USAF 每小时地面观测', '报告类型:', 'METAR 航空例行天气报告', '露点:', '10.0°C', '晴空万里:', '真', '上午7:00', '12°C', '1,014毫巴', '每小时0公里', '≥ 10.00公里', '晴空万里', '本地:', '07:00、2019年3月28日周四', '协调世界时:', '23:00、2019年3月27日周三', '来源:', '周期文件', '趋势:', '无重要变化', '露点:', '10°C', '晴空万里:', '真', '原始:', 'ZUUU 272300Z 00000MPS CAVOK 12/10 Q1014 NOSIG', '上午7:00', '12.0°C', '1,014毫巴', '每小时0公里', '-', '晴空万里', '本地:', '07:00、2019年3月28日周四', '协调世界时:', '23:00、2019年3月27日周三', '来源:', 'USAF 每小时地面观测', '报告类型:', 'METAR 航空例行天气报告', '露点:', '10.0°C', '晴空万里:', '真', '上午8:00', '13°C', '1,014毫巴', '每小时0公里', '≥ 10.00公里', '晴空万里', '本地:', '08:00、2019年3月28日周四', '协调世界时:', '00:00、2019年3月28日周四', '来源:', '周期文件', '趋势:', '无重要变化', '露点:', '12°C', '晴空万里:', '真', '原始:', 'ZUUU 280000Z 00000MPS CAVOK 13/12 Q1014 NOSIG', '上午8:00', '13.0°C', '1,014毫巴', '每小时0公里', '-', '晴空万里', '本地:', '08:00、2019年3月28日周四', '协调世界时:', '00:00、2019年3月28日周四', '来源:', 'USAF 每小时地面观测', '报告类型:', 'METAR 航空例行天气报告', '露点:', '12.0°C', '晴空万里:', '真', '上午9:00', '17°C', '1,015毫巴', '每小时7.20公里', '≥ 10.00公里', '晴空万里', '本地:', '09:00、2019年3月28日周四', '协调世界时:', '01:00、2019年3月28日周四', '来源:', '周期文件', '趋势:', '无重要变化', '露点:', '13°C', '晴空万里:', '真', '原始:', 'ZUUU 280100Z VRB02MPS CAVOK 17/13 Q1015 NOSIG', '上午9:00', '17.0°C', '1,015毫巴', '每小时7.20公里', '-', '晴空万里', '本地:', '09:00、2019年3月28日周四', '协调世界时:', '01:00、2019年3月28日周四', '来源:', 'USAF 每小时地面观测', '报告类型:', 'METAR 航空例行天气报告', '露点:', '13.0°C', '晴空万里:', '真', '上午10:00', '19°C', '1,015毫巴', '每小时7.20公里', '≥ 10.00公里', '晴空万里', '本地:', '10:00、2019年3月28日周四', '协调世界时:', '02:00、2019年3月28日周四', '来源:', '周期文件', '趋势:', '无重要变化', '露点:', '12°C', '晴空万里:', '真', '原始:', 'ZUUU 280200Z VRB02MPS CAVOK 19/12 Q1015 NOSIG', '上午10:00', '19.0°C', '1,015毫巴', '每小时7.20公里', '-', '晴空万里', '本地:', '10:00、2019年3月28日周四', '协调世界时:', '02:00、2019年3月28日周四', '来源:', 'USAF 每小时地面观测', '报告类型:', 'METAR 航空例行天气报告', '露点:', '12.0°C', '晴空万里:', '真', '上午11:00', '21°C', '1,015毫巴', '每小时7.20公里, 西南', '≥ 10.00公里', '晴空万里', '本地:', '11:00、2019年3月28日周四', '协调世界时:', '03:00、2019年3月28日周四', '来源:', '周期文件', '趋势:', '无重要变化', '露点:', '11°C', '晴空万里:', '真', '原始:', 'ZUUU 280300Z 21002MPS 130V270 CAVOK 21/11 Q1015 NOSIG', '上午11:00', '21.0°C', '1,015毫巴', '每小时7.20公里, 西南', '-', '晴空万里', '本地:', '11:00、2019年3月28日周四', '协调世界时:', '03:00、2019年3月28日周四', '来源:', 'USAF 每小时地面观测', '报告类型:', 'METAR 航空例行天气报告', '露点:', '11.0°C', '晴空万里:', '真', '下午12:00', '23°C', '1,014毫巴', '每小时3.60公里', '≥ 10.00公里', '晴空万里', '本地:', '12:00、2019年3月28日周四', '协调世界时:', '04:00、2019年3月28日周四', '来源:', '周期文件', '趋势:', '无重要变化', '露点:', '11°C', '晴空万里:', '真', '原始:', 'ZUUU 280400Z VRB01MPS CAVOK 23/11 Q1014 NOSIG', '下午12:00', '23.0°C', '1,014毫巴', '每小时3.60公里', '-', '晴空万里', '本地:', '12:00、2019年3月28日周四', '协调世界时:', '04:00、2019年3月28日周四', '来源:', 'USAF 每小时地面观测', '报告类型:', 'METAR 航空例行天气报告', '露点:', '11.0°C', '晴空万里:', '真', '下午1:00', '25°C', '1,013毫巴', '每小时14.4公里, 南', '≥ 10.00公里', '晴空万里', '本地:', '13:00、2019年3月28日周四', '协调世界时:', '05:00、2019年3月28日周四', '来源:', '周期文件', '趋势:', '无重要变化', '露点:', '10°C', '晴空万里:', '真', '原始:', 'ZUUU 280500Z 20004MPS 150V260 CAVOK 25/10 Q1013 NOSIG', '下午1:00', '25.0°C', '1,013毫巴', '每小时14.4公里, 南', '-', '晴空万里', '本地:', '13:00、2019年3月28日周四', '协调世界时:', '05:00、2019年3月28日周四', '来源:', 'USAF 每小时地面观测', '报告类型:', 'METAR 航空例行天气报告', '露点:', '10.0°C', '晴空万里:', '真', '下午2:00', '26°C', '1,011毫巴', '每小时14.4公里, 南', '≥ 10.00公里', '晴空万里', '本地:', '14:00、2019年3月28日周四', '协调世界时:', '06:00、2019年3月28日周四', '来源:', '周期文件', '趋势:', '无重要变化', '露点:', '8°C', '晴空万里:', '真', '原始:', 'ZUUU 280600Z 20004MPS 150V230 CAVOK 26/08 Q1011 NOSIG', '下午2:00', '26.0°C', '1,011毫巴', '每小时14.4公里, 南', '-', '晴空万里', '本地:', '14:00、2019年3月28日周四', '协调世界时:', '06:00、2019年3月28日周四', '来源:', 'USAF 每小时地面观测', '报告类型:', 'METAR 航空例行天气报告', '露点:', '8.0°C', '晴空万里:', '真', '下午3:00', '27°C', '1,010毫巴', '每小时10.8公里, 南', '≥ 10.00公里', '晴空万里', '本地:', '15:00、2019年3月28日周四', '协调世界时:', '07:00、2019年3月28日周四', '来源:', '周期文件', '趋势:', '无重要变化', '露点:', '10°C', '晴空万里:', '真', '原始:', 'ZUUU 280700Z 19003MPS 130V250 CAVOK 27/10 Q1010 NOSIG', '下午3:00', '27.0°C', '1,010毫巴', '每小时10.8公里, 南', '-', '晴空万里', '本地:', '15:00、2019年3月28日周四', '协调世界时:', '07:00、2019年3月28日周四', '来源:', 'USAF 每小时地面观测', '报告类型:', 'METAR 航空例行天气报告', '露点:', '10.0°C', '晴空万里:', '真', '下午4:00', '28°C', '1,008毫巴', '每小时7.20公里, 南', '≥ 10.00公里', '晴空万里', '本地:', '16:00、2019年3月28日周四', '协调世界时:', '08:00、2019年3月28日周四', '来源:', '周期文件', '趋势:', '无重要变化', '露点:', '8°C', '晴空万里:', '真', '原始:', 'ZUUU 280800Z 20002MPS 140V270 CAVOK 28/08 Q1008 NOSIG', '下午4:00', '28.0°C', '1,008毫巴', '每小时7.20公里, 南', '-', '晴空万里', '本地:', '16:00、2019年3月28日周四', '协调世界时:', '08:00、2019年3月28日周四', '来源:', 'USAF 每小时地面观测', '报告类型:', 'METAR 航空例行天气报告', '露点:', '8.0°C', '晴空万里:', '真', '下午5:00', '28°C', '1,008毫巴', '每小时10.8公里, 东', '≥ 10.00公里', '晴空万里', '本地:', '17:00、2019年3月28日周四', '协调世界时:', '09:00、2019年3月28日周四', '来源:', '周期文件', '趋势:', '无重要变化', '露点:', '11°C', '晴空万里:', '真', '原始:', 'ZUUU 280900Z 11003MPS 060V140 CAVOK 28/11 Q1008 NOSIG', '下午5:00', '28.0°C', '1,008毫巴', '每小时10.8公里, 东', '-', '晴空万里', '本地:', '17:00、2019年3月28日周四', '协调世界时:', '09:00、2019年3月28日周四', '来源:', 'USAF 每小时地面观测', '报告类型:', 'METAR 航空例行天气报告', '露点:', '11.0°C', '晴空万里:', '真', '下午6:00', '27°C', '1,008毫巴', '每小时10.8公里, 东南', '≥ 10.00公里', '晴空万里', '本地:', '18:00、2019年3月28日周四', '协调世界时:', '10:00、2019年3月28日周四', '来源:', '周期文件', '趋势:', '无重要变化', '露点:', '8°C', '晴空万里:', '真', '原始:', 'ZUUU 281000Z 15003MPS 090V220 CAVOK 27/08 Q1008 NOSIG', '下午6:00', '27.0°C', '1,008毫巴', '每小时10.8公里, 东南', '-', '晴空万里', '本地:', '18:00、2019年3月28日周四', '协调世界时:', '10:00、2019年3月28日周四', '来源:', 'USAF 每小时地面观测', '报告类型:', 'METAR 航空例行天气报告', '露点:', '8.0°C', '晴空万里:', '真', '下午7:00', '26°C', '1,008毫巴', '每小时10.8公里, 东南', '≥ 10.00公里', '晴空万里', '本地:', '19:00、2019年3月28日周四', '协调世界时:', '11:00、2019年3月28日周四', '来源:', '周期文件', '趋势:', '无重要变化', '露点:', '8°C', '晴空万里:', '真', '原始:', 'ZUUU 281100Z 14003MPS CAVOK 26/08 Q1008 NOSIG', '下午7:00', '26.0°C', '1,008毫巴', '每小时10.8公里, 东南', '-', '晴空万里', '本地:', '19:00、2019年3月28日周四', '协调世界时:', '11:00、2019年3月28日周四', '来源:', 'USAF 每小时地面观测', '报告类型:', 'METAR 航空例行天气报告', '露点:', '8.0°C', '晴空万里:', '真', '下午8:00', '25°C', '1,009毫巴', '每小时7.20公里, 东南', '≥ 10.00公里', '晴空万里', '本地:', '20:00、2019年3月28日周四', '协调世界时:', '12:00、2019年3月28日周四', '来源:', '周期文件', '趋势:', '无重要变化', '露点:', '9°C', '晴空万里:', '真', '原始:', 'ZUUU 281200Z 12002MPS 060V180 CAVOK 25/09 Q1009 NOSIG', '下午8:00', '25.0°C', '1,009毫巴', '每小时7.20公里, 东南', '-', '晴空万里', '本地:', '20:00、2019年3月28日周四', '协调世界时:', '12:00、2019年3月28日周四', '来源:', 'USAF 每小时地面观测', '报告类型:', 'METAR 航空例行天气报告', '露点:', '9.0°C', '晴空万里:', '真', '下午9:00', '23°C', '1,010毫巴', '每小时10.8公里, 东南', '≥ 10.00公里', '晴空万里', '本地:', '21:00、2019年3月28日周四', '协调世界时:', '13:00、2019年3月28日周四', '来源:', '周期文件', '趋势:', '无重要变化', '露点:', '10°C', '晴空万里:', '真', '原始:', 'ZUUU 281300Z 13003MPS 060V140 CAVOK 23/10 Q1010 NOSIG', '下午9:00', '23.0°C', '1,010毫巴', '每小时10.8公里, 东南', '-', '晴空万里', '本地:', '21:00、2019年3月28日周四', '协调世界时:', '13:00、2019年3月28日周四', '来源:', 'USAF 每小时地面观测', '报告类型:', 'METAR 航空例行天气报告', '露点:', '10.0°C', '晴空万里:', '真', '下午10:00', '22°C', '1,011毫巴', '每小时7.20公里, 东南', '≥ 10.00公里', '晴空万里', '本地:', '22:00、2019年3月28日周四', '协调世界时:', '14:00、2019年3月28日周四', '来源:', '周期文件', '趋势:', '无重要变化', '露点:', '11°C', '晴空万里:', '真', '原始:', 'ZUUU 281400Z 14002MPS 090V200 CAVOK 22/11 Q1011 NOSIG', '下午10:00', '22.0°C', '1,011毫巴', '每小时7.20公里, 东南', '-', '晴空万里', '本地:', '22:00、2019年3月28日周四', '协调世界时:', '14:00、2019年3月28日周四', '来源:', 'USAF 每小时地面观测', '报告类型:', 'METAR 航空例行天气报告', '露点:', '11.0°C', '晴空万里:', '真', '下午11:00', '22°C', '1,010毫巴', '每小时3.60公里', '≥ 10.00公里', '晴空万里', '本地:', '23:00、2019年3月28日周四', '协调世界时:', '15:00、2019年3月28日周四', '来源:', '周期文件', '趋势:', '无重要变化', '露点:', '10°C', '晴空万里:', '真', '原始:', 'ZUUU 281500Z VRB01MPS CAVOK 22/10 Q1010 NOSIG', '下午11:00', '22.0°C', '1,010毫巴', '每小时3.60公里', '-', '晴空万里', '本地:', '23:00、2019年3月28日周四', '协调世界时:', '15:00、2019年3月28日周四', '来源:', 'USAF 每小时地面观测', '报告类型:', 'METAR 航空例行天气报告', '露点:', '10.0°C', '晴空万里:', '真']