['Mist', 'BR、IWC10', 'Mist', 'BR、IWC10', 'Mist', 'BR、IWC10', 'Mist', 'BR、IWC10', 'Mist', 'BR、IWC10', 'Mist', 'BR、IWC10', 'Mist', 'BR、IWC10', 'Mist', 'BR、IWC10', 'Mist', 'BR、IWC10', 'Mist', 'BR、IWC10', 'Mist', 'BR、IWC10', 'Mist', 'BR、IWC10', 'Haze', 'HZ、IWC05', 'Haze', 'HZ、IWC05', 'Haze', 'HZ、IWC05', '上午12:00', '8°C', '1,025毫巴', '每小时10.8公里, 北', '4.00公里', '无重要云', '本地:', '00:00、2019年12月30日周一', '协调世界时:', '16:00、2019年12月29日周日', '来源:', '周期文件', '趋势:', '无重要变化', '露点:', '5°C', '天气:', 'Mist', '原始:', 'ZUUU 291600Z 02003MPS 4000 BR NSC 08/05 Q1025 NOSIG', '上午12:00', '8.0°C', '1,025毫巴', '每小时10.8公里, 北', '4.00公里', '未检测到云', '本地:', '00:00、2019年12月30日周一', '协调世界时:', '16:00、2019年12月29日周日', '来源:', 'USAF 每小时地面观测', '报告类型:', 'METAR 航空例行天气报告', '露点:', '5.0°C', '天气:', 'Mist', '上午1:00', '8°C', '1,025毫巴', '每小时7.20公里, 北', '4.00公里', '无重要云', '本地:', '01:00、2019年12月30日周一', '协调世界时:', '17:00、2019年12月29日周日', '来源:', '周期文件', '趋势:', '无重要变化', '露点:', '5°C', '天气:', 'Mist', '原始:', 'ZUUU 291700Z 01002MPS 340V040 4000 BR NSC 08/05 Q1025 NOSIG', '上午1:00', '8.0°C', '1,025毫巴', '每小时7.20公里, 北', '4.00公里', '未检测到云', '本地:', '01:00、2019年12月30日周一', '协调世界时:', '17:00、2019年12月29日周日', '来源:', 'USAF 每小时地面观测', '报告类型:', 'METAR 航空例行天气报告', '露点:', '5.0°C', '天气:', 'Mist', '上午2:00', '8°C', '1,025毫巴', '每小时7.20公里, 北', '4.00公里', '无重要云', '本地:', '02:00、2019年12月30日周一', '协调世界时:', '18:00、2019年12月29日周日', '来源:', '周期文件', '趋势:', '无重要变化', '露点:', '5°C', '天气:', 'Mist', '原始:', 'ZUUU 291800Z 36002MPS 320V040 4000 BR NSC 08/05 Q1025 NOSIG', '上午2:00', '8.0°C', '1,025毫巴', '每小时7.20公里, 北', '4.00公里', '未检测到云', '本地:', '02:00、2019年12月30日周一', '协调世界时:', '18:00、2019年12月29日周日', '来源:', 'USAF 每小时地面观测', '报告类型:', 'METAR 航空例行天气报告', '露点:', '5.0°C', '天气:', 'Mist', '上午3:00', '8°C', '1,025毫巴', '每小时3.60公里', '4.00公里', '无重要云', '本地:', '03:00、2019年12月30日周一', '协调世界时:', '19:00、2019年12月29日周日', '来源:', '周期文件', '趋势:', '无重要变化', '露点:', '5°C', '天气:', 'Mist', '原始:', 'ZUUU 291900Z VRB01MPS 4000 BR NSC 08/05 Q1025 NOSIG', '上午3:00', '8.0°C', '1,025毫巴', '每小时3.60公里', '4.00公里', '未检测到云', '本地:', '03:00、2019年12月30日周一', '协调世界时:', '19:00、2019年12月29日周日', '来源:', 'USAF 每小时地面观测', '报告类型:', 'METAR 航空例行天气报告', '露点:', '5.0°C', '天气:', 'Mist', '上午4:00', '8°C', '1,025毫巴', '每小时3.60公里', '4.50公里', '无重要云', '本地:', '04:00、2019年12月30日周一', '协调世界时:', '20:00、2019年12月29日周日', '来源:', '周期文件', '趋势:', '无重要变化', '露点:', '5°C', '天气:', 'Mist', '原始:', 'ZUUU 292000Z VRB01MPS 4500 BR NSC 08/05 Q1025 NOSIG', '上午4:00', '8.0°C', '1,025毫巴', '每小时3.60公里', '4.50公里', '未检测到云', '本地:', '04:00、2019年12月30日周一', '协调世界时:', '20:00、2019年12月29日周日', '来源:', 'USAF 每小时地面观测', '报告类型:', 'METAR 航空例行天气报告', '露点:', '5.0°C', '天气:', 'Mist', '上午5:00', '8°C', '1,025毫巴', '每小时0公里', '4.50公里', '无重要云', '本地:', '05:00、2019年12月30日周一', '协调世界时:', '21:00、2019年12月29日周日', '来源:', '周期文件', '趋势:', '无重要变化', '露点:', '5°C', '天气:', 'Mist', '原始:', 'ZUUU 292100Z 00000MPS 4500 BR NSC 08/05 Q1025 NOSIG', '上午5:00', '8.0°C', '1,025毫巴', '每小时0公里', '4.50公里', '未检测到云', '本地:', '05:00、2019年12月30日周一', '协调世界时:', '21:00、2019年12月29日周日', '来源:', 'USAF 每小时地面观测', '报告类型:', 'METAR 航空例行天气报告', '露点:', '5.0°C', '天气:', 'Mist', '上午6:00', '8°C', '1,026毫巴', '每小时3.60公里', '4.50公里', '无重要云', '本地:', '06:00、2019年12月30日周一', '协调世界时:', '22:00、2019年12月29日周日', '来源:', '周期文件', '趋势:', '无重要变化', '露点:', '5°C', '天气:', 'Mist', '原始:', 'ZUUU 292200Z VRB01MPS 4500 BR NSC 08/05 Q1026 NOSIG', '上午6:00', '8.0°C', '1,026毫巴', '每小时3.60公里', '4.50公里', '未检测到云', '本地:', '06:00、2019年12月30日周一', '协调世界时:', '22:00、2019年12月29日周日', '来源:', 'USAF 每小时地面观测', '报告类型:', 'METAR 航空例行天气报告', '露点:', '5.0°C', '天气:', 'Mist', '上午7:00', '8°C', '1,026毫巴', '每小时7.20公里, 西', '4.50公里', '无重要云', '本地:', '07:00、2019年12月30日周一', '协调世界时:', '23:00、2019年12月29日周日', '来源:', '周期文件', '趋势:', '无重要变化', '露点:', '5°C', '天气:', 'Mist', '原始:', 'ZUUU 292300Z 29002MPS 230V030 4500 BR NSC 08/05 Q1026 NOSIG', '上午7:00', '8.0°C', '1,026毫巴', '每小时7.20公里, 西', '4.50公里', '未检测到云', '本地:', '07:00、2019年12月30日周一', '协调世界时:', '23:00、2019年12月29日周日', '来源:', 'USAF 每小时地面观测', '报告类型:', 'METAR 航空例行天气报告', '露点:', '5.0°C', '天气:', 'Mist', '上午8:00', '5°C', '1,027毫巴', '每小时3.60公里, 西南', '3.50公里', '无重要云', '本地:', '08:00、2019年12月30日周一', '协调世界时:', '00:00、2019年12月30日周一', '来源:', '周期文件', '趋势:', '无重要变化', '露点:', '4°C', '天气:', 'Mist', '原始:', 'ZUUU 300000Z 23001MPS 3500 BR NSC 05/04 Q1027 NOSIG', '上午8:00', '5.0°C', '1,027毫巴', '每小时3.60公里, 西南', '3.50公里', '未检测到云', '本地:', '08:00、2019年12月30日周一', '协调世界时:', '00:00、2019年12月30日周一', '来源:', 'USAF 每小时地面观测', '报告类型:', 'METAR 航空例行天气报告', '露点:', '4.0°C', '天气:', 'Mist', '上午9:00', '6°C', '1,028毫巴', '每小时7.20公里, 西南', '3.00公里', '无重要云', '本地:', '09:00、2019年12月30日周一', '协调世界时:', '01:00、2019年12月30日周一', '来源:', '周期文件', '趋势:', '无重要变化', '露点:', '5°C', '天气:', 'Mist', '原始:', 'ZUUU 300100Z 23002MPS 3000 BR NSC 06/05 Q1028 NOSIG', '上午9:00', '6.0°C', '1,028毫巴', '每小时7.20公里, 西南', '3.00公里', '未检测到云', '本地:', '09:00、2019年12月30日周一', '协调世界时:', '01:00、2019年12月30日周一', '来源:', 'USAF 每小时地面观测', '报告类型:', 'METAR 航空例行天气报告', '露点:', '5.0°C', '天气:', 'Mist', '上午10:00', '8°C', '1,029毫巴', '每小时7.20公里, 西南', '3.00公里', '无重要云', '本地:', '10:00、2019年12月30日周一', '协调世界时:', '02:00、2019年12月30日周一', '来源:', '周期文件', '趋势:', '无重要变化', '露点:', '6°C', '天气:', 'Mist', '原始:', 'ZUUU 300200Z 24002MPS 210V280 3000 BR NSC 08/06 Q1029 NOSIG', '上午10:00', '8.0°C', '1,029毫巴', '每小时7.20公里, 西南', '3.00公里', '未检测到云', '本地:', '10:00、2019年12月30日周一', '协调世界时:', '02:00、2019年12月30日周一', '来源:', 'USAF 每小时地面观测', '报告类型:', 'METAR 航空例行天气报告', '露点:', '6.0°C', '天气:', 'Mist', '上午11:00', '10°C', '1,029毫巴', '每小时10.8公里, 西南', '3.20公里', '无重要云', '本地:', '11:00、2019年12月30日周一', '协调世界时:', '03:00、2019年12月30日周一', '来源:', '周期文件', '趋势:', '无重要变化', '露点:', '6°C', '天气:', 'Mist', '原始:', 'ZUUU 300300Z 24003MPS 210V270 3200 BR NSC 10/06 Q1029 NOSIG', '上午11:00', '10.0°C', '1,029毫巴', '每小时10.8公里, 西南', '3.20公里', '未检测到云', '本地:', '11:00、2019年12月30日周一', '协调世界时:', '03:00、2019年12月30日周一', '来源:', 'USAF 每小时地面观测', '报告类型:', 'METAR 航空例行天气报告', '露点:', '6.0°C', '天气:', 'Mist', '下午12:00', '12°C', '1,029毫巴', '每小时7.20公里, 西南', '3.50公里', '无重要云', '本地:', '12:00、2019年12月30日周一', '协调世界时:', '04:00、2019年12月30日周一', '来源:', '周期文件', '趋势:', '无重要变化', '露点:', '4°C', '天气:', 'Haze', '原始:', 'ZUUU 300400Z 21002MPS 160V270 3500 HZ NSC 12/04 Q1029 NOSIG', '下午12:00', '12.0°C', '1,029毫巴', '每小时7.20公里, 西南', '3.50公里', '未检测到云', '本地:', '12:00、2019年12月30日周一', '协调世界时:', '04:00、2019年12月30日周一', '来源:', 'USAF 每小时地面观测', '报告类型:', 'METAR 航空例行天气报告', '露点:', '4.0°C', '天气:', 'Haze', '下午1:00', '14°C', '1,027毫巴', '每小时3.60公里', '4.00公里', '无重要云', '本地:', '13:00、2019年12月30日周一', '协调世界时:', '05:00、2019年12月30日周一', '来源:', '周期文件', '趋势:', '无重要变化', '露点:', '3°C', '天气:', 'Haze', '原始:', 'ZUUU 300500Z VRB01MPS 4000 HZ NSC 14/03 Q1027 NOSIG', '下午1:00', '14.0°C', '1,027毫巴', '每小时3.60公里', '4.00公里', '未检测到云', '本地:', '13:00、2019年12月30日周一', '协调世界时:', '05:00、2019年12月30日周一', '来源:', 'USAF 每小时地面观测', '报告类型:', 'METAR 航空例行天气报告', '露点:', '3.0°C', '天气:', 'Haze', '下午2:00', '13°C', '1,026毫巴', '每小时7.20公里', '5.00公里', '大部分晴天 (792米)', '本地:', '14:00、2019年12月30日周一', '协调世界时:', '06:00、2019年12月30日周一', '来源:', '周期文件', '趋势:', '无重要变化', '露点:', '2°C', '天气:', 'Haze', '原始:', 'ZUUU 300600Z VRB02MPS 5000 HZ FEW026 13/02 Q1026 NOSIG', '下午2:00', '13.0°C', '1,026毫巴', '每小时7.20公里', '5.00公里', '大部分晴天 (792米)', '本地:', '14:00、2019年12月30日周一', '协调世界时:', '06:00、2019年12月30日周一', '来源:', 'USAF 每小时地面观测', '报告类型:', 'METAR 航空例行天气报告', '露点:', '2.0°C', '天气:', 'Haze', '下午3:00', '15°C', '1,026毫巴', '每小时3.60公里', '7.00公里', '部分多云 (792米)', '本地:', '15:00、2019年12月30日周一', '协调世界时:', '07:00、2019年12月30日周一', '来源:', '周期文件', '趋势:', '无重要变化', '露点:', '0°C', '原始:', 'ZUUU 300700Z VRB01MPS 7000 SCT026 15/M00 Q1026 NOSIG', '下午3:00', '15.0°C', '1,026毫巴', '每小时3.60公里', '7.00公里', '部分多云 (792米)', '本地:', '15:00、2019年12月30日周一', '协调世界时:', '07:00、2019年12月30日周一', '来源:', 'USAF 每小时地面观测', '报告类型:', 'METAR 航空例行天气报告', '露点:', '0.0°C', '下午4:00', '14°C', '1,025毫巴', '每小时7.20公里, 东南', '8.00公里', '部分多云 (792米)', '本地:', '16:00、2019年12月30日周一', '协调世界时:', '08:00、2019年12月30日周一', '来源:', '周期文件', '趋势:', '无重要变化', '露点:', '0°C', '原始:', 'ZUUU 300800Z 12002MPS 040V170 8000 SCT026 14/00 Q1025 NOSIG', '下午4:00', '14.0°C', '1,025毫巴', '每小时7.20公里, 东南', '8.00公里', '部分多云 (792米)', '本地:', '16:00、2019年12月30日周一', '协调世界时:', '08:00、2019年12月30日周一', '来源:', 'USAF 每小时地面观测', '报告类型:', 'METAR 航空例行天气报告', '露点:', '0.0°C', '下午5:00', '14°C', '1,026毫巴', '每小时7.20公里, 东', '8.00公里', '无重要云', '本地:', '17:00、2019年12月30日周一', '协调世界时:', '09:00、2019年12月30日周一', '来源:', '周期文件', '趋势:', '无重要变化', '露点:', '0°C', '原始:', 'ZUUU 300900Z 11002MPS 050V180 8000 NSC 14/00 Q1026 NOSIG', '下午5:00', '14.0°C', '1,026毫巴', '每小时7.20公里, 东', '8.00公里', '未检测到云', '本地:', '17:00、2019年12月30日周一', '协调世界时:', '09:00、2019年12月30日周一', '来源:', 'USAF 每小时地面观测', '报告类型:', 'METAR 航空例行天气报告', '露点:', '0.0°C', '下午6:00', '12°C', '1,027毫巴', '每小时10.8公里, 南', '7.00公里', '无重要云', '本地:', '18:00、2019年12月30日周一', '协调世界时:', '10:00、2019年12月30日周一', '来源:', '周期文件', '趋势:', '无重要变化', '露点:', '3°C', '原始:', 'ZUUU 301000Z 16003MPS 060V200 7000 NSC 12/03 Q1027 NOSIG', '下午6:00', '12.0°C', '1,027毫巴', '每小时10.8公里, 南', '7.00公里', '未检测到云', '本地:', '18:00、2019年12月30日周一', '协调世界时:', '10:00、2019年12月30日周一', '来源:', 'USAF 每小时地面观测', '报告类型:', 'METAR 航空例行天气报告', '露点:', '3.0°C', '下午7:00', '11°C', '1,028毫巴', '每小时7.20公里, 东南', '7.00公里', '无重要云', '本地:', '19:00、2019年12月30日周一', '协调世界时:', '11:00、2019年12月30日周一', '来源:', '周期文件', '趋势:', '无重要变化', '露点:', '3°C', '原始:', 'ZUUU 301100Z 13002MPS 090V160 7000 NSC 11/03 Q1028 NOSIG', '下午7:00', '11.0°C', '1,028毫巴', '每小时7.20公里, 东南', '7.00公里', '未检测到云', '本地:', '19:00、2019年12月30日周一', '协调世界时:', '11:00、2019年12月30日周一', '来源:', 'USAF 每小时地面观测', '报告类型:', 'METAR 航空例行天气报告', '露点:', '3.0°C', '下午8:00', '11°C', '1,029毫巴', '每小时7.20公里, 东南', '7.00公里', '无重要云', '本地:', '20:00、2019年12月30日周一', '协调世界时:', '12:00、2019年12月30日周一', '来源:', '周期文件', '趋势:', '无重要变化', '露点:', '3°C', '原始:', 'ZUUU 301200Z 13002MPS 050V210 7000 NSC 11/03 Q1029 NOSIG', '下午8:00', '11.0°C', '1,029毫巴', '每小时7.20公里, 东南', '7.00公里', '未检测到云', '本地:', '20:00、2019年12月30日周一', '协调世界时:', '12:00、2019年12月30日周一', '来源:', 'USAF 每小时地面观测', '报告类型:', 'METAR 航空例行天气报告', '露点:', '3.0°C', '下午9:00', '11°C', '1,030毫巴', '每小时7.20公里, 东南', '7.00公里', '无重要云', '本地:', '21:00、2019年12月30日周一', '协调世界时:', '13:00、2019年12月30日周一', '来源:', '周期文件', '趋势:', '无重要变化', '露点:', '3°C', '原始:', 'ZUUU 301300Z 13002MPS 070V150 7000 NSC 11/03 Q1030 NOSIG', '下午9:00', '11.0°C', '1,030毫巴', '每小时7.20公里, 东南', '7.00公里', '未检测到云', '本地:', '21:00、2019年12月30日周一', '协调世界时:', '13:00、2019年12月30日周一', '来源:', 'USAF 每小时地面观测', '报告类型:', 'METAR 航空例行天气报告', '露点:', '3.0°C', '下午10:00', '10°C', '1,030毫巴', '每小时7.20公里', '7.00公里', '无重要云', '本地:', '22:00、2019年12月30日周一', '协调世界时:', '14:00、2019年12月30日周一', '来源:', '周期文件', '趋势:', '无重要变化', '露点:', '3°C', '原始:', 'ZUUU 301400Z VRB02MPS 7000 NSC 10/03 Q1030 NOSIG', '下午10:00', '10.0°C', '1,030毫巴', '每小时7.20公里', '7.00公里', '未检测到云', '本地:', '22:00、2019年12月30日周一', '协调世界时:', '14:00、2019年12月30日周一', '来源:', 'USAF 每小时地面观测', '报告类型:', 'METAR 航空例行天气报告', '露点:', '3.0°C', '下午11:00', '10°C', '1,030毫巴', '每小时7.20公里, 东南', '7.00公里', '无重要云', '本地:', '23:00、2019年12月30日周一', '协调世界时:', '15:00、2019年12月30日周一', '来源:', '周期文件', '趋势:', '无重要变化', '露点:', '3°C', '原始:', 'ZUUU 301500Z 13002MPS 070V220 7000 NSC 10/03 Q1030 NOSIG', '下午11:00', '10.0°C', '1,030毫巴', '每小时7.20公里, 东南', '7.00公里', '未检测到云', '本地:', '23:00、2019年12月30日周一', '协调世界时:', '15:00、2019年12月30日周一', '来源:', 'USAF 每小时地面观测', '报告类型:', 'METAR 航空例行天气报告', '露点:', '3.0°C']