['Showers of Light Rain、Mist', '-SHRA、IWC80、BR、IWC10', 'Showers of Light Rain、Mist', '-SHRA、IWC80、BR、IWC10', 'Showers of Light Rain、Mist', '-SHRA、IWC80、BR、IWC10', 'Showers of Light Rain、Mist', '-SHRA、IWC80、BR、IWC10', 'Showers of Light Rain、Mist', '-SHRA、IWC80、BR、IWC10', 'Showers of Light Rain、Mist', '-SHRA、IWC80、BR、IWC10', 'Showers of Light Rain、Mist', '-SHRA、IWC80、BR、IWC10', 'Showers of Light Rain', '-SHRA、IWC80', '上午12:00', '19°C', '1,020毫巴', '每小时7.20公里, 北', '10.00公里', '部分多云 (1,524米)', '本地:', '00:00、2019年9月19日周四', '协调世界时:', '16:00、2019年9月18日周三', '来源:', '周期文件', '趋势:', '无重要变化', '露点:', '16°C', '原始:', 'ZUUU 181600Z 01002MPS 9999 SCT050 19/16 Q1020 NOSIG', '上午12:00', '19.0°C', '1,020毫巴', '每小时7.20公里, 北', '10.00公里', '部分多云 (1,524米)', '本地:', '00:00、2019年9月19日周四', '协调世界时:', '16:00、2019年9月18日周三', '来源:', 'USAF 每小时地面观测', '报告类型:', 'METAR 航空例行天气报告', '露点:', '16.0°C', '上午1:00', '19°C', '1,020毫巴', '每小时3.60公里', '10.00公里', '部分多云 (1,524米)', '本地:', '01:00、2019年9月19日周四', '协调世界时:', '17:00、2019年9月18日周三', '来源:', '周期文件', '趋势:', '无重要变化', '露点:', '16°C', '原始:', 'ZUUU 181700Z VRB01MPS 9999 SCT050 19/16 Q1020 NOSIG', '上午1:00', '19.0°C', '1,020毫巴', '每小时3.60公里', '10.00公里', '部分多云 (1,524米)', '本地:', '01:00、2019年9月19日周四', '协调世界时:', '17:00、2019年9月18日周三', '来源:', 'USAF 每小时地面观测', '报告类型:', 'METAR 航空例行天气报告', '露点:', '16.0°C', '上午2:00', '19°C', '1,019毫巴', '每小时7.20公里, 北', '10.00公里', '部分多云 (1,219米)', '本地:', '02:00、2019年9月19日周四', '协调世界时:', '18:00、2019年9月18日周三', '来源:', '周期文件', '趋势:', '无重要变化', '露点:', '16°C', '其他云层:', '大部分晴天 (335米)', '原始:', 'ZUUU 181800Z 36002MPS 330V040 9999 FEW011 SCT040 19/16 Q1019 NOSIG', '上午2:00', '19.0°C', '1,019毫巴', '每小时7.20公里, 北', '10.00公里', '部分多云 (1,219米)', '本地:', '02:00、2019年9月19日周四', '协调世界时:', '18:00、2019年9月18日周三', '来源:', 'USAF 每小时地面观测', '报告类型:', 'METAR 航空例行天气报告', '露点:', '16.0°C', '其他云层:', '大部分晴天 (335米)', '上午3:00', '19°C', '1,019毫巴', '每小时7.20公里, 北', '10.00公里', '部分多云 (1,219米)', '本地:', '03:00、2019年9月19日周四', '协调世界时:', '19:00、2019年9月18日周三', '来源:', '周期文件', '趋势:', '无重要变化', '露点:', '17°C', '其他云层:', '大部分晴天 (335米)', '原始:', 'ZUUU 181900Z 01002MPS 9999 FEW011 SCT040 19/17 Q1019 NOSIG', '上午3:00', '19.0°C', '1,019毫巴', '每小时7.20公里, 北', '10.00公里', '部分多云 (1,219米)', '本地:', '03:00、2019年9月19日周四', '协调世界时:', '19:00、2019年9月18日周三', '来源:', 'USAF 每小时地面观测', '报告类型:', 'METAR 航空例行天气报告', '露点:', '17.0°C', '其他云层:', '大部分晴天 (335米)', '上午4:00', '19°C', '1,019毫巴', '每小时0公里', '10.00公里', '部分多云 (1,219米)', '本地:', '04:00、2019年9月19日周四', '协调世界时:', '20:00、2019年9月18日周三', '来源:', '周期文件', '趋势:', '无重要变化', '露点:', '17°C', '其他云层:', '大部分晴天 (335米)', '原始:', 'ZUUU 182000Z 00000MPS 9999 FEW011 SCT040 19/17 Q1019 NOSIG', '上午4:00', '19.0°C', '1,019毫巴', '每小时0公里', '10.00公里', '部分多云 (1,219米)', '本地:', '04:00、2019年9月19日周四', '协调世界时:', '20:00、2019年9月18日周三', '来源:', 'USAF 每小时地面观测', '报告类型:', 'METAR 航空例行天气报告', '露点:', '17.0°C', '其他云层:', '大部分晴天 (335米)', '上午5:00', '18°C', '1,019毫巴', '每小时7.20公里, 北', '5.00公里', '大部分多云 (1,219米)', '本地:', '05:00、2019年9月19日周四', '协调世界时:', '21:00、2019年9月18日周三', '来源:', '周期文件', '趋势:', '变化为', '露点:', '17°C', '其他云层:', '大部分晴天 (335米)', '天气:', 'Showers of Light Rain、Mist、Showers of Light Rain', '原始:', 'ZUUU 182100Z 01002MPS 330V040 5000 -SHRA BR FEW011 BKN040 18/17 Q1019 BECMG TL2240 2500 -SHRA BR', '上午5:00', '18.0°C', '1,019毫巴', '每小时7.20公里, 北', '5.00公里', '大部分多云 (1,219米)', '本地:', '05:00、2019年9月19日周四', '协调世界时:', '21:00、2019年9月18日周三', '来源:', 'USAF 每小时地面观测', '报告类型:', 'METAR 航空例行天气报告', '露点:', '17.0°C', '其他云层:', '大部分晴天 (335米)', '天气:', 'Mist、Showers of Light Rain', '上午6:00', '18°C', '1,019毫巴', '每小时10.8公里, 北', '4.50公里', '大部分多云 (914米)', '本地:', '06:00、2019年9月19日周四', '协调世界时:', '22:00、2019年9月18日周三', '来源:', '周期文件', '趋势:', '变化为', '露点:', '17°C', '其他云层:', '大部分晴天 (335米)', '天气:', 'Showers of Light Rain、Mist、Showers of Light Rain', '原始:', 'ZUUU 182200Z 01003MPS 4500 -SHRA BR FEW011 BKN030 18/17 Q1019 BECMG TL2320 2800 -SHRA BR', '上午6:00', '18.0°C', '1,019毫巴', '每小时10.8公里, 北', '4.50公里', '大部分多云 (914米)', '本地:', '06:00、2019年9月19日周四', '协调世界时:', '22:00、2019年9月18日周三', '来源:', 'USAF 每小时地面观测', '报告类型:', 'METAR 航空例行天气报告', '露点:', '17.0°C', '其他云层:', '大部分晴天 (335米)', '天气:', 'Mist、Showers of Light Rain', '上午7:00', '18°C', '1,020毫巴', '每小时7.20公里, 北', '2.80公里', '大部分多云 (914米)', '本地:', '07:00、2019年9月19日周四', '协调世界时:', '23:00、2019年9月18日周三', '来源:', '周期文件', '趋势:', '变化为', '露点:', '17°C', '其他云层:', '部分多云 (183米)', '天气:', 'Showers of Light Rain、Mist', '原始:', 'ZUUU 182300Z 36002MPS 320V040 2800 -SHRA BR SCT006 BKN030 18/17 Q1020 BECMG TL0100 3000', '上午7:00', '18.0°C', '1,020毫巴', '每小时7.20公里, 北', '2.80公里', '大部分多云 (914米)', '本地:', '07:00、2019年9月19日周四', '协调世界时:', '23:00、2019年9月18日周三', '来源:', 'USAF 每小时地面观测', '报告类型:', 'METAR 航空例行天气报告', '露点:', '17.0°C', '其他云层:', '部分多云 (183米)', '天气:', 'Mist、Showers of Light Rain', '上午8:00', '18°C', '1,020毫巴', '每小时7.20公里, 北', '4.00公里', '大部分多云 (914米)', '本地:', '08:00、2019年9月19日周四', '协调世界时:', '00:00、2019年9月19日周四', '来源:', '周期文件', '趋势:', '无重要变化', '露点:', '17°C', '其他云层:', '大部分晴天 (183米)、部分多云 (274米)', '天气:', 'Showers of Light Rain、Mist', '原始:', 'ZUUU 190000Z 01002MPS 340V040 4000 -SHRA BR FEW006 SCT009 BKN030 18/17 Q1020 NOSIG', '上午8:00', '18.0°C', '1,020毫巴', '每小时7.20公里, 北', '4.00公里', '大部分多云 (914米)', '本地:', '08:00、2019年9月19日周四', '协调世界时:', '00:00、2019年9月19日周四', '来源:', 'USAF 每小时地面观测', '报告类型:', 'METAR 航空例行天气报告', '露点:', '17.0°C', '其他云层:', '大部分晴天 (183米)、部分多云 (274米)', '天气:', 'Mist、Showers of Light Rain', '上午9:00', '18°C', '1,021毫巴', '每小时10.8公里, 北', '5.00公里', '大部分多云 (914米)', '本地:', '09:00、2019年9月19日周四', '协调世界时:', '01:00、2019年9月19日周四', '来源:', '周期文件', '趋势:', '无重要变化', '露点:', '17°C', '其他云层:', '大部分晴天 (183米)、部分多云 (274米)', '天气:', 'Showers of Light Rain、Mist', '原始:', 'ZUUU 190100Z 01003MPS 330V030 5000 -SHRA BR FEW006 SCT009 BKN030 18/17 Q1021 NOSIG', '上午9:00', '18.0°C', '1,021毫巴', '每小时10.8公里, 北', '5.00公里', '大部分多云 (914米)', '本地:', '09:00、2019年9月19日周四', '协调世界时:', '01:00、2019年9月19日周四', '来源:', 'USAF 每小时地面观测', '报告类型:', 'METAR 航空例行天气报告', '露点:', '17.0°C', '其他云层:', '大部分晴天 (183米)、部分多云 (274米)', '天气:', 'Mist、Showers of Light Rain', '上午10:00', '18°C', '1,022毫巴', '每小时7.20公里, 北', '5.00公里', '大部分多云 (914米)', '本地:', '10:00、2019年9月19日周四', '协调世界时:', '02:00、2019年9月19日周四', '来源:', '周期文件', '趋势:', '无重要变化', '露点:', '17°C', '其他云层:', '大部分晴天 (183米)、部分多云 (274米)', '天气:', 'Showers of Light Rain、Mist', '原始:', 'ZUUU 190200Z 01002MPS 340V050 5000 -SHRA BR FEW006 SCT009 BKN030 18/17 Q1022 NOSIG', '上午10:00', '18.0°C', '1,022毫巴', '每小时7.20公里, 北', '5.00公里', '大部分多云 (914米)', '本地:', '10:00、2019年9月19日周四', '协调世界时:', '02:00、2019年9月19日周四', '来源:', 'USAF 每小时地面观测', '报告类型:', 'METAR 航空例行天气报告', '露点:', '17.0°C', '其他云层:', '大部分晴天 (183米)、部分多云 (274米)', '天气:', 'Mist、Showers of Light Rain', '上午11:00', '19°C', '1,022毫巴', '每小时7.20公里, 北', '5.00公里', '大部分多云 (914米)', '本地:', '11:00、2019年9月19日周四', '协调世界时:', '03:00、2019年9月19日周四', '来源:', '周期文件', '趋势:', '无重要变化', '露点:', '17°C', '其他云层:', '大部分晴天 (183米)、部分多云 (274米)', '天气:', 'Showers of Light Rain、Mist', '原始:', 'ZUUU 190300Z 36002MPS 320V040 5000 -SHRA BR FEW006 SCT009 BKN030 19/17 Q1022 NOSIG', '上午11:00', '19.0°C', '1,022毫巴', '每小时7.20公里, 北', '5.00公里', '大部分多云 (914米)', '本地:', '11:00、2019年9月19日周四', '协调世界时:', '03:00、2019年9月19日周四', '来源:', 'USAF 每小时地面观测', '报告类型:', 'METAR 航空例行天气报告', '露点:', '17.0°C', '其他云层:', '大部分晴天 (183米)、部分多云 (274米)', '天气:', 'Mist、Showers of Light Rain', '下午12:00', '19°C', '1,021毫巴', '每小时10.8公里, 北', '8.00公里', '大部分多云 (914米)', '本地:', '12:00、2019年9月19日周四', '协调世界时:', '04:00、2019年9月19日周四', '来源:', '周期文件', '趋势:', '无重要变化', '露点:', '18°C', '其他云层:', '大部分晴天 (183米)、部分多云 (274米)', '天气:', 'Showers of Light Rain', '原始:', 'ZUUU 190400Z 01003MPS 310V040 8000 -SHRA FEW006 SCT009 BKN030 19/18 Q1021 NOSIG', '下午12:00', '19.0°C', '1,021毫巴', '每小时10.8公里, 北', '8.00公里', '大部分多云 (914米)', '本地:', '12:00、2019年9月19日周四', '协调世界时:', '04:00、2019年9月19日周四', '来源:', 'USAF 每小时地面观测', '报告类型:', 'METAR 航空例行天气报告', '露点:', '18.0°C', '其他云层:', '大部分晴天 (183米)、部分多云 (274米)', '天气:', 'Showers of Light Rain', '下午1:00', '20°C', '1,021毫巴', '每小时10.8公里, 北', '10.00公里', '大部分多云 (914米)', '本地:', '13:00、2019年9月19日周四', '协调世界时:', '05:00、2019年9月19日周四', '来源:', '周期文件', '趋势:', '无重要变化', '露点:', '17°C', '其他云层:', '大部分晴天 (183米)、部分多云 (274米)', '原始:', 'ZUUU 190500Z 02003MPS 350V060 9999 FEW006 SCT009 BKN030 20/17 Q1021 NOSIG', '下午1:00', '20.0°C', '1,021毫巴', '每小时10.8公里, 北', '10.00公里', '大部分多云 (914米)', '本地:', '13:00、2019年9月19日周四', '协调世界时:', '05:00、2019年9月19日周四', '来源:', 'USAF 每小时地面观测', '报告类型:', 'METAR 航空例行天气报告', '露点:', '17.0°C', '其他云层:', '大部分晴天 (183米)、部分多云 (274米)', '下午2:00', '20°C', '1,021毫巴', '每小时3.60公里', '10.00公里', '大部分多云 (914米)', '本地:', '14:00、2019年9月19日周四', '协调世界时:', '06:00、2019年9月19日周四', '来源:', '周期文件', '趋势:', '无重要变化', '露点:', '17°C', '其他云层:', '大部分晴天 (183米)、部分多云 (274米)', '原始:', 'ZUUU 190600Z VRB01MPS 9999 FEW006 SCT009 BKN030 20/17 Q1021 NOSIG', '下午2:00', '20.0°C', '1,021毫巴', '每小时3.60公里', '10.00公里', '大部分多云 (914米)', '本地:', '14:00、2019年9月19日周四', '协调世界时:', '06:00、2019年9月19日周四', '来源:', 'USAF 每小时地面观测', '报告类型:', 'METAR 航空例行天气报告', '露点:', '17.0°C', '其他云层:', '大部分晴天 (183米)、部分多云 (274米)', '下午3:00', '20°C', '1,020毫巴', '每小时3.60公里', '10.00公里', '大部分多云 (1,219米)', '本地:', '15:00、2019年9月19日周四', '协调世界时:', '07:00、2019年9月19日周四', '来源:', '周期文件', '趋势:', '无重要变化', '露点:', '17°C', '其他云层:', '部分多云 (396米)', '原始:', 'ZUUU 190700Z VRB01MPS 9999 SCT013 BKN040 20/17 Q1020 NOSIG', '下午3:00', '20.0°C', '1,020毫巴', '每小时3.60公里', '10.00公里', '大部分多云 (1,219米)', '本地:', '15:00、2019年9月19日周四', '协调世界时:', '07:00、2019年9月19日周四', '来源:', 'USAF 每小时地面观测', '报告类型:', 'METAR 航空例行天气报告', '露点:', '17.0°C', '其他云层:', '部分多云 (396米)', '下午4:00', '20°C', '1,020毫巴', '每小时7.20公里, 西北', '10.00公里', '大部分多云 (792米)', '本地:', '16:00、2019年9月19日周四', '协调世界时:', '08:00、2019年9月19日周四', '来源:', '周期文件', '趋势:', '无重要变化', '露点:', '17°C', '其他云层:', '大部分晴天 (396米)', '原始:', 'ZUUU 190800Z 33002MPS 280V030 9999 FEW013 BKN026 20/17 Q1020 NOSIG', '下午4:00', '20.0°C', '1,020毫巴', '每小时7.20公里, 西北', '10.00公里', '大部分多云 (792米)', '本地:', '16:00、2019年9月19日周四', '协调世界时:', '08:00、2019年9月19日周四', '来源:', 'USAF 每小时地面观测', '报告类型:', 'METAR 航空例行天气报告', '露点:', '17.0°C', '其他云层:', '大部分晴天 (396米)', '下午5:00', '20°C', '1,020毫巴', '每小时3.60公里', '10.00公里', '部分多云 (1,219米)', '本地:', '17:00、2019年9月19日周四', '协调世界时:', '09:00、2019年9月19日周四', '来源:', '周期文件', '趋势:', '无重要变化', '露点:', '17°C', '其他云层:', '大部分晴天 (396米)', '原始:', 'ZUUU 190900Z VRB01MPS 9999 FEW013 SCT040 20/17 Q1020 NOSIG', '下午5:00', '20.0°C', '1,020毫巴', '每小时3.60公里', '10.00公里', '部分多云 (1,219米)', '本地:', '17:00、2019年9月19日周四', '协调世界时:', '09:00、2019年9月19日周四', '来源:', 'USAF 每小时地面观测', '报告类型:', 'METAR 航空例行天气报告', '露点:', '17.0°C', '其他云层:', '大部分晴天 (396米)', '下午6:00', '20°C', '1,020毫巴', '每小时7.20公里, 西北', '10.00公里', '部分多云 (1,524米)', '本地:', '18:00、2019年9月19日周四', '协调世界时:', '10:00、2019年9月19日周四', '来源:', '周期文件', '趋势:', '无重要变化', '露点:', '16°C', '原始:', 'ZUUU 191000Z 30002MPS 260V340 9999 SCT050 20/16 Q1020 NOSIG', '下午6:00', '20.0°C', '1,020毫巴', '每小时7.20公里, 西北', '10.00公里', '部分多云 (1,524米)', '本地:', '18:00、2019年9月19日周四', '协调世界时:', '10:00、2019年9月19日周四', '来源:', 'USAF 每小时地面观测', '报告类型:', 'METAR 航空例行天气报告', '露点:', '16.0°C', '下午7:00', '20°C', '1,020毫巴', '每小时0公里', '≥ 10.00公里', '晴空万里', '本地:', '19:00、2019年9月19日周四', '协调世界时:', '11:00、2019年9月19日周四', '来源:', '周期文件', '趋势:', '无重要变化', '露点:', '17°C', '晴空万里:', '真', '原始:', 'ZUUU 191100Z 00000MPS CAVOK 20/17 Q1020 NOSIG', '下午7:00', '20.0°C', '1,020毫巴', '每小时0公里', '9.90公里', '晴空万里', '本地:', '19:00、2019年9月19日周四', '协调世界时:', '11:00、2019年9月19日周四', '来源:', 'USAF 每小时地面观测', '报告类型:', 'METAR 航空例行天气报告', '露点:', '17.0°C', '晴空万里:', '真', '下午8:00', '20°C', '1,020毫巴', '每小时3.60公里', '≥ 10.00公里', '晴空万里', '本地:', '20:00、2019年9月19日周四', '协调世界时:', '12:00、2019年9月19日周四', '来源:', '周期文件', '趋势:', '无重要变化', '露点:', '17°C', '晴空万里:', '真', '原始:', 'ZUUU 191200Z VRB01MPS CAVOK 20/17 Q1020 NOSIG', '下午8:00', '20.0°C', '1,020毫巴', '每小时3.60公里', '9.90公里', '晴空万里', '本地:', '20:00、2019年9月19日周四', '协调世界时:', '12:00、2019年9月19日周四', '来源:', 'USAF 每小时地面观测', '报告类型:', 'METAR 航空例行天气报告', '露点:', '17.0°C', '晴空万里:', '真', '下午9:00', '19°C', '1,021毫巴', '每小时0公里', '≥ 10.00公里', '晴空万里', '本地:', '21:00、2019年9月19日周四', '协调世界时:', '13:00、2019年9月19日周四', '来源:', '周期文件', '趋势:', '无重要变化', '露点:', '17°C', '晴空万里:', '真', '原始:', 'ZUUU 191300Z 00000MPS CAVOK 19/17 Q1021 NOSIG', '下午9:00', '19.0°C', '1,021毫巴', '每小时0公里', '9.90公里', '晴空万里', '本地:', '21:00、2019年9月19日周四', '协调世界时:', '13:00、2019年9月19日周四', '来源:', 'USAF 每小时地面观测', '报告类型:', 'METAR 航空例行天气报告', '露点:', '17.0°C', '晴空万里:', '真', '下午10:00', '20°C', '1,021毫巴', '每小时7.20公里, 西', '10.00公里', '部分多云 (1,524米)', '本地:', '22:00、2019年9月19日周四', '协调世界时:', '14:00、2019年9月19日周四', '来源:', '周期文件', '趋势:', '无重要变化', '露点:', '17°C', '原始:', 'ZUUU 191400Z 28002MPS 230V330 9999 SCT050 20/17 Q1021 NOSIG', '下午10:00', '20.0°C', '1,021毫巴', '每小时7.20公里, 西', '10.00公里', '部分多云 (1,524米)', '本地:', '22:00、2019年9月19日周四', '协调世界时:', '14:00、2019年9月19日周四', '来源:', 'USAF 每小时地面观测', '报告类型:', 'METAR 航空例行天气报告', '露点:', '17.0°C', '下午11:00', '19°C', '1,022毫巴', '每小时7.20公里, 西北', '10.00公里', '部分多云 (1,524米)', '本地:', '23:00、2019年9月19日周四', '协调世界时:', '15:00、2019年9月19日周四', '来源:', '周期文件', '趋势:', '无重要变化', '露点:', '17°C', '原始:', 'ZUUU 191500Z 30002MPS 260V350 9999 SCT050 19/17 Q1022 NOSIG', '下午11:00', '19.0°C', '1,022毫巴', '每小时7.20公里, 西北', '10.00公里', '部分多云 (1,524米)', '本地:', '23:00、2019年9月19日周四', '协调世界时:', '15:00、2019年9月19日周四', '来源:', 'USAF 每小时地面观测', '报告类型:', 'METAR 航空例行天气报告', '露点:', '17.0°C']