['Mist', 'BR、IWC10', 'Mist', 'BR、IWC10', 'Mist', 'BR、IWC10', 'Mist', 'BR、IWC10', 'Haze', 'HZ、IWC05', 'Haze', 'HZ、IWC05', 'Haze', 'HZ、IWC05', 'Showers of Light Rain', '-SHRA、IWC80', '上午12:00', '16°C', '1,018毫巴', '每小时3.60公里, 北', '≥ 10.00公里', '晴空万里', '本地:', '00:00、2019年3月12日周二', '协调世界时:', '16:00、2019年3月11日周一', '来源:', '周期文件', '趋势:', '无重要变化', '露点:', '9°C', '晴空万里:', '真', '原始:', 'ZUUU 111600Z 34001MPS CAVOK 16/09 Q1018 NOSIG', '上午12:00', '16.0°C', '1,018毫巴', '每小时3.60公里, 北', '-', '晴空万里', '本地:', '00:00、2019年3月12日周二', '协调世界时:', '16:00、2019年3月11日周一', '来源:', 'USAF 每小时地面观测', '报告类型:', 'METAR 航空例行天气报告', '露点:', '9.0°C', '晴空万里:', '真', '上午1:00', '16°C', '1,018毫巴', '每小时0公里', '≥ 10.00公里', '晴空万里', '本地:', '01:00、2019年3月12日周二', '协调世界时:', '17:00、2019年3月11日周一', '来源:', '周期文件', '趋势:', '无重要变化', '露点:', '10°C', '晴空万里:', '真', '原始:', 'ZUUU 111700Z 00000MPS CAVOK 16/10 Q1018 NOSIG', '上午1:00', '16.0°C', '1,018毫巴', '每小时0公里', '-', '晴空万里', '本地:', '01:00、2019年3月12日周二', '协调世界时:', '17:00、2019年3月11日周一', '来源:', 'USAF 每小时地面观测', '报告类型:', 'METAR 航空例行天气报告', '露点:', '10.0°C', '晴空万里:', '真', '上午2:00', '16°C', '1,017毫巴', '每小时0公里', '8.00公里', '无重要云', '本地:', '02:00、2019年3月12日周二', '协调世界时:', '18:00、2019年3月11日周一', '来源:', '周期文件', '趋势:', '无重要变化', '露点:', '9°C', '原始:', 'ZUUU 111800Z 00000MPS 8000 NSC 16/09 Q1017 NOSIG', '上午2:00', '16.0°C', '1,017毫巴', '每小时0公里', '8.00公里', '未检测到云', '本地:', '02:00、2019年3月12日周二', '协调世界时:', '18:00、2019年3月11日周一', '来源:', 'USAF 每小时地面观测', '报告类型:', 'METAR 航空例行天气报告', '露点:', '9.0°C', '上午3:00', '15°C', '1,017毫巴', '每小时0公里', '7.00公里', '无重要云', '本地:', '03:00、2019年3月12日周二', '协调世界时:', '19:00、2019年3月11日周一', '来源:', '周期文件', '趋势:', '无重要变化', '露点:', '10°C', '原始:', 'ZUUU 111900Z 00000MPS 7000 NSC 15/10 Q1017 NOSIG', '上午3:00', '15.0°C', '1,017毫巴', '每小时0公里', '7.00公里', '未检测到云', '本地:', '03:00、2019年3月12日周二', '协调世界时:', '19:00、2019年3月11日周一', '来源:', 'USAF 每小时地面观测', '报告类型:', 'METAR 航空例行天气报告', '露点:', '10.0°C', '上午4:00', '15°C', '1,016毫巴', '每小时0公里', '7.00公里', '无重要云', '本地:', '04:00、2019年3月12日周二', '协调世界时:', '20:00、2019年3月11日周一', '来源:', '周期文件', '趋势:', '无重要变化', '露点:', '10°C', '原始:', 'ZUUU 112000Z 00000MPS 7000 NSC 15/10 Q1016 NOSIG', '上午4:00', '15.0°C', '1,016毫巴', '每小时0公里', '7.00公里', '未检测到云', '本地:', '04:00、2019年3月12日周二', '协调世界时:', '20:00、2019年3月11日周一', '来源:', 'USAF 每小时地面观测', '报告类型:', 'METAR 航空例行天气报告', '露点:', '10.0°C', '上午5:00', '14°C', '1,016毫巴', '每小时0公里', '6.00公里', '无重要云', '本地:', '05:00、2019年3月12日周二', '协调世界时:', '21:00、2019年3月11日周一', '来源:', '周期文件', '趋势:', '无重要变化', '露点:', '11°C', '原始:', 'ZUUU 112100Z 00000MPS 6000 NSC 14/11 Q1016 NOSIG', '上午5:00', '14.0°C', '1,016毫巴', '每小时0公里', '6.00公里', '未检测到云', '本地:', '05:00、2019年3月12日周二', '协调世界时:', '21:00、2019年3月11日周一', '来源:', 'USAF 每小时地面观测', '报告类型:', 'METAR 航空例行天气报告', '露点:', '11.0°C', '上午6:00', '13°C', '1,016毫巴', '每小时0公里', '6.00公里', '无重要云', '本地:', '06:00、2019年3月12日周二', '协调世界时:', '22:00、2019年3月11日周一', '来源:', '周期文件', '趋势:', '无重要变化', '露点:', '11°C', '原始:', 'ZUUU 112200Z 00000MPS 6000 NSC 13/11 Q1016 NOSIG', '上午6:00', '13.0°C', '1,016毫巴', '每小时0公里', '6.00公里', '未检测到云', '本地:', '06:00、2019年3月12日周二', '协调世界时:', '22:00、2019年3月11日周一', '来源:', 'USAF 每小时地面观测', '报告类型:', 'METAR 航空例行天气报告', '露点:', '11.0°C', '上午7:00', '14°C', '1,016毫巴', '每小时0公里', '5.00公里', '部分多云 (1,524米)', '本地:', '07:00、2019年3月12日周二', '协调世界时:', '23:00、2019年3月11日周一', '来源:', '周期文件', '趋势:', '无重要变化', '露点:', '11°C', '天气:', 'Mist', '原始:', 'ZUUU 112300Z 00000MPS 5000 BR SCT050 14/11 Q1016 NOSIG', '上午7:00', '14.0°C', '1,016毫巴', '每小时0公里', '5.00公里', '部分多云 (1,524米)', '本地:', '07:00、2019年3月12日周二', '协调世界时:', '23:00、2019年3月11日周一', '来源:', 'USAF 每小时地面观测', '报告类型:', 'METAR 航空例行天气报告', '露点:', '11.0°C', '天气:', 'Mist', '上午8:00', '14°C', '1,016毫巴', '每小时0公里', '3.50公里', '部分多云 (1,524米)', '本地:', '08:00、2019年3月12日周二', '协调世界时:', '00:00、2019年3月12日周二', '来源:', '周期文件', '趋势:', '无重要变化', '露点:', '11°C', '天气:', 'Mist', '原始:', 'ZUUU 120000Z 00000MPS 3500 BR SCT050 14/11 Q1016 NOSIG', '上午8:00', '14.0°C', '1,016毫巴', '每小时0公里', '3.50公里', '部分多云 (1,524米)', '本地:', '08:00、2019年3月12日周二', '协调世界时:', '00:00、2019年3月12日周二', '来源:', 'USAF 每小时地面观测', '报告类型:', 'METAR 航空例行天气报告', '露点:', '11.0°C', '天气:', 'Mist', '上午9:00', '14°C', '1,017毫巴', '每小时0公里', '3.50公里', '部分多云 (1,524米)', '本地:', '09:00、2019年3月12日周二', '协调世界时:', '01:00、2019年3月12日周二', '来源:', '周期文件', '趋势:', '无重要变化', '露点:', '11°C', '天气:', 'Mist', '原始:', 'ZUUU 120100Z 00000MPS 3500 BR SCT050 14/11 Q1017 NOSIG', '上午9:00', '14.0°C', '1,017毫巴', '每小时0公里', '3.50公里', '部分多云 (1,524米)', '本地:', '09:00、2019年3月12日周二', '协调世界时:', '01:00、2019年3月12日周二', '来源:', 'USAF 每小时地面观测', '报告类型:', 'METAR 航空例行天气报告', '露点:', '11.0°C', '天气:', 'Mist', '上午10:00', '16°C', '1,017毫巴', '每小时0公里', '3.50公里', '部分多云 (1,524米)', '本地:', '10:00、2019年3月12日周二', '协调世界时:', '02:00、2019年3月12日周二', '来源:', '周期文件', '趋势:', '无重要变化', '露点:', '11°C', '天气:', 'Mist', '原始:', 'ZUUU 120200Z 00000MPS 3500 BR SCT050 16/11 Q1017 NOSIG', '上午10:00', '16.0°C', '1,017毫巴', '每小时0公里', '3.50公里', '部分多云 (1,524米)', '本地:', '10:00、2019年3月12日周二', '协调世界时:', '02:00、2019年3月12日周二', '来源:', 'USAF 每小时地面观测', '报告类型:', 'METAR 航空例行天气报告', '露点:', '11.0°C', '天气:', 'Mist', '上午11:00', '18°C', '1,017毫巴', '每小时0公里', '3.50公里', '部分多云 (1,524米)', '本地:', '11:00、2019年3月12日周二', '协调世界时:', '03:00、2019年3月12日周二', '来源:', '周期文件', '趋势:', '无重要变化', '露点:', '11°C', '天气:', 'Haze', '原始:', 'ZUUU 120300Z 00000MPS 3500 HZ SCT050 18/11 Q1017 NOSIG', '上午11:00', '18.0°C', '1,017毫巴', '每小时0公里', '3.50公里', '部分多云 (1,524米)', '本地:', '11:00、2019年3月12日周二', '协调世界时:', '03:00、2019年3月12日周二', '来源:', 'USAF 每小时地面观测', '报告类型:', 'METAR 航空例行天气报告', '露点:', '11.0°C', '天气:', 'Haze', '下午12:00', '19°C', '1,017毫巴', '每小时0公里', '4.00公里', '部分多云 (1,524米)', '本地:', '12:00、2019年3月12日周二', '协调世界时:', '04:00、2019年3月12日周二', '来源:', '周期文件', '趋势:', '无重要变化', '露点:', '10°C', '天气:', 'Haze', '原始:', 'ZUUU 120400Z 00000MPS 4000 HZ SCT050 19/10 Q1017 NOSIG', '下午12:00', '19.0°C', '1,017毫巴', '每小时0公里', '4.00公里', '部分多云 (1,524米)', '本地:', '12:00、2019年3月12日周二', '协调世界时:', '04:00、2019年3月12日周二', '来源:', 'USAF 每小时地面观测', '报告类型:', 'METAR 航空例行天气报告', '露点:', '10.0°C', '天气:', 'Haze', '下午1:00', '19°C', '1,016毫巴', '每小时0公里', '5.00公里', '部分多云 (1,524米)', '本地:', '13:00、2019年3月12日周二', '协调世界时:', '05:00、2019年3月12日周二', '来源:', '周期文件', '趋势:', '无重要变化', '露点:', '9°C', '其他云层:', '大部分晴天 (792米)', '天气:', 'Haze', '原始:', 'ZUUU 120500Z 00000MPS 5000 HZ FEW026 SCT050 19/09 Q1016 NOSIG', '下午1:00', '19.0°C', '1,016毫巴', '每小时0公里', '5.00公里', '部分多云 (1,524米)', '本地:', '13:00、2019年3月12日周二', '协调世界时:', '05:00、2019年3月12日周二', '来源:', 'USAF 每小时地面观测', '报告类型:', 'METAR 航空例行天气报告', '露点:', '9.0°C', '其他云层:', '大部分晴天 (792米)', '天气:', 'Haze', '下午2:00', '20°C', '1,014毫巴', '每小时7.20公里, 西北', '6.00公里', '部分多云 (1,524米)', '本地:', '14:00、2019年3月12日周二', '协调世界时:', '06:00、2019年3月12日周二', '来源:', '周期文件', '趋势:', '无重要变化', '露点:', '9°C', '其他云层:', '大部分晴天 (792米)', '原始:', 'ZUUU 120600Z 33002MPS 280V040 6000 FEW026 SCT050 20/09 Q1014 NOSIG', '下午2:00', '20.0°C', '1,014毫巴', '每小时7.20公里, 西北', '6.00公里', '部分多云 (1,524米)', '本地:', '14:00、2019年3月12日周二', '协调世界时:', '06:00、2019年3月12日周二', '来源:', 'USAF 每小时地面观测', '报告类型:', 'METAR 航空例行天气报告', '露点:', '9.0°C', '其他云层:', '大部分晴天 (792米)', '下午3:00', '21°C', '1,013毫巴', '每小时7.20公里, 北', '6.00公里', '部分多云 (1,524米)', '本地:', '15:00、2019年3月12日周二', '协调世界时:', '07:00、2019年3月12日周二', '来源:', '周期文件', '趋势:', '无重要变化', '露点:', '10°C', '其他云层:', '大部分晴天 (792米)', '原始:', 'ZUUU 120700Z 01002MPS 270V050 6000 FEW026 SCT050 21/10 Q1013 NOSIG', '下午3:00', '21.0°C', '1,013毫巴', '每小时7.20公里, 北', '6.00公里', '部分多云 (1,524米)', '本地:', '15:00、2019年3月12日周二', '协调世界时:', '07:00、2019年3月12日周二', '来源:', 'USAF 每小时地面观测', '报告类型:', 'METAR 航空例行天气报告', '露点:', '10.0°C', '其他云层:', '大部分晴天 (792米)', '下午4:00', '19°C', '1,012毫巴', '每小时10.8公里, 北', '6.00公里', '部分多云 (1,524米)', '本地:', '16:00、2019年3月12日周二', '协调世界时:', '08:00、2019年3月12日周二', '来源:', '周期文件', '趋势:', '无重要变化', '露点:', '8°C', '其他云层:', '大部分晴天 (792米)', '原始:', 'ZUUU 120800Z 01003MPS 330V040 6000 FEW026TCU FEW026 SCT050 19/08 Q1012 NOSIG', '下午4:00', '19.0°C', '1,012毫巴', '每小时10.8公里, 北', '6.00公里', '部分多云 (1,524米)', '本地:', '16:00、2019年3月12日周二', '协调世界时:', '08:00、2019年3月12日周二', '来源:', 'USAF 每小时地面观测', '报告类型:', 'METAR 航空例行天气报告', '露点:', '8.0°C', '其他云层:', '大部分晴天 (792米)', '下午5:00', '18°C', '1,012毫巴', '每小时10.8公里, 北', '7.00公里', '部分多云 (1,524米)', '本地:', '17:00、2019年3月12日周二', '协调世界时:', '09:00、2019年3月12日周二', '来源:', '周期文件', '趋势:', '无重要变化', '露点:', '8°C', '其他云层:', '大部分晴天 (792米)', '原始:', 'ZUUU 120900Z 01003MPS 340V040 7000 FEW026TCU FEW026 SCT050 18/08 Q1012 NOSIG', '下午5:00', '18.0°C', '1,012毫巴', '每小时10.8公里, 北', '7.00公里', '部分多云 (1,524米)', '本地:', '17:00、2019年3月12日周二', '协调世界时:', '09:00、2019年3月12日周二', '来源:', 'USAF 每小时地面观测', '报告类型:', 'METAR 航空例行天气报告', '露点:', '8.0°C', '其他云层:', '大部分晴天 (792米)', '下午6:00', '17°C', '1,013毫巴', '每小时7.20公里, 北', '10.00公里', '部分多云 (1,524米)', '本地:', '18:00、2019年3月12日周二', '协调世界时:', '10:00、2019年3月12日周二', '来源:', '周期文件', '趋势:', '无重要变化', '露点:', '8°C', '其他云层:', '大部分晴天 (792米)', '原始:', 'ZUUU 121000Z 36002MPS 330V040 9999 FEW026 FEW026TCU SCT050 17/08 Q1013 NOSIG', '下午6:00', '17.0°C', '1,013毫巴', '每小时7.20公里, 北', '10.00公里', '部分多云 (1,524米)', '本地:', '18:00、2019年3月12日周二', '协调世界时:', '10:00、2019年3月12日周二', '来源:', 'USAF 每小时地面观测', '报告类型:', 'METAR 航空例行天气报告', '露点:', '8.0°C', '其他云层:', '大部分晴天 (792米)', '下午7:00', '18°C', '1,014毫巴', '每小时14.4公里, 东', '6.00公里', '部分多云 (1,524米)', '本地:', '19:00、2019年3月12日周二', '协调世界时:', '11:00、2019年3月12日周二', '来源:', '周期文件', '趋势:', '无重要变化', '露点:', '10°C', '其他云层:', '大部分晴天 (792米)', '天气:', 'Showers of Light Rain', '原始:', 'ZUUU 121100Z 07004MPS 040V100 6000 -SHRA FEW026TCU FEW026 SCT050 18/10 Q1014 NOSIG', '下午7:00', '18.0°C', '1,014毫巴', '每小时14.4公里, 东', '6.00公里', '部分多云 (1,524米)', '本地:', '19:00、2019年3月12日周二', '协调世界时:', '11:00、2019年3月12日周二', '来源:', 'USAF 每小时地面观测', '报告类型:', 'METAR 航空例行天气报告', '露点:', '10.0°C', '其他云层:', '大部分晴天 (792米)', '天气:', 'Showers of Light Rain', '下午8:00', '17°C', '1,014毫巴', '每小时7.20公里, 东', '10.00公里', '部分多云 (1,524米)', '本地:', '20:00、2019年3月12日周二', '协调世界时:', '12:00、2019年3月12日周二', '来源:', '周期文件', '趋势:', '无重要变化', '露点:', '9°C', '其他云层:', '大部分晴天 (792米)', '原始:', 'ZUUU 121200Z 08002MPS 010V130 9999 FEW026TCU FEW026 SCT050 17/09 Q1014 NOSIG', '下午8:00', '17.0°C', '1,014毫巴', '每小时7.20公里, 东', '10.00公里', '部分多云 (1,524米)', '本地:', '20:00、2019年3月12日周二', '协调世界时:', '12:00、2019年3月12日周二', '来源:', 'USAF 每小时地面观测', '报告类型:', 'METAR 航空例行天气报告', '露点:', '9.0°C', '其他云层:', '大部分晴天 (792米)', '下午9:00', '16°C', '1,016毫巴', '每小时0公里', '10.00公里', '大部分晴天 (1,006米)', '本地:', '21:00、2019年3月12日周二', '协调世界时:', '13:00、2019年3月12日周二', '来源:', '周期文件', '趋势:', '无重要变化', '露点:', '9°C', '原始:', 'ZUUU 121300Z 00000MPS 9999 FEW033 16/09 Q1016 NOSIG', '下午9:00', '16.0°C', '1,016毫巴', '每小时0公里', '10.00公里', '大部分晴天 (1,006米)', '本地:', '21:00、2019年3月12日周二', '协调世界时:', '13:00、2019年3月12日周二', '来源:', 'USAF 每小时地面观测', '报告类型:', 'METAR 航空例行天气报告', '露点:', '9.0°C', '下午10:00', '16°C', '1,017毫巴', '每小时3.60公里', '8.00公里', '无重要云', '本地:', '22:00、2019年3月12日周二', '协调世界时:', '14:00、2019年3月12日周二', '来源:', '周期文件', '趋势:', '无重要变化', '露点:', '10°C', '原始:', 'ZUUU 121400Z VRB01MPS 8000 NSC 16/10 Q1017 NOSIG', '下午10:00', '16.0°C', '1,017毫巴', '每小时3.60公里', '8.00公里', '未检测到云', '本地:', '22:00、2019年3月12日周二', '协调世界时:', '14:00、2019年3月12日周二', '来源:', 'USAF 每小时地面观测', '报告类型:', 'METAR 航空例行天气报告', '露点:', '10.0°C', '下午11:00', '16°C', '1,017毫巴', '每小时3.60公里, 西北', '8.00公里', '无重要云', '本地:', '23:00、2019年3月12日周二', '协调世界时:', '15:00、2019年3月12日周二', '来源:', '周期文件', '趋势:', '无重要变化', '露点:', '10°C', '原始:', 'ZUUU 121500Z 32001MPS 8000 NSC 16/10 Q1017 NOSIG', '下午11:00', '16.0°C', '1,017毫巴', '每小时3.60公里, 西北', '8.00公里', '未检测到云', '本地:', '23:00、2019年3月12日周二', '协调世界时:', '15:00、2019年3月12日周二', '来源:', 'USAF 每小时地面观测', '报告类型:', 'METAR 航空例行天气报告', '露点:', '10.0°C']