['上午12:00', '17°C', '1,015毫巴', '每小时0公里', '≥ 10.00公里', '晴空万里', '本地:', '00:00、2019年4月6日周六', '协调世界时:', '16:00、2019年4月5日周五', '来源:', '周期文件', '趋势:', '无重要变化', '露点:', '12°C', '晴空万里:', '真', '原始:', 'ZUUU 051600Z 00000MPS CAVOK 17/12 Q1015 NOSIG', '上午12:00', '17.0°C', '1,015毫巴', '每小时0公里', '-', '晴空万里', '本地:', '00:00、2019年4月6日周六', '协调世界时:', '16:00、2019年4月5日周五', '来源:', 'USAF 每小时地面观测', '报告类型:', 'METAR 航空例行天气报告', '露点:', '12.0°C', '晴空万里:', '真', '上午1:00', '16°C', '1,014毫巴', '每小时0公里', '≥ 10.00公里', '晴空万里', '本地:', '01:00、2019年4月6日周六', '协调世界时:', '17:00、2019年4月5日周五', '来源:', '周期文件', '趋势:', '无重要变化', '露点:', '12°C', '晴空万里:', '真', '原始:', 'ZUUU 051700Z 00000MPS CAVOK 16/12 Q1014 NOSIG', '上午1:00', '16.0°C', '1,014毫巴', '每小时0公里', '-', '晴空万里', '本地:', '01:00、2019年4月6日周六', '协调世界时:', '17:00、2019年4月5日周五', '来源:', 'USAF 每小时地面观测', '报告类型:', 'METAR 航空例行天气报告', '露点:', '12.0°C', '晴空万里:', '真', '上午2:00', '15°C', '1,014毫巴', '每小时0公里', '≥ 10.00公里', '晴空万里', '本地:', '02:00、2019年4月6日周六', '协调世界时:', '18:00、2019年4月5日周五', '来源:', '周期文件', '趋势:', '无重要变化', '露点:', '12°C', '晴空万里:', '真', '原始:', 'ZUUU 051800Z 00000MPS CAVOK 15/12 Q1014 NOSIG', '上午2:00', '15.0°C', '1,014毫巴', '每小时0公里', '-', '晴空万里', '本地:', '02:00、2019年4月6日周六', '协调世界时:', '18:00、2019年4月5日周五', '来源:', 'USAF 每小时地面观测', '报告类型:', 'METAR 航空例行天气报告', '露点:', '12.0°C', '晴空万里:', '真', '上午3:00', '15°C', '1,013毫巴', '每小时0公里', '≥ 10.00公里', '晴空万里', '本地:', '03:00、2019年4月6日周六', '协调世界时:', '19:00、2019年4月5日周五', '来源:', '周期文件', '趋势:', '无重要变化', '露点:', '12°C', '晴空万里:', '真', '原始:', 'ZUUU 051900Z 00000MPS CAVOK 15/12 Q1013 NOSIG', '上午3:00', '15.0°C', '1,013毫巴', '每小时0公里', '-', '晴空万里', '本地:', '03:00、2019年4月6日周六', '协调世界时:', '19:00、2019年4月5日周五', '来源:', 'USAF 每小时地面观测', '报告类型:', 'METAR 航空例行天气报告', '露点:', '12.0°C', '晴空万里:', '真', '上午4:00', '13°C', '1,013毫巴', '每小时0公里', '≥ 10.00公里', '晴空万里', '本地:', '04:00、2019年4月6日周六', '协调世界时:', '20:00、2019年4月5日周五', '来源:', '周期文件', '趋势:', '无重要变化', '露点:', '11°C', '晴空万里:', '真', '原始:', 'ZUUU 052000Z 00000MPS CAVOK 13/11 Q1013 NOSIG', '上午4:00', '13.0°C', '1,013毫巴', '每小时0公里', '-', '晴空万里', '本地:', '04:00、2019年4月6日周六', '协调世界时:', '20:00、2019年4月5日周五', '来源:', 'USAF 每小时地面观测', '报告类型:', 'METAR 航空例行天气报告', '露点:', '11.0°C', '晴空万里:', '真', '上午5:00', '13°C', '1,012毫巴', '每小时0公里', '≥ 10.00公里', '晴空万里', '本地:', '05:00、2019年4月6日周六', '协调世界时:', '21:00、2019年4月5日周五', '来源:', '周期文件', '趋势:', '无重要变化', '露点:', '12°C', '晴空万里:', '真', '原始:', 'ZUUU 052100Z 00000MPS CAVOK 13/12 Q1012 NOSIG', '上午5:00', '13.0°C', '1,012毫巴', '每小时0公里', '-', '晴空万里', '本地:', '05:00、2019年4月6日周六', '协调世界时:', '21:00、2019年4月5日周五', '来源:', 'USAF 每小时地面观测', '报告类型:', 'METAR 航空例行天气报告', '露点:', '12.0°C', '晴空万里:', '真', '上午6:00', '13°C', '1,012毫巴', '每小时0公里', '≥ 10.00公里', '晴空万里', '本地:', '06:00、2019年4月6日周六', '协调世界时:', '22:00、2019年4月5日周五', '来源:', '周期文件', '趋势:', '无重要变化', '露点:', '12°C', '晴空万里:', '真', '原始:', 'ZUUU 052200Z 00000MPS CAVOK 13/12 Q1012 NOSIG', '上午6:00', '13.0°C', '1,012毫巴', '每小时0公里', '-', '晴空万里', '本地:', '06:00、2019年4月6日周六', '协调世界时:', '22:00、2019年4月5日周五', '来源:', 'USAF 每小时地面观测', '报告类型:', 'METAR 航空例行天气报告', '露点:', '12.0°C', '晴空万里:', '真', '上午7:00', '12°C', '1,012毫巴', '每小时0公里', '8.00公里', '无重要云', '本地:', '07:00、2019年4月6日周六', '协调世界时:', '23:00、2019年4月5日周五', '来源:', '周期文件', '趋势:', '无重要变化', '露点:', '11°C', '原始:', 'ZUUU 052300Z 00000MPS 8000 NSC 12/11 Q1012 NOSIG', '上午7:00', '12.0°C', '1,012毫巴', '每小时0公里', '8.00公里', '未检测到云', '本地:', '07:00、2019年4月6日周六', '协调世界时:', '23:00、2019年4月5日周五', '来源:', 'USAF 每小时地面观测', '报告类型:', 'METAR 航空例行天气报告', '露点:', '11.0°C', '上午8:00', '15°C', '1,013毫巴', '每小时3.60公里', '6.00公里', '无重要云', '本地:', '08:00、2019年4月6日周六', '协调世界时:', '00:00、2019年4月6日周六', '来源:', '周期文件', '趋势:', '无重要变化', '露点:', '13°C', '原始:', 'ZUUU 060000Z VRB01MPS 6000 NSC 15/13 Q1013 NOSIG', '上午8:00', '15.0°C', '1,013毫巴', '每小时3.60公里', '6.00公里', '未检测到云', '本地:', '08:00、2019年4月6日周六', '协调世界时:', '00:00、2019年4月6日周六', '来源:', 'USAF 每小时地面观测', '报告类型:', 'METAR 航空例行天气报告', '露点:', '13.0°C', '上午9:00', '18°C', '1,013毫巴', '每小时0公里', '8.00公里', '无重要云', '本地:', '09:00、2019年4月6日周六', '协调世界时:', '01:00、2019年4月6日周六', '来源:', '周期文件', '趋势:', '无重要变化', '露点:', '13°C', '原始:', 'ZUUU 060100Z 00000MPS 8000 NSC 18/13 Q1013 NOSIG', '上午9:00', '18.0°C', '1,013毫巴', '每小时0公里', '8.00公里', '未检测到云', '本地:', '09:00、2019年4月6日周六', '协调世界时:', '01:00、2019年4月6日周六', '来源:', 'USAF 每小时地面观测', '报告类型:', 'METAR 航空例行天气报告', '露点:', '13.0°C', '上午10:00', '22°C', '1,013毫巴', '每小时3.60公里', '8.00公里', '无重要云', '本地:', '10:00、2019年4月6日周六', '协调世界时:', '02:00、2019年4月6日周六', '来源:', '周期文件', '趋势:', '无重要变化', '露点:', '12°C', '原始:', 'ZUUU 060200Z VRB01MPS 8000 NSC 22/12 Q1013 NOSIG', '上午10:00', '22.0°C', '1,013毫巴', '每小时3.60公里', '8.00公里', '未检测到云', '本地:', '10:00、2019年4月6日周六', '协调世界时:', '02:00、2019年4月6日周六', '来源:', 'USAF 每小时地面观测', '报告类型:', 'METAR 航空例行天气报告', '露点:', '12.0°C', '上午11:00', '24°C', '1,013毫巴', '每小时3.60公里', '8.00公里', '无重要云', '本地:', '11:00、2019年4月6日周六', '协调世界时:', '03:00、2019年4月6日周六', '来源:', '周期文件', '趋势:', '无重要变化', '露点:', '12°C', '原始:', 'ZUUU 060300Z VRB01MPS 8000 NSC 24/12 Q1013 NOSIG', '上午11:00', '24.0°C', '1,013毫巴', '每小时3.60公里', '8.00公里', '未检测到云', '本地:', '11:00、2019年4月6日周六', '协调世界时:', '03:00、2019年4月6日周六', '来源:', 'USAF 每小时地面观测', '报告类型:', 'METAR 航空例行天气报告', '露点:', '12.0°C', '下午12:00', '25°C', '1,012毫巴', '每小时7.20公里, 东', '8.00公里', '无重要云', '本地:', '12:00、2019年4月6日周六', '协调世界时:', '04:00、2019年4月6日周六', '来源:', '周期文件', '趋势:', '无重要变化', '露点:', '12°C', '原始:', 'ZUUU 060400Z 08002MPS 030V120 8000 NSC 25/12 Q1012 NOSIG', '下午12:00', '25.0°C', '1,012毫巴', '每小时7.20公里, 东', '8.00公里', '未检测到云', '本地:', '12:00、2019年4月6日周六', '协调世界时:', '04:00、2019年4月6日周六', '来源:', 'USAF 每小时地面观测', '报告类型:', 'METAR 航空例行天气报告', '露点:', '12.0°C', '下午1:00', '28°C', '1,011毫巴', '每小时7.20公里', '≥ 10.00公里', '晴空万里', '本地:', '13:00、2019年4月6日周六', '协调世界时:', '05:00、2019年4月6日周六', '来源:', '周期文件', '趋势:', '无重要变化', '露点:', '9°C', '晴空万里:', '真', '原始:', 'ZUUU 060500Z VRB02MPS CAVOK 28/09 Q1011 NOSIG', '下午1:00', '28.0°C', '1,011毫巴', '每小时7.20公里', '-', '晴空万里', '本地:', '13:00、2019年4月6日周六', '协调世界时:', '05:00、2019年4月6日周六', '来源:', 'USAF 每小时地面观测', '报告类型:', 'METAR 航空例行天气报告', '露点:', '9.0°C', '晴空万里:', '真', '下午2:00', '29°C', '1,010毫巴', '每小时7.20公里', '≥ 10.00公里', '晴空万里', '本地:', '14:00、2019年4月6日周六', '协调世界时:', '06:00、2019年4月6日周六', '来源:', '周期文件', '趋势:', '无重要变化', '露点:', '10°C', '晴空万里:', '真', '原始:', 'ZUUU 060600Z VRB02MPS CAVOK 29/10 Q1010 NOSIG', '下午2:00', '29.0°C', '1,010毫巴', '每小时7.20公里', '-', '晴空万里', '本地:', '14:00、2019年4月6日周六', '协调世界时:', '06:00、2019年4月6日周六', '来源:', 'USAF 每小时地面观测', '报告类型:', 'METAR 航空例行天气报告', '露点:', '10.0°C', '晴空万里:', '真', '下午3:00', '29°C', '1,009毫巴', '每小时10.8公里, 西南', '≥ 10.00公里', '晴空万里', '本地:', '15:00、2019年4月6日周六', '协调世界时:', '07:00、2019年4月6日周六', '来源:', '周期文件', '趋势:', '无重要变化', '露点:', '10°C', '晴空万里:', '真', '原始:', 'ZUUU 060700Z 22003MPS 180V300 CAVOK 29/10 Q1009 NOSIG', '下午3:00', '29.0°C', '1,009毫巴', '每小时10.8公里, 西南', '-', '晴空万里', '本地:', '15:00、2019年4月6日周六', '协调世界时:', '07:00、2019年4月6日周六', '来源:', 'USAF 每小时地面观测', '报告类型:', 'METAR 航空例行天气报告', '露点:', '10.0°C', '晴空万里:', '真', '下午4:00', '30°C', '1,008毫巴', '每小时7.20公里, 南', '≥ 10.00公里', '晴空万里', '本地:', '16:00、2019年4月6日周六', '协调世界时:', '08:00、2019年4月6日周六', '来源:', '周期文件', '趋势:', '无重要变化', '露点:', '10°C', '晴空万里:', '真', '原始:', 'ZUUU 060800Z 17002MPS 110V240 CAVOK 30/10 Q1008 NOSIG', '下午4:00', '30.0°C', '1,008毫巴', '每小时7.20公里, 南', '-', '晴空万里', '本地:', '16:00、2019年4月6日周六', '协调世界时:', '08:00、2019年4月6日周六', '来源:', 'USAF 每小时地面观测', '报告类型:', 'METAR 航空例行天气报告', '露点:', '10.0°C', '晴空万里:', '真', '下午5:00', '30°C', '1,007毫巴', '每小时10.8公里', '≥ 10.00公里', '晴空万里', '本地:', '17:00、2019年4月6日周六', '协调世界时:', '09:00、2019年4月6日周六', '来源:', '周期文件', '趋势:', '无重要变化', '露点:', '9°C', '晴空万里:', '真', '原始:', 'ZUUU 060900Z VRB03MPS CAVOK 30/09 Q1007 NOSIG', '下午5:00', '30.0°C', '1,007毫巴', '每小时10.8公里', '-', '晴空万里', '本地:', '17:00、2019年4月6日周六', '协调世界时:', '09:00、2019年4月6日周六', '来源:', 'USAF 每小时地面观测', '报告类型:', 'METAR 航空例行天气报告', '露点:', '9.0°C', '晴空万里:', '真', '下午6:00', '29°C', '1,007毫巴', '每小时7.20公里, 南', '≥ 10.00公里', '晴空万里', '本地:', '18:00、2019年4月6日周六', '协调世界时:', '10:00、2019年4月6日周六', '来源:', '周期文件', '趋势:', '无重要变化', '露点:', '9°C', '晴空万里:', '真', '原始:', 'ZUUU 061000Z 18002MPS 100V240 CAVOK 29/09 Q1007 NOSIG', '下午6:00', '29.0°C', '1,007毫巴', '每小时7.20公里, 南', '-', '晴空万里', '本地:', '18:00、2019年4月6日周六', '协调世界时:', '10:00、2019年4月6日周六', '来源:', 'USAF 每小时地面观测', '报告类型:', 'METAR 航空例行天气报告', '露点:', '9.0°C', '晴空万里:', '真', '下午7:00', '27°C', '1,007毫巴', '每小时3.60公里', '≥ 10.00公里', '晴空万里', '本地:', '19:00、2019年4月6日周六', '协调世界时:', '11:00、2019年4月6日周六', '来源:', '周期文件', '趋势:', '无重要变化', '露点:', '10°C', '晴空万里:', '真', '原始:', 'ZUUU 061100Z VRB01MPS CAVOK 27/10 Q1007 NOSIG', '下午7:00', '27.0°C', '1,007毫巴', '每小时3.60公里', '-', '晴空万里', '本地:', '19:00、2019年4月6日周六', '协调世界时:', '11:00、2019年4月6日周六', '来源:', 'USAF 每小时地面观测', '报告类型:', 'METAR 航空例行天气报告', '露点:', '10.0°C', '晴空万里:', '真', '下午8:00', '24°C', '1,008毫巴', '每小时7.20公里, 南', '≥ 10.00公里', '晴空万里', '本地:', '20:00、2019年4月6日周六', '协调世界时:', '12:00、2019年4月6日周六', '来源:', '周期文件', '趋势:', '无重要变化', '露点:', '11°C', '晴空万里:', '真', '原始:', 'ZUUU 061200Z 20002MPS CAVOK 24/11 Q1008 NOSIG', '下午8:00', '24.0°C', '1,008毫巴', '每小时7.20公里, 南', '-', '晴空万里', '本地:', '20:00、2019年4月6日周六', '协调世界时:', '12:00、2019年4月6日周六', '来源:', 'USAF 每小时地面观测', '报告类型:', 'METAR 航空例行天气报告', '露点:', '11.0°C', '晴空万里:', '真', '下午9:00', '22°C', '1,009毫巴', '每小时0公里', '≥ 10.00公里', '晴空万里', '本地:', '21:00、2019年4月6日周六', '协调世界时:', '13:00、2019年4月6日周六', '来源:', '周期文件', '趋势:', '无重要变化', '露点:', '11°C', '晴空万里:', '真', '原始:', 'ZUUU 061300Z 00000MPS CAVOK 22/11 Q1009 NOSIG', '下午9:00', '22.0°C', '1,009毫巴', '每小时0公里', '-', '晴空万里', '本地:', '21:00、2019年4月6日周六', '协调世界时:', '13:00、2019年4月6日周六', '来源:', 'USAF 每小时地面观测', '报告类型:', 'METAR 航空例行天气报告', '露点:', '11.0°C', '晴空万里:', '真', '下午10:00', '20°C', '1,010毫巴', '每小时0公里', '≥ 10.00公里', '晴空万里', '本地:', '22:00、2019年4月6日周六', '协调世界时:', '14:00、2019年4月6日周六', '来源:', '周期文件', '趋势:', '无重要变化', '露点:', '14°C', '晴空万里:', '真', '原始:', 'ZUUU 061400Z 00000MPS CAVOK 20/14 Q1010 NOSIG', '下午10:00', '20.0°C', '1,010毫巴', '每小时0公里', '-', '晴空万里', '本地:', '22:00、2019年4月6日周六', '协调世界时:', '14:00、2019年4月6日周六', '来源:', 'USAF 每小时地面观测', '报告类型:', 'METAR 航空例行天气报告', '露点:', '14.0°C', '晴空万里:', '真', '下午11:00', '19°C', '1,010毫巴', '每小时0公里', '≥ 10.00公里', '晴空万里', '本地:', '23:00、2019年4月6日周六', '协调世界时:', '15:00、2019年4月6日周六', '来源:', '周期文件', '趋势:', '无重要变化', '露点:', '13°C', '晴空万里:', '真', '原始:', 'ZUUU 061500Z 00000MPS CAVOK 19/13 Q1010 NOSIG', '下午11:00', '19.0°C', '1,010毫巴', '每小时0公里', '-', '晴空万里', '本地:', '23:00、2019年4月6日周六', '协调世界时:', '15:00、2019年4月6日周六', '来源:', 'USAF 每小时地面观测', '报告类型:', 'METAR 航空例行天气报告', '露点:', '13.0°C', '晴空万里:', '真']