['Mist', 'BR、IWC10', 'Light Rain、Mist', '-RA、IWC61、BR、IWC10', 'Haze', 'HZ、IWC05', 'Haze', 'HZ、IWC05', 'Haze', 'HZ、IWC05', 'Haze', 'HZ、IWC05', 'Haze', 'HZ、IWC05', 'Haze', 'HZ、IWC05', 'Haze', 'HZ、IWC05', 'Haze', 'HZ、IWC05', 'Haze', 'HZ、IWC05', 'Haze', 'HZ、IWC05', 'Mist', 'BR、IWC10', 'Mist', 'BR、IWC10', 'Mist', 'BR、IWC10', 'Mist', 'BR、IWC10', '上午12:00', '6°C', '1,025毫巴', '每小时3.60公里', '6.00公里', '部分多云 (1,524米)', '本地:', '00:00、2019年1月9日周三', '协调世界时:', '16:00、2019年1月8日周二', '来源:', '周期文件', '趋势:', '无重要变化', '露点:', '1°C', '原始:', 'ZUUU 081600Z VRB01MPS 6000 SCT050 06/01 Q1025 NOSIG', '上午12:00', '6.0°C', '1,025毫巴', '每小时3.60公里', '6.00公里', '部分多云 (1,524米)', '本地:', '00:00、2019年1月9日周三', '协调世界时:', '16:00、2019年1月8日周二', '来源:', 'USAF 每小时地面观测', '报告类型:', 'METAR 航空例行天气报告', '露点:', '1.0°C', '上午1:00', '6°C', '1,025毫巴', '每小时0公里', '7.00公里', '部分多云 (1,524米)', '本地:', '01:00、2019年1月9日周三', '协调世界时:', '17:00、2019年1月8日周二', '来源:', '周期文件', '趋势:', '无重要变化', '露点:', '1°C', '原始:', 'ZUUU 081700Z 00000MPS 7000 SCT050 06/01 Q1025 NOSIG', '上午1:00', '6.0°C', '1,025毫巴', '每小时0公里', '7.00公里', '部分多云 (1,524米)', '本地:', '01:00、2019年1月9日周三', '协调世界时:', '17:00、2019年1月8日周二', '来源:', 'USAF 每小时地面观测', '报告类型:', 'METAR 航空例行天气报告', '露点:', '1.0°C', '上午2:00', '6°C', '1,025毫巴', '每小时0公里', '7.00公里', '部分多云 (1,524米)', '本地:', '02:00、2019年1月9日周三', '协调世界时:', '18:00、2019年1月8日周二', '来源:', '周期文件', '趋势:', '无重要变化', '露点:', '1°C', '原始:', 'ZUUU 081800Z 00000MPS 7000 SCT050 06/01 Q1025 NOSIG', '上午2:00', '6.0°C', '1,025毫巴', '每小时0公里', '7.00公里', '部分多云 (1,524米)', '本地:', '02:00、2019年1月9日周三', '协调世界时:', '18:00、2019年1月8日周二', '来源:', 'USAF 每小时地面观测', '报告类型:', 'METAR 航空例行天气报告', '露点:', '1.0°C', '上午3:00', '6°C', '1,025毫巴', '每小时0公里', '7.00公里', '部分多云 (1,524米)', '本地:', '03:00、2019年1月9日周三', '协调世界时:', '19:00、2019年1月8日周二', '来源:', '周期文件', '趋势:', '无重要变化', '露点:', '1°C', '原始:', 'ZUUU 081900Z 00000MPS 7000 SCT050 06/01 Q1025 NOSIG', '上午3:00', '6.0°C', '1,025毫巴', '每小时0公里', '7.00公里', '部分多云 (1,524米)', '本地:', '03:00、2019年1月9日周三', '协调世界时:', '19:00、2019年1月8日周二', '来源:', 'USAF 每小时地面观测', '报告类型:', 'METAR 航空例行天气报告', '露点:', '1.0°C', '上午4:00', '6°C', '1,024毫巴', '每小时0公里', '7.00公里', '部分多云 (1,524米)', '本地:', '04:00、2019年1月9日周三', '协调世界时:', '20:00、2019年1月8日周二', '来源:', '周期文件', '趋势:', '无重要变化', '露点:', '0°C', '原始:', 'ZUUU 082000Z 00000MPS 7000 SCT050 06/00 Q1024 NOSIG', '上午4:00', '6.0°C', '1,024毫巴', '每小时0公里', '7.00公里', '部分多云 (1,524米)', '本地:', '04:00、2019年1月9日周三', '协调世界时:', '20:00、2019年1月8日周二', '来源:', 'USAF 每小时地面观测', '报告类型:', 'METAR 航空例行天气报告', '露点:', '0.0°C', '上午5:00', '6°C', '1,024毫巴', '每小时0公里', '7.00公里', '部分多云 (1,524米)', '本地:', '05:00、2019年1月9日周三', '协调世界时:', '21:00、2019年1月8日周二', '来源:', '周期文件', '趋势:', '无重要变化', '露点:', '0°C', '原始:', 'ZUUU 082100Z 00000MPS 7000 SCT050 06/00 Q1024 NOSIG', '上午5:00', '6.0°C', '1,024毫巴', '每小时0公里', '7.00公里', '部分多云 (1,524米)', '本地:', '05:00、2019年1月9日周三', '协调世界时:', '21:00、2019年1月8日周二', '来源:', 'USAF 每小时地面观测', '报告类型:', 'METAR 航空例行天气报告', '露点:', '0.0°C', '上午6:00', '5°C', '1,024毫巴', '每小时0公里', '7.00公里', '部分多云 (1,524米)', '本地:', '06:00、2019年1月9日周三', '协调世界时:', '22:00、2019年1月8日周二', '来源:', '周期文件', '趋势:', '无重要变化', '露点:', '0°C', '原始:', 'ZUUU 082200Z 00000MPS 7000 SCT050 05/00 Q1024 NOSIG', '上午6:00', '5.0°C', '1,024毫巴', '每小时0公里', '7.00公里', '部分多云 (1,524米)', '本地:', '06:00、2019年1月9日周三', '协调世界时:', '22:00、2019年1月8日周二', '来源:', 'USAF 每小时地面观测', '报告类型:', 'METAR 航空例行天气报告', '露点:', '0.0°C', '上午7:00', '5°C', '1,024毫巴', '每小时3.60公里', '6.00公里', '部分多云 (1,524米)', '本地:', '07:00、2019年1月9日周三', '协调世界时:', '23:00、2019年1月8日周二', '来源:', '周期文件', '趋势:', '无重要变化', '露点:', '0°C', '原始:', 'ZUUU 082300Z VRB01MPS 6000 SCT050 05/00 Q1024 NOSIG', '上午7:00', '5.0°C', '1,024毫巴', '每小时3.60公里', '6.00公里', '部分多云 (1,524米)', '本地:', '07:00、2019年1月9日周三', '协调世界时:', '23:00、2019年1月8日周二', '来源:', 'USAF 每小时地面观测', '报告类型:', 'METAR 航空例行天气报告', '露点:', '0.0°C', '上午8:00', '5°C', '1,024毫巴', '每小时0公里', '5.00公里', '部分多云 (1,524米)', '本地:', '08:00、2019年1月9日周三', '协调世界时:', '00:00、2019年1月9日周三', '来源:', '周期文件', '趋势:', '无重要变化', '露点:', '0°C', '天气:', 'Mist', '原始:', 'ZUUU 090000Z 00000MPS 5000 BR SCT050 05/00 Q1024 NOSIG', '上午8:00', '5.0°C', '1,024毫巴', '每小时0公里', '5.00公里', '部分多云 (1,524米)', '本地:', '08:00、2019年1月9日周三', '协调世界时:', '00:00、2019年1月9日周三', '来源:', 'USAF 每小时地面观测', '报告类型:', 'METAR 航空例行天气报告', '露点:', '0.0°C', '天气:', 'Mist', '上午9:00', '6°C', '1,025毫巴', '每小时3.60公里', '5.00公里', '大部分多云 (1,219米)', '本地:', '09:00、2019年1月9日周三', '协调世界时:', '01:00、2019年1月9日周三', '来源:', '周期文件', '趋势:', '无重要变化', '露点:', '1°C', '天气:', 'Light Rain、Mist', '原始:', 'ZUUU 090100Z VRB01MPS 5000 -RA BR BKN040 06/01 Q1025 NOSIG', '上午9:00', '6.0°C', '1,025毫巴', '每小时3.60公里', '5.00公里', '大部分多云 (1,219米)', '本地:', '09:00、2019年1月9日周三', '协调世界时:', '01:00、2019年1月9日周三', '来源:', 'USAF 每小时地面观测', '报告类型:', 'METAR 航空例行天气报告', '露点:', '1.0°C', '天气:', 'Mist、Light Rain', '上午10:00', '6°C', '1,025毫巴', '每小时3.60公里', '4.50公里', '大部分多云 (1,219米)', '本地:', '10:00、2019年1月9日周三', '协调世界时:', '02:00、2019年1月9日周三', '来源:', '周期文件', '趋势:', '无重要变化', '露点:', '1°C', '天气:', 'Haze', '原始:', 'ZUUU 090200Z VRB01MPS 4500 HZ BKN040 06/01 Q1025 NOSIG', '上午10:00', '6.0°C', '1,025毫巴', '每小时3.60公里', '4.50公里', '大部分多云 (1,219米)', '本地:', '10:00、2019年1月9日周三', '协调世界时:', '02:00、2019年1月9日周三', '来源:', 'USAF 每小时地面观测', '报告类型:', 'METAR 航空例行天气报告', '露点:', '1.0°C', '天气:', 'Haze', '上午11:00', '7°C', '1,025毫巴', '每小时0公里', '4.50公里', '部分多云 (1,219米)', '本地:', '11:00、2019年1月9日周三', '协调世界时:', '03:00、2019年1月9日周三', '来源:', '周期文件', '趋势:', '无重要变化', '露点:', '1°C', '天气:', 'Haze', '原始:', 'ZUUU 090300Z 00000MPS 4500 HZ SCT040 07/01 Q1025 NOSIG', '上午11:00', '7.0°C', '1,025毫巴', '每小时0公里', '4.50公里', '部分多云 (1,219米)', '本地:', '11:00、2019年1月9日周三', '协调世界时:', '03:00、2019年1月9日周三', '来源:', 'USAF 每小时地面观测', '报告类型:', 'METAR 航空例行天气报告', '露点:', '1.0°C', '天气:', 'Haze', '下午12:00', '7°C', '1,024毫巴', '每小时3.60公里', '4.50公里', '部分多云 (1,524米)', '本地:', '12:00、2019年1月9日周三', '协调世界时:', '04:00、2019年1月9日周三', '来源:', '周期文件', '趋势:', '无重要变化', '露点:', '1°C', '天气:', 'Haze', '原始:', 'ZUUU 090400Z VRB01MPS 4500 HZ SCT050 07/01 Q1024 NOSIG', '下午12:00', '7.0°C', '1,024毫巴', '每小时3.60公里', '4.50公里', '部分多云 (1,524米)', '本地:', '12:00、2019年1月9日周三', '协调世界时:', '04:00、2019年1月9日周三', '来源:', 'USAF 每小时地面观测', '报告类型:', 'METAR 航空例行天气报告', '露点:', '1.0°C', '天气:', 'Haze', '下午1:00', '8°C', '1,022毫巴', '每小时0公里', '4.50公里', '部分多云 (1,524米)', '本地:', '13:00、2019年1月9日周三', '协调世界时:', '05:00、2019年1月9日周三', '来源:', '周期文件', '趋势:', '无重要变化', '露点:', '1°C', '天气:', 'Haze', '原始:', 'ZUUU 090500Z 00000MPS 4500 HZ SCT050 08/01 Q1022 NOSIG', '下午1:00', '8.0°C', '1,022毫巴', '每小时0公里', '4.50公里', '部分多云 (1,524米)', '本地:', '13:00、2019年1月9日周三', '协调世界时:', '05:00、2019年1月9日周三', '来源:', 'USAF 每小时地面观测', '报告类型:', 'METAR 航空例行天气报告', '露点:', '1.0°C', '天气:', 'Haze', '下午2:00', '9°C', '1,021毫巴', '每小时0公里', '4.50公里', '部分多云 (1,006米)', '本地:', '14:00、2019年1月9日周三', '协调世界时:', '06:00、2019年1月9日周三', '来源:', '周期文件', '趋势:', '无重要变化', '露点:', '2°C', '天气:', 'Haze', '原始:', 'ZUUU 090600Z 00000MPS 4500 HZ SCT033 09/02 Q1021 NOSIG', '下午2:00', '9.0°C', '1,021毫巴', '每小时0公里', '4.50公里', '部分多云 (1,006米)', '本地:', '14:00、2019年1月9日周三', '协调世界时:', '06:00、2019年1月9日周三', '来源:', 'USAF 每小时地面观测', '报告类型:', 'METAR 航空例行天气报告', '露点:', '2.0°C', '天气:', 'Haze', '下午3:00', '8°C', '1,020毫巴', '每小时0公里', '5.00公里', '部分多云 (1,006米)', '本地:', '15:00、2019年1月9日周三', '协调世界时:', '07:00、2019年1月9日周三', '来源:', '周期文件', '趋势:', '无重要变化', '露点:', '1°C', '天气:', 'Haze', '原始:', 'ZUUU 090700Z 00000MPS 5000 HZ SCT033 08/01 Q1020 NOSIG', '下午3:00', '8.0°C', '1,020毫巴', '每小时0公里', '5.00公里', '部分多云 (1,006米)', '本地:', '15:00、2019年1月9日周三', '协调世界时:', '07:00、2019年1月9日周三', '来源:', 'USAF 每小时地面观测', '报告类型:', 'METAR 航空例行天气报告', '露点:', '1.0°C', '天气:', 'Haze', '下午4:00', '8°C', '1,020毫巴', '每小时7.20公里, 东南', '4.50公里', '部分多云 (1,006米)', '本地:', '16:00、2019年1月9日周三', '协调世界时:', '08:00、2019年1月9日周三', '来源:', '周期文件', '趋势:', '无重要变化', '露点:', '1°C', '天气:', 'Haze', '原始:', 'ZUUU 090800Z 13002MPS 050V210 4500 HZ SCT033 08/01 Q1020 NOSIG', '下午4:00', '8.0°C', '1,020毫巴', '每小时7.20公里, 东南', '4.50公里', '部分多云 (1,006米)', '本地:', '16:00、2019年1月9日周三', '协调世界时:', '08:00、2019年1月9日周三', '来源:', 'USAF 每小时地面观测', '报告类型:', 'METAR 航空例行天气报告', '露点:', '1.0°C', '天气:', 'Haze', '下午5:00', '8°C', '1,020毫巴', '每小时3.60公里', '4.50公里', '部分多云 (1,219米)', '本地:', '17:00、2019年1月9日周三', '协调世界时:', '09:00、2019年1月9日周三', '来源:', '周期文件', '趋势:', '无重要变化', '露点:', '1°C', '天气:', 'Haze', '原始:', 'ZUUU 090900Z VRB01MPS 4500 HZ SCT040 08/01 Q1020 NOSIG', '下午5:00', '8.0°C', '1,020毫巴', '每小时3.60公里', '4.50公里', '部分多云 (1,219米)', '本地:', '17:00、2019年1月9日周三', '协调世界时:', '09:00、2019年1月9日周三', '来源:', 'USAF 每小时地面观测', '报告类型:', 'METAR 航空例行天气报告', '露点:', '1.0°C', '天气:', 'Haze', '下午6:00', '8°C', '1,021毫巴', '每小时0公里', '4.50公里', '部分多云 (1,219米)', '本地:', '18:00、2019年1月9日周三', '协调世界时:', '10:00、2019年1月9日周三', '来源:', '周期文件', '趋势:', '无重要变化', '露点:', '1°C', '天气:', 'Haze', '原始:', 'ZUUU 091000Z 00000MPS 4500 HZ SCT040 08/01 Q1021 NOSIG', '下午6:00', '8.0°C', '1,021毫巴', '每小时0公里', '4.50公里', '部分多云 (1,219米)', '本地:', '18:00、2019年1月9日周三', '协调世界时:', '10:00、2019年1月9日周三', '来源:', 'USAF 每小时地面观测', '报告类型:', 'METAR 航空例行天气报告', '露点:', '1.0°C', '天气:', 'Haze', '下午7:00', '8°C', '1,021毫巴', '每小时7.20公里, 东南', '5.00公里', '部分多云 (1,219米)', '本地:', '19:00、2019年1月9日周三', '协调世界时:', '11:00、2019年1月9日周三', '来源:', '周期文件', '趋势:', '无重要变化', '露点:', '2°C', '天气:', 'Haze', '原始:', 'ZUUU 091100Z 12002MPS 050V160 5000 HZ SCT040 08/02 Q1021 NOSIG', '下午7:00', '8.0°C', '1,021毫巴', '每小时7.20公里, 东南', '5.00公里', '部分多云 (1,219米)', '本地:', '19:00、2019年1月9日周三', '协调世界时:', '11:00、2019年1月9日周三', '来源:', 'USAF 每小时地面观测', '报告类型:', 'METAR 航空例行天气报告', '露点:', '2.0°C', '天气:', 'Haze', '下午8:00', '8°C', '1,022毫巴', '每小时7.20公里, 东南', '5.00公里', '部分多云 (1,219米)', '本地:', '20:00、2019年1月9日周三', '协调世界时:', '12:00、2019年1月9日周三', '来源:', '周期文件', '趋势:', '无重要变化', '露点:', '3°C', '天气:', 'Mist', '原始:', 'ZUUU 091200Z 14002MPS 030V200 5000 BR SCT040 08/03 Q1022 NOSIG', '下午8:00', '8.0°C', '1,022毫巴', '每小时7.20公里, 东南', '5.00公里', '部分多云 (1,219米)', '本地:', '20:00、2019年1月9日周三', '协调世界时:', '12:00、2019年1月9日周三', '来源:', 'USAF 每小时地面观测', '报告类型:', 'METAR 航空例行天气报告', '露点:', '3.0°C', '天气:', 'Mist', '下午9:00', '7°C', '1,022毫巴', '每小时7.20公里', '4.00公里', '部分多云 (1,219米)', '本地:', '21:00、2019年1月9日周三', '协调世界时:', '13:00、2019年1月9日周三', '来源:', '周期文件', '趋势:', '无重要变化', '露点:', '3°C', '天气:', 'Mist', '原始:', 'ZUUU 091300Z VRB02MPS 4000 BR SCT040 07/03 Q1022 NOSIG', '下午9:00', '7.0°C', '1,022毫巴', '每小时7.20公里', '4.00公里', '部分多云 (1,219米)', '本地:', '21:00、2019年1月9日周三', '协调世界时:', '13:00、2019年1月9日周三', '来源:', 'USAF 每小时地面观测', '报告类型:', 'METAR 航空例行天气报告', '露点:', '3.0°C', '天气:', 'Mist', '下午10:00', '7°C', '1,023毫巴', '每小时3.60公里', '4.00公里', '部分多云 (1,219米)', '本地:', '22:00、2019年1月9日周三', '协调世界时:', '14:00、2019年1月9日周三', '来源:', '周期文件', '趋势:', '无重要变化', '露点:', '3°C', '天气:', 'Mist', '原始:', 'ZUUU 091400Z VRB01MPS 4000 BR SCT040 07/03 Q1023 NOSIG', '下午10:00', '7.0°C', '1,023毫巴', '每小时3.60公里', '4.00公里', '部分多云 (1,219米)', '本地:', '22:00、2019年1月9日周三', '协调世界时:', '14:00、2019年1月9日周三', '来源:', 'USAF 每小时地面观测', '报告类型:', 'METAR 航空例行天气报告', '露点:', '3.0°C', '天气:', 'Mist', '下午11:00', '7°C', '1,023毫巴', '每小时7.20公里', '4.00公里', '部分多云 (1,219米)', '本地:', '23:00、2019年1月9日周三', '协调世界时:', '15:00、2019年1月9日周三', '来源:', '周期文件', '趋势:', '无重要变化', '露点:', '3°C', '天气:', 'Mist', '原始:', 'ZUUU 091500Z VRB02MPS 4000 BR SCT040 07/03 Q1023 NOSIG', '下午11:00', '7.0°C', '1,023毫巴', '每小时7.20公里', '4.00公里', '部分多云 (1,219米)', '本地:', '23:00、2019年1月9日周三', '协调世界时:', '15:00、2019年1月9日周三', '来源:', 'USAF 每小时地面观测', '报告类型:', 'METAR 航空例行天气报告', '露点:', '3.0°C', '天气:', 'Mist']