['Showers of Light Rain', '-SHRA、IWC80', 'Showers of Light Rain、Mist', '-SHRA、IWC80、BR、IWC10', 'Showers of Light Rain、Mist', '-SHRA、IWC80、BR、IWC10', 'Showers of Light Rain、Mist', '-SHRA、IWC80、BR、IWC10', 'Showers of Light Rain、Mist', '-SHRA、IWC80、BR、IWC10', 'Showers of Light Rain、Mist', '-SHRA、IWC80、BR、IWC10', 'Light Rain、Mist', '-RA、IWC61、BR、IWC10', 'Light Rain、Mist', '-RA、IWC61、BR、IWC10', 'Light Rain、Mist', '-RA、IWC61、BR、IWC10', 'Light Rain、Mist', '-RA、IWC61、BR、IWC10', 'Light Rain、Mist', '-RA、IWC61、BR、IWC10', 'Light Rain、Mist', '-RA、IWC61、BR、IWC10', 'Light Rain、Mist', '-RA、IWC61、BR、IWC10', 'Light Rain、Mist', '-RA、IWC61、BR、IWC10', 'Light Rain', '-RA、IWC61', 'Light Rain', '-RA、IWC61', 'Light Rain', '-RA、IWC61', 'Light Rain', '-RA、IWC61', 'Light Rain、Mist', '-RA、IWC61、BR、IWC10', 'Light Rain、Mist', '-RA、IWC61、BR、IWC10', 'Light Rain', '-RA、IWC61', 'Light Rain', '-RA、IWC61', '上午12:00', '18°C', '1,017毫巴', '每小时0公里', '10.00公里', '部分多云 (1,524米)', '本地:', '00:00、2019年10月24日周四', '协调世界时:', '16:00、2019年10月23日周三', '来源:', '周期文件', '趋势:', '无重要变化', '露点:', '15°C', '原始:', 'ZUUU 231600Z 00000MPS 9999 SCT050 18/15 Q1017 NOSIG', '上午12:00', '18.0°C', '1,017毫巴', '每小时0公里', '10.00公里', '部分多云 (1,524米)', '本地:', '00:00、2019年10月24日周四', '协调世界时:', '16:00、2019年10月23日周三', '来源:', 'USAF 每小时地面观测', '报告类型:', 'METAR 航空例行天气报告', '露点:', '15.0°C', '上午1:00', '18°C', '1,017毫巴', '每小时3.60公里', '10.00公里', '部分多云 (1,524米)', '本地:', '01:00、2019年10月24日周四', '协调世界时:', '17:00、2019年10月23日周三', '来源:', '周期文件', '趋势:', '无重要变化', '露点:', '15°C', '原始:', 'ZUUU 231700Z VRB01MPS 9999 SCT050 18/15 Q1017 NOSIG', '上午1:00', '18.0°C', '1,017毫巴', '每小时3.60公里', '10.00公里', '部分多云 (1,524米)', '本地:', '01:00、2019年10月24日周四', '协调世界时:', '17:00、2019年10月23日周三', '来源:', 'USAF 每小时地面观测', '报告类型:', 'METAR 航空例行天气报告', '露点:', '15.0°C', '上午2:00', '18°C', '1,017毫巴', '每小时0公里', '10.00公里', '大部分多云 (1,006米)', '本地:', '02:00、2019年10月24日周四', '协调世界时:', '18:00、2019年10月23日周三', '来源:', '周期文件', '趋势:', '无重要变化', '露点:', '15°C', '天气:', 'Showers of Light Rain', '原始:', 'ZUUU 231800Z 00000MPS 9999 -SHRA BKN033 18/15 Q1017 NOSIG', '上午2:00', '18.0°C', '1,017毫巴', '每小时0公里', '10.00公里', '大部分多云 (1,006米)', '本地:', '02:00、2019年10月24日周四', '协调世界时:', '18:00、2019年10月23日周三', '来源:', 'USAF 每小时地面观测', '报告类型:', 'METAR 航空例行天气报告', '露点:', '15.0°C', '天气:', 'Showers of Light Rain', '上午3:00', '18°C', '1,017毫巴', '每小时3.60公里', '5.00公里', '大部分多云 (701米)', '本地:', '03:00、2019年10月24日周四', '协调世界时:', '19:00、2019年10月23日周三', '来源:', '周期文件', '趋势:', '无重要变化', '露点:', '16°C', '其他云层:', '大部分晴天 (305米)', '天气:', 'Showers of Light Rain、Mist', '原始:', 'ZUUU 231900Z VRB01MPS 5000 -SHRA BR FEW010 BKN023 18/16 Q1017 NOSIG', '上午3:00', '18.0°C', '1,017毫巴', '每小时3.60公里', '5.00公里', '大部分多云 (701米)', '本地:', '03:00、2019年10月24日周四', '协调世界时:', '19:00、2019年10月23日周三', '来源:', 'USAF 每小时地面观测', '报告类型:', 'METAR 航空例行天气报告', '露点:', '16.0°C', '其他云层:', '大部分晴天 (305米)', '天气:', 'Mist、Showers of Light Rain', '上午4:00', '17°C', '1,017毫巴', '每小时3.60公里, 北', '5.00公里', '大部分多云 (914米)', '本地:', '04:00、2019年10月24日周四', '协调世界时:', '20:00、2019年10月23日周三', '来源:', '周期文件', '趋势:', '无重要变化', '露点:', '16°C', '其他云层:', '大部分晴天 (305米)', '天气:', 'Showers of Light Rain、Mist', '原始:', 'ZUUU 232000Z 01001MPS 5000 -SHRA BR FEW010 BKN030 17/16 Q1017 NOSIG', '上午4:00', '17.0°C', '1,017毫巴', '每小时3.60公里, 北', '5.00公里', '大部分多云 (914米)', '本地:', '04:00、2019年10月24日周四', '协调世界时:', '20:00、2019年10月23日周三', '来源:', 'USAF 每小时地面观测', '报告类型:', 'METAR 航空例行天气报告', '露点:', '16.0°C', '其他云层:', '大部分晴天 (305米)', '天气:', 'Mist、Showers of Light Rain', '上午5:00', '17°C', '1,017毫巴', '每小时3.60公里', '5.00公里', '大部分多云 (914米)', '本地:', '05:00、2019年10月24日周四', '协调世界时:', '21:00、2019年10月23日周三', '来源:', '周期文件', '趋势:', '无重要变化', '露点:', '16°C', '其他云层:', '大部分晴天 (305米)', '天气:', 'Showers of Light Rain、Mist', '原始:', 'ZUUU 232100Z VRB01MPS 5000 -SHRA BR FEW010 BKN030 17/16 Q1017 NOSIG', '上午5:00', '17.0°C', '1,017毫巴', '每小时3.60公里', '5.00公里', '大部分多云 (914米)', '本地:', '05:00、2019年10月24日周四', '协调世界时:', '21:00、2019年10月23日周三', '来源:', 'USAF 每小时地面观测', '报告类型:', 'METAR 航空例行天气报告', '露点:', '16.0°C', '其他云层:', '大部分晴天 (305米)', '天气:', 'Mist、Showers of Light Rain', '上午6:00', '17°C', '1,017毫巴', '每小时7.20公里, 东北', '5.00公里', '大部分多云 (914米)', '本地:', '06:00、2019年10月24日周四', '协调世界时:', '22:00、2019年10月23日周三', '来源:', '周期文件', '趋势:', '无重要变化', '露点:', '16°C', '天气:', 'Showers of Light Rain、Mist', '原始:', 'ZUUU 232200Z 05002MPS 020V090 5000 -SHRA BR BKN030 17/16 Q1017 NOSIG', '上午6:00', '17.0°C', '1,017毫巴', '每小时7.20公里, 东北', '5.00公里', '大部分多云 (914米)', '本地:', '06:00、2019年10月24日周四', '协调世界时:', '22:00、2019年10月23日周三', '来源:', 'USAF 每小时地面观测', '报告类型:', 'METAR 航空例行天气报告', '露点:', '16.0°C', '天气:', 'Mist、Showers of Light Rain', '上午7:00', '17°C', '1,018毫巴', '每小时7.20公里, 北', '5.00公里', '大部分多云 (914米)', '本地:', '07:00、2019年10月24日周四', '协调世界时:', '23:00、2019年10月23日周三', '来源:', '周期文件', '趋势:', '无重要变化', '露点:', '16°C', '天气:', 'Showers of Light Rain、Mist', '原始:', 'ZUUU 232300Z 01002MPS 340V040 5000 -SHRA BR BKN030 17/16 Q1018 NOSIG', '上午7:00', '17.0°C', '1,018毫巴', '每小时7.20公里, 北', '5.00公里', '大部分多云 (914米)', '本地:', '07:00、2019年10月24日周四', '协调世界时:', '23:00、2019年10月23日周三', '来源:', 'USAF 每小时地面观测', '报告类型:', 'METAR 航空例行天气报告', '露点:', '16.0°C', '天气:', 'Mist、Showers of Light Rain', '上午8:00', '17°C', '1,019毫巴', '每小时14.4公里, 东北', '3.00公里', '大部分多云 (1,219米)', '本地:', '08:00、2019年10月24日周四', '协调世界时:', '00:00、2019年10月24日周四', '来源:', '周期文件', '趋势:', '无重要变化', '露点:', '16°C', '其他云层:', '大部分晴天 (305米)', '天气:', 'Light Rain、Mist', '原始:', 'ZUUU 240000Z 04004MPS 3000 -RA BR FEW010 BKN040 17/16 Q1019 NOSIG', '上午8:00', '17.0°C', '1,019毫巴', '每小时14.4公里, 东北', '3.00公里', '大部分多云 (1,219米)', '本地:', '08:00、2019年10月24日周四', '协调世界时:', '00:00、2019年10月24日周四', '来源:', 'USAF 每小时地面观测', '报告类型:', 'METAR 航空例行天气报告', '露点:', '16.0°C', '其他云层:', '大部分晴天 (305米)', '天气:', 'Mist、Light Rain', '上午9:00', '17°C', '1,019毫巴', '每小时14.4公里, 北', '2.30公里', '大部分多云 (1,006米)', '本地:', '09:00、2019年10月24日周四', '协调世界时:', '01:00、2019年10月24日周四', '来源:', '周期文件', '趋势:', '变化为', '露点:', '16°C', '其他云层:', '大部分晴天 (183米)', '天气:', 'Light Rain、Mist', '原始:', 'ZUUU 240100Z 02004MPS 2300 -RA BR FEW006 BKN033 17/16 Q1019 BECMG TL0200 3000', '上午9:00', '17.0°C', '1,019毫巴', '每小时14.4公里, 北', '2.30公里', '大部分多云 (1,006米)', '本地:', '09:00、2019年10月24日周四', '协调世界时:', '01:00、2019年10月24日周四', '来源:', 'USAF 每小时地面观测', '报告类型:', 'METAR 航空例行天气报告', '露点:', '16.0°C', '其他云层:', '大部分晴天 (183米)', '天气:', 'Mist、Light Rain', '上午10:00', '17°C', '1,020毫巴', '每小时10.8公里, 北', '3.50公里', '大部分多云 (1,006米)', '本地:', '10:00、2019年10月24日周四', '协调世界时:', '02:00、2019年10月24日周四', '来源:', '周期文件', '趋势:', '无重要变化', '露点:', '16°C', '其他云层:', '部分多云 (244米)', '天气:', 'Light Rain、Mist', '原始:', 'ZUUU 240200Z 02003MPS 350V060 3500 -RA BR SCT008 BKN033 17/16 Q1020 NOSIG', '上午10:00', '17.0°C', '1,020毫巴', '每小时10.8公里, 北', '3.50公里', '大部分多云 (1,006米)', '本地:', '10:00、2019年10月24日周四', '协调世界时:', '02:00、2019年10月24日周四', '来源:', 'USAF 每小时地面观测', '报告类型:', 'METAR 航空例行天气报告', '露点:', '16.0°C', '其他云层:', '部分多云 (244米)', '天气:', 'Mist、Light Rain', '上午11:00', '17°C', '1,020毫巴', '每小时7.20公里, 北', '3.50公里', '大部分多云 (1,006米)', '本地:', '11:00、2019年10月24日周四', '协调世界时:', '03:00、2019年10月24日周四', '来源:', '周期文件', '趋势:', '无重要变化', '露点:', '17°C', '其他云层:', '部分多云 (244米)', '天气:', 'Light Rain、Mist', '原始:', 'ZUUU 240300Z 01002MPS 330V040 3500 -RA BR SCT008 BKN033 17/17 Q1020 NOSIG', '上午11:00', '17.0°C', '1,020毫巴', '每小时7.20公里, 北', '3.50公里', '大部分多云 (1,006米)', '本地:', '11:00、2019年10月24日周四', '协调世界时:', '03:00、2019年10月24日周四', '来源:', 'USAF 每小时地面观测', '报告类型:', 'METAR 航空例行天气报告', '露点:', '17.0°C', '其他云层:', '部分多云 (244米)', '天气:', 'Mist、Light Rain', '下午12:00', '17°C', '1,020毫巴', '每小时14.4公里, 东北', '4.50公里', '大部分多云 (792米)', '本地:', '12:00、2019年10月24日周四', '协调世界时:', '04:00、2019年10月24日周四', '来源:', '周期文件', '趋势:', '无重要变化', '露点:', '16°C', '其他云层:', '大部分晴天 (152米)、部分多云 (213米)', '天气:', 'Light Rain、Mist', '原始:', 'ZUUU 240400Z 04004MPS 360V060 4500 -RA BR FEW005 SCT007 BKN026 17/16 Q1020 NOSIG', '下午12:00', '17.0°C', '1,020毫巴', '每小时14.4公里, 东北', '4.50公里', '大部分多云 (792米)', '本地:', '12:00、2019年10月24日周四', '协调世界时:', '04:00、2019年10月24日周四', '来源:', 'USAF 每小时地面观测', '报告类型:', 'METAR 航空例行天气报告', '露点:', '16.0°C', '其他云层:', '大部分晴天 (152米)、部分多云 (213米)', '天气:', 'Mist、Light Rain', '下午1:00', '17°C', '1,019毫巴', '每小时14.4公里, 东北', '4.00公里', '大部分多云 (792米)', '本地:', '13:00、2019年10月24日周四', '协调世界时:', '05:00、2019年10月24日周四', '来源:', '周期文件', '趋势:', '无重要变化', '露点:', '16°C', '其他云层:', '大部分晴天 (152米)、部分多云 (213米)', '天气:', 'Light Rain、Mist', '原始:', 'ZUUU 240500Z 04004MPS 4000 -RA BR FEW005 SCT007 BKN026 17/16 Q1019 NOSIG', '下午1:00', '17.0°C', '1,019毫巴', '每小时14.4公里, 东北', '4.00公里', '大部分多云 (792米)', '本地:', '13:00、2019年10月24日周四', '协调世界时:', '05:00、2019年10月24日周四', '来源:', 'USAF 每小时地面观测', '报告类型:', 'METAR 航空例行天气报告', '露点:', '16.0°C', '其他云层:', '大部分晴天 (152米)、部分多云 (213米)', '天气:', 'Mist、Light Rain', '下午2:00', '17°C', '1,018毫巴', '每小时14.4公里, 东北', '4.00公里', '大部分多云 (792米)', '本地:', '14:00、2019年10月24日周四', '协调世界时:', '06:00、2019年10月24日周四', '来源:', '周期文件', '趋势:', '无重要变化', '露点:', '16°C', '其他云层:', '大部分晴天 (152米)、部分多云 (213米)', '天气:', 'Light Rain、Mist', '原始:', 'ZUUU 240600Z 04004MPS 4000 -RA BR FEW005 SCT007 BKN026 17/16 Q1018 NOSIG', '下午2:00', '17.0°C', '1,018毫巴', '每小时14.4公里, 东北', '4.00公里', '大部分多云 (792米)', '本地:', '14:00、2019年10月24日周四', '协调世界时:', '06:00、2019年10月24日周四', '来源:', 'USAF 每小时地面观测', '报告类型:', 'METAR 航空例行天气报告', '露点:', '16.0°C', '其他云层:', '大部分晴天 (152米)、部分多云 (213米)', '天气:', 'Mist、Light Rain', '下午3:00', '14°C', '1,018毫巴', '每小时32.4公里, 东北', '4.00公里', '大部分多云 (792米)', '本地:', '15:00、2019年10月24日周四', '协调世界时:', '07:00、2019年10月24日周四', '来源:', '周期文件', '趋势:', '无重要变化', '露点:', '13°C', '其他云层:', '大部分晴天 (152米)、部分多云 (213米)', '天气:', 'Light Rain、Mist', '原始:', 'ZUUU 240700Z 03009MPS 350V060 4000 -RA BR FEW005 SCT007 BKN026 14/13 Q1018 NOSIG', '下午3:00', '14.0°C', '1,018毫巴', '每小时32.4公里, 东北', '4.00公里', '大部分多云 (792米)', '本地:', '15:00、2019年10月24日周四', '协调世界时:', '07:00、2019年10月24日周四', '来源:', 'USAF 每小时地面观测', '报告类型:', 'METAR 航空例行天气报告', '露点:', '13.0°C', '其他云层:', '大部分晴天 (152米)、部分多云 (213米)', '天气:', 'Mist、Light Rain', '下午4:00', '14°C', '1,019毫巴', '每小时32.4公里, 东北', '10.00公里', '大部分多云 (792米)', '本地:', '16:00、2019年10月24日周四', '协调世界时:', '08:00、2019年10月24日周四', '来源:', '周期文件', '趋势:', '无重要变化', '露点:', '12°C', '其他云层:', '大部分晴天 (213米)', '天气:', 'Light Rain', '原始:', 'ZUUU 240800Z 04009MPS 9999 -RA FEW007 BKN026 14/12 Q1019 NOSIG', '下午4:00', '14.0°C', '1,019毫巴', '每小时32.4公里, 东北', '10.00公里', '大部分多云 (792米)', '本地:', '16:00、2019年10月24日周四', '协调世界时:', '08:00、2019年10月24日周四', '来源:', 'USAF 每小时地面观测', '报告类型:', 'METAR 航空例行天气报告', '露点:', '12.0°C', '其他云层:', '大部分晴天 (213米)', '天气:', 'Light Rain', '下午5:00', '13°C', '1,019毫巴', '每小时32.4公里, 东北', '10.00公里', '大部分多云 (792米)', '本地:', '17:00、2019年10月24日周四', '协调世界时:', '09:00、2019年10月24日周四', '来源:', '周期文件', '趋势:', '无重要变化', '露点:', '11°C', '其他云层:', '大部分晴天 (213米)', '天气:', 'Light Rain', '原始:', 'ZUUU 240900Z 04009MPS 9999 -RA FEW007 BKN026 13/11 Q1019 NOSIG', '下午5:00', '13.0°C', '1,019毫巴', '每小时32.4公里, 东北', '10.00公里', '大部分多云 (792米)', '本地:', '17:00、2019年10月24日周四', '协调世界时:', '09:00、2019年10月24日周四', '来源:', 'USAF 每小时地面观测', '报告类型:', 'METAR 航空例行天气报告', '露点:', '11.0°C', '其他云层:', '大部分晴天 (213米)', '天气:', 'Light Rain', '下午6:00', '13°C', '1,020毫巴', '每小时28.8公里, 东北', '10.00公里', '大部分多云 (792米)', '本地:', '18:00、2019年10月24日周四', '协调世界时:', '10:00、2019年10月24日周四', '来源:', '周期文件', '趋势:', '无重要变化', '露点:', '11°C', '其他云层:', '部分多云 (213米)', '天气:', 'Light Rain', '原始:', 'ZUUU 241000Z 04008MPS 360V060 9999 -RA SCT007 BKN026 13/11 Q1020 NOSIG', '下午6:00', '13.0°C', '1,020毫巴', '每小时28.8公里, 东北', '10.00公里', '大部分多云 (792米)', '本地:', '18:00、2019年10月24日周四', '协调世界时:', '10:00、2019年10月24日周四', '来源:', 'USAF 每小时地面观测', '报告类型:', 'METAR 航空例行天气报告', '露点:', '11.0°C', '其他云层:', '部分多云 (213米)', '天气:', 'Light Rain', '下午7:00', '13°C', '1,021毫巴', '每小时28.8公里, 东北', '6.00公里', '大部分多云 (792米)', '本地:', '19:00、2019年10月24日周四', '协调世界时:', '11:00、2019年10月24日周四', '来源:', '周期文件', '趋势:', '无重要变化', '露点:', '11°C', '其他云层:', '部分多云 (213米)', '天气:', 'Light Rain', '原始:', 'ZUUU 241100Z 04008MPS 6000 -RA SCT007 BKN026 13/11 Q1021 NOSIG', '下午7:00', '13.0°C', '1,021毫巴', '每小时28.8公里, 东北', '6.00公里', '大部分多云 (792米)', '本地:', '19:00、2019年10月24日周四', '协调世界时:', '11:00、2019年10月24日周四', '来源:', 'USAF 每小时地面观测', '报告类型:', 'METAR 航空例行天气报告', '露点:', '11.0°C', '其他云层:', '部分多云 (213米)', '天气:', 'Light Rain', '下午8:00', '12°C', '1,021毫巴', '每小时25.2公里, 东北', '4.50公里', '大部分多云 (792米)', '本地:', '20:00、2019年10月24日周四', '协调世界时:', '12:00、2019年10月24日周四', '来源:', '周期文件', '趋势:', '无重要变化', '露点:', '11°C', '其他云层:', '部分多云 (213米)', '天气:', 'Light Rain、Mist', '原始:', 'ZUUU 241200Z 04007MPS 4500 -RA BR SCT007 BKN026 12/11 Q1021 NOSIG', '下午8:00', '12.0°C', '1,021毫巴', '每小时25.2公里, 东北', '4.50公里', '大部分多云 (792米)', '本地:', '20:00、2019年10月24日周四', '协调世界时:', '12:00、2019年10月24日周四', '来源:', 'USAF 每小时地面观测', '报告类型:', 'METAR 航空例行天气报告', '露点:', '11.0°C', '其他云层:', '部分多云 (213米)', '天气:', 'Mist、Light Rain', '下午9:00', '12°C', '1,022毫巴', '每小时18.0公里, 东北', '5.00公里', '大部分多云 (792米)', '本地:', '21:00、2019年10月24日周四', '协调世界时:', '13:00、2019年10月24日周四', '来源:', '周期文件', '趋势:', '无重要变化', '露点:', '11°C', '其他云层:', '部分多云 (213米)', '天气:', 'Light Rain、Mist', '原始:', 'ZUUU 241300Z 04005MPS 5000 -RA BR SCT007 BKN026 12/11 Q1022 NOSIG', '下午9:00', '12.0°C', '1,022毫巴', '每小时18.0公里, 东北', '5.00公里', '大部分多云 (792米)', '本地:', '21:00、2019年10月24日周四', '协调世界时:', '13:00、2019年10月24日周四', '来源:', 'USAF 每小时地面观测', '报告类型:', 'METAR 航空例行天气报告', '露点:', '11.0°C', '其他云层:', '部分多云 (213米)', '天气:', 'Mist、Light Rain', '下午10:00', '13°C', '1,023毫巴', '每小时21.6公里, 东北', '7.00公里', '大部分多云 (792米)', '本地:', '22:00、2019年10月24日周四', '协调世界时:', '14:00、2019年10月24日周四', '来源:', '周期文件', '趋势:', '无重要变化', '露点:', '12°C', '其他云层:', '部分多云 (213米)', '天气:', 'Light Rain', '原始:', 'ZUUU 241400Z 04006MPS 010V070 7000 -RA SCT007 BKN026 13/12 Q1023 NOSIG', '下午10:00', '13.0°C', '1,023毫巴', '每小时21.6公里, 东北', '7.00公里', '大部分多云 (792米)', '本地:', '22:00、2019年10月24日周四', '协调世界时:', '14:00、2019年10月24日周四', '来源:', 'USAF 每小时地面观测', '报告类型:', 'METAR 航空例行天气报告', '露点:', '12.0°C', '其他云层:', '部分多云 (213米)', '天气:', 'Light Rain', '下午11:00', '13°C', '1,023毫巴', '每小时14.4公里, 东北', '8.00公里', '大部分多云 (1,006米)', '本地:', '23:00、2019年10月24日周四', '协调世界时:', '15:00、2019年10月24日周四', '来源:', '周期文件', '趋势:', '无重要变化', '露点:', '12°C', '其他云层:', '部分多云 (213米)', '天气:', 'Light Rain', '原始:', 'ZUUU 241500Z 04004MPS 010V070 8000 -RA SCT007 BKN033 13/12 Q1023 NOSIG', '下午11:00', '13.0°C', '1,023毫巴', '每小时14.4公里, 东北', '8.00公里', '大部分多云 (1,006米)', '本地:', '23:00、2019年10月24日周四', '协调世界时:', '15:00、2019年10月24日周四', '来源:', 'USAF 每小时地面观测', '报告类型:', 'METAR 航空例行天气报告', '露点:', '12.0°C', '其他云层:', '部分多云 (213米)', '天气:', 'Light Rain']