['Mist', 'BR、IWC10', 'Mist', 'BR、IWC10', 'Mist', 'BR、IWC10', 'Mist', 'BR、IWC10', 'Mist', 'BR、IWC10', 'Mist', 'BR、IWC10', 'Mist', 'BR、IWC10', 'Mist', 'BR、IWC10', 'Mist', 'BR、IWC10', 'Mist', 'BR、IWC10', 'Haze', 'HZ、IWC05', 'Mist', 'BR、IWC10', '上午12:00', '11°C', '1,022毫巴', '每小时0公里', '6.00公里', '无重要云', '本地:', '00:00、2019年3月18日周一', '协调世界时:', '16:00、2019年3月17日周日', '来源:', '周期文件', '趋势:', '无重要变化', '露点:', '10°C', '原始:', 'ZUUU 171600Z 00000MPS 6000 NSC 11/10 Q1022 NOSIG', '上午12:00', '11.0°C', '1,022毫巴', '每小时0公里', '6.00公里', '未检测到云', '本地:', '00:00、2019年3月18日周一', '协调世界时:', '16:00、2019年3月17日周日', '来源:', 'USAF 每小时地面观测', '报告类型:', 'METAR 航空例行天气报告', '露点:', '10.0°C', '上午1:00', '10°C', '1,021毫巴', '每小时0公里', '6.00公里', '无重要云', '本地:', '01:00、2019年3月18日周一', '协调世界时:', '17:00、2019年3月17日周日', '来源:', '周期文件', '趋势:', '无重要变化', '露点:', '9°C', '原始:', 'ZUUU 171700Z 00000MPS 6000 NSC 10/09 Q1021 NOSIG', '上午1:00', '10.0°C', '1,021毫巴', '每小时0公里', '6.00公里', '未检测到云', '本地:', '01:00、2019年3月18日周一', '协调世界时:', '17:00、2019年3月17日周日', '来源:', 'USAF 每小时地面观测', '报告类型:', 'METAR 航空例行天气报告', '露点:', '9.0°C', '上午2:00', '10°C', '1,021毫巴', '每小时3.60公里, 西南', '6.00公里', '无重要云', '本地:', '02:00、2019年3月18日周一', '协调世界时:', '18:00、2019年3月17日周日', '来源:', '周期文件', '趋势:', '无重要变化', '露点:', '9°C', '原始:', 'ZUUU 171800Z 21001MPS 6000 NSC 10/09 Q1021 NOSIG', '上午2:00', '10.0°C', '1,021毫巴', '每小时3.60公里, 西南', '6.00公里', '未检测到云', '本地:', '02:00、2019年3月18日周一', '协调世界时:', '18:00、2019年3月17日周日', '来源:', 'USAF 每小时地面观测', '报告类型:', 'METAR 航空例行天气报告', '露点:', '9.0°C', '上午3:00', '9°C', '1,020毫巴', '每小时0公里', '5.00公里', '无重要云', '本地:', '03:00、2019年3月18日周一', '协调世界时:', '19:00、2019年3月17日周日', '来源:', '周期文件', '趋势:', '无重要变化', '露点:', '9°C', '天气:', 'Mist', '原始:', 'ZUUU 171900Z 00000MPS 5000 BR NSC 09/09 Q1020 NOSIG', '上午3:00', '9.0°C', '1,020毫巴', '每小时0公里', '5.00公里', '未检测到云', '本地:', '03:00、2019年3月18日周一', '协调世界时:', '19:00、2019年3月17日周日', '来源:', 'USAF 每小时地面观测', '报告类型:', 'METAR 航空例行天气报告', '露点:', '9.0°C', '天气:', 'Mist', '上午4:00', '9°C', '1,019毫巴', '每小时0公里', '5.00公里', '无重要云', '本地:', '04:00、2019年3月18日周一', '协调世界时:', '20:00、2019年3月17日周日', '来源:', '周期文件', '趋势:', '无重要变化', '露点:', '9°C', '天气:', 'Mist', '原始:', 'ZUUU 172000Z 00000MPS 5000 BR NSC 09/09 Q1019 NOSIG', '上午4:00', '9.0°C', '1,019毫巴', '每小时0公里', '5.00公里', '未检测到云', '本地:', '04:00、2019年3月18日周一', '协调世界时:', '20:00、2019年3月17日周日', '来源:', 'USAF 每小时地面观测', '报告类型:', 'METAR 航空例行天气报告', '露点:', '9.0°C', '天气:', 'Mist', '上午5:00', '10°C', '1,019毫巴', '每小时0公里', '4.50公里', '部分多云 (1,524米)', '本地:', '05:00、2019年3月18日周一', '协调世界时:', '21:00、2019年3月17日周日', '来源:', '周期文件', '趋势:', '无重要变化', '露点:', '10°C', '天气:', 'Mist', '原始:', 'ZUUU 172100Z 00000MPS 4500 BR SCT050 10/10 Q1019 NOSIG', '上午5:00', '10.0°C', '1,019毫巴', '每小时0公里', '4.50公里', '部分多云 (1,524米)', '本地:', '05:00、2019年3月18日周一', '协调世界时:', '21:00、2019年3月17日周日', '来源:', 'USAF 每小时地面观测', '报告类型:', 'METAR 航空例行天气报告', '露点:', '10.0°C', '天气:', 'Mist', '上午6:00', '10°C', '1,019毫巴', '每小时0公里', '4.50公里', '部分多云 (1,524米)', '本地:', '06:00、2019年3月18日周一', '协调世界时:', '22:00、2019年3月17日周日', '来源:', '周期文件', '趋势:', '无重要变化', '露点:', '10°C', '天气:', 'Mist', '原始:', 'ZUUU 172200Z 00000MPS 4500 BR SCT050 10/10 Q1019 NOSIG', '上午6:00', '10.0°C', '1,019毫巴', '每小时0公里', '4.50公里', '部分多云 (1,524米)', '本地:', '06:00、2019年3月18日周一', '协调世界时:', '22:00、2019年3月17日周日', '来源:', 'USAF 每小时地面观测', '报告类型:', 'METAR 航空例行天气报告', '露点:', '10.0°C', '天气:', 'Mist', '上午7:00', '10°C', '1,019毫巴', '每小时3.60公里', '4.00公里', '部分多云 (1,524米)', '本地:', '07:00、2019年3月18日周一', '协调世界时:', '23:00、2019年3月17日周日', '来源:', '周期文件', '趋势:', '无重要变化', '露点:', '9°C', '天气:', 'Mist', '原始:', 'ZUUU 172300Z VRB01MPS 4000 BR SCT050 10/09 Q1019 NOSIG', '上午7:00', '10.0°C', '1,019毫巴', '每小时3.60公里', '4.00公里', '部分多云 (1,524米)', '本地:', '07:00、2019年3月18日周一', '协调世界时:', '23:00、2019年3月17日周日', '来源:', 'USAF 每小时地面观测', '报告类型:', 'METAR 航空例行天气报告', '露点:', '9.0°C', '天气:', 'Mist', '上午8:00', '11°C', '1,020毫巴', '每小时0公里', '2.20公里', '部分多云 (1,524米)', '本地:', '08:00、2019年3月18日周一', '协调世界时:', '00:00、2019年3月18日周一', '来源:', '周期文件', '趋势:', '变化为', '露点:', '11°C', '天气:', 'Mist', '原始:', 'ZUUU 180000Z 00000MPS 2200 BR SCT050 11/11 Q1020 BECMG TL0100 3000', '上午8:00', '11.0°C', '1,020毫巴', '每小时0公里', '2.20公里', '部分多云 (1,524米)', '本地:', '08:00、2019年3月18日周一', '协调世界时:', '00:00、2019年3月18日周一', '来源:', 'USAF 每小时地面观测', '报告类型:', 'METAR 航空例行天气报告', '露点:', '11.0°C', '天气:', 'Mist', '上午9:00', '13°C', '1,021毫巴', '每小时0公里', '2.50公里', '部分多云 (1,524米)', '本地:', '09:00、2019年3月18日周一', '协调世界时:', '01:00、2019年3月18日周一', '来源:', '周期文件', '趋势:', '变化为', '露点:', '12°C', '天气:', 'Mist', '原始:', 'ZUUU 180100Z 00000MPS 2500 BR SCT050 13/12 Q1021 BECMG TL0130 3000', '上午9:00', '13.0°C', '1,021毫巴', '每小时0公里', '2.50公里', '部分多云 (1,524米)', '本地:', '09:00、2019年3月18日周一', '协调世界时:', '01:00、2019年3月18日周一', '来源:', 'USAF 每小时地面观测', '报告类型:', 'METAR 航空例行天气报告', '露点:', '12.0°C', '天气:', 'Mist', '上午10:00', '14°C', '1,021毫巴', '每小时0公里', '2.50公里', '无重要云', '本地:', '10:00、2019年3月18日周一', '协调世界时:', '02:00、2019年3月18日周一', '来源:', '周期文件', '趋势:', '变化为', '露点:', '11°C', '天气:', 'Mist', '原始:', 'ZUUU 180200Z 00000MPS 2500 BR NSC 14/11 Q1021 BECMG TL0230 3000', '上午10:00', '14.0°C', '1,021毫巴', '每小时0公里', '2.50公里', '未检测到云', '本地:', '10:00、2019年3月18日周一', '协调世界时:', '02:00、2019年3月18日周一', '来源:', 'USAF 每小时地面观测', '报告类型:', 'METAR 航空例行天气报告', '露点:', '11.0°C', '天气:', 'Mist', '上午11:00', '15°C', '1,021毫巴', '每小时0公里', '3.00公里', '无重要云', '本地:', '11:00、2019年3月18日周一', '协调世界时:', '03:00、2019年3月18日周一', '来源:', '周期文件', '趋势:', '无重要变化', '露点:', '11°C', '天气:', 'Mist', '原始:', 'ZUUU 180300Z 00000MPS 3000 BR NSC 15/11 Q1021 NOSIG', '上午11:00', '15.0°C', '1,021毫巴', '每小时0公里', '3.00公里', '未检测到云', '本地:', '11:00、2019年3月18日周一', '协调世界时:', '03:00、2019年3月18日周一', '来源:', 'USAF 每小时地面观测', '报告类型:', 'METAR 航空例行天气报告', '露点:', '11.0°C', '天气:', 'Mist', '下午12:00', '16°C', '1,020毫巴', '每小时3.60公里', '5.00公里', '大部分晴天 (792米)', '本地:', '12:00、2019年3月18日周一', '协调世界时:', '04:00、2019年3月18日周一', '来源:', '周期文件', '趋势:', '无重要变化', '露点:', '11°C', '天气:', 'Mist', '原始:', 'ZUUU 180400Z VRB01MPS 5000 BR FEW026 16/11 Q1020 NOSIG', '下午12:00', '16.0°C', '1,020毫巴', '每小时3.60公里', '5.00公里', '大部分晴天 (792米)', '本地:', '12:00、2019年3月18日周一', '协调世界时:', '04:00、2019年3月18日周一', '来源:', 'USAF 每小时地面观测', '报告类型:', 'METAR 航空例行天气报告', '露点:', '11.0°C', '天气:', 'Mist', '下午1:00', '17°C', '1,019毫巴', '每小时3.60公里', '5.00公里', '大部分晴天 (792米)', '本地:', '13:00、2019年3月18日周一', '协调世界时:', '05:00、2019年3月18日周一', '来源:', '周期文件', '趋势:', '无重要变化', '露点:', '10°C', '天气:', 'Haze', '原始:', 'ZUUU 180500Z VRB01MPS 5000 HZ FEW026 17/10 Q1019 NOSIG', '下午1:00', '17.0°C', '1,019毫巴', '每小时3.60公里', '5.00公里', '大部分晴天 (792米)', '本地:', '13:00、2019年3月18日周一', '协调世界时:', '05:00、2019年3月18日周一', '来源:', 'USAF 每小时地面观测', '报告类型:', 'METAR 航空例行天气报告', '露点:', '10.0°C', '天气:', 'Haze', '下午2:00', '18°C', '1,017毫巴', '每小时3.60公里', '6.00公里', '大部分晴天 (792米)', '本地:', '14:00、2019年3月18日周一', '协调世界时:', '06:00、2019年3月18日周一', '来源:', '周期文件', '趋势:', '无重要变化', '露点:', '10°C', '原始:', 'ZUUU 180600Z VRB01MPS 6000 FEW026 18/10 Q1017 NOSIG', '下午2:00', '18.0°C', '1,017毫巴', '每小时3.60公里', '6.00公里', '大部分晴天 (792米)', '本地:', '14:00、2019年3月18日周一', '协调世界时:', '06:00、2019年3月18日周一', '来源:', 'USAF 每小时地面观测', '报告类型:', 'METAR 航空例行天气报告', '露点:', '10.0°C', '下午3:00', '17°C', '1,016毫巴', '每小时7.20公里, 西', '6.00公里', '大部分晴天 (792米)', '本地:', '15:00、2019年3月18日周一', '协调世界时:', '07:00、2019年3月18日周一', '来源:', '周期文件', '趋势:', '无重要变化', '露点:', '11°C', '原始:', 'ZUUU 180700Z 28002MPS 210V360 6000 FEW026 17/11 Q1016 NOSIG', '下午3:00', '17.0°C', '1,016毫巴', '每小时7.20公里, 西', '6.00公里', '大部分晴天 (792米)', '本地:', '15:00、2019年3月18日周一', '协调世界时:', '07:00、2019年3月18日周一', '来源:', 'USAF 每小时地面观测', '报告类型:', 'METAR 航空例行天气报告', '露点:', '11.0°C', '下午4:00', '17°C', '1,015毫巴', '每小时7.20公里, 西', '6.00公里', '大部分晴天 (1,006米)', '本地:', '16:00、2019年3月18日周一', '协调世界时:', '08:00、2019年3月18日周一', '来源:', '周期文件', '趋势:', '无重要变化', '露点:', '10°C', '原始:', 'ZUUU 180800Z 29002MPS 260V340 6000 FEW033TCU FEW033 17/10 Q1015 NOSIG', '下午4:00', '17.0°C', '1,015毫巴', '每小时7.20公里, 西', '6.00公里', '大部分晴天 (1,006米)', '本地:', '16:00、2019年3月18日周一', '协调世界时:', '08:00、2019年3月18日周一', '来源:', 'USAF 每小时地面观测', '报告类型:', 'METAR 航空例行天气报告', '露点:', '10.0°C', '下午5:00', '17°C', '1,014毫巴', '每小时0公里', '6.00公里', '部分多云 (1,219米)', '本地:', '17:00、2019年3月18日周一', '协调世界时:', '09:00、2019年3月18日周一', '来源:', '周期文件', '趋势:', '无重要变化', '露点:', '10°C', '原始:', 'ZUUU 180900Z 00000MPS 6000 SCT040 17/10 Q1014 NOSIG', '下午5:00', '17.0°C', '1,014毫巴', '每小时0公里', '6.00公里', '部分多云 (1,219米)', '本地:', '17:00、2019年3月18日周一', '协调世界时:', '09:00、2019年3月18日周一', '来源:', 'USAF 每小时地面观测', '报告类型:', 'METAR 航空例行天气报告', '露点:', '10.0°C', '下午6:00', '17°C', '1,014毫巴', '每小时0公里', '6.00公里', '部分多云 (1,524米)', '本地:', '18:00、2019年3月18日周一', '协调世界时:', '10:00、2019年3月18日周一', '来源:', '周期文件', '趋势:', '无重要变化', '露点:', '10°C', '原始:', 'ZUUU 181000Z 00000MPS 6000 SCT050 17/10 Q1014 NOSIG', '下午6:00', '17.0°C', '1,014毫巴', '每小时0公里', '6.00公里', '部分多云 (1,524米)', '本地:', '18:00、2019年3月18日周一', '协调世界时:', '10:00、2019年3月18日周一', '来源:', 'USAF 每小时地面观测', '报告类型:', 'METAR 航空例行天气报告', '露点:', '10.0°C', '下午7:00', '16°C', '1,014毫巴', '每小时3.60公里', '6.00公里', '部分多云 (1,524米)', '本地:', '19:00、2019年3月18日周一', '协调世界时:', '11:00、2019年3月18日周一', '来源:', '周期文件', '趋势:', '无重要变化', '露点:', '10°C', '原始:', 'ZUUU 181100Z VRB01MPS 6000 SCT050 16/10 Q1014 NOSIG', '下午7:00', '16.0°C', '1,014毫巴', '每小时3.60公里', '6.00公里', '部分多云 (1,524米)', '本地:', '19:00、2019年3月18日周一', '协调世界时:', '11:00、2019年3月18日周一', '来源:', 'USAF 每小时地面观测', '报告类型:', 'METAR 航空例行天气报告', '露点:', '10.0°C', '下午8:00', '16°C', '1,014毫巴', '每小时3.60公里', '6.00公里', '部分多云 (1,524米)', '本地:', '20:00、2019年3月18日周一', '协调世界时:', '12:00、2019年3月18日周一', '来源:', '周期文件', '趋势:', '无重要变化', '露点:', '10°C', '原始:', 'ZUUU 181200Z VRB01MPS 6000 SCT050 16/10 Q1014 NOSIG', '下午8:00', '16.0°C', '1,014毫巴', '每小时3.60公里', '6.00公里', '部分多云 (1,524米)', '本地:', '20:00、2019年3月18日周一', '协调世界时:', '12:00、2019年3月18日周一', '来源:', 'USAF 每小时地面观测', '报告类型:', 'METAR 航空例行天气报告', '露点:', '10.0°C', '下午9:00', '15°C', '1,014毫巴', '每小时0公里', '6.00公里', '部分多云 (1,524米)', '本地:', '21:00、2019年3月18日周一', '协调世界时:', '13:00、2019年3月18日周一', '来源:', '周期文件', '趋势:', '无重要变化', '露点:', '11°C', '原始:', 'ZUUU 181300Z 00000MPS 6000 SCT050 15/11 Q1014 NOSIG', '下午9:00', '15.0°C', '1,014毫巴', '每小时0公里', '6.00公里', '部分多云 (1,524米)', '本地:', '21:00、2019年3月18日周一', '协调世界时:', '13:00、2019年3月18日周一', '来源:', 'USAF 每小时地面观测', '报告类型:', 'METAR 航空例行天气报告', '露点:', '11.0°C', '下午10:00', '14°C', '1,014毫巴', '每小时0公里', '6.00公里', '部分多云 (1,524米)', '本地:', '22:00、2019年3月18日周一', '协调世界时:', '14:00、2019年3月18日周一', '来源:', '周期文件', '趋势:', '无重要变化', '露点:', '11°C', '原始:', 'ZUUU 181400Z 00000MPS 6000 SCT050 14/11 Q1014 NOSIG', '下午10:00', '14.0°C', '1,014毫巴', '每小时0公里', '6.00公里', '部分多云 (1,524米)', '本地:', '22:00、2019年3月18日周一', '协调世界时:', '14:00、2019年3月18日周一', '来源:', 'USAF 每小时地面观测', '报告类型:', 'METAR 航空例行天气报告', '露点:', '11.0°C', '下午11:00', '14°C', '1,014毫巴', '每小时0公里', '5.00公里', '部分多云 (1,524米)', '本地:', '23:00、2019年3月18日周一', '协调世界时:', '15:00、2019年3月18日周一', '来源:', '周期文件', '趋势:', '无重要变化', '露点:', '11°C', '天气:', 'Mist', '原始:', 'ZUUU 181500Z 00000MPS 5000 BR SCT050 14/11 Q1014 NOSIG', '下午11:00', '14.0°C', '1,014毫巴', '每小时0公里', '5.00公里', '部分多云 (1,524米)', '本地:', '23:00、2019年3月18日周一', '协调世界时:', '15:00、2019年3月18日周一', '来源:', 'USAF 每小时地面观测', '报告类型:', 'METAR 航空例行天气报告', '露点:', '11.0°C', '天气:', 'Mist']