['上午12:00', '23°C', '1,008毫巴', '每小时3.60公里', '10.00公里', '部分多云 (1,006米)', '本地:', '00:00、2019年4月22日周一', '协调世界时:', '16:00、2019年4月21日周日', '来源:', '周期文件', '趋势:', '无重要变化', '露点:', '16°C', '其他云层:', '大部分晴天 (1,006米)', '原始:', 'ZUUU 211600Z VRB01MPS 9999 FEW033TCU SCT033 23/16 Q1008 NOSIG', '上午12:00', '23.0°C', '1,008毫巴', '每小时3.60公里', '10.00公里', '部分多云 (1,006米)', '本地:', '00:00、2019年4月22日周一', '协调世界时:', '16:00、2019年4月21日周日', '来源:', 'USAF 每小时地面观测', '报告类型:', 'METAR 航空例行天气报告', '露点:', '16.0°C', '其他云层:', '大部分晴天 (1,006米)', '上午1:00', '22°C', '1,008毫巴', '每小时7.20公里, 西南', '10.00公里', '大部分晴天 (1,006米)', '本地:', '01:00、2019年4月22日周一', '协调世界时:', '17:00、2019年4月21日周日', '来源:', '周期文件', '趋势:', '无重要变化', '露点:', '16°C', '原始:', 'ZUUU 211700Z 23002MPS 9999 FEW033TCU FEW033 22/16 Q1008 NOSIG', '上午1:00', '22.0°C', '1,008毫巴', '每小时7.20公里, 西南', '10.00公里', '大部分晴天 (1,006米)', '本地:', '01:00、2019年4月22日周一', '协调世界时:', '17:00、2019年4月21日周日', '来源:', 'USAF 每小时地面观测', '报告类型:', 'METAR 航空例行天气报告', '露点:', '16.0°C', '上午2:00', '21°C', '1,007毫巴', '每小时7.20公里, 南', '≥ 10.00公里', '晴空万里', '本地:', '02:00、2019年4月22日周一', '协调世界时:', '18:00、2019年4月21日周日', '来源:', '周期文件', '趋势:', '无重要变化', '露点:', '15°C', '晴空万里:', '真', '原始:', 'ZUUU 211800Z 20002MPS 130V230 CAVOK 21/15 Q1007 NOSIG', '上午2:00', '21.0°C', '1,007毫巴', '每小时7.20公里, 南', '-', '晴空万里', '本地:', '02:00、2019年4月22日周一', '协调世界时:', '18:00、2019年4月21日周日', '来源:', 'USAF 每小时地面观测', '报告类型:', 'METAR 航空例行天气报告', '露点:', '15.0°C', '晴空万里:', '真', '上午3:00', '19°C', '1,007毫巴', '每小时0公里', '≥ 10.00公里', '晴空万里', '本地:', '03:00、2019年4月22日周一', '协调世界时:', '19:00、2019年4月21日周日', '来源:', '周期文件', '趋势:', '无重要变化', '露点:', '16°C', '晴空万里:', '真', '原始:', 'ZUUU 211900Z 00000MPS CAVOK 19/16 Q1007 NOSIG', '上午3:00', '19.0°C', '1,007毫巴', '每小时0公里', '-', '晴空万里', '本地:', '03:00、2019年4月22日周一', '协调世界时:', '19:00、2019年4月21日周日', '来源:', 'USAF 每小时地面观测', '报告类型:', 'METAR 航空例行天气报告', '露点:', '16.0°C', '晴空万里:', '真', '上午4:00', '19°C', '1,007毫巴', '每小时0公里', '≥ 10.00公里', '晴空万里', '本地:', '04:00、2019年4月22日周一', '协调世界时:', '20:00、2019年4月21日周日', '来源:', '周期文件', '趋势:', '无重要变化', '露点:', '16°C', '晴空万里:', '真', '原始:', 'ZUUU 212000Z 00000MPS CAVOK 19/16 Q1007 NOSIG', '上午4:00', '19.0°C', '1,007毫巴', '每小时0公里', '-', '晴空万里', '本地:', '04:00、2019年4月22日周一', '协调世界时:', '20:00、2019年4月21日周日', '来源:', 'USAF 每小时地面观测', '报告类型:', 'METAR 航空例行天气报告', '露点:', '16.0°C', '晴空万里:', '真', '上午5:00', '19°C', '1,007毫巴', '每小时0公里', '≥ 10.00公里', '晴空万里', '本地:', '05:00、2019年4月22日周一', '协调世界时:', '21:00、2019年4月21日周日', '来源:', '周期文件', '趋势:', '无重要变化', '露点:', '16°C', '晴空万里:', '真', '原始:', 'ZUUU 212100Z 00000MPS CAVOK 19/16 Q1007 NOSIG', '上午5:00', '19.0°C', '1,007毫巴', '每小时0公里', '-', '晴空万里', '本地:', '05:00、2019年4月22日周一', '协调世界时:', '21:00、2019年4月21日周日', '来源:', 'USAF 每小时地面观测', '报告类型:', 'METAR 航空例行天气报告', '露点:', '16.0°C', '晴空万里:', '真', '上午6:00', '18°C', '1,007毫巴', '每小时0公里', '≥ 10.00公里', '晴空万里', '本地:', '06:00、2019年4月22日周一', '协调世界时:', '22:00、2019年4月21日周日', '来源:', '周期文件', '趋势:', '无重要变化', '露点:', '16°C', '晴空万里:', '真', '原始:', 'ZUUU 212200Z 00000MPS CAVOK 18/16 Q1007 NOSIG', '上午6:00', '18.0°C', '1,007毫巴', '每小时0公里', '-', '晴空万里', '本地:', '06:00、2019年4月22日周一', '协调世界时:', '22:00、2019年4月21日周日', '来源:', 'USAF 每小时地面观测', '报告类型:', 'METAR 航空例行天气报告', '露点:', '16.0°C', '晴空万里:', '真', '上午7:00', '18°C', '1,008毫巴', '每小时7.20公里, 西南', '≥ 10.00公里', '晴空万里', '本地:', '07:00、2019年4月22日周一', '协调世界时:', '23:00、2019年4月21日周日', '来源:', '周期文件', '趋势:', '无重要变化', '露点:', '16°C', '晴空万里:', '真', '原始:', 'ZUUU 212300Z 22002MPS CAVOK 18/16 Q1008 NOSIG', '上午7:00', '18.0°C', '1,008毫巴', '每小时7.20公里, 西南', '-', '晴空万里', '本地:', '07:00、2019年4月22日周一', '协调世界时:', '23:00、2019年4月21日周日', '来源:', 'USAF 每小时地面观测', '报告类型:', 'METAR 航空例行天气报告', '露点:', '16.0°C', '晴空万里:', '真', '上午8:00', '20°C', '1,009毫巴', '每小时7.20公里, 西南', '≥ 10.00公里', '晴空万里', '本地:', '08:00、2019年4月22日周一', '协调世界时:', '00:00、2019年4月22日周一', '来源:', '周期文件', '趋势:', '无重要变化', '露点:', '17°C', '晴空万里:', '真', '原始:', 'ZUUU 220000Z 22002MPS CAVOK 20/17 Q1009 NOSIG', '上午8:00', '20.0°C', '1,009毫巴', '每小时7.20公里, 西南', '-', '晴空万里', '本地:', '08:00、2019年4月22日周一', '协调世界时:', '00:00、2019年4月22日周一', '来源:', 'USAF 每小时地面观测', '报告类型:', 'METAR 航空例行天气报告', '露点:', '17.0°C', '晴空万里:', '真', '上午9:00', '22°C', '1,009毫巴', '每小时3.60公里', '≥ 10.00公里', '晴空万里', '本地:', '09:00、2019年4月22日周一', '协调世界时:', '01:00、2019年4月22日周一', '来源:', '周期文件', '趋势:', '无重要变化', '露点:', '18°C', '晴空万里:', '真', '原始:', 'ZUUU 220100Z VRB01MPS CAVOK 22/18 Q1009 NOSIG', '上午9:00', '22.0°C', '1,009毫巴', '每小时3.60公里', '-', '晴空万里', '本地:', '09:00、2019年4月22日周一', '协调世界时:', '01:00、2019年4月22日周一', '来源:', 'USAF 每小时地面观测', '报告类型:', 'METAR 航空例行天气报告', '露点:', '18.0°C', '晴空万里:', '真', '上午10:00', '26°C', '1,010毫巴', '每小时0公里', '≥ 10.00公里', '晴空万里', '本地:', '10:00、2019年4月22日周一', '协调世界时:', '02:00、2019年4月22日周一', '来源:', '周期文件', '趋势:', '无重要变化', '露点:', '17°C', '晴空万里:', '真', '原始:', 'ZUUU 220200Z 00000MPS CAVOK 26/17 Q1010 NOSIG', '上午10:00', '26.0°C', '1,010毫巴', '每小时0公里', '-', '晴空万里', '本地:', '10:00、2019年4月22日周一', '协调世界时:', '02:00、2019年4月22日周一', '来源:', 'USAF 每小时地面观测', '报告类型:', 'METAR 航空例行天气报告', '露点:', '17.0°C', '晴空万里:', '真', '上午11:00', '26°C', '1,009毫巴', '每小时3.60公里', '≥ 10.00公里', '晴空万里', '本地:', '11:00、2019年4月22日周一', '协调世界时:', '03:00、2019年4月22日周一', '来源:', '周期文件', '趋势:', '无重要变化', '露点:', '16°C', '晴空万里:', '真', '原始:', 'ZUUU 220300Z VRB01MPS CAVOK 26/16 Q1009 NOSIG', '上午11:00', '26.0°C', '1,009毫巴', '每小时3.60公里', '-', '晴空万里', '本地:', '11:00、2019年4月22日周一', '协调世界时:', '03:00、2019年4月22日周一', '来源:', 'USAF 每小时地面观测', '报告类型:', 'METAR 航空例行天气报告', '露点:', '16.0°C', '晴空万里:', '真', '下午12:00', '27°C', '1,009毫巴', '每小时7.20公里, 西南', '≥ 10.00公里', '晴空万里', '本地:', '12:00、2019年4月22日周一', '协调世界时:', '04:00、2019年4月22日周一', '来源:', '周期文件', '趋势:', '无重要变化', '露点:', '16°C', '晴空万里:', '真', '原始:', 'ZUUU 220400Z 22002MPS 140V310 CAVOK 27/16 Q1009 NOSIG', '下午12:00', '27.0°C', '1,009毫巴', '每小时7.20公里, 西南', '-', '晴空万里', '本地:', '12:00、2019年4月22日周一', '协调世界时:', '04:00、2019年4月22日周一', '来源:', 'USAF 每小时地面观测', '报告类型:', 'METAR 航空例行天气报告', '露点:', '16.0°C', '晴空万里:', '真', '下午1:00', '29°C', '1,008毫巴', '每小时10.8公里', '10.00公里', '大部分晴天 (914米)', '本地:', '13:00、2019年4月22日周一', '协调世界时:', '05:00、2019年4月22日周一', '来源:', '周期文件', '趋势:', '无重要变化', '露点:', '15°C', '原始:', 'ZUUU 220500Z VRB03MPS 9999 FEW030 29/15 Q1008 NOSIG', '下午1:00', '29.0°C', '1,008毫巴', '每小时10.8公里', '10.00公里', '大部分晴天 (914米)', '本地:', '13:00、2019年4月22日周一', '协调世界时:', '05:00、2019年4月22日周一', '来源:', 'USAF 每小时地面观测', '报告类型:', 'METAR 航空例行天气报告', '露点:', '15.0°C', '下午2:00', '29°C', '1,007毫巴', '每小时7.20公里', '10.00公里', '大部分晴天 (914米)', '本地:', '14:00、2019年4月22日周一', '协调世界时:', '06:00、2019年4月22日周一', '来源:', '周期文件', '趋势:', '无重要变化', '露点:', '15°C', '原始:', 'ZUUU 220600Z VRB02MPS 9999 FEW030 29/15 Q1007 NOSIG', '下午2:00', '29.0°C', '1,007毫巴', '每小时7.20公里', '10.00公里', '大部分晴天 (914米)', '本地:', '14:00、2019年4月22日周一', '协调世界时:', '06:00、2019年4月22日周一', '来源:', 'USAF 每小时地面观测', '报告类型:', 'METAR 航空例行天气报告', '露点:', '15.0°C', '下午3:00', '30°C', '1,006毫巴', '每小时7.20公里', '10.00公里', '部分多云 (914米)', '本地:', '15:00、2019年4月22日周一', '协调世界时:', '07:00、2019年4月22日周一', '来源:', '周期文件', '趋势:', '无重要变化', '露点:', '15°C', '原始:', 'ZUUU 220700Z VRB02MPS 9999 SCT030 30/15 Q1006 NOSIG', '下午3:00', '30.0°C', '1,006毫巴', '每小时7.20公里', '10.00公里', '部分多云 (914米)', '本地:', '15:00、2019年4月22日周一', '协调世界时:', '07:00、2019年4月22日周一', '来源:', 'USAF 每小时地面观测', '报告类型:', 'METAR 航空例行天气报告', '露点:', '15.0°C', '下午4:00', '30°C', '1,005毫巴', '每小时7.20公里', '10.00公里', '部分多云 (914米)', '本地:', '16:00、2019年4月22日周一', '协调世界时:', '08:00、2019年4月22日周一', '来源:', '周期文件', '趋势:', '无重要变化', '露点:', '13°C', '原始:', 'ZUUU 220800Z VRB02MPS 9999 SCT030 30/13 Q1005 NOSIG', '下午4:00', '30.0°C', '1,005毫巴', '每小时7.20公里', '10.00公里', '部分多云 (914米)', '本地:', '16:00、2019年4月22日周一', '协调世界时:', '08:00、2019年4月22日周一', '来源:', 'USAF 每小时地面观测', '报告类型:', 'METAR 航空例行天气报告', '露点:', '13.0°C', '下午5:00', '30°C', '1,004毫巴', '每小时7.20公里', '10.00公里', '大部分晴天 (1,006米)', '本地:', '17:00、2019年4月22日周一', '协调世界时:', '09:00、2019年4月22日周一', '来源:', '周期文件', '趋势:', '无重要变化', '露点:', '13°C', '原始:', 'ZUUU 220900Z VRB02MPS 9999 FEW033 30/13 Q1004 NOSIG', '下午5:00', '30.0°C', '1,004毫巴', '每小时7.20公里', '10.00公里', '大部分晴天 (1,006米)', '本地:', '17:00、2019年4月22日周一', '协调世界时:', '09:00、2019年4月22日周一', '来源:', 'USAF 每小时地面观测', '报告类型:', 'METAR 航空例行天气报告', '露点:', '13.0°C', '下午6:00', '30°C', '1,005毫巴', '每小时7.20公里, 南', '10.00公里', '大部分晴天 (1,006米)', '本地:', '18:00、2019年4月22日周一', '协调世界时:', '10:00、2019年4月22日周一', '来源:', '周期文件', '趋势:', '无重要变化', '露点:', '14°C', '原始:', 'ZUUU 221000Z 19002MPS 120V260 9999 FEW033 30/14 Q1005 NOSIG', '下午6:00', '30.0°C', '1,005毫巴', '每小时7.20公里, 南', '10.00公里', '大部分晴天 (1,006米)', '本地:', '18:00、2019年4月22日周一', '协调世界时:', '10:00、2019年4月22日周一', '来源:', 'USAF 每小时地面观测', '报告类型:', 'METAR 航空例行天气报告', '露点:', '14.0°C', '下午7:00', '28°C', '1,005毫巴', '每小时7.20公里, 西南', '10.00公里', '大部分晴天 (1,524米)', '本地:', '19:00、2019年4月22日周一', '协调世界时:', '11:00、2019年4月22日周一', '来源:', '周期文件', '趋势:', '无重要变化', '露点:', '14°C', '原始:', 'ZUUU 221100Z 22002MPS 9999 FEW050 28/14 Q1005 NOSIG', '下午7:00', '28.0°C', '1,005毫巴', '每小时7.20公里, 西南', '10.00公里', '大部分晴天 (1,524米)', '本地:', '19:00、2019年4月22日周一', '协调世界时:', '11:00、2019年4月22日周一', '来源:', 'USAF 每小时地面观测', '报告类型:', 'METAR 航空例行天气报告', '露点:', '14.0°C', '下午8:00', '25°C', '1,006毫巴', '每小时7.20公里, 西南', '10.00公里', '大部分晴天 (1,524米)', '本地:', '20:00、2019年4月22日周一', '协调世界时:', '12:00、2019年4月22日周一', '来源:', '周期文件', '趋势:', '无重要变化', '露点:', '17°C', '原始:', 'ZUUU 221200Z 22002MPS 9999 FEW050 25/17 Q1006 NOSIG', '下午8:00', '25.0°C', '1,006毫巴', '每小时7.20公里, 西南', '10.00公里', '大部分晴天 (1,524米)', '本地:', '20:00、2019年4月22日周一', '协调世界时:', '12:00、2019年4月22日周一', '来源:', 'USAF 每小时地面观测', '报告类型:', 'METAR 航空例行天气报告', '露点:', '17.0°C', '下午9:00', '24°C', '1,007毫巴', '每小时7.20公里, 西南', '10.00公里', '大部分晴天 (1,524米)', '本地:', '21:00、2019年4月22日周一', '协调世界时:', '13:00、2019年4月22日周一', '来源:', '周期文件', '趋势:', '无重要变化', '露点:', '18°C', '原始:', 'ZUUU 221300Z 22002MPS 9999 FEW050 24/18 Q1007 NOSIG', '下午9:00', '24.0°C', '1,007毫巴', '每小时7.20公里, 西南', '10.00公里', '大部分晴天 (1,524米)', '本地:', '21:00、2019年4月22日周一', '协调世界时:', '13:00、2019年4月22日周一', '来源:', 'USAF 每小时地面观测', '报告类型:', 'METAR 航空例行天气报告', '露点:', '18.0°C', '下午10:00', '23°C', '1,008毫巴', '每小时0公里', '10.00公里', '大部分晴天 (1,524米)', '本地:', '22:00、2019年4月22日周一', '协调世界时:', '14:00、2019年4月22日周一', '来源:', '周期文件', '趋势:', '无重要变化', '露点:', '19°C', '原始:', 'ZUUU 221400Z 00000MPS 9999 FEW050 23/19 Q1008 NOSIG', '下午10:00', '23.0°C', '1,008毫巴', '每小时0公里', '10.00公里', '大部分晴天 (1,524米)', '本地:', '22:00、2019年4月22日周一', '协调世界时:', '14:00、2019年4月22日周一', '来源:', 'USAF 每小时地面观测', '报告类型:', 'METAR 航空例行天气报告', '露点:', '19.0°C', '下午11:00', '24°C', '1,008毫巴', '每小时7.20公里, 西南', '≥ 10.00公里', '晴空万里', '本地:', '23:00、2019年4月22日周一', '协调世界时:', '15:00、2019年4月22日周一', '来源:', '周期文件', '趋势:', '无重要变化', '露点:', '17°C', '晴空万里:', '真', '原始:', 'ZUUU 221500Z 21002MPS CAVOK 24/17 Q1008 NOSIG', '下午11:00', '24.0°C', '1,008毫巴', '每小时7.20公里, 西南', '-', '晴空万里', '本地:', '23:00、2019年4月22日周一', '协调世界时:', '15:00、2019年4月22日周一', '来源:', 'USAF 每小时地面观测', '报告类型:', 'METAR 航空例行天气报告', '露点:', '17.0°C', '晴空万里:', '真']