['Showers of Light Rain', '-SHRA、IWC80', 'Showers of Light Rain', '-SHRA、IWC80', 'Showers of Light Rain', '-SHRA、IWC80', 'Showers of Light Rain', '-SHRA、IWC80', 'Showers of Light Rain', '-SHRA、IWC80', 'Showers of Light Rain', '-SHRA、IWC80', 'Showers of Light Rain', '-SHRA、IWC80', 'Showers of Light Rain', '-SHRA、IWC80', '上午12:00', '24°C', '1,008毫巴', '每小时0公里', '10.00公里', '部分多云 (1,524米)', '本地:', '00:00、2019年5月27日周一', '协调世界时:', '16:00、2019年5月26日周日', '来源:', '周期文件', '趋势:', '无重要变化', '露点:', '20°C', '原始:', 'ZUUU 261600Z 00000MPS 9999 SCT050 24/20 Q1008 NOSIG', '上午12:00', '24.0°C', '1,008毫巴', '每小时0公里', '10.00公里', '部分多云 (1,524米)', '本地:', '00:00、2019年5月27日周一', '协调世界时:', '16:00、2019年5月26日周日', '来源:', 'USAF 每小时地面观测', '报告类型:', 'METAR 航空例行天气报告', '露点:', '20.0°C', '上午1:00', '24°C', '1,008毫巴', '每小时0公里', '10.00公里', '部分多云 (1,524米)', '本地:', '01:00、2019年5月27日周一', '协调世界时:', '17:00、2019年5月26日周日', '来源:', '周期文件', '趋势:', '无重要变化', '露点:', '20°C', '原始:', 'ZUUU 261700Z 00000MPS 9999 SCT050 24/20 Q1008 NOSIG', '上午1:00', '24.0°C', '1,008毫巴', '每小时0公里', '10.00公里', '部分多云 (1,524米)', '本地:', '01:00、2019年5月27日周一', '协调世界时:', '17:00、2019年5月26日周日', '来源:', 'USAF 每小时地面观测', '报告类型:', 'METAR 航空例行天气报告', '露点:', '20.0°C', '上午2:00', '24°C', '1,008毫巴', '每小时0公里', '10.00公里', '部分多云 (1,524米)', '本地:', '02:00、2019年5月27日周一', '协调世界时:', '18:00、2019年5月26日周日', '来源:', '周期文件', '趋势:', '无重要变化', '露点:', '20°C', '原始:', 'ZUUU 261800Z 00000MPS 9999 SCT050 24/20 Q1008 NOSIG', '上午2:00', '24.0°C', '1,008毫巴', '每小时0公里', '10.00公里', '部分多云 (1,524米)', '本地:', '02:00、2019年5月27日周一', '协调世界时:', '18:00、2019年5月26日周日', '来源:', 'USAF 每小时地面观测', '报告类型:', 'METAR 航空例行天气报告', '露点:', '20.0°C', '上午3:00', '23°C', '1,008毫巴', '每小时7.20公里, 西北', '8.00公里', '部分多云 (1,006米)', '本地:', '03:00、2019年5月27日周一', '协调世界时:', '19:00、2019年5月26日周日', '来源:', '周期文件', '趋势:', '无重要变化', '露点:', '20°C', '其他云层:', '大部分晴天 (1,006米)', '天气:', 'Showers of Light Rain', '原始:', 'ZUUU 261900Z 32002MPS 260V020 8000 -SHRA FEW033TCU SCT033 23/20 Q1008 NOSIG', '上午3:00', '23.0°C', '1,008毫巴', '每小时7.20公里, 西北', '8.00公里', '部分多云 (1,006米)', '本地:', '03:00、2019年5月27日周一', '协调世界时:', '19:00、2019年5月26日周日', '来源:', 'USAF 每小时地面观测', '报告类型:', 'METAR 航空例行天气报告', '露点:', '20.0°C', '其他云层:', '大部分晴天 (1,006米)', '天气:', 'Showers of Light Rain', '上午4:00', '23°C', '1,008毫巴', '每小时3.60公里', '7.00公里', '部分多云 (1,006米)', '本地:', '04:00、2019年5月27日周一', '协调世界时:', '20:00、2019年5月26日周日', '来源:', '周期文件', '趋势:', '无重要变化', '露点:', '21°C', '其他云层:', '大部分晴天 (1,006米)', '天气:', 'Showers of Light Rain', '原始:', 'ZUUU 262000Z VRB01MPS 7000 -SHRA FEW033TCU SCT033 23/21 Q1008 NOSIG', '上午4:00', '23.0°C', '1,008毫巴', '每小时3.60公里', '7.00公里', '部分多云 (1,006米)', '本地:', '04:00、2019年5月27日周一', '协调世界时:', '20:00、2019年5月26日周日', '来源:', 'USAF 每小时地面观测', '报告类型:', 'METAR 航空例行天气报告', '露点:', '21.0°C', '其他云层:', '大部分晴天 (1,006米)', '天气:', 'Showers of Light Rain', '上午5:00', '25°C', '1,009毫巴', '每小时10.8公里, 北', '8.00公里', '部分多云 (1,524米)', '本地:', '05:00、2019年5月27日周一', '协调世界时:', '21:00、2019年5月26日周日', '来源:', '周期文件', '趋势:', '无重要变化', '露点:', '18°C', '原始:', 'ZUUU 262100Z 35003MPS 270V040 8000 SCT050 25/18 Q1009 NOSIG', '上午5:00', '25.0°C', '1,009毫巴', '每小时10.8公里, 北', '8.00公里', '部分多云 (1,524米)', '本地:', '05:00、2019年5月27日周一', '协调世界时:', '21:00、2019年5月26日周日', '来源:', 'USAF 每小时地面观测', '报告类型:', 'METAR 航空例行天气报告', '露点:', '18.0°C', '上午6:00', '22°C', '1,010毫巴', '每小时18.0公里, 北', '10.00公里', '部分多云 (1,006米)', '本地:', '06:00、2019年5月27日周一', '协调世界时:', '22:00、2019年5月26日周日', '来源:', '周期文件', '趋势:', '无重要变化', '露点:', '17°C', '其他云层:', '大部分晴天 (1,006米)', '天气:', 'Showers of Light Rain', '原始:', 'ZUUU 262200Z 02005MPS 340V050 9999 -SHRA FEW033TCU SCT033 22/17 Q1010 NOSIG', '上午6:00', '22.0°C', '1,010毫巴', '每小时18.0公里, 北', '10.00公里', '部分多云 (1,006米)', '本地:', '06:00、2019年5月27日周一', '协调世界时:', '22:00、2019年5月26日周日', '来源:', 'USAF 每小时地面观测', '报告类型:', 'METAR 航空例行天气报告', '露点:', '17.0°C', '其他云层:', '大部分晴天 (1,006米)', '天气:', 'Showers of Light Rain', '上午7:00', '24°C', '1,010毫巴', '每小时14.4公里, 北', '10.00公里', '部分多云 (1,006米)', '本地:', '07:00、2019年5月27日周一', '协调世界时:', '23:00、2019年5月26日周日', '来源:', '周期文件', '趋势:', '无重要变化', '露点:', '12°C', '其他云层:', '大部分晴天 (1,006米)', '原始:', 'ZUUU 262300Z 01004MPS 330V040 9999 FEW033TCU SCT033 24/12 Q1010 NOSIG', '上午7:00', '24.0°C', '1,010毫巴', '每小时14.4公里, 北', '10.00公里', '部分多云 (1,006米)', '本地:', '07:00、2019年5月27日周一', '协调世界时:', '23:00、2019年5月26日周日', '来源:', 'USAF 每小时地面观测', '报告类型:', 'METAR 航空例行天气报告', '露点:', '12.0°C', '其他云层:', '大部分晴天 (1,006米)', '上午8:00', '24°C', '1,011毫巴', '每小时3.60公里', '10.00公里', '大部分多云 (1,006米)', '本地:', '08:00、2019年5月27日周一', '协调世界时:', '00:00、2019年5月27日周一', '来源:', '周期文件', '趋势:', '无重要变化', '露点:', '14°C', '原始:', 'ZUUU 270000Z VRB01MPS 9999 BKN033 24/14 Q1011 NOSIG', '上午8:00', '24.0°C', '1,011毫巴', '每小时3.60公里', '10.00公里', '大部分多云 (1,006米)', '本地:', '08:00、2019年5月27日周一', '协调世界时:', '00:00、2019年5月27日周一', '来源:', 'USAF 每小时地面观测', '报告类型:', 'METAR 航空例行天气报告', '露点:', '14.0°C', '上午9:00', '24°C', '1,012毫巴', '每小时7.20公里, 北', '10.00公里', '大部分多云 (1,006米)', '本地:', '09:00、2019年5月27日周一', '协调世界时:', '01:00、2019年5月27日周一', '来源:', '周期文件', '趋势:', '无重要变化', '露点:', '16°C', '其他云层:', '大部分晴天 (1,006米)', '原始:', 'ZUUU 270100Z 36002MPS 320V020 9999 FEW033TCU BKN033 24/16 Q1012 NOSIG', '上午9:00', '24.0°C', '1,012毫巴', '每小时7.20公里, 北', '10.00公里', '大部分多云 (1,006米)', '本地:', '09:00、2019年5月27日周一', '协调世界时:', '01:00、2019年5月27日周一', '来源:', 'USAF 每小时地面观测', '报告类型:', 'METAR 航空例行天气报告', '露点:', '16.0°C', '其他云层:', '大部分晴天 (1,006米)', '上午10:00', '24°C', '1,013毫巴', '每小时0公里', '10.00公里', '大部分多云 (1,006米)', '本地:', '10:00、2019年5月27日周一', '协调世界时:', '02:00、2019年5月27日周一', '来源:', '周期文件', '趋势:', '无重要变化', '露点:', '16°C', '其他云层:', '大部分晴天 (1,006米)', '天气:', 'Showers of Light Rain', '原始:', 'ZUUU 270200Z 00000MPS 9999 -SHRA FEW033TCU BKN033 24/16 Q1013 NOSIG', '上午10:00', '24.0°C', '1,013毫巴', '每小时0公里', '10.00公里', '大部分多云 (1,006米)', '本地:', '10:00、2019年5月27日周一', '协调世界时:', '02:00、2019年5月27日周一', '来源:', 'USAF 每小时地面观测', '报告类型:', 'METAR 航空例行天气报告', '露点:', '16.0°C', '其他云层:', '大部分晴天 (1,006米)', '天气:', 'Showers of Light Rain', '上午11:00', '24°C', '1,014毫巴', '每小时7.20公里, 北', '10.00公里', '大部分多云 (1,219米)', '本地:', '11:00、2019年5月27日周一', '协调世界时:', '03:00、2019年5月27日周一', '来源:', '周期文件', '趋势:', '无重要变化', '露点:', '14°C', '其他云层:', '大部分晴天 (1,219米)', '天气:', 'Showers of Light Rain', '原始:', 'ZUUU 270300Z 36002MPS 320V030 9999 -SHRA FEW040TCU BKN040 24/14 Q1014 NOSIG', '上午11:00', '24.0°C', '1,014毫巴', '每小时7.20公里, 北', '10.00公里', '大部分多云 (1,219米)', '本地:', '11:00、2019年5月27日周一', '协调世界时:', '03:00、2019年5月27日周一', '来源:', 'USAF 每小时地面观测', '报告类型:', 'METAR 航空例行天气报告', '露点:', '14.0°C', '其他云层:', '大部分晴天 (1,219米)', '天气:', 'Showers of Light Rain', '下午12:00', '23°C', '1,015毫巴', '每小时7.20公里, 北', '10.00公里', '大部分多云 (1,219米)', '本地:', '12:00、2019年5月27日周一', '协调世界时:', '04:00、2019年5月27日周一', '来源:', '周期文件', '趋势:', '无重要变化', '露点:', '14°C', '其他云层:', '大部分晴天 (1,219米)', '天气:', 'Showers of Light Rain', '原始:', 'ZUUU 270400Z 01002MPS 330V050 9999 -SHRA FEW040TCU BKN040 23/14 Q1015 NOSIG', '下午12:00', '23.0°C', '1,015毫巴', '每小时7.20公里, 北', '10.00公里', '大部分多云 (1,219米)', '本地:', '12:00、2019年5月27日周一', '协调世界时:', '04:00、2019年5月27日周一', '来源:', 'USAF 每小时地面观测', '报告类型:', 'METAR 航空例行天气报告', '露点:', '14.0°C', '其他云层:', '大部分晴天 (1,219米)', '天气:', 'Showers of Light Rain', '下午1:00', '20°C', '1,015毫巴', '每小时21.6公里, 东', '10.00公里', '大部分多云 (1,006米)', '本地:', '13:00、2019年5月27日周一', '协调世界时:', '05:00、2019年5月27日周一', '来源:', '周期文件', '趋势:', '无重要变化', '露点:', '15°C', '其他云层:', '大部分晴天 (1,006米)', '天气:', 'Showers of Light Rain', '原始:', 'ZUUU 270500Z 07006MPS 9999 -SHRA FEW033CB BKN033 20/15 Q1015 NOSIG', '下午1:00', '20.0°C', '1,015毫巴', '每小时21.6公里, 东', '10.00公里', '大部分多云 (1,006米)', '本地:', '13:00、2019年5月27日周一', '协调世界时:', '05:00、2019年5月27日周一', '来源:', 'USAF 每小时地面观测', '报告类型:', 'METAR 航空例行天气报告', '露点:', '15.0°C', '其他云层:', '大部分晴天 (1,006米)', '天气:', 'Showers of Light Rain', '下午2:00', '19°C', '1,015毫巴', '每小时21.6公里, 东', '10.00公里', '部分多云 (1,219米)', '本地:', '14:00、2019年5月27日周一', '协调世界时:', '06:00、2019年5月27日周一', '来源:', '周期文件', '趋势:', '无重要变化', '露点:', '15°C', '其他云层:', '大部分晴天 (305米)、大部分晴天 (1,219米)', '天气:', 'Showers of Light Rain', '原始:', 'ZUUU 270600Z 07006MPS 030V100 9999 -SHRA FEW010 FEW040CB SCT040 19/15 Q1015 NOSIG', '下午2:00', '19.0°C', '1,015毫巴', '每小时21.6公里, 东', '10.00公里', '部分多云 (1,219米)', '本地:', '14:00、2019年5月27日周一', '协调世界时:', '06:00、2019年5月27日周一', '来源:', 'USAF 每小时地面观测', '报告类型:', 'METAR 航空例行天气报告', '露点:', '15.0°C', '其他云层:', '大部分晴天 (305米)、大部分晴天 (1,219米)', '天气:', 'Showers of Light Rain', '下午3:00', '19°C', '1,015毫巴', '每小时10.8公里, 东北', '≥ 10.00公里', '晴空万里', '本地:', '15:00、2019年5月27日周一', '协调世界时:', '07:00、2019年5月27日周一', '来源:', '周期文件', '趋势:', '无重要变化', '露点:', '15°C', '晴空万里:', '真', '原始:', 'ZUUU 270700Z 05003MPS 350V120 CAVOK 19/15 Q1015 NOSIG', '下午3:00', '19.0°C', '1,015毫巴', '每小时10.8公里, 东北', '-', '晴空万里', '本地:', '15:00、2019年5月27日周一', '协调世界时:', '07:00、2019年5月27日周一', '来源:', 'USAF 每小时地面观测', '报告类型:', 'METAR 航空例行天气报告', '露点:', '15.0°C', '晴空万里:', '真', '下午4:00', '19°C', '1,014毫巴', '每小时7.20公里, 东北', '≥ 10.00公里', '晴空万里', '本地:', '16:00、2019年5月27日周一', '协调世界时:', '08:00、2019年5月27日周一', '来源:', '周期文件', '趋势:', '无重要变化', '露点:', '15°C', '晴空万里:', '真', '原始:', 'ZUUU 270800Z 03002MPS 330V120 CAVOK 19/15 Q1014 NOSIG', '下午4:00', '19.0°C', '1,014毫巴', '每小时7.20公里, 东北', '-', '晴空万里', '本地:', '16:00、2019年5月27日周一', '协调世界时:', '08:00、2019年5月27日周一', '来源:', 'USAF 每小时地面观测', '报告类型:', 'METAR 航空例行天气报告', '露点:', '15.0°C', '晴空万里:', '真', '下午5:00', '20°C', '1,013毫巴', '每小时10.8公里, 东', '10.00公里', '大部分多云 (1,524米)', '本地:', '17:00、2019年5月27日周一', '协调世界时:', '09:00、2019年5月27日周一', '来源:', '周期文件', '趋势:', '无重要变化', '露点:', '15°C', '其他云层:', '大部分晴天 (610米)', '原始:', 'ZUUU 270900Z 07003MPS 020V110 9999 FEW020 BKN050 20/15 Q1013 NOSIG', '下午5:00', '20.0°C', '1,013毫巴', '每小时10.8公里, 东', '10.00公里', '大部分多云 (1,524米)', '本地:', '17:00、2019年5月27日周一', '协调世界时:', '09:00、2019年5月27日周一', '来源:', 'USAF 每小时地面观测', '报告类型:', 'METAR 航空例行天气报告', '露点:', '15.0°C', '其他云层:', '大部分晴天 (610米)', '下午6:00', '20°C', '1,014毫巴', '每小时10.8公里, 东北', '10.00公里', '大部分多云 (1,524米)', '本地:', '18:00、2019年5月27日周一', '协调世界时:', '10:00、2019年5月27日周一', '来源:', '周期文件', '趋势:', '无重要变化', '露点:', '15°C', '其他云层:', '大部分晴天 (610米)', '原始:', 'ZUUU 271000Z 05003MPS 010V080 9999 FEW020 BKN050 20/15 Q1014 NOSIG', '下午6:00', '20.0°C', '1,014毫巴', '每小时10.8公里, 东北', '10.00公里', '大部分多云 (1,524米)', '本地:', '18:00、2019年5月27日周一', '协调世界时:', '10:00、2019年5月27日周一', '来源:', 'USAF 每小时地面观测', '报告类型:', 'METAR 航空例行天气报告', '露点:', '15.0°C', '其他云层:', '大部分晴天 (610米)', '下午7:00', '20°C', '1,014毫巴', '每小时10.8公里, 东北', '10.00公里', '部分多云 (1,219米)', '本地:', '19:00、2019年5月27日周一', '协调世界时:', '11:00、2019年5月27日周一', '来源:', '周期文件', '趋势:', '无重要变化', '露点:', '14°C', '原始:', 'ZUUU 271100Z 06003MPS 020V110 9999 SCT040 20/14 Q1014 NOSIG', '下午7:00', '20.0°C', '1,014毫巴', '每小时10.8公里, 东北', '10.00公里', '部分多云 (1,219米)', '本地:', '19:00、2019年5月27日周一', '协调世界时:', '11:00、2019年5月27日周一', '来源:', 'USAF 每小时地面观测', '报告类型:', 'METAR 航空例行天气报告', '露点:', '14.0°C', '下午8:00', '19°C', '1,015毫巴', '每小时7.20公里, 北', '10.00公里', '部分多云 (1,219米)', '本地:', '20:00、2019年5月27日周一', '协调世界时:', '12:00、2019年5月27日周一', '来源:', '周期文件', '趋势:', '无重要变化', '露点:', '14°C', '原始:', 'ZUUU 271200Z 02002MPS 350V080 9999 SCT040 19/14 Q1015 NOSIG', '下午8:00', '19.0°C', '1,015毫巴', '每小时7.20公里, 北', '10.00公里', '部分多云 (1,219米)', '本地:', '20:00、2019年5月27日周一', '协调世界时:', '12:00、2019年5月27日周一', '来源:', 'USAF 每小时地面观测', '报告类型:', 'METAR 航空例行天气报告', '露点:', '14.0°C', '下午9:00', '19°C', '1,016毫巴', '每小时10.8公里, 北', '10.00公里', '部分多云 (1,219米)', '本地:', '21:00、2019年5月27日周一', '协调世界时:', '13:00、2019年5月27日周一', '来源:', '周期文件', '趋势:', '无重要变化', '露点:', '13°C', '原始:', 'ZUUU 271300Z 01003MPS 330V050 9999 SCT040 19/13 Q1016 NOSIG', '下午9:00', '19.0°C', '1,016毫巴', '每小时10.8公里, 北', '10.00公里', '部分多云 (1,219米)', '本地:', '21:00、2019年5月27日周一', '协调世界时:', '13:00、2019年5月27日周一', '来源:', 'USAF 每小时地面观测', '报告类型:', 'METAR 航空例行天气报告', '露点:', '13.0°C', '下午10:00', '19°C', '1,017毫巴', '每小时18.0公里, 东北', '10.00公里', '部分多云 (1,219米)', '本地:', '22:00、2019年5月27日周一', '协调世界时:', '14:00、2019年5月27日周一', '来源:', '周期文件', '趋势:', '无重要变化', '露点:', '11°C', '原始:', 'ZUUU 271400Z 05005MPS 9999 SCT040 19/11 Q1017 NOSIG', '下午10:00', '19.0°C', '1,017毫巴', '每小时18.0公里, 东北', '10.00公里', '部分多云 (1,219米)', '本地:', '22:00、2019年5月27日周一', '协调世界时:', '14:00、2019年5月27日周一', '来源:', 'USAF 每小时地面观测', '报告类型:', 'METAR 航空例行天气报告', '露点:', '11.0°C', '下午11:00', '19°C', '1,017毫巴', '每小时3.60公里', '10.00公里', '部分多云 (1,219米)', '本地:', '23:00、2019年5月27日周一', '协调世界时:', '15:00、2019年5月27日周一', '来源:', '周期文件', '趋势:', '无重要变化', '露点:', '13°C', '其他云层:', '大部分晴天 (914米)', '原始:', 'ZUUU 271500Z VRB01MPS 9999 FEW030 SCT040 19/13 Q1017 NOSIG', '下午11:00', '19.0°C', '1,017毫巴', '每小时3.60公里', '10.00公里', '部分多云 (1,219米)', '本地:', '23:00、2019年5月27日周一', '协调世界时:', '15:00、2019年5月27日周一', '来源:', 'USAF 每小时地面观测', '报告类型:', 'METAR 航空例行天气报告', '露点:', '13.0°C', '其他云层:', '大部分晴天 (914米)']