['Thunderstorm with Light Rain、Thunderstorm with Rain、Showers of Light Rain', '-TSRA、IWC95、-SHRA', 'Thunderstorm with Light Rain、Thunderstorm with Rain、Showers of Light Rain', '-TSRA、IWC95、-SHRA', 'Recent Thunderstorm、Showers of Light Rain', 'RETS、-SHRA、IWC80', 'Showers of Light Rain', '-SHRA、IWC80', 'Showers of Light Rain', '-SHRA、IWC80', '上午12:00', '28°C', '1,005毫巴', '每小时0公里', '10.00公里', '部分多云 (914米)', '本地:', '00:00、2019年7月19日周五', '协调世界时:', '16:00、2019年7月18日周四', '来源:', '周期文件', '趋势:', '无重要变化', '露点:', '23°C', '其他云层:', '大部分晴天 (914米)', '原始:', 'ZUUU 181600Z 00000MPS 9999 FEW030TCU SCT030 28/23 Q1005 NOSIG', '上午12:00', '28.0°C', '1,005毫巴', '每小时0公里', '10.00公里', '部分多云 (914米)', '本地:', '00:00、2019年7月19日周五', '协调世界时:', '16:00、2019年7月18日周四', '来源:', 'USAF 每小时地面观测', '报告类型:', 'METAR 航空例行天气报告', '露点:', '23.0°C', '其他云层:', '大部分晴天 (914米)', '上午1:00', '26°C', '1,004毫巴', '每小时10.8公里, 北', '10.00公里', '部分多云 (792米)', '本地:', '01:00、2019年7月19日周五', '协调世界时:', '17:00、2019年7月18日周四', '来源:', '周期文件', '趋势:', '变化为', '露点:', '24°C', '其他云层:', '大部分晴天 (792米)、部分多云 (1,219米)', '天气:', 'Thunderstorm with Light Rain、Showers of Light Rain', '原始:', 'ZUUU 181700Z 35003MPS 310V040 9999 -TSRA FEW026CB SCT026 SCT040 26/24 Q1004 BECMG TL1740 -SHRA', '上午1:00', '26.0°C', '1,004毫巴', '每小时10.8公里, 北', '10.00公里', '部分多云 (792米)', '本地:', '01:00、2019年7月19日周五', '协调世界时:', '17:00、2019年7月18日周四', '来源:', 'USAF 每小时地面观测', '报告类型:', 'METAR 航空例行天气报告', '露点:', '24.0°C', '其他云层:', '大部分晴天 (792米)、部分多云 (1,219米)', '天气:', 'Thunderstorm with Rain', '上午2:00', '25°C', '1,004毫巴', '每小时3.60公里', '10.00公里', '部分多云 (792米)', '本地:', '02:00、2019年7月19日周五', '协调世界时:', '18:00、2019年7月18日周四', '来源:', '周期文件', '趋势:', '变化为', '露点:', '24°C', '其他云层:', '大部分晴天 (792米)、部分多云 (1,219米)', '天气:', 'Thunderstorm with Light Rain、Showers of Light Rain', '原始:', 'ZUUU 181800Z VRB01MPS 9999 -TSRA FEW026CB SCT026 SCT040 25/24 Q1004 BECMG TL1900 -SHRA', '上午2:00', '25.0°C', '1,004毫巴', '每小时3.60公里', '10.00公里', '部分多云 (792米)', '本地:', '02:00、2019年7月19日周五', '协调世界时:', '18:00、2019年7月18日周四', '来源:', 'USAF 每小时地面观测', '报告类型:', 'METAR 航空例行天气报告', '露点:', '24.0°C', '其他云层:', '大部分晴天 (792米)、部分多云 (1,219米)', '天气:', 'Thunderstorm with Rain', '上午3:00', '25°C', '1,004毫巴', '每小时3.60公里', '10.00公里', '部分多云 (792米)', '本地:', '03:00、2019年7月19日周五', '协调世界时:', '19:00、2019年7月18日周四', '来源:', '周期文件', '趋势:', '无重要变化', '露点:', '24°C', '其他云层:', '大部分晴天 (792米)、部分多云 (1,219米)', '天气:', 'Showers of Light Rain、Recent Thunderstorm', '原始:', 'ZUUU 181900Z VRB01MPS 9999 -SHRA FEW026CB SCT026 SCT040 25/24 Q1004 RETS NOSIG', '上午3:00', '25.0°C', '1,004毫巴', '每小时3.60公里', '10.00公里', '部分多云 (792米)', '本地:', '03:00、2019年7月19日周五', '协调世界时:', '19:00、2019年7月18日周四', '来源:', 'USAF 每小时地面观测', '报告类型:', 'METAR 航空例行天气报告', '露点:', '24.0°C', '其他云层:', '大部分晴天 (792米)、部分多云 (1,219米)', '天气:', 'Showers of Light Rain', '上午4:00', '25°C', '1,003毫巴', '每小时3.60公里', '10.00公里', '大部分多云 (1,219米)', '本地:', '04:00、2019年7月19日周五', '协调世界时:', '20:00、2019年7月18日周四', '来源:', '周期文件', '趋势:', '无重要变化', '露点:', '24°C', '其他云层:', '大部分晴天 (335米)、大部分晴天 (792米)、部分多云 (792米)', '天气:', 'Showers of Light Rain', '原始:', 'ZUUU 182000Z VRB01MPS 9999 -SHRA FEW011 FEW026CB SCT026 BKN040 25/24 Q1003 NOSIG', '上午4:00', '25.0°C', '1,003毫巴', '每小时3.60公里', '10.00公里', '大部分多云 (1,219米)', '本地:', '04:00、2019年7月19日周五', '协调世界时:', '20:00、2019年7月18日周四', '来源:', 'USAF 每小时地面观测', '报告类型:', 'METAR 航空例行天气报告', '露点:', '24.0°C', '其他云层:', '大部分晴天 (335米)、大部分晴天 (792米)、部分多云 (792米)', '天气:', 'Showers of Light Rain', '上午5:00', '25°C', '1,003毫巴', '每小时3.60公里', '10.00公里', '部分多云 (1,219米)', '本地:', '05:00、2019年7月19日周五', '协调世界时:', '21:00、2019年7月18日周四', '来源:', '周期文件', '趋势:', '无重要变化', '露点:', '23°C', '其他云层:', '大部分晴天 (335米)', '天气:', 'Showers of Light Rain', '原始:', 'ZUUU 182100Z VRB01MPS 9999 -SHRA FEW011 SCT040 25/23 Q1003 NOSIG', '上午5:00', '25.0°C', '1,003毫巴', '每小时3.60公里', '10.00公里', '部分多云 (1,219米)', '本地:', '05:00、2019年7月19日周五', '协调世界时:', '21:00、2019年7月18日周四', '来源:', 'USAF 每小时地面观测', '报告类型:', 'METAR 航空例行天气报告', '露点:', '23.0°C', '其他云层:', '大部分晴天 (335米)', '天气:', 'Showers of Light Rain', '上午6:00', '25°C', '1,004毫巴', '每小时0公里', '10.00公里', '大部分晴天 (1,524米)', '本地:', '06:00、2019年7月19日周五', '协调世界时:', '22:00、2019年7月18日周四', '来源:', '周期文件', '趋势:', '无重要变化', '露点:', '24°C', '原始:', 'ZUUU 182200Z 00000MPS 9999 FEW050 25/24 Q1004 NOSIG', '上午6:00', '25.0°C', '1,004毫巴', '每小时0公里', '10.00公里', '大部分晴天 (1,524米)', '本地:', '06:00、2019年7月19日周五', '协调世界时:', '22:00、2019年7月18日周四', '来源:', 'USAF 每小时地面观测', '报告类型:', 'METAR 航空例行天气报告', '露点:', '24.0°C', '上午7:00', '25°C', '1,004毫巴', '每小时0公里', '7.00公里', '部分多云 (1,524米)', '本地:', '07:00、2019年7月19日周五', '协调世界时:', '23:00、2019年7月18日周四', '来源:', '周期文件', '趋势:', '无重要变化', '露点:', '24°C', '原始:', 'ZUUU 182300Z 00000MPS 7000 SCT050 25/24 Q1004 NOSIG', '上午7:00', '25.0°C', '1,004毫巴', '每小时0公里', '7.00公里', '部分多云 (1,524米)', '本地:', '07:00、2019年7月19日周五', '协调世界时:', '23:00、2019年7月18日周四', '来源:', 'USAF 每小时地面观测', '报告类型:', 'METAR 航空例行天气报告', '露点:', '24.0°C', '上午8:00', '26°C', '1,004毫巴', '每小时0公里', '7.00公里', '部分多云 (1,524米)', '本地:', '08:00、2019年7月19日周五', '协调世界时:', '00:00、2019年7月19日周五', '来源:', '周期文件', '趋势:', '无重要变化', '露点:', '24°C', '其他云层:', '大部分晴天 (396米)', '原始:', 'ZUUU 190000Z 00000MPS 7000 FEW013 SCT050 26/24 Q1004 NOSIG', '上午8:00', '26.0°C', '1,004毫巴', '每小时0公里', '7.00公里', '部分多云 (1,524米)', '本地:', '08:00、2019年7月19日周五', '协调世界时:', '00:00、2019年7月19日周五', '来源:', 'USAF 每小时地面观测', '报告类型:', 'METAR 航空例行天气报告', '露点:', '24.0°C', '其他云层:', '大部分晴天 (396米)', '上午9:00', '27°C', '1,005毫巴', '每小时3.60公里', '10.00公里', '部分多云 (1,524米)', '本地:', '09:00、2019年7月19日周五', '协调世界时:', '01:00、2019年7月19日周五', '来源:', '周期文件', '趋势:', '无重要变化', '露点:', '24°C', '其他云层:', '大部分晴天 (488米)', '原始:', 'ZUUU 190100Z VRB01MPS 9999 FEW016 SCT050 27/24 Q1005 NOSIG', '上午9:00', '27.0°C', '1,005毫巴', '每小时3.60公里', '10.00公里', '部分多云 (1,524米)', '本地:', '09:00、2019年7月19日周五', '协调世界时:', '01:00、2019年7月19日周五', '来源:', 'USAF 每小时地面观测', '报告类型:', 'METAR 航空例行天气报告', '露点:', '24.0°C', '其他云层:', '大部分晴天 (488米)', '上午10:00', '27°C', '1,005毫巴', '每小时7.20公里, 西北', '10.00公里', '部分多云 (1,524米)', '本地:', '10:00、2019年7月19日周五', '协调世界时:', '02:00、2019年7月19日周五', '来源:', '周期文件', '趋势:', '无重要变化', '露点:', '24°C', '其他云层:', '大部分晴天 (914米)', '原始:', 'ZUUU 190200Z 32002MPS 260V010 9999 FEW030 SCT050 27/24 Q1005 NOSIG', '上午10:00', '27.0°C', '1,005毫巴', '每小时7.20公里, 西北', '10.00公里', '部分多云 (1,524米)', '本地:', '10:00、2019年7月19日周五', '协调世界时:', '02:00、2019年7月19日周五', '来源:', 'USAF 每小时地面观测', '报告类型:', 'METAR 航空例行天气报告', '露点:', '24.0°C', '其他云层:', '大部分晴天 (914米)', '上午11:00', '29°C', '1,005毫巴', '每小时10.8公里, 北', '10.00公里', '大部分多云 (914米)', '本地:', '11:00、2019年7月19日周五', '协调世界时:', '03:00、2019年7月19日周五', '来源:', '周期文件', '趋势:', '无重要变化', '露点:', '23°C', '原始:', 'ZUUU 190300Z 36003MPS 310V050 9999 BKN030 29/23 Q1005 NOSIG', '上午11:00', '29.0°C', '1,005毫巴', '每小时10.8公里, 北', '10.00公里', '大部分多云 (914米)', '本地:', '11:00、2019年7月19日周五', '协调世界时:', '03:00、2019年7月19日周五', '来源:', 'USAF 每小时地面观测', '报告类型:', 'METAR 航空例行天气报告', '露点:', '23.0°C', '下午12:00', '30°C', '1,005毫巴', '每小时14.4公里, 北', '10.00公里', '部分多云 (914米)', '本地:', '12:00、2019年7月19日周五', '协调世界时:', '04:00、2019年7月19日周五', '来源:', '周期文件', '趋势:', '无重要变化', '露点:', '23°C', '原始:', 'ZUUU 190400Z 02004MPS 330V040 9999 SCT030 30/23 Q1005 NOSIG', '下午12:00', '30.0°C', '1,005毫巴', '每小时14.4公里, 北', '10.00公里', '部分多云 (914米)', '本地:', '12:00、2019年7月19日周五', '协调世界时:', '04:00、2019年7月19日周五', '来源:', 'USAF 每小时地面观测', '报告类型:', 'METAR 航空例行天气报告', '露点:', '23.0°C', '下午1:00', '31°C', '1,004毫巴', '每小时14.4公里', '10.00公里', '部分多云 (1,006米)', '本地:', '13:00、2019年7月19日周五', '协调世界时:', '05:00、2019年7月19日周五', '来源:', '周期文件', '趋势:', '无重要变化', '露点:', '22°C', '其他云层:', '大部分晴天 (792米)', '原始:', 'ZUUU 190500Z VRB04MPS 9999 FEW026TCU FEW026 SCT033 31/22 Q1004 NOSIG', '下午1:00', '31.0°C', '1,004毫巴', '每小时14.4公里', '10.00公里', '部分多云 (1,006米)', '本地:', '13:00、2019年7月19日周五', '协调世界时:', '05:00、2019年7月19日周五', '来源:', 'USAF 每小时地面观测', '报告类型:', 'METAR 航空例行天气报告', '露点:', '22.0°C', '其他云层:', '大部分晴天 (792米)', '下午2:00', '30°C', '1,004毫巴', '每小时14.4公里, 北', '10.00公里', '部分多云 (792米)', '本地:', '14:00、2019年7月19日周五', '协调世界时:', '06:00、2019年7月19日周五', '来源:', '周期文件', '趋势:', '无重要变化', '露点:', '22°C', '其他云层:', '大部分晴天 (792米)、部分多云 (1,006米)', '原始:', 'ZUUU 190600Z 02004MPS 330V040 9999 FEW026TCU SCT026 SCT033 30/22 Q1004 NOSIG', '下午2:00', '30.0°C', '1,004毫巴', '每小时14.4公里, 北', '10.00公里', '部分多云 (792米)', '本地:', '14:00、2019年7月19日周五', '协调世界时:', '06:00、2019年7月19日周五', '来源:', 'USAF 每小时地面观测', '报告类型:', 'METAR 航空例行天气报告', '露点:', '22.0°C', '其他云层:', '大部分晴天 (792米)、部分多云 (1,006米)', '下午3:00', '30°C', '1,003毫巴', '每小时10.8公里, 北', '10.00公里', '部分多云 (792米)', '本地:', '15:00、2019年7月19日周五', '协调世界时:', '07:00、2019年7月19日周五', '来源:', '周期文件', '趋势:', '无重要变化', '露点:', '22°C', '其他云层:', '部分多云 (1,006米)', '原始:', 'ZUUU 190700Z 01003MPS 320V040 9999 SCT026 SCT033 30/22 Q1003 NOSIG', '下午3:00', '30.0°C', '1,003毫巴', '每小时10.8公里, 北', '10.00公里', '部分多云 (792米)', '本地:', '15:00、2019年7月19日周五', '协调世界时:', '07:00、2019年7月19日周五', '来源:', 'USAF 每小时地面观测', '报告类型:', 'METAR 航空例行天气报告', '露点:', '22.0°C', '其他云层:', '部分多云 (1,006米)', '下午4:00', '30°C', '1,003毫巴', '每小时14.4公里, 东北', '10.00公里', '部分多云 (792米)', '本地:', '16:00、2019年7月19日周五', '协调世界时:', '08:00、2019年7月19日周五', '来源:', '周期文件', '趋势:', '无重要变化', '露点:', '22°C', '其他云层:', '部分多云 (1,006米)', '原始:', 'ZUUU 190800Z 04004MPS 350V060 9999 SCT026 SCT033 30/22 Q1003 NOSIG', '下午4:00', '30.0°C', '1,003毫巴', '每小时14.4公里, 东北', '10.00公里', '部分多云 (792米)', '本地:', '16:00、2019年7月19日周五', '协调世界时:', '08:00、2019年7月19日周五', '来源:', 'USAF 每小时地面观测', '报告类型:', 'METAR 航空例行天气报告', '露点:', '22.0°C', '其他云层:', '部分多云 (1,006米)', '下午5:00', '31°C', '1,002毫巴', '每小时14.4公里, 东北', '10.00公里', '部分多云 (792米)', '本地:', '17:00、2019年7月19日周五', '协调世界时:', '09:00、2019年7月19日周五', '来源:', '周期文件', '趋势:', '无重要变化', '露点:', '22°C', '其他云层:', '部分多云 (1,219米)', '原始:', 'ZUUU 190900Z 05004MPS 010V080 9999 SCT026 SCT040 31/22 Q1002 NOSIG', '下午5:00', '31.0°C', '1,002毫巴', '每小时14.4公里, 东北', '10.00公里', '部分多云 (792米)', '本地:', '17:00、2019年7月19日周五', '协调世界时:', '09:00、2019年7月19日周五', '来源:', 'USAF 每小时地面观测', '报告类型:', 'METAR 航空例行天气报告', '露点:', '22.0°C', '其他云层:', '部分多云 (1,219米)', '下午6:00', '31°C', '1,003毫巴', '每小时14.4公里, 东北', '10.00公里', '部分多云 (792米)', '本地:', '18:00、2019年7月19日周五', '协调世界时:', '10:00、2019年7月19日周五', '来源:', '周期文件', '趋势:', '无重要变化', '露点:', '22°C', '阵风风速:', '每小时32.4公里', '其他云层:', '大部分晴天 (792米)', '原始:', 'ZUUU 191000Z 04004G09MPS 010V090 9999 FEW026TCU SCT026 31/22 Q1003 NOSIG', '下午6:00', '31.0°C', '1,003毫巴', '每小时14.4公里, 东北', '10.00公里', '部分多云 (792米)', '本地:', '18:00、2019年7月19日周五', '协调世界时:', '10:00、2019年7月19日周五', '来源:', 'USAF 每小时地面观测', '报告类型:', 'METAR 航空例行天气报告', '露点:', '22.0°C', '阵风风速:', '每小时32.4公里', '其他云层:', '大部分晴天 (792米)', '下午7:00', '30°C', '1,003毫巴', '每小时21.6公里, 东北', '10.00公里', '大部分晴天 (792米)', '本地:', '19:00、2019年7月19日周五', '协调世界时:', '11:00、2019年7月19日周五', '来源:', '周期文件', '趋势:', '无重要变化', '露点:', '22°C', '原始:', 'ZUUU 191100Z 04006MPS 010V070 9999 FEW026 FEW026CB 30/22 Q1003 NOSIG', '下午7:00', '30.0°C', '1,003毫巴', '每小时21.6公里, 东北', '10.00公里', '大部分晴天 (792米)', '本地:', '19:00、2019年7月19日周五', '协调世界时:', '11:00、2019年7月19日周五', '来源:', 'USAF 每小时地面观测', '报告类型:', 'METAR 航空例行天气报告', '露点:', '22.0°C', '下午8:00', '29°C', '1,004毫巴', '每小时10.8公里, 北', '10.00公里', '部分多云 (792米)', '本地:', '20:00、2019年7月19日周五', '协调世界时:', '12:00、2019年7月19日周五', '来源:', '周期文件', '趋势:', '无重要变化', '露点:', '22°C', '其他云层:', '大部分晴天 (792米)', '原始:', 'ZUUU 191200Z 01003MPS 330V040 9999 FEW026CB SCT026 29/22 Q1004 NOSIG', '下午8:00', '29.0°C', '1,004毫巴', '每小时10.8公里, 北', '10.00公里', '部分多云 (792米)', '本地:', '20:00、2019年7月19日周五', '协调世界时:', '12:00、2019年7月19日周五', '来源:', 'USAF 每小时地面观测', '报告类型:', 'METAR 航空例行天气报告', '露点:', '22.0°C', '其他云层:', '大部分晴天 (792米)', '下午9:00', '28°C', '1,005毫巴', '每小时14.4公里, 北', '10.00公里', '部分多云 (792米)', '本地:', '21:00、2019年7月19日周五', '协调世界时:', '13:00、2019年7月19日周五', '来源:', '周期文件', '趋势:', '无重要变化', '露点:', '22°C', '其他云层:', '大部分晴天 (792米)', '原始:', 'ZUUU 191300Z 01004MPS 340V050 9999 FEW026CB SCT026 28/22 Q1005 NOSIG', '下午9:00', '28.0°C', '1,005毫巴', '每小时14.4公里, 北', '10.00公里', '部分多云 (792米)', '本地:', '21:00、2019年7月19日周五', '协调世界时:', '13:00、2019年7月19日周五', '来源:', 'USAF 每小时地面观测', '报告类型:', 'METAR 航空例行天气报告', '露点:', '22.0°C', '其他云层:', '大部分晴天 (792米)', '下午10:00', '27°C', '1,005毫巴', '每小时14.4公里, 北', '10.00公里', '部分多云 (792米)', '本地:', '22:00、2019年7月19日周五', '协调世界时:', '14:00、2019年7月19日周五', '来源:', '周期文件', '趋势:', '无重要变化', '露点:', '22°C', '其他云层:', '大部分晴天 (792米)', '原始:', 'ZUUU 191400Z 02004MPS 9999 FEW026CB SCT026 27/22 Q1005 NOSIG', '下午10:00', '27.0°C', '1,005毫巴', '每小时14.4公里, 北', '10.00公里', '部分多云 (792米)', '本地:', '22:00、2019年7月19日周五', '协调世界时:', '14:00、2019年7月19日周五', '来源:', 'USAF 每小时地面观测', '报告类型:', 'METAR 航空例行天气报告', '露点:', '22.0°C', '其他云层:', '大部分晴天 (792米)', '下午11:00', '28°C', '1,006毫巴', '每小时7.20公里, 北', '10.00公里', '部分多云 (792米)', '本地:', '23:00、2019年7月19日周五', '协调世界时:', '15:00、2019年7月19日周五', '来源:', '周期文件', '趋势:', '无重要变化', '露点:', '22°C', '其他云层:', '大部分晴天 (792米)', '原始:', 'ZUUU 191500Z 01002MPS 320V030 9999 FEW026TCU SCT026 28/22 Q1006 NOSIG', '下午11:00', '28.0°C', '1,006毫巴', '每小时7.20公里, 北', '10.00公里', '部分多云 (792米)', '本地:', '23:00、2019年7月19日周五', '协调世界时:', '15:00、2019年7月19日周五', '来源:', 'USAF 每小时地面观测', '报告类型:', 'METAR 航空例行天气报告', '露点:', '22.0°C', '其他云层:', '大部分晴天 (792米)']