['Showers of Light Rain', '-SHRA、IWC80', 'Showers of Light Rain', '-SHRA、IWC80', 'Showers of Light Rain', '-SHRA、IWC80', 'Showers of Light Rain', '-SHRA、IWC80', 'Showers of Light Rain', '-SHRA、IWC80', 'Showers of Light Rain、Mist', '-SHRA、IWC80、BR、IWC10', 'Showers of Light Rain、Mist', '-SHRA、IWC80、BR、IWC10', 'Showers of Light Rain、Mist', '-SHRA、IWC80、BR、IWC10', 'Showers of Light Rain', '-SHRA、IWC80', 'Showers of Light Rain', '-SHRA、IWC80', 'Showers of Light Rain', '-SHRA、IWC80', 'Showers of Light Rain', '-SHRA、IWC80', 'Showers of Light Rain', '-SHRA、IWC80', 'Showers of Light Rain', '-SHRA、IWC80', 'Showers of Light Rain', '-SHRA、IWC80', 'Showers of Light Rain', '-SHRA、IWC80', 'Showers of Light Rain', '-SHRA、IWC80', 'Showers of Light Rain', '-SHRA、IWC80', '上午12:00', '20°C', '1,025毫巴', '每小时7.20公里, 西', '10.00公里', '部分多云 (1,219米)', '本地:', '00:00、2019年9月24日周二', '协调世界时:', '16:00、2019年9月23日周一', '来源:', '周期文件', '趋势:', '无重要变化', '露点:', '17°C', '原始:', 'ZUUU 231600Z 29002MPS 260V320 9999 SCT040 20/17 Q1025 NOSIG', '上午12:00', '20.0°C', '1,025毫巴', '每小时7.20公里, 西', '10.00公里', '部分多云 (1,219米)', '本地:', '00:00、2019年9月24日周二', '协调世界时:', '16:00、2019年9月23日周一', '来源:', 'USAF 每小时地面观测', '报告类型:', 'METAR 航空例行天气报告', '露点:', '17.0°C', '上午1:00', '20°C', '1,025毫巴', '每小时7.20公里, 西', '7.00公里', '部分多云 (1,219米)', '本地:', '01:00、2019年9月24日周二', '协调世界时:', '17:00、2019年9月23日周一', '来源:', '周期文件', '趋势:', '无重要变化', '露点:', '18°C', '天气:', 'Showers of Light Rain', '原始:', 'ZUUU 231700Z 26002MPS 230V290 7000 -SHRA SCT040 20/18 Q1025 NOSIG', '上午1:00', '20.0°C', '1,025毫巴', '每小时7.20公里, 西', '7.00公里', '部分多云 (1,219米)', '本地:', '01:00、2019年9月24日周二', '协调世界时:', '17:00、2019年9月23日周一', '来源:', 'USAF 每小时地面观测', '报告类型:', 'METAR 航空例行天气报告', '露点:', '18.0°C', '天气:', 'Showers of Light Rain', '上午2:00', '19°C', '1,024毫巴', '每小时3.60公里', '7.00公里', '部分多云 (1,219米)', '本地:', '02:00、2019年9月24日周二', '协调世界时:', '18:00、2019年9月23日周一', '来源:', '周期文件', '趋势:', '无重要变化', '露点:', '17°C', '天气:', 'Showers of Light Rain', '原始:', 'ZUUU 231800Z VRB01MPS 7000 -SHRA SCT040 19/17 Q1024 NOSIG', '上午2:00', '19.0°C', '1,024毫巴', '每小时3.60公里', '7.00公里', '部分多云 (1,219米)', '本地:', '02:00、2019年9月24日周二', '协调世界时:', '18:00、2019年9月23日周一', '来源:', 'USAF 每小时地面观测', '报告类型:', 'METAR 航空例行天气报告', '露点:', '17.0°C', '天气:', 'Showers of Light Rain', '上午3:00', '19°C', '1,024毫巴', '每小时7.20公里, 西南', '7.00公里', '部分多云 (1,219米)', '本地:', '03:00、2019年9月24日周二', '协调世界时:', '19:00、2019年9月23日周一', '来源:', '周期文件', '趋势:', '无重要变化', '露点:', '17°C', '其他云层:', '大部分晴天 (305米)', '天气:', 'Showers of Light Rain', '原始:', 'ZUUU 231900Z 22002MPS 200V280 7000 -SHRA FEW010 SCT040 19/17 Q1024 NOSIG', '上午3:00', '19.0°C', '1,024毫巴', '每小时7.20公里, 西南', '7.00公里', '部分多云 (1,219米)', '本地:', '03:00、2019年9月24日周二', '协调世界时:', '19:00、2019年9月23日周一', '来源:', 'USAF 每小时地面观测', '报告类型:', 'METAR 航空例行天气报告', '露点:', '17.0°C', '其他云层:', '大部分晴天 (305米)', '天气:', 'Showers of Light Rain', '上午4:00', '19°C', '1,024毫巴', '每小时10.8公里, 西', '6.00公里', '部分多云 (1,006米)', '本地:', '04:00、2019年9月24日周二', '协调世界时:', '20:00、2019年9月23日周一', '来源:', '周期文件', '趋势:', '无重要变化', '露点:', '17°C', '其他云层:', '大部分晴天 (152米)、大部分晴天 (1,006米)', '天气:', 'Showers of Light Rain', '原始:', 'ZUUU 232000Z 26003MPS 6000 -SHRA FEW005 FEW033TCU SCT033 19/17 Q1024 NOSIG', '上午4:00', '19.0°C', '1,024毫巴', '每小时10.8公里, 西', '6.00公里', '部分多云 (1,006米)', '本地:', '04:00、2019年9月24日周二', '协调世界时:', '20:00、2019年9月23日周一', '来源:', 'USAF 每小时地面观测', '报告类型:', 'METAR 航空例行天气报告', '露点:', '17.0°C', '其他云层:', '大部分晴天 (152米)、大部分晴天 (1,006米)', '天气:', 'Showers of Light Rain', '上午5:00', '18°C', '1,025毫巴', '每小时3.60公里', '8.00公里', '部分多云 (1,006米)', '本地:', '05:00、2019年9月24日周二', '协调世界时:', '21:00、2019年9月23日周一', '来源:', '周期文件', '趋势:', '无重要变化', '露点:', '17°C', '其他云层:', '大部分晴天 (152米)、大部分晴天 (1,006米)', '天气:', 'Showers of Light Rain', '原始:', 'ZUUU 232100Z VRB01MPS 8000 -SHRA FEW005 FEW033TCU SCT033 18/17 Q1025 NOSIG', '上午5:00', '18.0°C', '1,025毫巴', '每小时3.60公里', '8.00公里', '部分多云 (1,006米)', '本地:', '05:00、2019年9月24日周二', '协调世界时:', '21:00、2019年9月23日周一', '来源:', 'USAF 每小时地面观测', '报告类型:', 'METAR 航空例行天气报告', '露点:', '17.0°C', '其他云层:', '大部分晴天 (152米)、大部分晴天 (1,006米)', '天气:', 'Showers of Light Rain', '上午6:00', '18°C', '1,025毫巴', '每小时7.20公里, 西南', '5.00公里', '部分多云 (1,006米)', '本地:', '06:00、2019年9月24日周二', '协调世界时:', '22:00、2019年9月23日周一', '来源:', '周期文件', '趋势:', '无重要变化', '露点:', '17°C', '其他云层:', '大部分晴天 (152米)、大部分晴天 (1,006米)', '天气:', 'Showers of Light Rain、Mist', '原始:', 'ZUUU 232200Z 24002MPS 210V270 5000 -SHRA BR FEW005 FEW033TCU SCT033 18/17 Q1025 NOSIG', '上午6:00', '18.0°C', '1,025毫巴', '每小时7.20公里, 西南', '5.00公里', '部分多云 (1,006米)', '本地:', '06:00、2019年9月24日周二', '协调世界时:', '22:00、2019年9月23日周一', '来源:', 'USAF 每小时地面观测', '报告类型:', 'METAR 航空例行天气报告', '露点:', '17.0°C', '其他云层:', '大部分晴天 (152米)、大部分晴天 (1,006米)', '天气:', 'Mist、Showers of Light Rain', '上午7:00', '18°C', '1,026毫巴', '每小时10.8公里, 西', '4.00公里', '大部分多云 (1,006米)', '本地:', '07:00、2019年9月24日周二', '协调世界时:', '23:00、2019年9月23日周一', '来源:', '周期文件', '趋势:', '无重要变化', '露点:', '16°C', '其他云层:', '大部分晴天 (152米)、部分多云 (213米)', '天气:', 'Showers of Light Rain、Mist', '原始:', 'ZUUU 232300Z 25003MPS 220V280 4000 -SHRA BR FEW005 SCT007 BKN033 18/16 Q1026 NOSIG', '上午7:00', '18.0°C', '1,026毫巴', '每小时10.8公里, 西', '4.00公里', '大部分多云 (1,006米)', '本地:', '07:00、2019年9月24日周二', '协调世界时:', '23:00、2019年9月23日周一', '来源:', 'USAF 每小时地面观测', '报告类型:', 'METAR 航空例行天气报告', '露点:', '16.0°C', '其他云层:', '大部分晴天 (152米)、部分多云 (213米)', '天气:', 'Mist、Showers of Light Rain', '上午8:00', '18°C', '1,027毫巴', '每小时10.8公里, 西', '4.00公里', '大部分多云 (1,219米)', '本地:', '08:00、2019年9月24日周二', '协调世界时:', '00:00、2019年9月24日周二', '来源:', '周期文件', '趋势:', '无重要变化', '露点:', '16°C', '其他云层:', '大部分晴天 (213米)、部分多云 (305米)', '天气:', 'Showers of Light Rain、Mist', '原始:', 'ZUUU 240000Z 25003MPS 220V280 4000 -SHRA BR FEW007 SCT010 BKN040 18/16 Q1027 NOSIG', '上午8:00', '18.0°C', '1,027毫巴', '每小时10.8公里, 西', '4.00公里', '大部分多云 (1,219米)', '本地:', '08:00、2019年9月24日周二', '协调世界时:', '00:00、2019年9月24日周二', '来源:', 'USAF 每小时地面观测', '报告类型:', 'METAR 航空例行天气报告', '露点:', '16.0°C', '其他云层:', '大部分晴天 (213米)、部分多云 (305米)', '天气:', 'Mist、Showers of Light Rain', '上午9:00', '18°C', '1,027毫巴', '每小时7.20公里, 西', '7.00公里', '大部分多云 (1,219米)', '本地:', '09:00、2019年9月24日周二', '协调世界时:', '01:00、2019年9月24日周二', '来源:', '周期文件', '趋势:', '无重要变化', '露点:', '16°C', '其他云层:', '大部分晴天 (213米)、部分多云 (305米)', '天气:', 'Showers of Light Rain', '原始:', 'ZUUU 240100Z 28002MPS 230V330 7000 -SHRA FEW007 SCT010 BKN040 18/16 Q1027 NOSIG', '上午9:00', '18.0°C', '1,027毫巴', '每小时7.20公里, 西', '7.00公里', '大部分多云 (1,219米)', '本地:', '09:00、2019年9月24日周二', '协调世界时:', '01:00、2019年9月24日周二', '来源:', 'USAF 每小时地面观测', '报告类型:', 'METAR 航空例行天气报告', '露点:', '16.0°C', '其他云层:', '大部分晴天 (213米)、部分多云 (305米)', '天气:', 'Showers of Light Rain', '上午10:00', '18°C', '1,028毫巴', '每小时7.20公里, 西', '7.00公里', '部分多云 (1,219米)', '本地:', '10:00、2019年9月24日周二', '协调世界时:', '02:00、2019年9月24日周二', '来源:', '周期文件', '趋势:', '无重要变化', '露点:', '16°C', '其他云层:', '大部分晴天 (213米)', '天气:', 'Showers of Light Rain', '原始:', 'ZUUU 240200Z 28002MPS 240V330 7000 -SHRA FEW007 SCT040 18/16 Q1028 NOSIG', '上午10:00', '18.0°C', '1,028毫巴', '每小时7.20公里, 西', '7.00公里', '部分多云 (1,219米)', '本地:', '10:00、2019年9月24日周二', '协调世界时:', '02:00、2019年9月24日周二', '来源:', 'USAF 每小时地面观测', '报告类型:', 'METAR 航空例行天气报告', '露点:', '16.0°C', '其他云层:', '大部分晴天 (213米)', '天气:', 'Showers of Light Rain', '上午11:00', '19°C', '1,028毫巴', '每小时10.8公里, 西', '10.00公里', '部分多云 (1,524米)', '本地:', '11:00、2019年9月24日周二', '协调世界时:', '03:00、2019年9月24日周二', '来源:', '周期文件', '趋势:', '无重要变化', '露点:', '16°C', '其他云层:', '大部分晴天 (305米)', '天气:', 'Showers of Light Rain', '原始:', 'ZUUU 240300Z 27003MPS 230V300 9999 -SHRA FEW010 SCT050 19/16 Q1028 NOSIG', '上午11:00', '19.0°C', '1,028毫巴', '每小时10.8公里, 西', '10.00公里', '部分多云 (1,524米)', '本地:', '11:00、2019年9月24日周二', '协调世界时:', '03:00、2019年9月24日周二', '来源:', 'USAF 每小时地面观测', '报告类型:', 'METAR 航空例行天气报告', '露点:', '16.0°C', '其他云层:', '大部分晴天 (305米)', '天气:', 'Showers of Light Rain', '下午12:00', '19°C', '1,027毫巴', '每小时7.20公里, 西', '10.00公里', '部分多云 (1,524米)', '本地:', '12:00、2019年9月24日周二', '协调世界时:', '04:00、2019年9月24日周二', '来源:', '周期文件', '趋势:', '无重要变化', '露点:', '17°C', '天气:', 'Showers of Light Rain', '原始:', 'ZUUU 240400Z 25002MPS 190V280 9999 -SHRA SCT050 19/17 Q1027 NOSIG', '下午12:00', '19.0°C', '1,027毫巴', '每小时7.20公里, 西', '10.00公里', '部分多云 (1,524米)', '本地:', '12:00、2019年9月24日周二', '协调世界时:', '04:00、2019年9月24日周二', '来源:', 'USAF 每小时地面观测', '报告类型:', 'METAR 航空例行天气报告', '露点:', '17.0°C', '天气:', 'Showers of Light Rain', '下午1:00', '21°C', '1,026毫巴', '每小时3.60公里', '10.00公里', '部分多云 (1,524米)', '本地:', '13:00、2019年9月24日周二', '协调世界时:', '05:00、2019年9月24日周二', '来源:', '周期文件', '趋势:', '无重要变化', '露点:', '16°C', '天气:', 'Showers of Light Rain', '原始:', 'ZUUU 240500Z VRB01MPS 9999 -SHRA SCT050 21/16 Q1026 NOSIG', '下午1:00', '21.0°C', '1,026毫巴', '每小时3.60公里', '10.00公里', '部分多云 (1,524米)', '本地:', '13:00、2019年9月24日周二', '协调世界时:', '05:00、2019年9月24日周二', '来源:', 'USAF 每小时地面观测', '报告类型:', 'METAR 航空例行天气报告', '露点:', '16.0°C', '天气:', 'Showers of Light Rain', '下午2:00', '21°C', '1,026毫巴', '每小时3.60公里', '10.00公里', '部分多云 (1,524米)', '本地:', '14:00、2019年9月24日周二', '协调世界时:', '06:00、2019年9月24日周二', '来源:', '周期文件', '趋势:', '无重要变化', '露点:', '17°C', '原始:', 'ZUUU 240600Z VRB01MPS 9999 SCT050 21/17 Q1026 NOSIG', '下午2:00', '21.0°C', '1,026毫巴', '每小时3.60公里', '10.00公里', '部分多云 (1,524米)', '本地:', '14:00、2019年9月24日周二', '协调世界时:', '06:00、2019年9月24日周二', '来源:', 'USAF 每小时地面观测', '报告类型:', 'METAR 航空例行天气报告', '露点:', '17.0°C', '下午3:00', '21°C', '1,025毫巴', '每小时7.20公里, 西南', '10.00公里', '部分多云 (1,219米)', '本地:', '15:00、2019年9月24日周二', '协调世界时:', '07:00、2019年9月24日周二', '来源:', '周期文件', '趋势:', '无重要变化', '露点:', '18°C', '天气:', 'Showers of Light Rain', '原始:', 'ZUUU 240700Z 21002MPS 9999 -SHRA SCT040 21/18 Q1025 NOSIG', '下午3:00', '21.0°C', '1,025毫巴', '每小时7.20公里, 西南', '10.00公里', '部分多云 (1,219米)', '本地:', '15:00、2019年9月24日周二', '协调世界时:', '07:00、2019年9月24日周二', '来源:', 'USAF 每小时地面观测', '报告类型:', 'METAR 航空例行天气报告', '露点:', '18.0°C', '天气:', 'Showers of Light Rain', '下午4:00', '21°C', '1,025毫巴', '每小时7.20公里, 西南', '10.00公里', '部分多云 (1,219米)', '本地:', '16:00、2019年9月24日周二', '协调世界时:', '08:00、2019年9月24日周二', '来源:', '周期文件', '趋势:', '无重要变化', '露点:', '17°C', '天气:', 'Showers of Light Rain', '原始:', 'ZUUU 240800Z 22002MPS 180V240 9999 -SHRA SCT040 21/17 Q1025 NOSIG', '下午4:00', '21.0°C', '1,025毫巴', '每小时7.20公里, 西南', '10.00公里', '部分多云 (1,219米)', '本地:', '16:00、2019年9月24日周二', '协调世界时:', '08:00、2019年9月24日周二', '来源:', 'USAF 每小时地面观测', '报告类型:', 'METAR 航空例行天气报告', '露点:', '17.0°C', '天气:', 'Showers of Light Rain', '下午5:00', '20°C', '1,025毫巴', '每小时14.4公里, 西南', '10.00公里', '部分多云 (1,524米)', '本地:', '17:00、2019年9月24日周二', '协调世界时:', '09:00、2019年9月24日周二', '来源:', '周期文件', '趋势:', '无重要变化', '露点:', '17°C', '天气:', 'Showers of Light Rain', '原始:', 'ZUUU 240900Z 22004MPS 9999 -SHRA SCT050 20/17 Q1025 NOSIG', '下午5:00', '20.0°C', '1,025毫巴', '每小时14.4公里, 西南', '10.00公里', '部分多云 (1,524米)', '本地:', '17:00、2019年9月24日周二', '协调世界时:', '09:00、2019年9月24日周二', '来源:', 'USAF 每小时地面观测', '报告类型:', 'METAR 航空例行天气报告', '露点:', '17.0°C', '天气:', 'Showers of Light Rain', '下午6:00', '20°C', '1,025毫巴', '每小时10.8公里, 西南', '10.00公里', '部分多云 (1,524米)', '本地:', '18:00、2019年9月24日周二', '协调世界时:', '10:00、2019年9月24日周二', '来源:', '周期文件', '趋势:', '无重要变化', '露点:', '17°C', '天气:', 'Showers of Light Rain', '原始:', 'ZUUU 241000Z 22003MPS 9999 -SHRA SCT050 20/17 Q1025 NOSIG', '下午6:00', '20.0°C', '1,025毫巴', '每小时10.8公里, 西南', '10.00公里', '部分多云 (1,524米)', '本地:', '18:00、2019年9月24日周二', '协调世界时:', '10:00、2019年9月24日周二', '来源:', 'USAF 每小时地面观测', '报告类型:', 'METAR 航空例行天气报告', '露点:', '17.0°C', '天气:', 'Showers of Light Rain', '下午7:00', '19°C', '1,026毫巴', '每小时10.8公里, 西南', '10.00公里', '部分多云 (1,524米)', '本地:', '19:00、2019年9月24日周二', '协调世界时:', '11:00、2019年9月24日周二', '来源:', '周期文件', '趋势:', '无重要变化', '露点:', '16°C', '天气:', 'Showers of Light Rain', '原始:', 'ZUUU 241100Z 22003MPS 9999 -SHRA SCT050 19/16 Q1026 NOSIG', '下午7:00', '19.0°C', '1,026毫巴', '每小时10.8公里, 西南', '10.00公里', '部分多云 (1,524米)', '本地:', '19:00、2019年9月24日周二', '协调世界时:', '11:00、2019年9月24日周二', '来源:', 'USAF 每小时地面观测', '报告类型:', 'METAR 航空例行天气报告', '露点:', '16.0°C', '天气:', 'Showers of Light Rain', '下午8:00', '19°C', '1,026毫巴', '每小时10.8公里, 西南', '10.00公里', '部分多云 (1,524米)', '本地:', '20:00、2019年9月24日周二', '协调世界时:', '12:00、2019年9月24日周二', '来源:', '周期文件', '趋势:', '无重要变化', '露点:', '16°C', '原始:', 'ZUUU 241200Z 22003MPS 180V250 9999 SCT050 19/16 Q1026 NOSIG', '下午8:00', '19.0°C', '1,026毫巴', '每小时10.8公里, 西南', '10.00公里', '部分多云 (1,524米)', '本地:', '20:00、2019年9月24日周二', '协调世界时:', '12:00、2019年9月24日周二', '来源:', 'USAF 每小时地面观测', '报告类型:', 'METAR 航空例行天气报告', '露点:', '16.0°C', '下午9:00', '18°C', '1,026毫巴', '每小时7.20公里, 西南', '≥ 10.00公里', '晴空万里', '本地:', '21:00、2019年9月24日周二', '协调世界时:', '13:00、2019年9月24日周二', '来源:', '周期文件', '趋势:', '无重要变化', '露点:', '16°C', '晴空万里:', '真', '原始:', 'ZUUU 241300Z 21002MPS 180V240 CAVOK 18/16 Q1026 NOSIG', '下午9:00', '18.0°C', '1,026毫巴', '每小时7.20公里, 西南', '9.90公里', '晴空万里', '本地:', '21:00、2019年9月24日周二', '协调世界时:', '13:00、2019年9月24日周二', '来源:', 'USAF 每小时地面观测', '报告类型:', 'METAR 航空例行天气报告', '露点:', '16.0°C', '晴空万里:', '真', '下午10:00', '18°C', '1,027毫巴', '每小时7.20公里, 南', '≥ 10.00公里', '晴空万里', '本地:', '22:00、2019年9月24日周二', '协调世界时:', '14:00、2019年9月24日周二', '来源:', '周期文件', '趋势:', '无重要变化', '露点:', '16°C', '晴空万里:', '真', '原始:', 'ZUUU 241400Z 19002MPS CAVOK 18/16 Q1027 NOSIG', '下午10:00', '18.0°C', '1,027毫巴', '每小时7.20公里, 南', '9.90公里', '晴空万里', '本地:', '22:00、2019年9月24日周二', '协调世界时:', '14:00、2019年9月24日周二', '来源:', 'USAF 每小时地面观测', '报告类型:', 'METAR 航空例行天气报告', '露点:', '16.0°C', '晴空万里:', '真', '下午11:00', '18°C', '1,027毫巴', '每小时7.20公里, 西南', '≥ 10.00公里', '晴空万里', '本地:', '23:00、2019年9月24日周二', '协调世界时:', '15:00、2019年9月24日周二', '来源:', '周期文件', '趋势:', '无重要变化', '露点:', '15°C', '晴空万里:', '真', '原始:', 'ZUUU 241500Z 21002MPS CAVOK 18/15 Q1027 NOSIG', '下午11:00', '18.0°C', '1,027毫巴', '每小时7.20公里, 西南', '9.90公里', '晴空万里', '本地:', '23:00、2019年9月24日周二', '协调世界时:', '15:00、2019年9月24日周二', '来源:', 'USAF 每小时地面观测', '报告类型:', 'METAR 航空例行天气报告', '露点:', '15.0°C', '晴空万里:', '真']