['Light Rain', '-RA、IWC61', 'Showers of Light Rain', '-SHRA、IWC80', 'Showers of Light Rain', '-SHRA、IWC80', 'Showers of Light Rain', '-SHRA、IWC80', 'Showers of Light Rain', '-SHRA、IWC80', '上午12:00', '15°C', '1,022毫巴', '每小时7.20公里, 西', '8.00公里', '部分多云 (1,615米)', '本地:', '00:00、2019年4月3日周三', '协调世界时:', '16:00、2019年4月2日周二', '来源:', '周期文件', '趋势:', '无重要变化', '露点:', '13°C', '天气:', 'Light Rain', '原始:', 'ZUUU 021600Z 25002MPS 220V300 8000 -RA SCT053 15/13 Q1022 NOSIG', '上午12:00', '15.0°C', '1,022毫巴', '每小时7.20公里, 西', '8.00公里', '部分多云 (1,615米)', '本地:', '00:00、2019年4月3日周三', '协调世界时:', '16:00、2019年4月2日周二', '来源:', 'USAF 每小时地面观测', '报告类型:', 'METAR 航空例行天气报告', '露点:', '13.0°C', '天气:', 'Light Rain', '上午1:00', '14°C', '1,021毫巴', '每小时3.60公里', '10.00公里', '部分多云 (1,524米)', '本地:', '01:00、2019年4月3日周三', '协调世界时:', '17:00、2019年4月2日周二', '来源:', '周期文件', '趋势:', '无重要变化', '露点:', '13°C', '原始:', 'ZUUU 021700Z VRB01MPS 9999 SCT050 14/13 Q1021 NOSIG', '上午1:00', '14.0°C', '1,021毫巴', '每小时3.60公里', '10.00公里', '部分多云 (1,524米)', '本地:', '01:00、2019年4月3日周三', '协调世界时:', '17:00、2019年4月2日周二', '来源:', 'USAF 每小时地面观测', '报告类型:', 'METAR 航空例行天气报告', '露点:', '13.0°C', '上午2:00', '14°C', '1,021毫巴', '每小时3.60公里', '10.00公里', '部分多云 (1,524米)', '本地:', '02:00、2019年4月3日周三', '协调世界时:', '18:00、2019年4月2日周二', '来源:', '周期文件', '趋势:', '无重要变化', '露点:', '13°C', '原始:', 'ZUUU 021800Z VRB01MPS 9999 SCT050 14/13 Q1021 NOSIG', '上午2:00', '14.0°C', '1,021毫巴', '每小时3.60公里', '10.00公里', '部分多云 (1,524米)', '本地:', '02:00、2019年4月3日周三', '协调世界时:', '18:00、2019年4月2日周二', '来源:', 'USAF 每小时地面观测', '报告类型:', 'METAR 航空例行天气报告', '露点:', '13.0°C', '上午3:00', '14°C', '1,021毫巴', '每小时0公里', '≥ 10.00公里', '晴空万里', '本地:', '03:00、2019年4月3日周三', '协调世界时:', '19:00、2019年4月2日周二', '来源:', '周期文件', '趋势:', '无重要变化', '露点:', '13°C', '晴空万里:', '真', '原始:', 'ZUUU 021900Z 00000MPS CAVOK 14/13 Q1021 NOSIG', '上午3:00', '14.0°C', '1,021毫巴', '每小时0公里', '-', '晴空万里', '本地:', '03:00、2019年4月3日周三', '协调世界时:', '19:00、2019年4月2日周二', '来源:', 'USAF 每小时地面观测', '报告类型:', 'METAR 航空例行天气报告', '露点:', '13.0°C', '晴空万里:', '真', '上午4:00', '13°C', '1,020毫巴', '每小时0公里', '10.00公里', '部分多云 (1,524米)', '本地:', '04:00、2019年4月3日周三', '协调世界时:', '20:00、2019年4月2日周二', '来源:', '周期文件', '趋势:', '无重要变化', '露点:', '13°C', '原始:', 'ZUUU 022000Z 00000MPS 9999 SCT050 13/13 Q1020 NOSIG', '上午4:00', '13.0°C', '1,020毫巴', '每小时0公里', '10.00公里', '部分多云 (1,524米)', '本地:', '04:00、2019年4月3日周三', '协调世界时:', '20:00、2019年4月2日周二', '来源:', 'USAF 每小时地面观测', '报告类型:', 'METAR 航空例行天气报告', '露点:', '13.0°C', '上午5:00', '14°C', '1,020毫巴', '每小时3.60公里, 东', '10.00公里', '部分多云 (1,524米)', '本地:', '05:00、2019年4月3日周三', '协调世界时:', '21:00、2019年4月2日周二', '来源:', '周期文件', '趋势:', '无重要变化', '露点:', '13°C', '原始:', 'ZUUU 022100Z 11001MPS 9999 SCT050 14/13 Q1020 NOSIG', '上午5:00', '14.0°C', '1,020毫巴', '每小时3.60公里, 东', '10.00公里', '部分多云 (1,524米)', '本地:', '05:00、2019年4月3日周三', '协调世界时:', '21:00、2019年4月2日周二', '来源:', 'USAF 每小时地面观测', '报告类型:', 'METAR 航空例行天气报告', '露点:', '13.0°C', '上午6:00', '13°C', '1,021毫巴', '每小时7.20公里, 西南', '10.00公里', '部分多云 (1,524米)', '本地:', '06:00、2019年4月3日周三', '协调世界时:', '22:00、2019年4月2日周二', '来源:', '周期文件', '趋势:', '无重要变化', '露点:', '13°C', '原始:', 'ZUUU 022200Z 21002MPS 9999 SCT050 13/13 Q1021 NOSIG', '上午6:00', '13.0°C', '1,021毫巴', '每小时7.20公里, 西南', '10.00公里', '部分多云 (1,524米)', '本地:', '06:00、2019年4月3日周三', '协调世界时:', '22:00、2019年4月2日周二', '来源:', 'USAF 每小时地面观测', '报告类型:', 'METAR 航空例行天气报告', '露点:', '13.0°C', '上午7:00', '14°C', '1,021毫巴', '每小时3.60公里', '10.00公里', '部分多云 (1,524米)', '本地:', '07:00、2019年4月3日周三', '协调世界时:', '23:00、2019年4月2日周二', '来源:', '周期文件', '趋势:', '无重要变化', '露点:', '13°C', '原始:', 'ZUUU 022300Z VRB01MPS 9999 SCT050 14/13 Q1021 NOSIG', '上午7:00', '14.0°C', '1,021毫巴', '每小时3.60公里', '10.00公里', '部分多云 (1,524米)', '本地:', '07:00、2019年4月3日周三', '协调世界时:', '23:00、2019年4月2日周二', '来源:', 'USAF 每小时地面观测', '报告类型:', 'METAR 航空例行天气报告', '露点:', '13.0°C', '上午8:00', '14°C', '1,022毫巴', '每小时0公里', '10.00公里', '部分多云 (1,524米)', '本地:', '08:00、2019年4月3日周三', '协调世界时:', '00:00、2019年4月3日周三', '来源:', '周期文件', '趋势:', '无重要变化', '露点:', '13°C', '原始:', 'ZUUU 030000Z 00000MPS 9999 SCT050 14/13 Q1022 NOSIG', '上午8:00', '14.0°C', '1,022毫巴', '每小时0公里', '10.00公里', '部分多云 (1,524米)', '本地:', '08:00、2019年4月3日周三', '协调世界时:', '00:00、2019年4月3日周三', '来源:', 'USAF 每小时地面观测', '报告类型:', 'METAR 航空例行天气报告', '露点:', '13.0°C', '上午9:00', '16°C', '1,023毫巴', '每小时7.20公里, 东北', '10.00公里', '部分多云 (1,524米)', '本地:', '09:00、2019年4月3日周三', '协调世界时:', '01:00、2019年4月3日周三', '来源:', '周期文件', '趋势:', '无重要变化', '露点:', '12°C', '原始:', 'ZUUU 030100Z 05002MPS 030V090 9999 SCT050 16/12 Q1023 NOSIG', '上午9:00', '16.0°C', '1,023毫巴', '每小时7.20公里, 东北', '10.00公里', '部分多云 (1,524米)', '本地:', '09:00、2019年4月3日周三', '协调世界时:', '01:00、2019年4月3日周三', '来源:', 'USAF 每小时地面观测', '报告类型:', 'METAR 航空例行天气报告', '露点:', '12.0°C', '上午10:00', '16°C', '1,023毫巴', '每小时14.4公里, 东北', '10.00公里', '部分多云 (1,524米)', '本地:', '10:00、2019年4月3日周三', '协调世界时:', '02:00、2019年4月3日周三', '来源:', '周期文件', '趋势:', '无重要变化', '露点:', '10°C', '原始:', 'ZUUU 030200Z 04004MPS 9999 SCT050 16/10 Q1023 NOSIG', '上午10:00', '16.0°C', '1,023毫巴', '每小时14.4公里, 东北', '10.00公里', '部分多云 (1,524米)', '本地:', '10:00、2019年4月3日周三', '协调世界时:', '02:00、2019年4月3日周三', '来源:', 'USAF 每小时地面观测', '报告类型:', 'METAR 航空例行天气报告', '露点:', '10.0°C', '上午11:00', '17°C', '1,023毫巴', '每小时7.20公里, 北', '10.00公里', '部分多云 (1,524米)', '本地:', '11:00、2019年4月3日周三', '协调世界时:', '03:00、2019年4月3日周三', '来源:', '周期文件', '趋势:', '无重要变化', '露点:', '10°C', '原始:', 'ZUUU 030300Z 01002MPS 320V040 9999 SCT050 17/10 Q1023 NOSIG', '上午11:00', '17.0°C', '1,023毫巴', '每小时7.20公里, 北', '10.00公里', '部分多云 (1,524米)', '本地:', '11:00、2019年4月3日周三', '协调世界时:', '03:00、2019年4月3日周三', '来源:', 'USAF 每小时地面观测', '报告类型:', 'METAR 航空例行天气报告', '露点:', '10.0°C', '下午12:00', '17°C', '1,023毫巴', '每小时10.8公里, 北', '10.00公里', '大部分晴天 (914米)', '本地:', '12:00、2019年4月3日周三', '协调世界时:', '04:00、2019年4月3日周三', '来源:', '周期文件', '趋势:', '无重要变化', '露点:', '9°C', '原始:', 'ZUUU 030400Z 01003MPS 330V070 9999 FEW030 17/09 Q1023 NOSIG', '下午12:00', '17.0°C', '1,023毫巴', '每小时10.8公里, 北', '10.00公里', '大部分晴天 (914米)', '本地:', '12:00、2019年4月3日周三', '协调世界时:', '04:00、2019年4月3日周三', '来源:', 'USAF 每小时地面观测', '报告类型:', 'METAR 航空例行天气报告', '露点:', '9.0°C', '下午1:00', '18°C', '1,021毫巴', '每小时10.8公里, 北', '10.00公里', '大部分晴天 (914米)', '本地:', '13:00、2019年4月3日周三', '协调世界时:', '05:00、2019年4月3日周三', '来源:', '周期文件', '趋势:', '无重要变化', '露点:', '10°C', '原始:', 'ZUUU 030500Z 02003MPS 330V060 9999 FEW030 18/10 Q1021 NOSIG', '下午1:00', '18.0°C', '1,021毫巴', '每小时10.8公里, 北', '10.00公里', '大部分晴天 (914米)', '本地:', '13:00、2019年4月3日周三', '协调世界时:', '05:00、2019年4月3日周三', '来源:', 'USAF 每小时地面观测', '报告类型:', 'METAR 航空例行天气报告', '露点:', '10.0°C', '下午2:00', '18°C', '1,021毫巴', '每小时10.8公里, 北', '10.00公里', '大部分晴天 (914米)', '本地:', '14:00、2019年4月3日周三', '协调世界时:', '06:00、2019年4月3日周三', '来源:', '周期文件', '趋势:', '无重要变化', '露点:', '10°C', '原始:', 'ZUUU 030600Z 01003MPS 320V040 9999 FEW030 18/10 Q1021 NOSIG', '下午2:00', '18.0°C', '1,021毫巴', '每小时10.8公里, 北', '10.00公里', '大部分晴天 (914米)', '本地:', '14:00、2019年4月3日周三', '协调世界时:', '06:00、2019年4月3日周三', '来源:', 'USAF 每小时地面观测', '报告类型:', 'METAR 航空例行天气报告', '露点:', '10.0°C', '下午3:00', '18°C', '1,020毫巴', '每小时10.8公里, 东北', '10.00公里', '大部分晴天 (914米)', '本地:', '15:00、2019年4月3日周三', '协调世界时:', '07:00、2019年4月3日周三', '来源:', '周期文件', '趋势:', '无重要变化', '露点:', '9°C', '原始:', 'ZUUU 030700Z 05003MPS 010V090 9999 FEW030 18/09 Q1020 NOSIG', '下午3:00', '18.0°C', '1,020毫巴', '每小时10.8公里, 东北', '10.00公里', '大部分晴天 (914米)', '本地:', '15:00、2019年4月3日周三', '协调世界时:', '07:00、2019年4月3日周三', '来源:', 'USAF 每小时地面观测', '报告类型:', 'METAR 航空例行天气报告', '露点:', '9.0°C', '下午4:00', '18°C', '1,019毫巴', '每小时10.8公里, 东北', '10.00公里', '大部分晴天 (914米)', '本地:', '16:00、2019年4月3日周三', '协调世界时:', '08:00、2019年4月3日周三', '来源:', '周期文件', '趋势:', '无重要变化', '露点:', '9°C', '原始:', 'ZUUU 030800Z 06003MPS 010V130 9999 FEW030 18/09 Q1019 NOSIG', '下午4:00', '18.0°C', '1,019毫巴', '每小时10.8公里, 东北', '10.00公里', '大部分晴天 (914米)', '本地:', '16:00、2019年4月3日周三', '协调世界时:', '08:00、2019年4月3日周三', '来源:', 'USAF 每小时地面观测', '报告类型:', 'METAR 航空例行天气报告', '露点:', '9.0°C', '下午5:00', '18°C', '1,019毫巴', '每小时10.8公里, 东', '≥ 10.00公里', '晴空万里', '本地:', '17:00、2019年4月3日周三', '协调世界时:', '09:00、2019年4月3日周三', '来源:', '周期文件', '趋势:', '无重要变化', '露点:', '10°C', '晴空万里:', '真', '原始:', 'ZUUU 030900Z 07003MPS 040V100 CAVOK 18/10 Q1019 NOSIG', '下午5:00', '18.0°C', '1,019毫巴', '每小时10.8公里, 东', '-', '晴空万里', '本地:', '17:00、2019年4月3日周三', '协调世界时:', '09:00、2019年4月3日周三', '来源:', 'USAF 每小时地面观测', '报告类型:', 'METAR 航空例行天气报告', '露点:', '10.0°C', '晴空万里:', '真', '下午6:00', '18°C', '1,019毫巴', '每小时7.20公里, 东', '10.00公里', '部分多云 (1,524米)', '本地:', '18:00、2019年4月3日周三', '协调世界时:', '10:00、2019年4月3日周三', '来源:', '周期文件', '趋势:', '无重要变化', '露点:', '10°C', '其他云层:', '大部分晴天 (1,219米)', '天气:', 'Showers of Light Rain', '原始:', 'ZUUU 031000Z 07002MPS 010V120 9999 -SHRA FEW040 SCT050 18/10 Q1019 NOSIG', '下午6:00', '18.0°C', '1,019毫巴', '每小时7.20公里, 东', '10.00公里', '部分多云 (1,524米)', '本地:', '18:00、2019年4月3日周三', '协调世界时:', '10:00、2019年4月3日周三', '来源:', 'USAF 每小时地面观测', '报告类型:', 'METAR 航空例行天气报告', '露点:', '10.0°C', '其他云层:', '大部分晴天 (1,219米)', '天气:', 'Showers of Light Rain', '下午7:00', '17°C', '1,019毫巴', '每小时0公里', '≥ 10.00公里', '晴空万里', '本地:', '19:00、2019年4月3日周三', '协调世界时:', '11:00、2019年4月3日周三', '来源:', '周期文件', '趋势:', '无重要变化', '露点:', '10°C', '晴空万里:', '真', '原始:', 'ZUUU 031100Z 00000MPS CAVOK 17/10 Q1019 NOSIG', '下午7:00', '17.0°C', '1,019毫巴', '每小时0公里', '-', '晴空万里', '本地:', '19:00、2019年4月3日周三', '协调世界时:', '11:00、2019年4月3日周三', '来源:', 'USAF 每小时地面观测', '报告类型:', 'METAR 航空例行天气报告', '露点:', '10.0°C', '晴空万里:', '真', '下午8:00', '17°C', '1,019毫巴', '每小时0公里', '≥ 10.00公里', '晴空万里', '本地:', '20:00、2019年4月3日周三', '协调世界时:', '12:00、2019年4月3日周三', '来源:', '周期文件', '趋势:', '无重要变化', '露点:', '11°C', '晴空万里:', '真', '原始:', 'ZUUU 031200Z 00000MPS CAVOK 17/11 Q1019 NOSIG', '下午8:00', '17.0°C', '1,019毫巴', '每小时0公里', '-', '晴空万里', '本地:', '20:00、2019年4月3日周三', '协调世界时:', '12:00、2019年4月3日周三', '来源:', 'USAF 每小时地面观测', '报告类型:', 'METAR 航空例行天气报告', '露点:', '11.0°C', '晴空万里:', '真', '下午9:00', '16°C', '1,020毫巴', '每小时0公里', '10.00公里', '大部分晴天 (1,219米)', '本地:', '21:00、2019年4月3日周三', '协调世界时:', '13:00、2019年4月3日周三', '来源:', '周期文件', '趋势:', '无重要变化', '露点:', '10°C', '天气:', 'Showers of Light Rain', '原始:', 'ZUUU 031300Z 00000MPS 9999 -SHRA FEW040 16/10 Q1020 NOSIG', '下午9:00', '16.0°C', '1,020毫巴', '每小时0公里', '10.00公里', '大部分晴天 (1,219米)', '本地:', '21:00、2019年4月3日周三', '协调世界时:', '13:00、2019年4月3日周三', '来源:', 'USAF 每小时地面观测', '报告类型:', 'METAR 航空例行天气报告', '露点:', '10.0°C', '天气:', 'Showers of Light Rain', '下午10:00', '14°C', '1,021毫巴', '每小时7.20公里, 西南', '10.00公里', '部分多云 (1,219米)', '本地:', '22:00、2019年4月3日周三', '协调世界时:', '14:00、2019年4月3日周三', '来源:', '周期文件', '趋势:', '无重要变化', '露点:', '12°C', '天气:', 'Showers of Light Rain', '原始:', 'ZUUU 031400Z 22002MPS 9999 -SHRA SCT040 14/12 Q1021 NOSIG', '下午10:00', '14.0°C', '1,021毫巴', '每小时7.20公里, 西南', '10.00公里', '部分多云 (1,219米)', '本地:', '22:00、2019年4月3日周三', '协调世界时:', '14:00、2019年4月3日周三', '来源:', 'USAF 每小时地面观测', '报告类型:', 'METAR 航空例行天气报告', '露点:', '12.0°C', '天气:', 'Showers of Light Rain', '下午11:00', '14°C', '1,021毫巴', '每小时7.20公里, 西', '8.00公里', '部分多云 (1,219米)', '本地:', '23:00、2019年4月3日周三', '协调世界时:', '15:00、2019年4月3日周三', '来源:', '周期文件', '趋势:', '无重要变化', '露点:', '13°C', '天气:', 'Showers of Light Rain', '原始:', 'ZUUU 031500Z 25002MPS 8000 -SHRA SCT040 14/13 Q1021 NOSIG', '下午11:00', '14.0°C', '1,021毫巴', '每小时7.20公里, 西', '8.00公里', '部分多云 (1,219米)', '本地:', '23:00、2019年4月3日周三', '协调世界时:', '15:00、2019年4月3日周三', '来源:', 'USAF 每小时地面观测', '报告类型:', 'METAR 航空例行天气报告', '露点:', '13.0°C', '天气:', 'Showers of Light Rain']