['Mist', 'BR、IWC10', 'Mist', 'BR、IWC10', 'Mist', 'BR、IWC10', 'Haze', 'HZ、IWC05', 'Showers of Light Rain', '-SHRA、IWC80', 'Thunderstorm with Light Rain、Thunderstorm with Rain、Recent Showers of Rain、Mist', '-TSRA、IWC95、RESHRA、BR、IWC10', 'Thunderstorm with Light Rain、Thunderstorm with Rain、Showers of Light Rain、Mist', '-TSRA、IWC95、-SHRA、BR、IWC10', '上午12:00', '21°C', '1,014毫巴', '每小时0公里', '10.00公里', '部分多云 (1,524米)', '本地:', '00:00、2019年5月11日周六', '协调世界时:', '16:00、2019年5月10日周五', '来源:', '周期文件', '趋势:', '无重要变化', '露点:', '17°C', '原始:', 'ZUUU 101600Z 00000MPS 9999 SCT050 21/17 Q1014 NOSIG', '上午12:00', '21.0°C', '1,014毫巴', '每小时0公里', '10.00公里', '部分多云 (1,524米)', '本地:', '00:00、2019年5月11日周六', '协调世界时:', '16:00、2019年5月10日周五', '来源:', 'USAF 每小时地面观测', '报告类型:', 'METAR 航空例行天气报告', '露点:', '17.0°C', '上午1:00', '21°C', '1,014毫巴', '每小时3.60公里', '10.00公里', '部分多云 (1,524米)', '本地:', '01:00、2019年5月11日周六', '协调世界时:', '17:00、2019年5月10日周五', '来源:', '周期文件', '趋势:', '无重要变化', '露点:', '17°C', '原始:', 'ZUUU 101700Z VRB01MPS 9999 SCT050 21/17 Q1014 NOSIG', '上午1:00', '21.0°C', '1,014毫巴', '每小时3.60公里', '10.00公里', '部分多云 (1,524米)', '本地:', '01:00、2019年5月11日周六', '协调世界时:', '17:00、2019年5月10日周五', '来源:', 'USAF 每小时地面观测', '报告类型:', 'METAR 航空例行天气报告', '露点:', '17.0°C', '上午2:00', '21°C', '1,013毫巴', '每小时3.60公里', '10.00公里', '部分多云 (1,524米)', '本地:', '02:00、2019年5月11日周六', '协调世界时:', '18:00、2019年5月10日周五', '来源:', '周期文件', '趋势:', '无重要变化', '露点:', '17°C', '原始:', 'ZUUU 101800Z VRB01MPS 9999 SCT050 21/17 Q1013 NOSIG', '上午2:00', '21.0°C', '1,013毫巴', '每小时3.60公里', '10.00公里', '部分多云 (1,524米)', '本地:', '02:00、2019年5月11日周六', '协调世界时:', '18:00、2019年5月10日周五', '来源:', 'USAF 每小时地面观测', '报告类型:', 'METAR 航空例行天气报告', '露点:', '17.0°C', '上午3:00', '20°C', '1,014毫巴', '每小时0公里', '10.00公里', '部分多云 (1,524米)', '本地:', '03:00、2019年5月11日周六', '协调世界时:', '19:00、2019年5月10日周五', '来源:', '周期文件', '趋势:', '无重要变化', '露点:', '17°C', '原始:', 'ZUUU 101900Z 00000MPS 9999 SCT050 20/17 Q1014 NOSIG', '上午3:00', '20.0°C', '1,014毫巴', '每小时0公里', '10.00公里', '部分多云 (1,524米)', '本地:', '03:00、2019年5月11日周六', '协调世界时:', '19:00、2019年5月10日周五', '来源:', 'USAF 每小时地面观测', '报告类型:', 'METAR 航空例行天气报告', '露点:', '17.0°C', '上午4:00', '20°C', '1,014毫巴', '每小时0公里', '10.00公里', '部分多云 (1,524米)', '本地:', '04:00、2019年5月11日周六', '协调世界时:', '20:00、2019年5月10日周五', '来源:', '周期文件', '趋势:', '无重要变化', '露点:', '17°C', '原始:', 'ZUUU 102000Z 00000MPS 9999 SCT050 20/17 Q1014 NOSIG', '上午4:00', '20.0°C', '1,014毫巴', '每小时0公里', '10.00公里', '部分多云 (1,524米)', '本地:', '04:00、2019年5月11日周六', '协调世界时:', '20:00、2019年5月10日周五', '来源:', 'USAF 每小时地面观测', '报告类型:', 'METAR 航空例行天气报告', '露点:', '17.0°C', '上午5:00', '20°C', '1,014毫巴', '每小时0公里', '7.00公里', '部分多云 (1,524米)', '本地:', '05:00、2019年5月11日周六', '协调世界时:', '21:00、2019年5月10日周五', '来源:', '周期文件', '趋势:', '无重要变化', '露点:', '17°C', '原始:', 'ZUUU 102100Z 00000MPS 7000 SCT050 20/17 Q1014 NOSIG', '上午5:00', '20.0°C', '1,014毫巴', '每小时0公里', '7.00公里', '部分多云 (1,524米)', '本地:', '05:00、2019年5月11日周六', '协调世界时:', '21:00、2019年5月10日周五', '来源:', 'USAF 每小时地面观测', '报告类型:', 'METAR 航空例行天气报告', '露点:', '17.0°C', '上午6:00', '20°C', '1,015毫巴', '每小时3.60公里, 西北', '7.00公里', '部分多云 (1,524米)', '本地:', '06:00、2019年5月11日周六', '协调世界时:', '22:00、2019年5月10日周五', '来源:', '周期文件', '趋势:', '无重要变化', '露点:', '17°C', '原始:', 'ZUUU 102200Z 30001MPS 7000 SCT050 20/17 Q1015 NOSIG', '上午6:00', '20.0°C', '1,015毫巴', '每小时3.60公里, 西北', '7.00公里', '部分多云 (1,524米)', '本地:', '06:00、2019年5月11日周六', '协调世界时:', '22:00、2019年5月10日周五', '来源:', 'USAF 每小时地面观测', '报告类型:', 'METAR 航空例行天气报告', '露点:', '17.0°C', '上午7:00', '20°C', '1,014毫巴', '每小时0公里', '6.00公里', '无重要云', '本地:', '07:00、2019年5月11日周六', '协调世界时:', '23:00、2019年5月10日周五', '来源:', '周期文件', '趋势:', '无重要变化', '露点:', '18°C', '原始:', 'ZUUU 102300Z 00000MPS 6000 NSC 20/18 Q1014 NOSIG', '上午7:00', '20.0°C', '1,014毫巴', '每小时0公里', '6.00公里', '未检测到云', '本地:', '07:00、2019年5月11日周六', '协调世界时:', '23:00、2019年5月10日周五', '来源:', 'USAF 每小时地面观测', '报告类型:', 'METAR 航空例行天气报告', '露点:', '18.0°C', '上午8:00', '20°C', '1,015毫巴', '每小时0公里', '6.00公里', '无重要云', '本地:', '08:00、2019年5月11日周六', '协调世界时:', '00:00、2019年5月11日周六', '来源:', '周期文件', '趋势:', '无重要变化', '露点:', '18°C', '原始:', 'ZUUU 110000Z 00000MPS 6000 NSC 20/18 Q1015 NOSIG', '上午8:00', '20.0°C', '1,015毫巴', '每小时0公里', '6.00公里', '未检测到云', '本地:', '08:00、2019年5月11日周六', '协调世界时:', '00:00、2019年5月11日周六', '来源:', 'USAF 每小时地面观测', '报告类型:', 'METAR 航空例行天气报告', '露点:', '18.0°C', '上午9:00', '20°C', '1,015毫巴', '每小时7.20公里, 西南', '5.00公里', '无重要云', '本地:', '09:00、2019年5月11日周六', '协调世界时:', '01:00、2019年5月11日周六', '来源:', '周期文件', '趋势:', '无重要变化', '露点:', '18°C', '天气:', 'Mist', '原始:', 'ZUUU 110100Z 23002MPS 5000 BR NSC 20/18 Q1015 NOSIG', '上午9:00', '20.0°C', '1,015毫巴', '每小时7.20公里, 西南', '5.00公里', '未检测到云', '本地:', '09:00、2019年5月11日周六', '协调世界时:', '01:00、2019年5月11日周六', '来源:', 'USAF 每小时地面观测', '报告类型:', 'METAR 航空例行天气报告', '露点:', '18.0°C', '天气:', 'Mist', '上午10:00', '21°C', '1,015毫巴', '每小时3.60公里', '5.00公里', '无重要云', '本地:', '10:00、2019年5月11日周六', '协调世界时:', '02:00、2019年5月11日周六', '来源:', '周期文件', '趋势:', '无重要变化', '露点:', '18°C', '天气:', 'Mist', '原始:', 'ZUUU 110200Z VRB01MPS 5000 BR NSC 21/18 Q1015 NOSIG', '上午10:00', '21.0°C', '1,015毫巴', '每小时3.60公里', '5.00公里', '未检测到云', '本地:', '10:00、2019年5月11日周六', '协调世界时:', '02:00、2019年5月11日周六', '来源:', 'USAF 每小时地面观测', '报告类型:', 'METAR 航空例行天气报告', '露点:', '18.0°C', '天气:', 'Mist', '上午11:00', '23°C', '1,015毫巴', '每小时3.60公里', '5.00公里', '无重要云', '本地:', '11:00、2019年5月11日周六', '协调世界时:', '03:00、2019年5月11日周六', '来源:', '周期文件', '趋势:', '无重要变化', '露点:', '18°C', '天气:', 'Mist', '原始:', 'ZUUU 110300Z VRB01MPS 5000 BR NSC 23/18 Q1015 NOSIG', '上午11:00', '23.0°C', '1,015毫巴', '每小时3.60公里', '5.00公里', '未检测到云', '本地:', '11:00、2019年5月11日周六', '协调世界时:', '03:00、2019年5月11日周六', '来源:', 'USAF 每小时地面观测', '报告类型:', 'METAR 航空例行天气报告', '露点:', '18.0°C', '天气:', 'Mist', '下午12:00', '25°C', '1,014毫巴', '每小时7.20公里, 南', '5.00公里', '大部分晴天 (701米)', '本地:', '12:00、2019年5月11日周六', '协调世界时:', '04:00、2019年5月11日周六', '来源:', '周期文件', '趋势:', '无重要变化', '露点:', '18°C', '天气:', 'Haze', '原始:', 'ZUUU 110400Z 19002MPS 130V260 5000 HZ FEW023 25/18 Q1014 NOSIG', '下午12:00', '25.0°C', '1,014毫巴', '每小时7.20公里, 南', '5.00公里', '大部分晴天 (701米)', '本地:', '12:00、2019年5月11日周六', '协调世界时:', '04:00、2019年5月11日周六', '来源:', 'USAF 每小时地面观测', '报告类型:', 'METAR 航空例行天气报告', '露点:', '18.0°C', '天气:', 'Haze', '下午1:00', '26°C', '1,013毫巴', '每小时3.60公里', '10.00公里', '部分多云 (701米)', '本地:', '13:00、2019年5月11日周六', '协调世界时:', '05:00、2019年5月11日周六', '来源:', '周期文件', '趋势:', '无重要变化', '露点:', '17°C', '其他云层:', '大部分晴天 (701米)', '原始:', 'ZUUU 110500Z VRB01MPS 9999 FEW023TCU SCT023 26/17 Q1013 NOSIG', '下午1:00', '26.0°C', '1,013毫巴', '每小时3.60公里', '10.00公里', '部分多云 (701米)', '本地:', '13:00、2019年5月11日周六', '协调世界时:', '05:00、2019年5月11日周六', '来源:', 'USAF 每小时地面观测', '报告类型:', 'METAR 航空例行天气报告', '露点:', '17.0°C', '其他云层:', '大部分晴天 (701米)', '下午2:00', '26°C', '1,011毫巴', '每小时7.20公里', '10.00公里', '部分多云 (701米)', '本地:', '14:00、2019年5月11日周六', '协调世界时:', '06:00、2019年5月11日周六', '来源:', '周期文件', '趋势:', '无重要变化', '露点:', '16°C', '其他云层:', '大部分晴天 (701米)', '原始:', 'ZUUU 110600Z VRB02MPS 9999 FEW023TCU SCT023 26/16 Q1011 NOSIG', '下午2:00', '26.0°C', '1,011毫巴', '每小时7.20公里', '10.00公里', '部分多云 (701米)', '本地:', '14:00、2019年5月11日周六', '协调世界时:', '06:00、2019年5月11日周六', '来源:', 'USAF 每小时地面观测', '报告类型:', 'METAR 航空例行天气报告', '露点:', '16.0°C', '其他云层:', '大部分晴天 (701米)', '下午3:00', '26°C', '1,010毫巴', '每小时0公里', '10.00公里', '部分多云 (701米)', '本地:', '15:00、2019年5月11日周六', '协调世界时:', '07:00、2019年5月11日周六', '来源:', '周期文件', '趋势:', '无重要变化', '露点:', '16°C', '其他云层:', '大部分晴天 (701米)', '原始:', 'ZUUU 110700Z 00000MPS 9999 FEW023TCU SCT023 26/16 Q1010 NOSIG', '下午3:00', '26.0°C', '1,010毫巴', '每小时0公里', '10.00公里', '部分多云 (701米)', '本地:', '15:00、2019年5月11日周六', '协调世界时:', '07:00、2019年5月11日周六', '来源:', 'USAF 每小时地面观测', '报告类型:', 'METAR 航空例行天气报告', '露点:', '16.0°C', '其他云层:', '大部分晴天 (701米)', '下午4:00', '25°C', '1,010毫巴', '每小时10.8公里, 东南', '10.00公里', '部分多云 (701米)', '本地:', '16:00、2019年5月11日周六', '协调世界时:', '08:00、2019年5月11日周六', '来源:', '周期文件', '趋势:', '无重要变化', '露点:', '17°C', '其他云层:', '大部分晴天 (701米)', '原始:', 'ZUUU 110800Z 14003MPS 070V180 9999 FEW023CB SCT023 25/17 Q1010 NOSIG', '下午4:00', '25.0°C', '1,010毫巴', '每小时10.8公里, 东南', '10.00公里', '部分多云 (701米)', '本地:', '16:00、2019年5月11日周六', '协调世界时:', '08:00、2019年5月11日周六', '来源:', 'USAF 每小时地面观测', '报告类型:', 'METAR 航空例行天气报告', '露点:', '17.0°C', '其他云层:', '大部分晴天 (701米)', '下午5:00', '25°C', '1,009毫巴', '每小时7.20公里, 东南', '10.00公里', '部分多云 (701米)', '本地:', '17:00、2019年5月11日周六', '协调世界时:', '09:00、2019年5月11日周六', '来源:', '周期文件', '趋势:', '无重要变化', '露点:', '17°C', '其他云层:', '大部分晴天 (701米)', '原始:', 'ZUUU 110900Z 15002MPS 090V180 9999 FEW023CB SCT023 25/17 Q1009 NOSIG', '下午5:00', '25.0°C', '1,009毫巴', '每小时7.20公里, 东南', '10.00公里', '部分多云 (701米)', '本地:', '17:00、2019年5月11日周六', '协调世界时:', '09:00、2019年5月11日周六', '来源:', 'USAF 每小时地面观测', '报告类型:', 'METAR 航空例行天气报告', '露点:', '17.0°C', '其他云层:', '大部分晴天 (701米)', '下午6:00', '25°C', '1,009毫巴', '每小时3.60公里', '10.00公里', '部分多云 (914米)', '本地:', '18:00、2019年5月11日周六', '协调世界时:', '10:00、2019年5月11日周六', '来源:', '周期文件', '趋势:', '无重要变化', '露点:', '16°C', '原始:', 'ZUUU 111000Z VRB01MPS 9999 SCT030 25/16 Q1009 NOSIG', '下午6:00', '25.0°C', '1,009毫巴', '每小时3.60公里', '10.00公里', '部分多云 (914米)', '本地:', '18:00、2019年5月11日周六', '协调世界时:', '10:00、2019年5月11日周六', '来源:', 'USAF 每小时地面观测', '报告类型:', 'METAR 航空例行天气报告', '露点:', '16.0°C', '下午7:00', '24°C', '1,010毫巴', '每小时3.60公里', '10.00公里', '部分多云 (914米)', '本地:', '19:00、2019年5月11日周六', '协调世界时:', '11:00、2019年5月11日周六', '来源:', '周期文件', '趋势:', '无重要变化', '露点:', '17°C', '其他云层:', '大部分晴天 (914米)', '原始:', 'ZUUU 111100Z VRB01MPS 9999 FEW030TCU SCT030 24/17 Q1010 NOSIG', '下午7:00', '24.0°C', '1,010毫巴', '每小时3.60公里', '10.00公里', '部分多云 (914米)', '本地:', '19:00、2019年5月11日周六', '协调世界时:', '11:00、2019年5月11日周六', '来源:', 'USAF 每小时地面观测', '报告类型:', 'METAR 航空例行天气报告', '露点:', '17.0°C', '其他云层:', '大部分晴天 (914米)', '下午8:00', '22°C', '1,011毫巴', '每小时10.8公里, 北', '8.00公里', '部分多云 (914米)', '本地:', '20:00、2019年5月11日周六', '协调世界时:', '12:00、2019年5月11日周六', '来源:', '周期文件', '趋势:', '无重要变化', '露点:', '18°C', '其他云层:', '大部分晴天 (914米)', '原始:', 'ZUUU 111200Z 36003MPS 320V040 8000 FEW030CB SCT030 22/18 Q1011 NOSIG', '下午8:00', '22.0°C', '1,011毫巴', '每小时10.8公里, 北', '8.00公里', '部分多云 (914米)', '本地:', '20:00、2019年5月11日周六', '协调世界时:', '12:00、2019年5月11日周六', '来源:', 'USAF 每小时地面观测', '报告类型:', 'METAR 航空例行天气报告', '露点:', '18.0°C', '其他云层:', '大部分晴天 (914米)', '下午9:00', '21°C', '1,011毫巴', '每小时7.20公里, 北', '6.00公里', '部分多云 (914米)', '本地:', '21:00、2019年5月11日周六', '协调世界时:', '13:00、2019年5月11日周六', '来源:', '周期文件', '趋势:', '无重要变化', '露点:', '18°C', '其他云层:', '大部分晴天 (914米)', '天气:', 'Showers of Light Rain', '原始:', 'ZUUU 111300Z 01002MPS 330V030 6000 -SHRA FEW030CB SCT030 21/18 Q1011 NOSIG', '下午9:00', '21.0°C', '1,011毫巴', '每小时7.20公里, 北', '6.00公里', '部分多云 (914米)', '本地:', '21:00、2019年5月11日周六', '协调世界时:', '13:00、2019年5月11日周六', '来源:', 'USAF 每小时地面观测', '报告类型:', 'METAR 航空例行天气报告', '露点:', '18.0°C', '其他云层:', '大部分晴天 (914米)', '天气:', 'Showers of Light Rain', '下午10:00', '20°C', '1,012毫巴', '每小时7.20公里, 西北', '4.00公里', '部分多云 (914米)', '本地:', '22:00、2019年5月11日周六', '协调世界时:', '14:00、2019年5月11日周六', '来源:', '周期文件', '趋势:', '变化为', '露点:', '19°C', '其他云层:', '大部分晴天 (914米)', '天气:', 'Thunderstorm with Light Rain、Mist、Recent Showers of Rain', '原始:', 'ZUUU 111400Z 33002MPS 300V040 4000 -TSRA BR FEW030CB SCT030 20/19 Q1012 RESHRA BECMG TL1530 -SHRA', '下午10:00', '20.0°C', '1,012毫巴', '每小时7.20公里, 西北', '4.00公里', '部分多云 (914米)', '本地:', '22:00、2019年5月11日周六', '协调世界时:', '14:00、2019年5月11日周六', '来源:', 'USAF 每小时地面观测', '报告类型:', 'METAR 航空例行天气报告', '露点:', '19.0°C', '其他云层:', '大部分晴天 (914米)', '天气:', 'Mist、Thunderstorm with Rain', '下午11:00', '19°C', '1,013毫巴', '每小时7.20公里, 西北', '3.50公里', '部分多云 (914米)', '本地:', '23:00、2019年5月11日周六', '协调世界时:', '15:00、2019年5月11日周六', '来源:', '周期文件', '趋势:', '变化为', '露点:', '19°C', '其他云层:', '大部分晴天 (914米)', '天气:', 'Thunderstorm with Light Rain、Mist、Showers of Light Rain', '原始:', 'ZUUU 111500Z 33002MPS 280V040 3500 -TSRA BR FEW030CB SCT030 19/19 Q1013 BECMG TL1645 -SHRA', '下午11:00', '19.0°C', '1,013毫巴', '每小时7.20公里, 西北', '3.50公里', '部分多云 (914米)', '本地:', '23:00、2019年5月11日周六', '协调世界时:', '15:00、2019年5月11日周六', '来源:', 'USAF 每小时地面观测', '报告类型:', 'METAR 航空例行天气报告', '露点:', '19.0°C', '其他云层:', '大部分晴天 (914米)', '天气:', 'Mist、Thunderstorm with Rain']