['Mist', 'BR、IWC10', 'Mist', 'BR、IWC10', 'Mist', 'BR、IWC10', 'Mist', 'BR、IWC10', 'Mist', 'BR、IWC10', 'Mist', 'BR、IWC10', 'Mist', 'BR', 'Mist', 'BR、IWC10', 'Mist', 'BR、IWC10', 'Showers of Light Rain、Mist', '-SHRA、IWC80、BR、IWC10', 'Mist', 'BR、IWC10', 'Mist', 'BR、IWC10', 'Mist', 'BR、IWC10', 'Mist', 'BR、IWC10', 'Mist', 'BR、IWC10', 'Haze', 'HZ、IWC05', 'Mist', 'BR、IWC10', 'Mist', 'BR、IWC10', 'Mist', 'BR、IWC10', '上午12:00', '20°C', '1,018毫巴', '每小时0公里', '5.00公里', '无重要云', '本地:', '00:00、2019年9月29日周日', '协调世界时:', '16:00、2019年9月28日周六', '来源:', '周期文件', '趋势:', '无重要变化', '露点:', '18°C', '天气:', 'Mist', '原始:', 'ZUUU 281600Z 00000MPS 5000 BR NSC 20/18 Q1018 NOSIG', '上午12:00', '20.0°C', '1,018毫巴', '每小时0公里', '5.00公里', '未检测到云', '本地:', '00:00、2019年9月29日周日', '协调世界时:', '16:00、2019年9月28日周六', '来源:', 'USAF 每小时地面观测', '报告类型:', 'METAR 航空例行天气报告', '露点:', '18.0°C', '天气:', 'Mist', '上午1:00', '20°C', '1,018毫巴', '每小时3.60公里, 西南', '5.00公里', '无重要云', '本地:', '01:00、2019年9月29日周日', '协调世界时:', '17:00、2019年9月28日周六', '来源:', '周期文件', '趋势:', '无重要变化', '露点:', '18°C', '天气:', 'Mist', '原始:', 'ZUUU 281700Z 23001MPS 5000 BR NSC 20/18 Q1018 NOSIG', '上午1:00', '20.0°C', '1,018毫巴', '每小时3.60公里, 西南', '5.00公里', '未检测到云', '本地:', '01:00、2019年9月29日周日', '协调世界时:', '17:00、2019年9月28日周六', '来源:', 'USAF 每小时地面观测', '报告类型:', 'METAR 航空例行天气报告', '露点:', '18.0°C', '天气:', 'Mist', '上午2:00', '20°C', '1,018毫巴', '每小时0公里', '5.00公里', '无重要云', '本地:', '02:00、2019年9月29日周日', '协调世界时:', '18:00、2019年9月28日周六', '来源:', '周期文件', '趋势:', '无重要变化', '露点:', '18°C', '天气:', 'Mist', '原始:', 'ZUUU 281800Z 00000MPS 5000 BR NSC 20/18 Q1018 NOSIG', '上午2:00', '20.0°C', '1,018毫巴', '每小时0公里', '5.00公里', '未检测到云', '本地:', '02:00、2019年9月29日周日', '协调世界时:', '18:00、2019年9月28日周六', '来源:', 'USAF 每小时地面观测', '报告类型:', 'METAR 航空例行天气报告', '露点:', '18.0°C', '天气:', 'Mist', '上午3:00', '20°C', '1,017毫巴', '每小时0公里', '5.00公里', '无重要云', '本地:', '03:00、2019年9月29日周日', '协调世界时:', '19:00、2019年9月28日周六', '来源:', '周期文件', '趋势:', '无重要变化', '露点:', '18°C', '天气:', 'Mist', '原始:', 'ZUUU 281900Z 00000MPS 5000 BR NSC 20/18 Q1017 NOSIG', '上午3:00', '20.0°C', '1,017毫巴', '每小时0公里', '5.00公里', '未检测到云', '本地:', '03:00、2019年9月29日周日', '协调世界时:', '19:00、2019年9月28日周六', '来源:', 'USAF 每小时地面观测', '报告类型:', 'METAR 航空例行天气报告', '露点:', '18.0°C', '天气:', 'Mist', '上午4:00', '20°C', '1,017毫巴', '每小时0公里', '5.00公里', '无重要云', '本地:', '04:00、2019年9月29日周日', '协调世界时:', '20:00、2019年9月28日周六', '来源:', '周期文件', '趋势:', '无重要变化', '露点:', '19°C', '天气:', 'Mist', '原始:', 'ZUUU 282000Z 00000MPS 5000 BR NSC 20/19 Q1017 NOSIG', '上午4:00', '20.0°C', '1,017毫巴', '每小时0公里', '5.00公里', '未检测到云', '本地:', '04:00、2019年9月29日周日', '协调世界时:', '20:00、2019年9月28日周六', '来源:', 'USAF 每小时地面观测', '报告类型:', 'METAR 航空例行天气报告', '露点:', '19.0°C', '天气:', 'Mist', '上午5:00', '20°C', '1,017毫巴', '每小时0公里', '5.00公里', '部分多云 (1,524米)', '本地:', '05:00、2019年9月29日周日', '协调世界时:', '21:00、2019年9月28日周六', '来源:', '周期文件', '趋势:', '变化为', '露点:', '19°C', '天气:', 'Mist、Mist', '原始:', 'ZUUU 282100Z 00000MPS 5000 BR SCT050 20/19 Q1017 BECMG TL2230 2500 BR', '上午5:00', '20.0°C', '1,017毫巴', '每小时0公里', '5.00公里', '部分多云 (1,524米)', '本地:', '05:00、2019年9月29日周日', '协调世界时:', '21:00、2019年9月28日周六', '来源:', 'USAF 每小时地面观测', '报告类型:', 'METAR 航空例行天气报告', '露点:', '19.0°C', '天气:', 'Mist', '上午6:00', '21°C', '1,017毫巴', '每小时0公里', '6.00公里', '部分多云 (1,524米)', '本地:', '06:00、2019年9月29日周日', '协调世界时:', '22:00、2019年9月28日周六', '来源:', '周期文件', '趋势:', '变化为', '露点:', '19°C', '天气:', 'Mist', '原始:', 'ZUUU 282200Z 00000MPS 6000 SCT050 21/19 Q1017 BECMG TL2300 2500 BR', '上午6:00', '21.0°C', '1,017毫巴', '每小时0公里', '6.00公里', '部分多云 (1,524米)', '本地:', '06:00、2019年9月29日周日', '协调世界时:', '22:00、2019年9月28日周六', '来源:', 'USAF 每小时地面观测', '报告类型:', 'METAR 航空例行天气报告', '露点:', '19.0°C', '上午7:00', '21°C', '1,017毫巴', '每小时3.60公里', '2.70公里', '部分多云 (1,524米)', '本地:', '07:00、2019年9月29日周日', '协调世界时:', '23:00、2019年9月28日周六', '来源:', '周期文件', '趋势:', '无重要变化', '露点:', '18°C', '天气:', 'Mist', '原始:', 'ZUUU 282300Z VRB01MPS 2700 BR SCT050 21/18 Q1017 NOSIG', '上午7:00', '21.0°C', '1,017毫巴', '每小时3.60公里', '2.70公里', '部分多云 (1,524米)', '本地:', '07:00、2019年9月29日周日', '协调世界时:', '23:00、2019年9月28日周六', '来源:', 'USAF 每小时地面观测', '报告类型:', 'METAR 航空例行天气报告', '露点:', '18.0°C', '天气:', 'Mist', '上午8:00', '21°C', '1,017毫巴', '每小时3.60公里', '2.70公里', '部分多云 (1,524米)', '本地:', '08:00、2019年9月29日周日', '协调世界时:', '00:00、2019年9月29日周日', '来源:', '周期文件', '趋势:', '变化为', '露点:', '18°C', '天气:', 'Mist', '原始:', 'ZUUU 290000Z VRB01MPS 2700 BR SCT050 21/18 Q1017 BECMG TL0100 3500', '上午8:00', '21.0°C', '1,017毫巴', '每小时3.60公里', '2.70公里', '部分多云 (1,524米)', '本地:', '08:00、2019年9月29日周日', '协调世界时:', '00:00、2019年9月29日周日', '来源:', 'USAF 每小时地面观测', '报告类型:', 'METAR 航空例行天气报告', '露点:', '18.0°C', '天气:', 'Mist', '上午9:00', '21°C', '1,018毫巴', '每小时3.60公里', '3.00公里', '部分多云 (1,524米)', '本地:', '09:00、2019年9月29日周日', '协调世界时:', '01:00、2019年9月29日周日', '来源:', '周期文件', '趋势:', '无重要变化', '露点:', '18°C', '天气:', 'Showers of Light Rain、Mist', '原始:', 'ZUUU 290100Z VRB01MPS 3000 -SHRA BR SCT050 21/18 Q1018 NOSIG', '上午9:00', '21.0°C', '1,018毫巴', '每小时3.60公里', '3.00公里', '部分多云 (1,524米)', '本地:', '09:00、2019年9月29日周日', '协调世界时:', '01:00、2019年9月29日周日', '来源:', 'USAF 每小时地面观测', '报告类型:', 'METAR 航空例行天气报告', '露点:', '18.0°C', '天气:', 'Mist、Showers of Light Rain', '上午10:00', '22°C', '1,019毫巴', '每小时3.60公里', '3.50公里', '部分多云 (1,006米)', '本地:', '10:00、2019年9月29日周日', '协调世界时:', '02:00、2019年9月29日周日', '来源:', '周期文件', '趋势:', '无重要变化', '露点:', '18°C', '天气:', 'Mist', '原始:', 'ZUUU 290200Z VRB01MPS 3500 BR SCT033 22/18 Q1019 NOSIG', '上午10:00', '22.0°C', '1,019毫巴', '每小时3.60公里', '3.50公里', '部分多云 (1,006米)', '本地:', '10:00、2019年9月29日周日', '协调世界时:', '02:00、2019年9月29日周日', '来源:', 'USAF 每小时地面观测', '报告类型:', 'METAR 航空例行天气报告', '露点:', '18.0°C', '天气:', 'Mist', '上午11:00', '22°C', '1,018毫巴', '每小时7.20公里, 西北', '4.50公里', '大部分多云 (1,006米)', '本地:', '11:00、2019年9月29日周日', '协调世界时:', '03:00、2019年9月29日周日', '来源:', '周期文件', '趋势:', '无重要变化', '露点:', '19°C', '天气:', 'Mist', '原始:', 'ZUUU 290300Z 31002MPS 270V350 4500 BR BKN033 22/19 Q1018 NOSIG', '上午11:00', '22.0°C', '1,018毫巴', '每小时7.20公里, 西北', '4.50公里', '大部分多云 (1,006米)', '本地:', '11:00、2019年9月29日周日', '协调世界时:', '03:00、2019年9月29日周日', '来源:', 'USAF 每小时地面观测', '报告类型:', 'METAR 航空例行天气报告', '露点:', '19.0°C', '天气:', 'Mist', '下午12:00', '23°C', '1,018毫巴', '每小时7.20公里, 西', '5.00公里', '大部分多云 (1,219米)', '本地:', '12:00、2019年9月29日周日', '协调世界时:', '04:00、2019年9月29日周日', '来源:', '周期文件', '趋势:', '无重要变化', '露点:', '19°C', '天气:', 'Mist', '原始:', 'ZUUU 290400Z 29002MPS 240V340 5000 BR BKN040 23/19 Q1018 NOSIG', '下午12:00', '23.0°C', '1,018毫巴', '每小时7.20公里, 西', '5.00公里', '大部分多云 (1,219米)', '本地:', '12:00、2019年9月29日周日', '协调世界时:', '04:00、2019年9月29日周日', '来源:', 'USAF 每小时地面观测', '报告类型:', 'METAR 航空例行天气报告', '露点:', '19.0°C', '天气:', 'Mist', '下午1:00', '23°C', '1,017毫巴', '每小时3.60公里', '5.00公里', '大部分多云 (1,219米)', '本地:', '13:00、2019年9月29日周日', '协调世界时:', '05:00、2019年9月29日周日', '来源:', '周期文件', '趋势:', '无重要变化', '露点:', '19°C', '天气:', 'Mist', '原始:', 'ZUUU 290500Z VRB01MPS 5000 BR BKN040 23/19 Q1017 NOSIG', '下午1:00', '23.0°C', '1,017毫巴', '每小时3.60公里', '5.00公里', '大部分多云 (1,219米)', '本地:', '13:00、2019年9月29日周日', '协调世界时:', '05:00、2019年9月29日周日', '来源:', 'USAF 每小时地面观测', '报告类型:', 'METAR 航空例行天气报告', '露点:', '19.0°C', '天气:', 'Mist', '下午2:00', '24°C', '1,016毫巴', '每小时7.20公里, 西北', '5.00公里', '大部分多云 (1,219米)', '本地:', '14:00、2019年9月29日周日', '协调世界时:', '06:00、2019年9月29日周日', '来源:', '周期文件', '趋势:', '无重要变化', '露点:', '18°C', '天气:', 'Mist', '原始:', 'ZUUU 290600Z 32002MPS 270V040 5000 BR BKN040 24/18 Q1016 NOSIG', '下午2:00', '24.0°C', '1,016毫巴', '每小时7.20公里, 西北', '5.00公里', '大部分多云 (1,219米)', '本地:', '14:00、2019年9月29日周日', '协调世界时:', '06:00、2019年9月29日周日', '来源:', 'USAF 每小时地面观测', '报告类型:', 'METAR 航空例行天气报告', '露点:', '18.0°C', '天气:', 'Mist', '下午3:00', '25°C', '1,015毫巴', '每小时3.60公里', '5.00公里', '部分多云 (1,524米)', '本地:', '15:00、2019年9月29日周日', '协调世界时:', '07:00、2019年9月29日周日', '来源:', '周期文件', '趋势:', '无重要变化', '露点:', '18°C', '天气:', 'Haze', '原始:', 'ZUUU 290700Z VRB01MPS 5000 HZ SCT050 25/18 Q1015 NOSIG', '下午3:00', '25.0°C', '1,015毫巴', '每小时3.60公里', '5.00公里', '部分多云 (1,524米)', '本地:', '15:00、2019年9月29日周日', '协调世界时:', '07:00、2019年9月29日周日', '来源:', 'USAF 每小时地面观测', '报告类型:', 'METAR 航空例行天气报告', '露点:', '18.0°C', '天气:', 'Haze', '下午4:00', '25°C', '1,014毫巴', '每小时7.20公里, 西北', '6.00公里', '部分多云 (1,524米)', '本地:', '16:00、2019年9月29日周日', '协调世界时:', '08:00、2019年9月29日周日', '来源:', '周期文件', '趋势:', '无重要变化', '露点:', '18°C', '原始:', 'ZUUU 290800Z 33002MPS 270V040 6000 SCT050 25/18 Q1014 NOSIG', '下午4:00', '25.0°C', '1,014毫巴', '每小时7.20公里, 西北', '6.00公里', '部分多云 (1,524米)', '本地:', '16:00、2019年9月29日周日', '协调世界时:', '08:00、2019年9月29日周日', '来源:', 'USAF 每小时地面观测', '报告类型:', 'METAR 航空例行天气报告', '露点:', '18.0°C', '下午5:00', '26°C', '1,014毫巴', '每小时7.20公里', '6.00公里', '无重要云', '本地:', '17:00、2019年9月29日周日', '协调世界时:', '09:00、2019年9月29日周日', '来源:', '周期文件', '趋势:', '无重要变化', '露点:', '18°C', '原始:', 'ZUUU 290900Z VRB02MPS 6000 NSC 26/18 Q1014 NOSIG', '下午5:00', '26.0°C', '1,014毫巴', '每小时7.20公里', '6.00公里', '未检测到云', '本地:', '17:00、2019年9月29日周日', '协调世界时:', '09:00、2019年9月29日周日', '来源:', 'USAF 每小时地面观测', '报告类型:', 'METAR 航空例行天气报告', '露点:', '18.0°C', '下午6:00', '25°C', '1,014毫巴', '每小时0公里', '7.00公里', '无重要云', '本地:', '18:00、2019年9月29日周日', '协调世界时:', '10:00、2019年9月29日周日', '来源:', '周期文件', '趋势:', '无重要变化', '露点:', '18°C', '原始:', 'ZUUU 291000Z 00000MPS 7000 NSC 25/18 Q1014 NOSIG', '下午6:00', '25.0°C', '1,014毫巴', '每小时0公里', '7.00公里', '未检测到云', '本地:', '18:00、2019年9月29日周日', '协调世界时:', '10:00、2019年9月29日周日', '来源:', 'USAF 每小时地面观测', '报告类型:', 'METAR 航空例行天气报告', '露点:', '18.0°C', '下午7:00', '24°C', '1,014毫巴', '每小时3.60公里', '6.00公里', '无重要云', '本地:', '19:00、2019年9月29日周日', '协调世界时:', '11:00、2019年9月29日周日', '来源:', '周期文件', '趋势:', '无重要变化', '露点:', '18°C', '原始:', 'ZUUU 291100Z VRB01MPS 6000 NSC 24/18 Q1014 NOSIG', '下午7:00', '24.0°C', '1,014毫巴', '每小时3.60公里', '6.00公里', '未检测到云', '本地:', '19:00、2019年9月29日周日', '协调世界时:', '11:00、2019年9月29日周日', '来源:', 'USAF 每小时地面观测', '报告类型:', 'METAR 航空例行天气报告', '露点:', '18.0°C', '下午8:00', '23°C', '1,015毫巴', '每小时0公里', '6.00公里', '无重要云', '本地:', '20:00、2019年9月29日周日', '协调世界时:', '12:00、2019年9月29日周日', '来源:', '周期文件', '趋势:', '无重要变化', '露点:', '19°C', '原始:', 'ZUUU 291200Z 00000MPS 6000 NSC 23/19 Q1015 NOSIG', '下午8:00', '23.0°C', '1,015毫巴', '每小时0公里', '6.00公里', '未检测到云', '本地:', '20:00、2019年9月29日周日', '协调世界时:', '12:00、2019年9月29日周日', '来源:', 'USAF 每小时地面观测', '报告类型:', 'METAR 航空例行天气报告', '露点:', '19.0°C', '下午9:00', '23°C', '1,015毫巴', '每小时0公里', '5.00公里', '无重要云', '本地:', '21:00、2019年9月29日周日', '协调世界时:', '13:00、2019年9月29日周日', '来源:', '周期文件', '趋势:', '无重要变化', '露点:', '19°C', '天气:', 'Mist', '原始:', 'ZUUU 291300Z 00000MPS 5000 BR NSC 23/19 Q1015 NOSIG', '下午9:00', '23.0°C', '1,015毫巴', '每小时0公里', '5.00公里', '未检测到云', '本地:', '21:00、2019年9月29日周日', '协调世界时:', '13:00、2019年9月29日周日', '来源:', 'USAF 每小时地面观测', '报告类型:', 'METAR 航空例行天气报告', '露点:', '19.0°C', '天气:', 'Mist', '下午10:00', '21°C', '1,015毫巴', '每小时0公里', '5.00公里', '无重要云', '本地:', '22:00、2019年9月29日周日', '协调世界时:', '14:00、2019年9月29日周日', '来源:', '周期文件', '趋势:', '无重要变化', '露点:', '19°C', '天气:', 'Mist', '原始:', 'ZUUU 291400Z 00000MPS 5000 BR NSC 21/19 Q1015 NOSIG', '下午10:00', '21.0°C', '1,015毫巴', '每小时0公里', '5.00公里', '未检测到云', '本地:', '22:00、2019年9月29日周日', '协调世界时:', '14:00、2019年9月29日周日', '来源:', 'USAF 每小时地面观测', '报告类型:', 'METAR 航空例行天气报告', '露点:', '19.0°C', '天气:', 'Mist', '下午11:00', '21°C', '1,015毫巴', '每小时0公里', '4.50公里', '无重要云', '本地:', '23:00、2019年9月29日周日', '协调世界时:', '15:00、2019年9月29日周日', '来源:', '周期文件', '趋势:', '无重要变化', '露点:', '19°C', '天气:', 'Mist', '原始:', 'ZUUU 291500Z 00000MPS 4500 BR NSC 21/19 Q1015 NOSIG', '下午11:00', '21.0°C', '1,015毫巴', '每小时0公里', '4.50公里', '未检测到云', '本地:', '23:00、2019年9月29日周日', '协调世界时:', '15:00、2019年9月29日周日', '来源:', 'USAF 每小时地面观测', '报告类型:', 'METAR 航空例行天气报告', '露点:', '19.0°C', '天气:', 'Mist']