['Light Rain', '-RA、IWC61', 'Light Rain', '-RA、IWC61', 'Light Rain、Mist', '-RA、IWC61、BR、IWC10', 'Light Rain、Mist', '-RA、IWC61、BR、IWC10', 'Light Rain', '-RA、IWC61', 'Light Rain', '-RA、IWC61', 'Light Rain', '-RA、IWC61', 'Light Rain', '-RA、IWC61', '上午12:00', '9°C', '1,024毫巴', '每小时10.8公里, 东北', '6.00公里', '大部分多云 (701米)', '本地:', '00:00、2019年11月30日周六', '协调世界时:', '16:00、2019年11月29日周五', '来源:', '周期文件', '趋势:', '无重要变化', '露点:', '8°C', '其他云层:', '大部分晴天 (274米)', '天气:', 'Light Rain', '原始:', 'ZUUU 291600Z 05003MPS 020V080 6000 -RA FEW009 BKN023 09/08 Q1024 NOSIG', '上午12:00', '9.0°C', '1,024毫巴', '每小时10.8公里, 东北', '6.00公里', '大部分多云 (701米)', '本地:', '00:00、2019年11月30日周六', '协调世界时:', '16:00、2019年11月29日周五', '来源:', 'USAF 每小时地面观测', '报告类型:', 'METAR 航空例行天气报告', '露点:', '8.0°C', '其他云层:', '大部分晴天 (274米)', '天气:', 'Light Rain', '上午1:00', '9°C', '1,024毫巴', '每小时10.8公里, 东', '6.00公里', '大部分多云 (701米)', '本地:', '01:00、2019年11月30日周六', '协调世界时:', '17:00、2019年11月29日周五', '来源:', '周期文件', '趋势:', '无重要变化', '露点:', '8°C', '其他云层:', '部分多云 (274米)', '天气:', 'Light Rain', '原始:', 'ZUUU 291700Z 07003MPS 030V100 6000 -RA SCT009 BKN023 09/08 Q1024 NOSIG', '上午1:00', '9.0°C', '1,024毫巴', '每小时10.8公里, 东', '6.00公里', '大部分多云 (701米)', '本地:', '01:00、2019年11月30日周六', '协调世界时:', '17:00、2019年11月29日周五', '来源:', 'USAF 每小时地面观测', '报告类型:', 'METAR 航空例行天气报告', '露点:', '8.0°C', '其他云层:', '部分多云 (274米)', '天气:', 'Light Rain', '上午2:00', '9°C', '1,024毫巴', '每小时10.8公里, 东北', '5.00公里', '大部分多云 (701米)', '本地:', '02:00、2019年11月30日周六', '协调世界时:', '18:00、2019年11月29日周五', '来源:', '周期文件', '趋势:', '无重要变化', '露点:', '8°C', '其他云层:', '部分多云 (274米)', '天气:', 'Light Rain、Mist', '原始:', 'ZUUU 291800Z 03003MPS 360V070 5000 -RA BR SCT009 BKN023 09/08 Q1024 NOSIG', '上午2:00', '9.0°C', '1,024毫巴', '每小时10.8公里, 东北', '5.00公里', '大部分多云 (701米)', '本地:', '02:00、2019年11月30日周六', '协调世界时:', '18:00、2019年11月29日周五', '来源:', 'USAF 每小时地面观测', '报告类型:', 'METAR 航空例行天气报告', '露点:', '8.0°C', '其他云层:', '部分多云 (274米)', '天气:', 'Mist、Light Rain', '上午3:00', '8°C', '1,024毫巴', '每小时7.20公里, 北', '5.00公里', '大部分多云 (701米)', '本地:', '03:00、2019年11月30日周六', '协调世界时:', '19:00、2019年11月29日周五', '来源:', '周期文件', '趋势:', '无重要变化', '露点:', '8°C', '其他云层:', '部分多云 (274米)', '天气:', 'Light Rain、Mist', '原始:', 'ZUUU 291900Z 01002MPS 340V050 5000 -RA BR SCT009 BKN023 08/08 Q1024 NOSIG', '上午3:00', '8.0°C', '1,024毫巴', '每小时7.20公里, 北', '5.00公里', '大部分多云 (701米)', '本地:', '03:00、2019年11月30日周六', '协调世界时:', '19:00、2019年11月29日周五', '来源:', 'USAF 每小时地面观测', '报告类型:', 'METAR 航空例行天气报告', '露点:', '8.0°C', '其他云层:', '部分多云 (274米)', '天气:', 'Mist、Light Rain', '上午4:00', '8°C', '1,024毫巴', '每小时7.20公里, 北', '6.00公里', '大部分多云 (701米)', '本地:', '04:00、2019年11月30日周六', '协调世界时:', '20:00、2019年11月29日周五', '来源:', '周期文件', '趋势:', '无重要变化', '露点:', '8°C', '其他云层:', '大部分晴天 (152米)、部分多云 (274米)', '天气:', 'Light Rain', '原始:', 'ZUUU 292000Z 01002MPS 340V040 6000 -RA FEW005 SCT009 BKN023 08/08 Q1024 NOSIG', '上午4:00', '8.0°C', '1,024毫巴', '每小时7.20公里, 北', '6.00公里', '大部分多云 (701米)', '本地:', '04:00、2019年11月30日周六', '协调世界时:', '20:00、2019年11月29日周五', '来源:', 'USAF 每小时地面观测', '报告类型:', 'METAR 航空例行天气报告', '露点:', '8.0°C', '其他云层:', '大部分晴天 (152米)、部分多云 (274米)', '天气:', 'Light Rain', '上午5:00', '8°C', '1,024毫巴', '每小时10.8公里, 北', '7.00公里', '大部分多云 (914米)', '本地:', '05:00、2019年11月30日周六', '协调世界时:', '21:00、2019年11月29日周五', '来源:', '周期文件', '趋势:', '无重要变化', '露点:', '7°C', '其他云层:', '大部分晴天 (152米)、部分多云 (335米)', '天气:', 'Light Rain', '原始:', 'ZUUU 292100Z 02003MPS 7000 -RA FEW005 SCT011 BKN030 08/07 Q1024 NOSIG', '上午5:00', '8.0°C', '1,024毫巴', '每小时10.8公里, 北', '7.00公里', '大部分多云 (914米)', '本地:', '05:00、2019年11月30日周六', '协调世界时:', '21:00、2019年11月29日周五', '来源:', 'USAF 每小时地面观测', '报告类型:', 'METAR 航空例行天气报告', '露点:', '7.0°C', '其他云层:', '大部分晴天 (152米)、部分多云 (335米)', '天气:', 'Light Rain', '上午6:00', '8°C', '1,024毫巴', '每小时3.60公里', '8.00公里', '大部分多云 (914米)', '本地:', '06:00、2019年11月30日周六', '协调世界时:', '22:00、2019年11月29日周五', '来源:', '周期文件', '趋势:', '无重要变化', '露点:', '7°C', '其他云层:', '大部分晴天 (335米)', '天气:', 'Light Rain', '原始:', 'ZUUU 292200Z VRB01MPS 8000 -RA FEW011 BKN030 08/07 Q1024 NOSIG', '上午6:00', '8.0°C', '1,024毫巴', '每小时3.60公里', '8.00公里', '大部分多云 (914米)', '本地:', '06:00、2019年11月30日周六', '协调世界时:', '22:00、2019年11月29日周五', '来源:', 'USAF 每小时地面观测', '报告类型:', 'METAR 航空例行天气报告', '露点:', '7.0°C', '其他云层:', '大部分晴天 (335米)', '天气:', 'Light Rain', '上午7:00', '8°C', '1,024毫巴', '每小时7.20公里, 北', '10.00公里', '大部分多云 (914米)', '本地:', '07:00、2019年11月30日周六', '协调世界时:', '23:00、2019年11月29日周五', '来源:', '周期文件', '趋势:', '无重要变化', '露点:', '7°C', '其他云层:', '大部分晴天 (335米)', '天气:', 'Light Rain', '原始:', 'ZUUU 292300Z 36002MPS 310V030 9999 -RA FEW011 BKN030 08/07 Q1024 NOSIG', '上午7:00', '8.0°C', '1,024毫巴', '每小时7.20公里, 北', '10.00公里', '大部分多云 (914米)', '本地:', '07:00、2019年11月30日周六', '协调世界时:', '23:00、2019年11月29日周五', '来源:', 'USAF 每小时地面观测', '报告类型:', 'METAR 航空例行天气报告', '露点:', '7.0°C', '其他云层:', '大部分晴天 (335米)', '天气:', 'Light Rain', '上午8:00', '8°C', '1,025毫巴', '每小时3.60公里', '10.00公里', '大部分多云 (914米)', '本地:', '08:00、2019年11月30日周六', '协调世界时:', '00:00、2019年11月30日周六', '来源:', '周期文件', '趋势:', '无重要变化', '露点:', '7°C', '其他云层:', '大部分晴天 (335米)', '原始:', 'ZUUU 300000Z VRB01MPS 9999 FEW011 BKN030 08/07 Q1025 NOSIG', '上午8:00', '8.0°C', '1,025毫巴', '每小时3.60公里', '10.00公里', '大部分多云 (914米)', '本地:', '08:00、2019年11月30日周六', '协调世界时:', '00:00、2019年11月30日周六', '来源:', 'USAF 每小时地面观测', '报告类型:', 'METAR 航空例行天气报告', '露点:', '7.0°C', '其他云层:', '大部分晴天 (335米)', '上午9:00', '8°C', '1,025毫巴', '每小时7.20公里, 北', '10.00公里', '大部分多云 (1,219米)', '本地:', '09:00、2019年11月30日周六', '协调世界时:', '01:00、2019年11月30日周六', '来源:', '周期文件', '趋势:', '无重要变化', '露点:', '7°C', '其他云层:', '大部分晴天 (366米)', '原始:', 'ZUUU 300100Z 36002MPS 320V040 9999 FEW012 BKN040 08/07 Q1025 NOSIG', '上午9:00', '8.0°C', '1,025毫巴', '每小时7.20公里, 北', '10.00公里', '大部分多云 (1,219米)', '本地:', '09:00、2019年11月30日周六', '协调世界时:', '01:00、2019年11月30日周六', '来源:', 'USAF 每小时地面观测', '报告类型:', 'METAR 航空例行天气报告', '露点:', '7.0°C', '其他云层:', '大部分晴天 (366米)', '上午10:00', '9°C', '1,026毫巴', '每小时7.20公里, 北', '10.00公里', '部分多云 (1,219米)', '本地:', '10:00、2019年11月30日周六', '协调世界时:', '02:00、2019年11月30日周六', '来源:', '周期文件', '趋势:', '无重要变化', '露点:', '7°C', '其他云层:', '大部分晴天 (792米)', '原始:', 'ZUUU 300200Z 35002MPS 310V020 9999 FEW026 SCT040 09/07 Q1026 NOSIG', '上午10:00', '9.0°C', '1,026毫巴', '每小时7.20公里, 北', '10.00公里', '部分多云 (1,219米)', '本地:', '10:00、2019年11月30日周六', '协调世界时:', '02:00、2019年11月30日周六', '来源:', 'USAF 每小时地面观测', '报告类型:', 'METAR 航空例行天气报告', '露点:', '7.0°C', '其他云层:', '大部分晴天 (792米)', '上午11:00', '9°C', '1,026毫巴', '每小时10.8公里, 北', '10.00公里', '部分多云 (1,219米)', '本地:', '11:00、2019年11月30日周六', '协调世界时:', '03:00、2019年11月30日周六', '来源:', '周期文件', '趋势:', '无重要变化', '露点:', '5°C', '其他云层:', '大部分晴天 (366米)', '原始:', 'ZUUU 300300Z 02003MPS 320V060 9999 FEW012 SCT040 09/05 Q1026 NOSIG', '上午11:00', '9.0°C', '1,026毫巴', '每小时10.8公里, 北', '10.00公里', '部分多云 (1,219米)', '本地:', '11:00、2019年11月30日周六', '协调世界时:', '03:00、2019年11月30日周六', '来源:', 'USAF 每小时地面观测', '报告类型:', 'METAR 航空例行天气报告', '露点:', '5.0°C', '其他云层:', '大部分晴天 (366米)', '下午12:00', '9°C', '1,025毫巴', '每小时7.20公里, 东北', '10.00公里', '部分多云 (1,219米)', '本地:', '12:00、2019年11月30日周六', '协调世界时:', '04:00、2019年11月30日周六', '来源:', '周期文件', '趋势:', '无重要变化', '露点:', '5°C', '其他云层:', '大部分晴天 (366米)', '原始:', 'ZUUU 300400Z 03002MPS 320V080 9999 FEW012 SCT040 09/05 Q1025 NOSIG', '下午12:00', '9.0°C', '1,025毫巴', '每小时7.20公里, 东北', '10.00公里', '部分多云 (1,219米)', '本地:', '12:00、2019年11月30日周六', '协调世界时:', '04:00、2019年11月30日周六', '来源:', 'USAF 每小时地面观测', '报告类型:', 'METAR 航空例行天气报告', '露点:', '5.0°C', '其他云层:', '大部分晴天 (366米)', '下午1:00', '10°C', '1,024毫巴', '每小时14.4公里, 北', '10.00公里', '部分多云 (1,524米)', '本地:', '13:00、2019年11月30日周六', '协调世界时:', '05:00、2019年11月30日周六', '来源:', '周期文件', '趋势:', '无重要变化', '露点:', '3°C', '原始:', 'ZUUU 300500Z 02004MPS 9999 SCT050 10/03 Q1024 NOSIG', '下午1:00', '10.0°C', '1,024毫巴', '每小时14.4公里, 北', '10.00公里', '部分多云 (1,524米)', '本地:', '13:00、2019年11月30日周六', '协调世界时:', '05:00、2019年11月30日周六', '来源:', 'USAF 每小时地面观测', '报告类型:', 'METAR 航空例行天气报告', '露点:', '3.0°C', '下午2:00', '10°C', '1,023毫巴', '每小时14.4公里, 东北', '10.00公里', '部分多云 (1,524米)', '本地:', '14:00、2019年11月30日周六', '协调世界时:', '06:00、2019年11月30日周六', '来源:', '周期文件', '趋势:', '无重要变化', '露点:', '3°C', '原始:', 'ZUUU 300600Z 04004MPS 010V090 9999 SCT050 10/03 Q1023 NOSIG', '下午2:00', '10.0°C', '1,023毫巴', '每小时14.4公里, 东北', '10.00公里', '部分多云 (1,524米)', '本地:', '14:00、2019年11月30日周六', '协调世界时:', '06:00、2019年11月30日周六', '来源:', 'USAF 每小时地面观测', '报告类型:', 'METAR 航空例行天气报告', '露点:', '3.0°C', '下午3:00', '10°C', '1,023毫巴', '每小时14.4公里, 东北', '10.00公里', '部分多云 (1,524米)', '本地:', '15:00、2019年11月30日周六', '协调世界时:', '07:00、2019年11月30日周六', '来源:', '周期文件', '趋势:', '无重要变化', '露点:', '2°C', '原始:', 'ZUUU 300700Z 05004MPS 360V120 9999 SCT050 10/02 Q1023 NOSIG', '下午3:00', '10.0°C', '1,023毫巴', '每小时14.4公里, 东北', '10.00公里', '部分多云 (1,524米)', '本地:', '15:00、2019年11月30日周六', '协调世界时:', '07:00、2019年11月30日周六', '来源:', 'USAF 每小时地面观测', '报告类型:', 'METAR 航空例行天气报告', '露点:', '2.0°C', '下午4:00', '9°C', '1,023毫巴', '每小时14.4公里, 东北', '10.00公里', '部分多云 (1,524米)', '本地:', '16:00、2019年11月30日周六', '协调世界时:', '08:00、2019年11月30日周六', '来源:', '周期文件', '趋势:', '无重要变化', '露点:', '2°C', '原始:', 'ZUUU 300800Z 03004MPS 010V070 9999 SCT050 09/02 Q1023 NOSIG', '下午4:00', '9.0°C', '1,023毫巴', '每小时14.4公里, 东北', '10.00公里', '部分多云 (1,524米)', '本地:', '16:00、2019年11月30日周六', '协调世界时:', '08:00、2019年11月30日周六', '来源:', 'USAF 每小时地面观测', '报告类型:', 'METAR 航空例行天气报告', '露点:', '2.0°C', '下午5:00', '9°C', '1,024毫巴', '每小时3.60公里', '≥ 10.00公里', '晴空万里', '本地:', '17:00、2019年11月30日周六', '协调世界时:', '09:00、2019年11月30日周六', '来源:', '周期文件', '趋势:', '无重要变化', '露点:', '2°C', '晴空万里:', '真', '原始:', 'ZUUU 300900Z VRB01MPS CAVOK 09/02 Q1024 NOSIG', '下午5:00', '9.0°C', '1,024毫巴', '每小时3.60公里', '9.90公里', '晴空万里', '本地:', '17:00、2019年11月30日周六', '协调世界时:', '09:00、2019年11月30日周六', '来源:', 'USAF 每小时地面观测', '报告类型:', 'METAR 航空例行天气报告', '露点:', '2.0°C', '晴空万里:', '真', '下午6:00', '9°C', '1,024毫巴', '每小时7.20公里, 北', '≥ 10.00公里', '晴空万里', '本地:', '18:00、2019年11月30日周六', '协调世界时:', '10:00、2019年11月30日周六', '来源:', '周期文件', '趋势:', '无重要变化', '露点:', '2°C', '晴空万里:', '真', '原始:', 'ZUUU 301000Z 36002MPS 340V040 CAVOK 09/02 Q1024 NOSIG', '下午6:00', '9.0°C', '1,024毫巴', '每小时7.20公里, 北', '9.90公里', '晴空万里', '本地:', '18:00、2019年11月30日周六', '协调世界时:', '10:00、2019年11月30日周六', '来源:', 'USAF 每小时地面观测', '报告类型:', 'METAR 航空例行天气报告', '露点:', '2.0°C', '晴空万里:', '真', '下午7:00', '9°C', '1,025毫巴', '每小时0公里', '≥ 10.00公里', '晴空万里', '本地:', '19:00、2019年11月30日周六', '协调世界时:', '11:00、2019年11月30日周六', '来源:', '周期文件', '趋势:', '无重要变化', '露点:', '3°C', '晴空万里:', '真', '原始:', 'ZUUU 301100Z 00000MPS CAVOK 09/03 Q1025 NOSIG', '下午7:00', '9.0°C', '1,025毫巴', '每小时0公里', '9.90公里', '晴空万里', '本地:', '19:00、2019年11月30日周六', '协调世界时:', '11:00、2019年11月30日周六', '来源:', 'USAF 每小时地面观测', '报告类型:', 'METAR 航空例行天气报告', '露点:', '3.0°C', '晴空万里:', '真', '下午8:00', '9°C', '1,026毫巴', '每小时0公里', '≥ 10.00公里', '晴空万里', '本地:', '20:00、2019年11月30日周六', '协调世界时:', '12:00、2019年11月30日周六', '来源:', '周期文件', '趋势:', '无重要变化', '露点:', '3°C', '晴空万里:', '真', '原始:', 'ZUUU 301200Z 00000MPS CAVOK 09/03 Q1026 NOSIG', '下午8:00', '9.0°C', '1,026毫巴', '每小时0公里', '9.90公里', '晴空万里', '本地:', '20:00、2019年11月30日周六', '协调世界时:', '12:00、2019年11月30日周六', '来源:', 'USAF 每小时地面观测', '报告类型:', 'METAR 航空例行天气报告', '露点:', '3.0°C', '晴空万里:', '真', '下午9:00', '9°C', '1,027毫巴', '每小时0公里', '≥ 10.00公里', '晴空万里', '本地:', '21:00、2019年11月30日周六', '协调世界时:', '13:00、2019年11月30日周六', '来源:', '周期文件', '趋势:', '无重要变化', '露点:', '4°C', '晴空万里:', '真', '原始:', 'ZUUU 301300Z 00000MPS CAVOK 09/04 Q1027 NOSIG', '下午9:00', '9.0°C', '1,027毫巴', '每小时0公里', '9.90公里', '晴空万里', '本地:', '21:00、2019年11月30日周六', '协调世界时:', '13:00、2019年11月30日周六', '来源:', 'USAF 每小时地面观测', '报告类型:', 'METAR 航空例行天气报告', '露点:', '4.0°C', '晴空万里:', '真', '下午10:00', '9°C', '1,028毫巴', '每小时0公里', '10.00公里', '部分多云 (1,524米)', '本地:', '22:00、2019年11月30日周六', '协调世界时:', '14:00、2019年11月30日周六', '来源:', '周期文件', '趋势:', '无重要变化', '露点:', '5°C', '原始:', 'ZUUU 301400Z 00000MPS 9999 SCT050 09/05 Q1028 NOSIG', '下午10:00', '9.0°C', '1,028毫巴', '每小时0公里', '10.00公里', '部分多云 (1,524米)', '本地:', '22:00、2019年11月30日周六', '协调世界时:', '14:00、2019年11月30日周六', '来源:', 'USAF 每小时地面观测', '报告类型:', 'METAR 航空例行天气报告', '露点:', '5.0°C', '下午11:00', '9°C', '1,028毫巴', '每小时7.20公里, 西', '10.00公里', '部分多云 (1,524米)', '本地:', '23:00、2019年11月30日周六', '协调世界时:', '15:00、2019年11月30日周六', '来源:', '周期文件', '趋势:', '无重要变化', '露点:', '5°C', '原始:', 'ZUUU 301500Z 28002MPS 9999 SCT050 09/05 Q1028 NOSIG', '下午11:00', '9.0°C', '1,028毫巴', '每小时7.20公里, 西', '10.00公里', '部分多云 (1,524米)', '本地:', '23:00、2019年11月30日周六', '协调世界时:', '15:00、2019年11月30日周六', '来源:', 'USAF 每小时地面观测', '报告类型:', 'METAR 航空例行天气报告', '露点:', '5.0°C']