['Mist', 'BR、IWC10', 'Mist', 'BR、IWC10', 'Mist', 'BR、IWC10', 'Mist', 'BR、IWC10', 'Mist', 'BR、IWC10', 'Mist', 'BR、IWC10', 'Mist', 'BR、IWC10', 'Mist', 'BR、IWC10', 'Mist', 'BR、IWC10', 'Mist、Patches of Fog', 'BR、IWC10、BCFG、IWC11', 'Mist', 'BR、IWC10', '上午12:00', '5°C', '1,017毫巴', '每小时7.20公里, 西南', '3.00公里', '无重要云', '本地:', '00:00、2019年2月3日周日', '协调世界时:', '16:00、2019年2月2日周六', '来源:', '周期文件', '趋势:', '无重要变化', '露点:', '5°C', '天气:', 'Mist', '原始:', 'ZUUU 021600Z 21002MPS 3000 BR NSC 05/05 Q1017 NOSIG', '上午12:00', '5.0°C', '1,017毫巴', '每小时7.20公里, 西南', '3.00公里', '未检测到云', '本地:', '00:00、2019年2月3日周日', '协调世界时:', '16:00、2019年2月2日周六', '来源:', 'USAF 每小时地面观测', '报告类型:', 'METAR 航空例行天气报告', '露点:', '5.0°C', '天气:', 'Mist', '上午1:00', '5°C', '1,018毫巴', '每小时3.60公里', '3.00公里', '无重要云', '本地:', '01:00、2019年2月3日周日', '协调世界时:', '17:00、2019年2月2日周六', '来源:', '周期文件', '趋势:', '变化为', '露点:', '5°C', '天气:', 'Mist、Mist', '原始:', 'ZUUU 021700Z VRB01MPS 3000 BR NSC 05/05 Q1018 BECMG TL1800 2700 BR', '上午1:00', '5.0°C', '1,018毫巴', '每小时3.60公里', '3.00公里', '未检测到云', '本地:', '01:00、2019年2月3日周日', '协调世界时:', '17:00、2019年2月2日周六', '来源:', 'USAF 每小时地面观测', '报告类型:', 'METAR 航空例行天气报告', '露点:', '5.0°C', '天气:', 'Mist', '上午2:00', '5°C', '1,018毫巴', '每小时10.8公里, 西南', '3.00公里', '无重要云', '本地:', '02:00、2019年2月3日周日', '协调世界时:', '18:00、2019年2月2日周六', '来源:', '周期文件', '趋势:', '无重要变化', '露点:', '4°C', '天气:', 'Mist', '原始:', 'ZUUU 021800Z 22003MPS 3000 BR NSC 05/04 Q1018 NOSIG', '上午2:00', '5.0°C', '1,018毫巴', '每小时10.8公里, 西南', '3.00公里', '未检测到云', '本地:', '02:00、2019年2月3日周日', '协调世界时:', '18:00、2019年2月2日周六', '来源:', 'USAF 每小时地面观测', '报告类型:', 'METAR 航空例行天气报告', '露点:', '4.0°C', '天气:', 'Mist', '上午3:00', '5°C', '1,019毫巴', '每小时3.60公里', '4.50公里', '无重要云', '本地:', '03:00、2019年2月3日周日', '协调世界时:', '19:00、2019年2月2日周六', '来源:', '周期文件', '趋势:', '无重要变化', '露点:', '5°C', '天气:', 'Mist', '原始:', 'ZUUU 021900Z VRB01MPS 4500 BR NSC 05/05 Q1019 NOSIG', '上午3:00', '5.0°C', '1,019毫巴', '每小时3.60公里', '4.50公里', '未检测到云', '本地:', '03:00、2019年2月3日周日', '协调世界时:', '19:00、2019年2月2日周六', '来源:', 'USAF 每小时地面观测', '报告类型:', 'METAR 航空例行天气报告', '露点:', '5.0°C', '天气:', 'Mist', '上午4:00', '5°C', '1,019毫巴', '每小时7.20公里, 南', '4.50公里', '无重要云', '本地:', '04:00、2019年2月3日周日', '协调世界时:', '20:00、2019年2月2日周六', '来源:', '周期文件', '趋势:', '无重要变化', '露点:', '4°C', '天气:', 'Mist', '原始:', 'ZUUU 022000Z 19002MPS 4500 BR NSC 05/04 Q1019 NOSIG', '上午4:00', '5.0°C', '1,019毫巴', '每小时7.20公里, 南', '4.50公里', '未检测到云', '本地:', '04:00、2019年2月3日周日', '协调世界时:', '20:00、2019年2月2日周六', '来源:', 'USAF 每小时地面观测', '报告类型:', 'METAR 航空例行天气报告', '露点:', '4.0°C', '天气:', 'Mist', '上午5:00', '4°C', '1,020毫巴', '每小时0公里', '4.50公里', '无重要云', '本地:', '05:00、2019年2月3日周日', '协调世界时:', '21:00、2019年2月2日周六', '来源:', '周期文件', '趋势:', '无重要变化', '露点:', '4°C', '天气:', 'Mist', '原始:', 'ZUUU 022100Z 00000MPS 4500 BR NSC 04/04 Q1020 NOSIG', '上午5:00', '4.0°C', '1,020毫巴', '每小时0公里', '4.50公里', '未检测到云', '本地:', '05:00、2019年2月3日周日', '协调世界时:', '21:00、2019年2月2日周六', '来源:', 'USAF 每小时地面观测', '报告类型:', 'METAR 航空例行天气报告', '露点:', '4.0°C', '天气:', 'Mist', '上午6:00', '3°C', '1,020毫巴', '每小时0公里', '4.50公里', '无重要云', '本地:', '06:00、2019年2月3日周日', '协调世界时:', '22:00、2019年2月2日周六', '来源:', '周期文件', '趋势:', '变化为', '露点:', '3°C', '天气:', 'Mist、Mist', '原始:', 'ZUUU 022200Z 00000MPS 4500 BR NSC 03/03 Q1020 BECMG TL2340 2700 BR', '上午6:00', '3.0°C', '1,020毫巴', '每小时0公里', '4.50公里', '未检测到云', '本地:', '06:00、2019年2月3日周日', '协调世界时:', '22:00、2019年2月2日周六', '来源:', 'USAF 每小时地面观测', '报告类型:', 'METAR 航空例行天气报告', '露点:', '3.0°C', '天气:', 'Mist', '上午7:00', '3°C', '1,022毫巴', '每小时0公里', '3.80公里', '无重要云', '本地:', '07:00、2019年2月3日周日', '协调世界时:', '23:00、2019年2月2日周六', '来源:', '周期文件', '趋势:', '变化为', '露点:', '2°C', '天气:', 'Mist、Mist', '原始:', 'ZUUU 022300Z 00000MPS 3800 BR NSC 03/02 Q1022 BECMG TL2340 2700 BR', '上午7:00', '3.0°C', '1,022毫巴', '每小时0公里', '3.80公里', '未检测到云', '本地:', '07:00、2019年2月3日周日', '协调世界时:', '23:00、2019年2月2日周六', '来源:', 'USAF 每小时地面观测', '报告类型:', 'METAR 航空例行天气报告', '露点:', '2.0°C', '天气:', 'Mist', '上午8:00', '2°C', '1,023毫巴', '每小时0公里', '2.50公里', '无重要云', '本地:', '08:00、2019年2月3日周日', '协调世界时:', '00:00、2019年2月3日周日', '来源:', '周期文件', '趋势:', '无重要变化', '露点:', '2°C', '天气:', 'Mist', '原始:', 'ZUUU 030000Z 00000MPS 2500 BR NSC 02/02 Q1023 NOSIG', '上午8:00', '2.0°C', '1,023毫巴', '每小时0公里', '2.50公里', '未检测到云', '本地:', '08:00、2019年2月3日周日', '协调世界时:', '00:00、2019年2月3日周日', '来源:', 'USAF 每小时地面观测', '报告类型:', 'METAR 航空例行天气报告', '露点:', '2.0°C', '天气:', 'Mist', '上午9:00', '3°C', '1,024毫巴', '每小时0公里', '2.50公里', '无重要云', '本地:', '09:00、2019年2月3日周日', '协调世界时:', '01:00、2019年2月3日周日', '来源:', '周期文件', '趋势:', '变化为', '露点:', '3°C', '天气:', 'Patches of Fog、Mist', '原始:', 'ZUUU 030100Z 00000MPS 2500 R02L/1800U R02R/1000D BCFG BR NSC 03/03 Q1024 BECMG TL0210 3000', '上午9:00', '3.0°C', '1,024毫巴', '每小时0公里', '2.50公里', '未检测到云', '本地:', '09:00、2019年2月3日周日', '协调世界时:', '01:00、2019年2月3日周日', '来源:', 'USAF 每小时地面观测', '报告类型:', 'METAR 航空例行天气报告', '露点:', '3.0°C', '天气:', 'Mist、Patches of Fog', '上午10:00', '6°C', '1,025毫巴', '每小时0公里', '5.00公里', '无重要云', '本地:', '10:00、2019年2月3日周日', '协调世界时:', '02:00、2019年2月3日周日', '来源:', '周期文件', '趋势:', '无重要变化', '露点:', '6°C', '天气:', 'Mist', '原始:', 'ZUUU 030200Z 00000MPS 5000 BR NSC 06/06 Q1025 NOSIG', '上午10:00', '6.0°C', '1,025毫巴', '每小时0公里', '5.00公里', '未检测到云', '本地:', '10:00、2019年2月3日周日', '协调世界时:', '02:00、2019年2月3日周日', '来源:', 'USAF 每小时地面观测', '报告类型:', 'METAR 航空例行天气报告', '露点:', '6.0°C', '天气:', 'Mist', '上午11:00', '10°C', '1,025毫巴', '每小时0公里', '≥ 10.00公里', '晴空万里', '本地:', '11:00、2019年2月3日周日', '协调世界时:', '03:00、2019年2月3日周日', '来源:', '周期文件', '趋势:', '无重要变化', '露点:', '7°C', '晴空万里:', '真', '原始:', 'ZUUU 030300Z 00000MPS CAVOK 10/07 Q1025 NOSIG', '上午11:00', '10.0°C', '1,025毫巴', '每小时0公里', '-', '晴空万里', '本地:', '11:00、2019年2月3日周日', '协调世界时:', '03:00、2019年2月3日周日', '来源:', 'USAF 每小时地面观测', '报告类型:', 'METAR 航空例行天气报告', '露点:', '7.0°C', '晴空万里:', '真', '下午12:00', '14°C', '1,025毫巴', '每小时3.60公里', '≥ 10.00公里', '晴空万里', '本地:', '12:00、2019年2月3日周日', '协调世界时:', '04:00、2019年2月3日周日', '来源:', '周期文件', '趋势:', '无重要变化', '露点:', '1°C', '晴空万里:', '真', '原始:', 'ZUUU 030400Z VRB01MPS CAVOK 14/01 Q1025 NOSIG', '下午12:00', '14.0°C', '1,025毫巴', '每小时3.60公里', '-', '晴空万里', '本地:', '12:00、2019年2月3日周日', '协调世界时:', '04:00、2019年2月3日周日', '来源:', 'USAF 每小时地面观测', '报告类型:', 'METAR 航空例行天气报告', '露点:', '1.0°C', '晴空万里:', '真', '下午1:00', '15°C', '1,023毫巴', '每小时3.60公里', '≥ 10.00公里', '晴空万里', '本地:', '13:00、2019年2月3日周日', '协调世界时:', '05:00、2019年2月3日周日', '来源:', '周期文件', '趋势:', '无重要变化', '露点:', '1°C', '晴空万里:', '真', '原始:', 'ZUUU 030500Z VRB01MPS CAVOK 15/01 Q1023 NOSIG', '下午1:00', '15.0°C', '1,023毫巴', '每小时3.60公里', '-', '晴空万里', '本地:', '13:00、2019年2月3日周日', '协调世界时:', '05:00、2019年2月3日周日', '来源:', 'USAF 每小时地面观测', '报告类型:', 'METAR 航空例行天气报告', '露点:', '1.0°C', '晴空万里:', '真', '下午2:00', '15°C', '1,021毫巴', '每小时7.20公里, 东', '≥ 10.00公里', '晴空万里', '本地:', '14:00、2019年2月3日周日', '协调世界时:', '06:00、2019年2月3日周日', '来源:', '周期文件', '趋势:', '无重要变化', '露点:', '-2°C', '晴空万里:', '真', '原始:', 'ZUUU 030600Z 08002MPS 010V150 CAVOK 15/M02 Q1021 NOSIG', '下午2:00', '15.0°C', '1,021毫巴', '每小时7.20公里, 东', '-', '晴空万里', '本地:', '14:00、2019年2月3日周日', '协调世界时:', '06:00、2019年2月3日周日', '来源:', 'USAF 每小时地面观测', '报告类型:', 'METAR 航空例行天气报告', '露点:', '-2.0°C', '晴空万里:', '真', '下午3:00', '16°C', '1,020毫巴', '每小时10.8公里, 东南', '10.00公里', '大部分晴天 (792米)', '本地:', '15:00、2019年2月3日周日', '协调世界时:', '07:00、2019年2月3日周日', '来源:', '周期文件', '趋势:', '无重要变化', '露点:', '-3°C', '原始:', 'ZUUU 030700Z 12003MPS 040V170 9999 FEW026 16/M03 Q1020 NOSIG', '下午3:00', '16.0°C', '1,020毫巴', '每小时10.8公里, 东南', '10.00公里', '大部分晴天 (792米)', '本地:', '15:00、2019年2月3日周日', '协调世界时:', '07:00、2019年2月3日周日', '来源:', 'USAF 每小时地面观测', '报告类型:', 'METAR 航空例行天气报告', '露点:', '-3.0°C', '下午4:00', '17°C', '1,019毫巴', '每小时10.8公里, 东', '≥ 10.00公里', '晴空万里', '本地:', '16:00、2019年2月3日周日', '协调世界时:', '08:00、2019年2月3日周日', '来源:', '周期文件', '趋势:', '无重要变化', '露点:', '-3°C', '晴空万里:', '真', '原始:', 'ZUUU 030800Z 09003MPS 030V170 CAVOK 17/M03 Q1019 NOSIG', '下午4:00', '17.0°C', '1,019毫巴', '每小时10.8公里, 东', '-', '晴空万里', '本地:', '16:00、2019年2月3日周日', '协调世界时:', '08:00、2019年2月3日周日', '来源:', 'USAF 每小时地面观测', '报告类型:', 'METAR 航空例行天气报告', '露点:', '-3.0°C', '晴空万里:', '真', '下午5:00', '16°C', '1,020毫巴', '每小时3.60公里', '≥ 10.00公里', '晴空万里', '本地:', '17:00、2019年2月3日周日', '协调世界时:', '09:00、2019年2月3日周日', '来源:', '周期文件', '趋势:', '无重要变化', '露点:', '-4°C', '晴空万里:', '真', '原始:', 'ZUUU 030900Z VRB01MPS CAVOK 16/M04 Q1020 NOSIG', '下午5:00', '16.0°C', '1,020毫巴', '每小时3.60公里', '-', '晴空万里', '本地:', '17:00、2019年2月3日周日', '协调世界时:', '09:00、2019年2月3日周日', '来源:', 'USAF 每小时地面观测', '报告类型:', 'METAR 航空例行天气报告', '露点:', '-4.0°C', '晴空万里:', '真', '下午6:00', '14°C', '1,020毫巴', '每小时7.20公里, 北', '≥ 10.00公里', '晴空万里', '本地:', '18:00、2019年2月3日周日', '协调世界时:', '10:00、2019年2月3日周日', '来源:', '周期文件', '趋势:', '无重要变化', '露点:', '-4°C', '晴空万里:', '真', '原始:', 'ZUUU 031000Z 01002MPS 330V070 CAVOK 14/M04 Q1020 NOSIG', '下午6:00', '14.0°C', '1,020毫巴', '每小时7.20公里, 北', '-', '晴空万里', '本地:', '18:00、2019年2月3日周日', '协调世界时:', '10:00、2019年2月3日周日', '来源:', 'USAF 每小时地面观测', '报告类型:', 'METAR 航空例行天气报告', '露点:', '-4.0°C', '晴空万里:', '真', '下午7:00', '12°C', '1,021毫巴', '每小时7.20公里, 西北', '≥ 10.00公里', '晴空万里', '本地:', '19:00、2019年2月3日周日', '协调世界时:', '11:00、2019年2月3日周日', '来源:', '周期文件', '趋势:', '无重要变化', '露点:', '0°C', '晴空万里:', '真', '原始:', 'ZUUU 031100Z 33002MPS 300V010 CAVOK 12/00 Q1021 NOSIG', '下午7:00', '12.0°C', '1,021毫巴', '每小时7.20公里, 西北', '-', '晴空万里', '本地:', '19:00、2019年2月3日周日', '协调世界时:', '11:00、2019年2月3日周日', '来源:', 'USAF 每小时地面观测', '报告类型:', 'METAR 航空例行天气报告', '露点:', '0.0°C', '晴空万里:', '真', '下午8:00', '11°C', '1,022毫巴', '每小时3.60公里', '≥ 10.00公里', '晴空万里', '本地:', '20:00、2019年2月3日周日', '协调世界时:', '12:00、2019年2月3日周日', '来源:', '周期文件', '趋势:', '无重要变化', '露点:', '0°C', '晴空万里:', '真', '原始:', 'ZUUU 031200Z VRB01MPS CAVOK 11/00 Q1022 NOSIG', '下午8:00', '11.0°C', '1,022毫巴', '每小时3.60公里', '-', '晴空万里', '本地:', '20:00、2019年2月3日周日', '协调世界时:', '12:00、2019年2月3日周日', '来源:', 'USAF 每小时地面观测', '报告类型:', 'METAR 航空例行天气报告', '露点:', '0.0°C', '晴空万里:', '真', '下午9:00', '10°C', '1,023毫巴', '每小时7.20公里, 北', '≥ 10.00公里', '晴空万里', '本地:', '21:00、2019年2月3日周日', '协调世界时:', '13:00、2019年2月3日周日', '来源:', '周期文件', '趋势:', '无重要变化', '露点:', '2°C', '晴空万里:', '真', '原始:', 'ZUUU 031300Z 36002MPS CAVOK 10/02 Q1023 NOSIG', '下午9:00', '10.0°C', '1,023毫巴', '每小时7.20公里, 北', '-', '晴空万里', '本地:', '21:00、2019年2月3日周日', '协调世界时:', '13:00、2019年2月3日周日', '来源:', 'USAF 每小时地面观测', '报告类型:', 'METAR 航空例行天气报告', '露点:', '2.0°C', '晴空万里:', '真', '下午10:00', '10°C', '1,024毫巴', '每小时7.20公里, 北', '≥ 10.00公里', '晴空万里', '本地:', '22:00、2019年2月3日周日', '协调世界时:', '14:00、2019年2月3日周日', '来源:', '周期文件', '趋势:', '无重要变化', '露点:', '2°C', '晴空万里:', '真', '原始:', 'ZUUU 031400Z 36002MPS CAVOK 10/02 Q1024 NOSIG', '下午10:00', '10.0°C', '1,024毫巴', '每小时7.20公里, 北', '-', '晴空万里', '本地:', '22:00、2019年2月3日周日', '协调世界时:', '14:00、2019年2月3日周日', '来源:', 'USAF 每小时地面观测', '报告类型:', 'METAR 航空例行天气报告', '露点:', '2.0°C', '晴空万里:', '真', '下午11:00', '9°C', '1,025毫巴', '每小时3.60公里, 北', '≥ 10.00公里', '晴空万里', '本地:', '23:00、2019年2月3日周日', '协调世界时:', '15:00、2019年2月3日周日', '来源:', '周期文件', '趋势:', '无重要变化', '露点:', '2°C', '晴空万里:', '真', '原始:', 'ZUUU 031500Z 35001MPS CAVOK 09/02 Q1025 NOSIG', '下午11:00', '9.0°C', '1,025毫巴', '每小时3.60公里, 北', '-', '晴空万里', '本地:', '23:00、2019年2月3日周日', '协调世界时:', '15:00、2019年2月3日周日', '来源:', 'USAF 每小时地面观测', '报告类型:', 'METAR 航空例行天气报告', '露点:', '2.0°C', '晴空万里:', '真']