['Mist', 'BR、IWC10', 'Mist', 'BR、IWC10', 'Mist', 'BR、IWC10', 'Mist', 'BR、IWC10', 'Mist', 'BR、IWC10', 'Mist', 'BR、IWC10', 'Mist', 'BR、IWC10', 'Mist', 'BR、IWC10', 'Mist', 'BR、IWC10', 'Mist', 'BR、IWC10', 'Mist', 'BR、IWC10', 'Mist', 'BR、IWC10', '上午12:00', '16°C', '1,021毫巴', '每小时7.20公里, 西北', '4.50公里', '大部分晴天 (792米)', '本地:', '00:00、2019年4月16日周二', '协调世界时:', '16:00、2019年4月15日周一', '来源:', '周期文件', '趋势:', '无重要变化', '露点:', '15°C', '天气:', 'Mist', '原始:', 'ZUUU 151600Z 31002MPS 270V010 4500 BR FEW026 16/15 Q1021 NOSIG', '上午12:00', '16.0°C', '1,021毫巴', '每小时7.20公里, 西北', '4.50公里', '大部分晴天 (792米)', '本地:', '00:00、2019年4月16日周二', '协调世界时:', '16:00、2019年4月15日周一', '来源:', 'USAF 每小时地面观测', '报告类型:', 'METAR 航空例行天气报告', '露点:', '15.0°C', '天气:', 'Mist', '上午1:00', '16°C', '1,020毫巴', '每小时3.60公里', '5.00公里', '大部分晴天 (1,524米)', '本地:', '01:00、2019年4月16日周二', '协调世界时:', '17:00、2019年4月15日周一', '来源:', '周期文件', '趋势:', '无重要变化', '露点:', '15°C', '天气:', 'Mist', '原始:', 'ZUUU 151700Z VRB01MPS 5000 BR FEW050 16/15 Q1020 NOSIG', '上午1:00', '16.0°C', '1,020毫巴', '每小时3.60公里', '5.00公里', '大部分晴天 (1,524米)', '本地:', '01:00、2019年4月16日周二', '协调世界时:', '17:00、2019年4月15日周一', '来源:', 'USAF 每小时地面观测', '报告类型:', 'METAR 航空例行天气报告', '露点:', '15.0°C', '天气:', 'Mist', '上午2:00', '15°C', '1,019毫巴', '每小时0公里', '4.00公里', '大部分晴天 (1,524米)', '本地:', '02:00、2019年4月16日周二', '协调世界时:', '18:00、2019年4月15日周一', '来源:', '周期文件', '趋势:', '无重要变化', '露点:', '15°C', '天气:', 'Mist', '原始:', 'ZUUU 151800Z 00000MPS 4000 BR FEW050 15/15 Q1019 NOSIG', '上午2:00', '15.0°C', '1,019毫巴', '每小时0公里', '4.00公里', '大部分晴天 (1,524米)', '本地:', '02:00、2019年4月16日周二', '协调世界时:', '18:00、2019年4月15日周一', '来源:', 'USAF 每小时地面观测', '报告类型:', 'METAR 航空例行天气报告', '露点:', '15.0°C', '天气:', 'Mist', '上午3:00', '16°C', '1,018毫巴', '每小时7.20公里, 西南', '3.50公里', '无重要云', '本地:', '03:00、2019年4月16日周二', '协调世界时:', '19:00、2019年4月15日周一', '来源:', '周期文件', '趋势:', '变化为', '露点:', '15°C', '天气:', 'Mist、Mist', '原始:', 'ZUUU 151900Z 23002MPS 200V260 3500 BR NSC 16/15 Q1018 BECMG TL2030 2500 BR', '上午3:00', '16.0°C', '1,018毫巴', '每小时7.20公里, 西南', '3.50公里', '未检测到云', '本地:', '03:00、2019年4月16日周二', '协调世界时:', '19:00、2019年4月15日周一', '来源:', 'USAF 每小时地面观测', '报告类型:', 'METAR 航空例行天气报告', '露点:', '15.0°C', '天气:', 'Mist', '上午4:00', '16°C', '1,017毫巴', '每小时7.20公里, 西南', '3.00公里', '部分多云 (213米)', '本地:', '04:00、2019年4月16日周二', '协调世界时:', '20:00、2019年4月15日周一', '来源:', '周期文件', '趋势:', '变化为', '露点:', '15°C', '其他云层:', '大部分晴天 (91米)', '天气:', 'Mist、Mist', '原始:', 'ZUUU 152000Z 23002MPS 3000 BR FEW003 SCT007 16/15 Q1017 BECMG TL2040 2500 BR', '上午4:00', '16.0°C', '1,017毫巴', '每小时7.20公里, 西南', '3.00公里', '部分多云 (213米)', '本地:', '04:00、2019年4月16日周二', '协调世界时:', '20:00、2019年4月15日周一', '来源:', 'USAF 每小时地面观测', '报告类型:', 'METAR 航空例行天气报告', '露点:', '15.0°C', '其他云层:', '大部分晴天 (91米)', '天气:', 'Mist', '上午5:00', '16°C', '1,017毫巴', '每小时7.20公里, 西', '2.80公里', '部分多云 (213米)', '本地:', '05:00、2019年4月16日周二', '协调世界时:', '21:00、2019年4月15日周一', '来源:', '周期文件', '趋势:', '变化为', '露点:', '15°C', '其他云层:', '大部分晴天 (122米)', '天气:', 'Mist', '原始:', 'ZUUU 152100Z 25002MPS 2800 BR FEW004 SCT007 16/15 Q1017 BECMG TL2250 3000', '上午5:00', '16.0°C', '1,017毫巴', '每小时7.20公里, 西', '2.80公里', '部分多云 (213米)', '本地:', '05:00、2019年4月16日周二', '协调世界时:', '21:00、2019年4月15日周一', '来源:', 'USAF 每小时地面观测', '报告类型:', 'METAR 航空例行天气报告', '露点:', '15.0°C', '其他云层:', '大部分晴天 (122米)', '天气:', 'Mist', '上午6:00', '14°C', '1,017毫巴', '每小时0公里', '2.80公里', '部分多云 (213米)', '本地:', '06:00、2019年4月16日周二', '协调世界时:', '22:00、2019年4月15日周一', '来源:', '周期文件', '趋势:', '无重要变化', '露点:', '14°C', '天气:', 'Mist', '原始:', 'ZUUU 152200Z 00000MPS 2800 BR SCT007 14/14 Q1017 NOSIG', '上午6:00', '14.0°C', '1,017毫巴', '每小时0公里', '2.80公里', '部分多云 (213米)', '本地:', '06:00、2019年4月16日周二', '协调世界时:', '22:00、2019年4月15日周一', '来源:', 'USAF 每小时地面观测', '报告类型:', 'METAR 航空例行天气报告', '露点:', '14.0°C', '天气:', 'Mist', '上午7:00', '16°C', '1,017毫巴', '每小时7.20公里, 东南', '2.30公里', '大部分晴天 (183米)', '本地:', '07:00、2019年4月16日周二', '协调世界时:', '23:00、2019年4月15日周一', '来源:', '周期文件', '趋势:', '变化为', '露点:', '16°C', '天气:', 'Mist', '原始:', 'ZUUU 152300Z 14002MPS 040V210 2300 R02L/P2000N R02R/1300N BR FEW006 16/16 Q1017 BECMG TL0010 3000', '上午7:00', '16.0°C', '1,017毫巴', '每小时7.20公里, 东南', '2.30公里', '大部分晴天 (183米)', '本地:', '07:00、2019年4月16日周二', '协调世界时:', '23:00、2019年4月15日周一', '来源:', 'USAF 每小时地面观测', '报告类型:', 'METAR 航空例行天气报告', '露点:', '16.0°C', '天气:', 'Mist', '上午8:00', '16°C', '1,018毫巴', '每小时7.20公里, 南', '2.00公里', '部分多云 (183米)', '本地:', '08:00、2019年4月16日周二', '协调世界时:', '00:00、2019年4月16日周二', '来源:', '周期文件', '趋势:', '变化为', '露点:', '16°C', '天气:', 'Mist', '原始:', 'ZUUU 160000Z 17002MPS 120V200 2000 R02L/1600D R02R/1200N BR SCT006 16/16 Q1018 BECMG TL0140 3000', '上午8:00', '16.0°C', '1,018毫巴', '每小时7.20公里, 南', '2.00公里', '部分多云 (183米)', '本地:', '08:00、2019年4月16日周二', '协调世界时:', '00:00、2019年4月16日周二', '来源:', 'USAF 每小时地面观测', '报告类型:', 'METAR 航空例行天气报告', '露点:', '16.0°C', '天气:', 'Mist', '上午9:00', '17°C', '1,018毫巴', '每小时7.20公里, 南', '2.00公里', '部分多云 (183米)', '本地:', '09:00、2019年4月16日周二', '协调世界时:', '01:00、2019年4月16日周二', '来源:', '周期文件', '趋势:', '变化为', '露点:', '16°C', '天气:', 'Mist', '原始:', 'ZUUU 160100Z 19002MPS 130V220 2000 R02L/1700N R02R/1400N BR SCT006 17/16 Q1018 BECMG TL0240 3000', '上午9:00', '17.0°C', '1,018毫巴', '每小时7.20公里, 南', '2.00公里', '部分多云 (183米)', '本地:', '09:00、2019年4月16日周二', '协调世界时:', '01:00、2019年4月16日周二', '来源:', 'USAF 每小时地面观测', '报告类型:', 'METAR 航空例行天气报告', '露点:', '16.0°C', '天气:', 'Mist', '上午10:00', '18°C', '1,018毫巴', '每小时7.20公里, 西', '3.00公里', '部分多云 (152米)', '本地:', '10:00、2019年4月16日周二', '协调世界时:', '02:00、2019年4月16日周二', '来源:', '周期文件', '趋势:', '无重要变化', '露点:', '16°C', '天气:', 'Mist', '原始:', 'ZUUU 160200Z 25002MPS 190V320 3000 BR SCT005 18/16 Q1018 NOSIG', '上午10:00', '18.0°C', '1,018毫巴', '每小时7.20公里, 西', '3.00公里', '部分多云 (152米)', '本地:', '10:00、2019年4月16日周二', '协调世界时:', '02:00、2019年4月16日周二', '来源:', 'USAF 每小时地面观测', '报告类型:', 'METAR 航空例行天气报告', '露点:', '16.0°C', '天气:', 'Mist', '上午11:00', '20°C', '1,018毫巴', '每小时10.8公里, 西南', '3.50公里', '部分多云 (1,524米)', '本地:', '11:00、2019年4月16日周二', '协调世界时:', '03:00、2019年4月16日周二', '来源:', '周期文件', '趋势:', '无重要变化', '露点:', '16°C', '其他云层:', '大部分晴天 (274米)', '天气:', 'Mist', '原始:', 'ZUUU 160300Z 23003MPS 170V280 3500 BR FEW009 SCT050 20/16 Q1018 NOSIG', '上午11:00', '20.0°C', '1,018毫巴', '每小时10.8公里, 西南', '3.50公里', '部分多云 (1,524米)', '本地:', '11:00、2019年4月16日周二', '协调世界时:', '03:00、2019年4月16日周二', '来源:', 'USAF 每小时地面观测', '报告类型:', 'METAR 航空例行天气报告', '露点:', '16.0°C', '其他云层:', '大部分晴天 (274米)', '天气:', 'Mist', '下午12:00', '21°C', '1,018毫巴', '每小时10.8公里, 西南', '6.00公里', '部分多云 (792米)', '本地:', '12:00、2019年4月16日周二', '协调世界时:', '04:00、2019年4月16日周二', '来源:', '周期文件', '趋势:', '无重要变化', '露点:', '16°C', '原始:', 'ZUUU 160400Z 21003MPS 150V250 6000 SCT026 21/16 Q1018 NOSIG', '下午12:00', '21.0°C', '1,018毫巴', '每小时10.8公里, 西南', '6.00公里', '部分多云 (792米)', '本地:', '12:00、2019年4月16日周二', '协调世界时:', '04:00、2019年4月16日周二', '来源:', 'USAF 每小时地面观测', '报告类型:', 'METAR 航空例行天气报告', '露点:', '16.0°C', '下午1:00', '22°C', '1,016毫巴', '每小时7.20公里', '7.00公里', '部分多云 (792米)', '本地:', '13:00、2019年4月16日周二', '协调世界时:', '05:00、2019年4月16日周二', '来源:', '周期文件', '趋势:', '无重要变化', '露点:', '16°C', '原始:', 'ZUUU 160500Z VRB02MPS 7000 SCT026 22/16 Q1016 NOSIG', '下午1:00', '22.0°C', '1,016毫巴', '每小时7.20公里', '7.00公里', '部分多云 (792米)', '本地:', '13:00、2019年4月16日周二', '协调世界时:', '05:00、2019年4月16日周二', '来源:', 'USAF 每小时地面观测', '报告类型:', 'METAR 航空例行天气报告', '露点:', '16.0°C', '下午2:00', '23°C', '1,015毫巴', '每小时10.8公里, 西', '10.00公里', '部分多云 (792米)', '本地:', '14:00、2019年4月16日周二', '协调世界时:', '06:00、2019年4月16日周二', '来源:', '周期文件', '趋势:', '无重要变化', '露点:', '16°C', '原始:', 'ZUUU 160600Z 25003MPS 180V330 9999 SCT026 23/16 Q1015 NOSIG', '下午2:00', '23.0°C', '1,015毫巴', '每小时10.8公里, 西', '10.00公里', '部分多云 (792米)', '本地:', '14:00、2019年4月16日周二', '协调世界时:', '06:00、2019年4月16日周二', '来源:', 'USAF 每小时地面观测', '报告类型:', 'METAR 航空例行天气报告', '露点:', '16.0°C', '下午3:00', '24°C', '1,014毫巴', '每小时3.60公里', '10.00公里', '部分多云 (792米)', '本地:', '15:00、2019年4月16日周二', '协调世界时:', '07:00、2019年4月16日周二', '来源:', '周期文件', '趋势:', '无重要变化', '露点:', '16°C', '原始:', 'ZUUU 160700Z VRB01MPS 9999 SCT026 24/16 Q1014 NOSIG', '下午3:00', '24.0°C', '1,014毫巴', '每小时3.60公里', '10.00公里', '部分多云 (792米)', '本地:', '15:00、2019年4月16日周二', '协调世界时:', '07:00、2019年4月16日周二', '来源:', 'USAF 每小时地面观测', '报告类型:', 'METAR 航空例行天气报告', '露点:', '16.0°C', '下午4:00', '25°C', '1,013毫巴', '每小时3.60公里', '10.00公里', '部分多云 (792米)', '本地:', '16:00、2019年4月16日周二', '协调世界时:', '08:00、2019年4月16日周二', '来源:', '周期文件', '趋势:', '无重要变化', '露点:', '15°C', '原始:', 'ZUUU 160800Z VRB01MPS 9999 SCT026 25/15 Q1013 NOSIG', '下午4:00', '25.0°C', '1,013毫巴', '每小时3.60公里', '10.00公里', '部分多云 (792米)', '本地:', '16:00、2019年4月16日周二', '协调世界时:', '08:00、2019年4月16日周二', '来源:', 'USAF 每小时地面观测', '报告类型:', 'METAR 航空例行天气报告', '露点:', '15.0°C', '下午5:00', '25°C', '1,013毫巴', '每小时10.8公里, 东南', '10.00公里', '部分多云 (792米)', '本地:', '17:00、2019年4月16日周二', '协调世界时:', '09:00、2019年4月16日周二', '来源:', '周期文件', '趋势:', '无重要变化', '露点:', '15°C', '原始:', 'ZUUU 160900Z 14003MPS 050V180 9999 SCT026 25/15 Q1013 NOSIG', '下午5:00', '25.0°C', '1,013毫巴', '每小时10.8公里, 东南', '10.00公里', '部分多云 (792米)', '本地:', '17:00、2019年4月16日周二', '协调世界时:', '09:00、2019年4月16日周二', '来源:', 'USAF 每小时地面观测', '报告类型:', 'METAR 航空例行天气报告', '露点:', '15.0°C', '下午6:00', '25°C', '1,012毫巴', '每小时7.20公里, 东', '10.00公里', '大部分晴天 (792米)', '本地:', '18:00、2019年4月16日周二', '协调世界时:', '10:00、2019年4月16日周二', '来源:', '周期文件', '趋势:', '无重要变化', '露点:', '15°C', '原始:', 'ZUUU 161000Z 09002MPS 010V130 9999 FEW026 25/15 Q1012 NOSIG', '下午6:00', '25.0°C', '1,012毫巴', '每小时7.20公里, 东', '10.00公里', '大部分晴天 (792米)', '本地:', '18:00、2019年4月16日周二', '协调世界时:', '10:00、2019年4月16日周二', '来源:', 'USAF 每小时地面观测', '报告类型:', 'METAR 航空例行天气报告', '露点:', '15.0°C', '下午7:00', '24°C', '1,013毫巴', '每小时3.60公里', '10.00公里', '部分多云 (1,219米)', '本地:', '19:00、2019年4月16日周二', '协调世界时:', '11:00、2019年4月16日周二', '来源:', '周期文件', '趋势:', '无重要变化', '露点:', '15°C', '原始:', 'ZUUU 161100Z VRB01MPS 9999 SCT040 24/15 Q1013 NOSIG', '下午7:00', '24.0°C', '1,013毫巴', '每小时3.60公里', '10.00公里', '部分多云 (1,219米)', '本地:', '19:00、2019年4月16日周二', '协调世界时:', '11:00、2019年4月16日周二', '来源:', 'USAF 每小时地面观测', '报告类型:', 'METAR 航空例行天气报告', '露点:', '15.0°C', '下午8:00', '22°C', '1,013毫巴', '每小时0公里', '10.00公里', '部分多云 (1,219米)', '本地:', '20:00、2019年4月16日周二', '协调世界时:', '12:00、2019年4月16日周二', '来源:', '周期文件', '趋势:', '无重要变化', '露点:', '15°C', '原始:', 'ZUUU 161200Z 00000MPS 9999 SCT040 22/15 Q1013 NOSIG', '下午8:00', '22.0°C', '1,013毫巴', '每小时0公里', '10.00公里', '部分多云 (1,219米)', '本地:', '20:00、2019年4月16日周二', '协调世界时:', '12:00、2019年4月16日周二', '来源:', 'USAF 每小时地面观测', '报告类型:', 'METAR 航空例行天气报告', '露点:', '15.0°C', '下午9:00', '21°C', '1,013毫巴', '每小时3.60公里', '8.00公里', '部分多云 (1,219米)', '本地:', '21:00、2019年4月16日周二', '协调世界时:', '13:00、2019年4月16日周二', '来源:', '周期文件', '趋势:', '无重要变化', '露点:', '16°C', '原始:', 'ZUUU 161300Z VRB01MPS 8000 SCT040 21/16 Q1013 NOSIG', '下午9:00', '21.0°C', '1,013毫巴', '每小时3.60公里', '8.00公里', '部分多云 (1,219米)', '本地:', '21:00、2019年4月16日周二', '协调世界时:', '13:00、2019年4月16日周二', '来源:', 'USAF 每小时地面观测', '报告类型:', 'METAR 航空例行天气报告', '露点:', '16.0°C', '下午10:00', '21°C', '1,014毫巴', '每小时7.20公里, 北', '8.00公里', '部分多云 (1,524米)', '本地:', '22:00、2019年4月16日周二', '协调世界时:', '14:00、2019年4月16日周二', '来源:', '周期文件', '趋势:', '无重要变化', '露点:', '16°C', '原始:', 'ZUUU 161400Z 35002MPS 320V030 8000 SCT050 21/16 Q1014 NOSIG', '下午10:00', '21.0°C', '1,014毫巴', '每小时7.20公里, 北', '8.00公里', '部分多云 (1,524米)', '本地:', '22:00、2019年4月16日周二', '协调世界时:', '14:00、2019年4月16日周二', '来源:', 'USAF 每小时地面观测', '报告类型:', 'METAR 航空例行天气报告', '露点:', '16.0°C', '下午11:00', '20°C', '1,013毫巴', '每小时7.20公里, 北', '7.00公里', '大部分晴天 (1,524米)', '本地:', '23:00、2019年4月16日周二', '协调世界时:', '15:00、2019年4月16日周二', '来源:', '周期文件', '趋势:', '无重要变化', '露点:', '17°C', '原始:', 'ZUUU 161500Z 01002MPS 7000 FEW050 20/17 Q1013 NOSIG', '下午11:00', '20.0°C', '1,013毫巴', '每小时7.20公里, 北', '7.00公里', '大部分晴天 (1,524米)', '本地:', '23:00、2019年4月16日周二', '协调世界时:', '15:00、2019年4月16日周二', '来源:', 'USAF 每小时地面观测', '报告类型:', 'METAR 航空例行天气报告', '露点:', '17.0°C']