['上午12:00', '9°C', '1,034毫巴', '每小时7.20公里, 西南', '10.00公里', '部分多云 (1,524米)', '本地:', '00:00、2019年11月25日周一', '协调世界时:', '16:00、2019年11月24日周日', '来源:', '周期文件', '趋势:', '无重要变化', '露点:', '8°C', '原始:', 'ZUUU 241600Z 23002MPS 9999 SCT050 09/08 Q1034 NOSIG', '上午12:00', '9.0°C', '1,034毫巴', '每小时7.20公里, 西南', '10.00公里', '部分多云 (1,524米)', '本地:', '00:00、2019年11月25日周一', '协调世界时:', '16:00、2019年11月24日周日', '来源:', 'USAF 每小时地面观测', '报告类型:', 'METAR 航空例行天气报告', '露点:', '8.0°C', '上午1:00', '9°C', '1,033毫巴', '每小时3.60公里', '≥ 10.00公里', '晴空万里', '本地:', '01:00、2019年11月25日周一', '协调世界时:', '17:00、2019年11月24日周日', '来源:', '周期文件', '趋势:', '无重要变化', '露点:', '7°C', '晴空万里:', '真', '原始:', 'ZUUU 241700Z VRB01MPS CAVOK 09/07 Q1033 NOSIG', '上午1:00', '9.0°C', '1,033毫巴', '每小时3.60公里', '9.90公里', '晴空万里', '本地:', '01:00、2019年11月25日周一', '协调世界时:', '17:00、2019年11月24日周日', '来源:', 'USAF 每小时地面观测', '报告类型:', 'METAR 航空例行天气报告', '露点:', '7.0°C', '晴空万里:', '真', '上午2:00', '9°C', '1,032毫巴', '每小时0公里', '≥ 10.00公里', '晴空万里', '本地:', '02:00、2019年11月25日周一', '协调世界时:', '18:00、2019年11月24日周日', '来源:', '周期文件', '趋势:', '无重要变化', '露点:', '7°C', '晴空万里:', '真', '原始:', 'ZUUU 241800Z 00000MPS CAVOK 09/07 Q1032 NOSIG', '上午2:00', '9.0°C', '1,032毫巴', '每小时0公里', '9.90公里', '晴空万里', '本地:', '02:00、2019年11月25日周一', '协调世界时:', '18:00、2019年11月24日周日', '来源:', 'USAF 每小时地面观测', '报告类型:', 'METAR 航空例行天气报告', '露点:', '7.0°C', '晴空万里:', '真', '上午3:00', '9°C', '1,032毫巴', '每小时7.20公里, 西', '≥ 10.00公里', '晴空万里', '本地:', '03:00、2019年11月25日周一', '协调世界时:', '19:00、2019年11月24日周日', '来源:', '周期文件', '趋势:', '无重要变化', '露点:', '7°C', '晴空万里:', '真', '原始:', 'ZUUU 241900Z 25002MPS CAVOK 09/07 Q1032 NOSIG', '上午3:00', '9.0°C', '1,032毫巴', '每小时7.20公里, 西', '9.90公里', '晴空万里', '本地:', '03:00、2019年11月25日周一', '协调世界时:', '19:00、2019年11月24日周日', '来源:', 'USAF 每小时地面观测', '报告类型:', 'METAR 航空例行天气报告', '露点:', '7.0°C', '晴空万里:', '真', '上午4:00', '8°C', '1,031毫巴', '每小时3.60公里, 西南', '≥ 10.00公里', '晴空万里', '本地:', '04:00、2019年11月25日周一', '协调世界时:', '20:00、2019年11月24日周日', '来源:', '周期文件', '趋势:', '无重要变化', '露点:', '7°C', '晴空万里:', '真', '原始:', 'ZUUU 242000Z 21001MPS CAVOK 08/07 Q1031 NOSIG', '上午4:00', '8.0°C', '1,031毫巴', '每小时3.60公里, 西南', '9.90公里', '晴空万里', '本地:', '04:00、2019年11月25日周一', '协调世界时:', '20:00、2019年11月24日周日', '来源:', 'USAF 每小时地面观测', '报告类型:', 'METAR 航空例行天气报告', '露点:', '7.0°C', '晴空万里:', '真', '上午5:00', '8°C', '1,031毫巴', '每小时3.60公里', '≥ 10.00公里', '晴空万里', '本地:', '05:00、2019年11月25日周一', '协调世界时:', '21:00、2019年11月24日周日', '来源:', '周期文件', '趋势:', '无重要变化', '露点:', '7°C', '晴空万里:', '真', '原始:', 'ZUUU 242100Z VRB01MPS CAVOK 08/07 Q1031 NOSIG', '上午5:00', '8.0°C', '1,031毫巴', '每小时3.60公里', '9.90公里', '晴空万里', '本地:', '05:00、2019年11月25日周一', '协调世界时:', '21:00、2019年11月24日周日', '来源:', 'USAF 每小时地面观测', '报告类型:', 'METAR 航空例行天气报告', '露点:', '7.0°C', '晴空万里:', '真', '上午6:00', '7°C', '1,031毫巴', '每小时3.60公里', '≥ 10.00公里', '晴空万里', '本地:', '06:00、2019年11月25日周一', '协调世界时:', '22:00、2019年11月24日周日', '来源:', '周期文件', '趋势:', '无重要变化', '露点:', '6°C', '晴空万里:', '真', '原始:', 'ZUUU 242200Z VRB01MPS CAVOK 07/06 Q1031 NOSIG', '上午6:00', '7.0°C', '1,031毫巴', '每小时3.60公里', '9.90公里', '晴空万里', '本地:', '06:00、2019年11月25日周一', '协调世界时:', '22:00、2019年11月24日周日', '来源:', 'USAF 每小时地面观测', '报告类型:', 'METAR 航空例行天气报告', '露点:', '6.0°C', '晴空万里:', '真', '上午7:00', '6°C', '1,030毫巴', '每小时0公里', '≥ 10.00公里', '晴空万里', '本地:', '07:00、2019年11月25日周一', '协调世界时:', '23:00、2019年11月24日周日', '来源:', '周期文件', '趋势:', '无重要变化', '露点:', '5°C', '晴空万里:', '真', '原始:', 'ZUUU 242300Z 00000MPS CAVOK 06/05 Q1030 NOSIG', '上午7:00', '6.0°C', '1,030毫巴', '每小时0公里', '9.90公里', '晴空万里', '本地:', '07:00、2019年11月25日周一', '协调世界时:', '23:00、2019年11月24日周日', '来源:', 'USAF 每小时地面观测', '报告类型:', 'METAR 航空例行天气报告', '露点:', '5.0°C', '晴空万里:', '真', '上午8:00', '9°C', '1,031毫巴', '每小时7.20公里, 东', '≥ 10.00公里', '晴空万里', '本地:', '08:00、2019年11月25日周一', '协调世界时:', '00:00、2019年11月25日周一', '来源:', '周期文件', '趋势:', '无重要变化', '露点:', '6°C', '晴空万里:', '真', '原始:', 'ZUUU 250000Z 08002MPS 030V120 CAVOK 09/06 Q1031 NOSIG', '上午8:00', '9.0°C', '1,031毫巴', '每小时7.20公里, 东', '9.90公里', '晴空万里', '本地:', '08:00、2019年11月25日周一', '协调世界时:', '00:00、2019年11月25日周一', '来源:', 'USAF 每小时地面观测', '报告类型:', 'METAR 航空例行天气报告', '露点:', '6.0°C', '晴空万里:', '真', '上午9:00', '9°C', '1,031毫巴', '每小时10.8公里, 东', '≥ 10.00公里', '晴空万里', '本地:', '09:00、2019年11月25日周一', '协调世界时:', '01:00、2019年11月25日周一', '来源:', '周期文件', '趋势:', '无重要变化', '露点:', '3°C', '晴空万里:', '真', '原始:', 'ZUUU 250100Z 10003MPS 050V130 CAVOK 09/03 Q1031 NOSIG', '上午9:00', '9.0°C', '1,031毫巴', '每小时10.8公里, 东', '9.90公里', '晴空万里', '本地:', '09:00、2019年11月25日周一', '协调世界时:', '01:00、2019年11月25日周一', '来源:', 'USAF 每小时地面观测', '报告类型:', 'METAR 航空例行天气报告', '露点:', '3.0°C', '晴空万里:', '真', '上午10:00', '10°C', '1,031毫巴', '每小时7.20公里, 东南', '≥ 10.00公里', '晴空万里', '本地:', '10:00、2019年11月25日周一', '协调世界时:', '02:00、2019年11月25日周一', '来源:', '周期文件', '趋势:', '无重要变化', '露点:', '5°C', '晴空万里:', '真', '原始:', 'ZUUU 250200Z 14002MPS 080V180 CAVOK 10/05 Q1031 NOSIG', '上午10:00', '10.0°C', '1,031毫巴', '每小时7.20公里, 东南', '9.90公里', '晴空万里', '本地:', '10:00、2019年11月25日周一', '协调世界时:', '02:00、2019年11月25日周一', '来源:', 'USAF 每小时地面观测', '报告类型:', 'METAR 航空例行天气报告', '露点:', '5.0°C', '晴空万里:', '真', '上午11:00', '10°C', '1,030毫巴', '每小时7.20公里', '10.00公里', '大部分晴天 (701米)', '本地:', '11:00、2019年11月25日周一', '协调世界时:', '03:00、2019年11月25日周一', '来源:', '周期文件', '趋势:', '无重要变化', '露点:', '4°C', '原始:', 'ZUUU 250300Z VRB02MPS 9999 FEW023 10/04 Q1030 NOSIG', '上午11:00', '10.0°C', '1,030毫巴', '每小时7.20公里', '10.00公里', '大部分晴天 (701米)', '本地:', '11:00、2019年11月25日周一', '协调世界时:', '03:00、2019年11月25日周一', '来源:', 'USAF 每小时地面观测', '报告类型:', 'METAR 航空例行天气报告', '露点:', '4.0°C', '下午12:00', '11°C', '1,030毫巴', '每小时7.20公里', '10.00公里', '大部分晴天 (701米)', '本地:', '12:00、2019年11月25日周一', '协调世界时:', '04:00、2019年11月25日周一', '来源:', '周期文件', '趋势:', '无重要变化', '露点:', '2°C', '原始:', 'ZUUU 250400Z VRB02MPS 9999 FEW023 11/02 Q1030 NOSIG', '下午12:00', '11.0°C', '1,030毫巴', '每小时7.20公里', '10.00公里', '大部分晴天 (701米)', '本地:', '12:00、2019年11月25日周一', '协调世界时:', '04:00、2019年11月25日周一', '来源:', 'USAF 每小时地面观测', '报告类型:', 'METAR 航空例行天气报告', '露点:', '2.0°C', '下午1:00', '12°C', '1,028毫巴', '每小时3.60公里', '10.00公里', '部分多云 (914米)', '本地:', '13:00、2019年11月25日周一', '协调世界时:', '05:00、2019年11月25日周一', '来源:', '周期文件', '趋势:', '无重要变化', '露点:', '3°C', '原始:', 'ZUUU 250500Z VRB01MPS 9999 SCT030 12/03 Q1028 NOSIG', '下午1:00', '12.0°C', '1,028毫巴', '每小时3.60公里', '10.00公里', '部分多云 (914米)', '本地:', '13:00、2019年11月25日周一', '协调世界时:', '05:00、2019年11月25日周一', '来源:', 'USAF 每小时地面观测', '报告类型:', 'METAR 航空例行天气报告', '露点:', '3.0°C', '下午2:00', '12°C', '1,026毫巴', '每小时3.60公里', '10.00公里', '部分多云 (1,006米)', '本地:', '14:00、2019年11月25日周一', '协调世界时:', '06:00、2019年11月25日周一', '来源:', '周期文件', '趋势:', '无重要变化', '露点:', '3°C', '原始:', 'ZUUU 250600Z VRB01MPS 9999 SCT033 12/03 Q1026 NOSIG', '下午2:00', '12.0°C', '1,026毫巴', '每小时3.60公里', '10.00公里', '部分多云 (1,006米)', '本地:', '14:00、2019年11月25日周一', '协调世界时:', '06:00、2019年11月25日周一', '来源:', 'USAF 每小时地面观测', '报告类型:', 'METAR 航空例行天气报告', '露点:', '3.0°C', '下午3:00', '12°C', '1,025毫巴', '每小时0公里', '10.00公里', '部分多云 (1,006米)', '本地:', '15:00、2019年11月25日周一', '协调世界时:', '07:00、2019年11月25日周一', '来源:', '周期文件', '趋势:', '无重要变化', '露点:', '3°C', '原始:', 'ZUUU 250700Z 00000MPS 9999 SCT033 12/03 Q1025 NOSIG', '下午3:00', '12.0°C', '1,025毫巴', '每小时0公里', '10.00公里', '部分多云 (1,006米)', '本地:', '15:00、2019年11月25日周一', '协调世界时:', '07:00、2019年11月25日周一', '来源:', 'USAF 每小时地面观测', '报告类型:', 'METAR 航空例行天气报告', '露点:', '3.0°C', '下午4:00', '12°C', '1,024毫巴', '每小时3.60公里', '10.00公里', '部分多云 (1,006米)', '本地:', '16:00、2019年11月25日周一', '协调世界时:', '08:00、2019年11月25日周一', '来源:', '周期文件', '趋势:', '无重要变化', '露点:', '3°C', '原始:', 'ZUUU 250800Z VRB01MPS 9999 SCT033 12/03 Q1024 NOSIG', '下午4:00', '12.0°C', '1,024毫巴', '每小时3.60公里', '10.00公里', '部分多云 (1,006米)', '本地:', '16:00、2019年11月25日周一', '协调世界时:', '08:00、2019年11月25日周一', '来源:', 'USAF 每小时地面观测', '报告类型:', 'METAR 航空例行天气报告', '露点:', '3.0°C', '下午5:00', '11°C', '1,024毫巴', '每小时3.60公里', '10.00公里', '部分多云 (1,219米)', '本地:', '17:00、2019年11月25日周一', '协调世界时:', '09:00、2019年11月25日周一', '来源:', '周期文件', '趋势:', '无重要变化', '露点:', '5°C', '原始:', 'ZUUU 250900Z VRB01MPS 9999 SCT040 11/05 Q1024 NOSIG', '下午5:00', '11.0°C', '1,024毫巴', '每小时3.60公里', '10.00公里', '部分多云 (1,219米)', '本地:', '17:00、2019年11月25日周一', '协调世界时:', '09:00、2019年11月25日周一', '来源:', 'USAF 每小时地面观测', '报告类型:', 'METAR 航空例行天气报告', '露点:', '5.0°C', '下午6:00', '10°C', '1,024毫巴', '每小时7.20公里, 西北', '10.00公里', '部分多云 (1,219米)', '本地:', '18:00、2019年11月25日周一', '协调世界时:', '10:00、2019年11月25日周一', '来源:', '周期文件', '趋势:', '无重要变化', '露点:', '5°C', '其他云层:', '大部分晴天 (792米)', '原始:', 'ZUUU 251000Z 32002MPS 270V030 9999 FEW026 SCT040 10/05 Q1024 NOSIG', '下午6:00', '10.0°C', '1,024毫巴', '每小时7.20公里, 西北', '10.00公里', '部分多云 (1,219米)', '本地:', '18:00、2019年11月25日周一', '协调世界时:', '10:00、2019年11月25日周一', '来源:', 'USAF 每小时地面观测', '报告类型:', 'METAR 航空例行天气报告', '露点:', '5.0°C', '其他云层:', '大部分晴天 (792米)', '下午7:00', '10°C', '1,024毫巴', '每小时3.60公里', '10.00公里', '部分多云 (1,006米)', '本地:', '19:00、2019年11月25日周一', '协调世界时:', '11:00、2019年11月25日周一', '来源:', '周期文件', '趋势:', '无重要变化', '露点:', '5°C', '原始:', 'ZUUU 251100Z VRB01MPS 9999 SCT033 10/05 Q1024 NOSIG', '下午7:00', '10.0°C', '1,024毫巴', '每小时3.60公里', '10.00公里', '部分多云 (1,006米)', '本地:', '19:00、2019年11月25日周一', '协调世界时:', '11:00、2019年11月25日周一', '来源:', 'USAF 每小时地面观测', '报告类型:', 'METAR 航空例行天气报告', '露点:', '5.0°C', '下午8:00', '10°C', '1,024毫巴', '每小时7.20公里, 北', '10.00公里', '部分多云 (1,006米)', '本地:', '20:00、2019年11月25日周一', '协调世界时:', '12:00、2019年11月25日周一', '来源:', '周期文件', '趋势:', '无重要变化', '露点:', '5°C', '原始:', 'ZUUU 251200Z 35002MPS 320V040 9999 SCT033 10/05 Q1024 NOSIG', '下午8:00', '10.0°C', '1,024毫巴', '每小时7.20公里, 北', '10.00公里', '部分多云 (1,006米)', '本地:', '20:00、2019年11月25日周一', '协调世界时:', '12:00、2019年11月25日周一', '来源:', 'USAF 每小时地面观测', '报告类型:', 'METAR 航空例行天气报告', '露点:', '5.0°C', '下午9:00', '10°C', '1,025毫巴', '每小时7.20公里, 北', '10.00公里', '部分多云 (1,006米)', '本地:', '21:00、2019年11月25日周一', '协调世界时:', '13:00、2019年11月25日周一', '来源:', '周期文件', '趋势:', '无重要变化', '露点:', '5°C', '原始:', 'ZUUU 251300Z 01002MPS 340V040 9999 SCT033 10/05 Q1025 NOSIG', '下午9:00', '10.0°C', '1,025毫巴', '每小时7.20公里, 北', '10.00公里', '部分多云 (1,006米)', '本地:', '21:00、2019年11月25日周一', '协调世界时:', '13:00、2019年11月25日周一', '来源:', 'USAF 每小时地面观测', '报告类型:', 'METAR 航空例行天气报告', '露点:', '5.0°C', '下午10:00', '10°C', '1,025毫巴', '每小时7.20公里, 北', '10.00公里', '部分多云 (1,219米)', '本地:', '22:00、2019年11月25日周一', '协调世界时:', '14:00、2019年11月25日周一', '来源:', '周期文件', '趋势:', '无重要变化', '露点:', '5°C', '其他云层:', '大部分晴天 (792米)', '原始:', 'ZUUU 251400Z 01002MPS 330V040 9999 FEW026 SCT040 10/05 Q1025 NOSIG', '下午10:00', '10.0°C', '1,025毫巴', '每小时7.20公里, 北', '10.00公里', '部分多云 (1,219米)', '本地:', '22:00、2019年11月25日周一', '协调世界时:', '14:00、2019年11月25日周一', '来源:', 'USAF 每小时地面观测', '报告类型:', 'METAR 航空例行天气报告', '露点:', '5.0°C', '其他云层:', '大部分晴天 (792米)', '下午11:00', '10°C', '1,025毫巴', '每小时7.20公里, 南', '10.00公里', '部分多云 (1,219米)', '本地:', '23:00、2019年11月25日周一', '协调世界时:', '15:00、2019年11月25日周一', '来源:', '周期文件', '趋势:', '无重要变化', '露点:', '6°C', '其他云层:', '大部分晴天 (792米)', '原始:', 'ZUUU 251500Z 16002MPS 050V220 9999 FEW026 SCT040 10/06 Q1025 NOSIG', '下午11:00', '10.0°C', '1,025毫巴', '每小时7.20公里, 南', '10.00公里', '部分多云 (1,219米)', '本地:', '23:00、2019年11月25日周一', '协调世界时:', '15:00、2019年11月25日周一', '来源:', 'USAF 每小时地面观测', '报告类型:', 'METAR 航空例行天气报告', '露点:', '6.0°C', '其他云层:', '大部分晴天 (792米)']