['Light Rain', '-RA、IWC61', 'Showers of Light Rain', '-SHRA、IWC80', 'Light Rain', '-RA、IWC61', '上午12:00', '14°C', '1,029毫巴', '每小时10.8公里, 东北', '10.00公里', '大部分多云 (1,311米)', '本地:', '00:00、2019年11月18日周一', '协调世界时:', '16:00、2019年11月17日周日', '来源:', '周期文件', '趋势:', '无重要变化', '露点:', '-1°C', '原始:', 'ZUUU 171600Z 03003MPS 320V090 9999 BKN043 14/M01 Q1029 NOSIG', '上午12:00', '14.0°C', '1,029毫巴', '每小时10.8公里, 东北', '10.00公里', '大部分多云 (1,311米)', '本地:', '00:00、2019年11月18日周一', '协调世界时:', '16:00、2019年11月17日周日', '来源:', 'USAF 每小时地面观测', '报告类型:', 'METAR 航空例行天气报告', '露点:', '-1.0°C', '上午1:00', '12°C', '1,030毫巴', '每小时10.8公里, 北', '10.00公里', '大部分多云 (1,311米)', '本地:', '01:00、2019年11月18日周一', '协调世界时:', '17:00、2019年11月17日周日', '来源:', '周期文件', '趋势:', '无重要变化', '露点:', '0°C', '原始:', 'ZUUU 171700Z 35003MPS 320V020 9999 BKN043 12/00 Q1030 NOSIG', '上午1:00', '12.0°C', '1,030毫巴', '每小时10.8公里, 北', '10.00公里', '大部分多云 (1,311米)', '本地:', '01:00、2019年11月18日周一', '协调世界时:', '17:00、2019年11月17日周日', '来源:', 'USAF 每小时地面观测', '报告类型:', 'METAR 航空例行天气报告', '露点:', '0.0°C', '上午2:00', '11°C', '1,030毫巴', '每小时10.8公里, 北', '10.00公里', '大部分多云 (1,311米)', '本地:', '02:00、2019年11月18日周一', '协调世界时:', '18:00、2019年11月17日周日', '来源:', '周期文件', '趋势:', '无重要变化', '露点:', '3°C', '原始:', 'ZUUU 171800Z 36003MPS 320V040 9999 BKN043 11/03 Q1030 NOSIG', '上午2:00', '11.0°C', '1,030毫巴', '每小时10.8公里, 北', '10.00公里', '大部分多云 (1,311米)', '本地:', '02:00、2019年11月18日周一', '协调世界时:', '18:00、2019年11月17日周日', '来源:', 'USAF 每小时地面观测', '报告类型:', 'METAR 航空例行天气报告', '露点:', '3.0°C', '上午3:00', '11°C', '1,030毫巴', '每小时7.20公里, 北', '10.00公里', '部分多云 (1,524米)', '本地:', '03:00、2019年11月18日周一', '协调世界时:', '19:00、2019年11月17日周日', '来源:', '周期文件', '趋势:', '无重要变化', '露点:', '4°C', '原始:', 'ZUUU 171900Z 35002MPS 290V090 9999 SCT050 11/04 Q1030 NOSIG', '上午3:00', '11.0°C', '1,030毫巴', '每小时7.20公里, 北', '10.00公里', '部分多云 (1,524米)', '本地:', '03:00、2019年11月18日周一', '协调世界时:', '19:00、2019年11月17日周日', '来源:', 'USAF 每小时地面观测', '报告类型:', 'METAR 航空例行天气报告', '露点:', '4.0°C', '上午4:00', '10°C', '1,030毫巴', '每小时7.20公里, 西北', '≥ 10.00公里', '晴空万里', '本地:', '04:00、2019年11月18日周一', '协调世界时:', '20:00、2019年11月17日周日', '来源:', '周期文件', '趋势:', '无重要变化', '露点:', '4°C', '晴空万里:', '真', '原始:', 'ZUUU 172000Z 33002MPS 290V020 CAVOK 10/04 Q1030 NOSIG', '上午4:00', '10.0°C', '1,030毫巴', '每小时7.20公里, 西北', '9.90公里', '晴空万里', '本地:', '04:00、2019年11月18日周一', '协调世界时:', '20:00、2019年11月17日周日', '来源:', 'USAF 每小时地面观测', '报告类型:', 'METAR 航空例行天气报告', '露点:', '4.0°C', '晴空万里:', '真', '上午5:00', '10°C', '1,030毫巴', '每小时7.20公里, 北', '≥ 10.00公里', '晴空万里', '本地:', '05:00、2019年11月18日周一', '协调世界时:', '21:00、2019年11月17日周日', '来源:', '周期文件', '趋势:', '无重要变化', '露点:', '4°C', '晴空万里:', '真', '原始:', 'ZUUU 172100Z 35002MPS 300V040 CAVOK 10/04 Q1030 NOSIG', '上午5:00', '10.0°C', '1,030毫巴', '每小时7.20公里, 北', '9.90公里', '晴空万里', '本地:', '05:00、2019年11月18日周一', '协调世界时:', '21:00、2019年11月17日周日', '来源:', 'USAF 每小时地面观测', '报告类型:', 'METAR 航空例行天气报告', '露点:', '4.0°C', '晴空万里:', '真', '上午6:00', '10°C', '1,030毫巴', '每小时3.60公里', '≥ 10.00公里', '晴空万里', '本地:', '06:00、2019年11月18日周一', '协调世界时:', '22:00、2019年11月17日周日', '来源:', '周期文件', '趋势:', '无重要变化', '露点:', '3°C', '晴空万里:', '真', '原始:', 'ZUUU 172200Z VRB01MPS CAVOK 10/03 Q1030 NOSIG', '上午6:00', '10.0°C', '1,030毫巴', '每小时3.60公里', '9.90公里', '晴空万里', '本地:', '06:00、2019年11月18日周一', '协调世界时:', '22:00、2019年11月17日周日', '来源:', 'USAF 每小时地面观测', '报告类型:', 'METAR 航空例行天气报告', '露点:', '3.0°C', '晴空万里:', '真', '上午7:00', '10°C', '1,031毫巴', '每小时3.60公里', '≥ 10.00公里', '晴空万里', '本地:', '07:00、2019年11月18日周一', '协调世界时:', '23:00、2019年11月17日周日', '来源:', '周期文件', '趋势:', '无重要变化', '露点:', '2°C', '晴空万里:', '真', '原始:', 'ZUUU 172300Z VRB01MPS CAVOK 10/02 Q1031 NOSIG', '上午7:00', '10.0°C', '1,031毫巴', '每小时3.60公里', '9.90公里', '晴空万里', '本地:', '07:00、2019年11月18日周一', '协调世界时:', '23:00、2019年11月17日周日', '来源:', 'USAF 每小时地面观测', '报告类型:', 'METAR 航空例行天气报告', '露点:', '2.0°C', '晴空万里:', '真', '上午8:00', '11°C', '1,032毫巴', '每小时0公里', '10.00公里', '部分多云 (1,524米)', '本地:', '08:00、2019年11月18日周一', '协调世界时:', '00:00、2019年11月18日周一', '来源:', '周期文件', '趋势:', '无重要变化', '露点:', '2°C', '原始:', 'ZUUU 180000Z 00000MPS 9999 SCT050 11/02 Q1032 NOSIG', '上午8:00', '11.0°C', '1,032毫巴', '每小时0公里', '10.00公里', '部分多云 (1,524米)', '本地:', '08:00、2019年11月18日周一', '协调世界时:', '00:00、2019年11月18日周一', '来源:', 'USAF 每小时地面观测', '报告类型:', 'METAR 航空例行天气报告', '露点:', '2.0°C', '上午9:00', '11°C', '1,032毫巴', '每小时7.20公里, 东南', '10.00公里', '部分多云 (1,524米)', '本地:', '09:00、2019年11月18日周一', '协调世界时:', '01:00、2019年11月18日周一', '来源:', '周期文件', '趋势:', '无重要变化', '露点:', '1°C', '原始:', 'ZUUU 180100Z 13002MPS 080V180 9999 SCT050 11/01 Q1032 NOSIG', '上午9:00', '11.0°C', '1,032毫巴', '每小时7.20公里, 东南', '10.00公里', '部分多云 (1,524米)', '本地:', '09:00、2019年11月18日周一', '协调世界时:', '01:00、2019年11月18日周一', '来源:', 'USAF 每小时地面观测', '报告类型:', 'METAR 航空例行天气报告', '露点:', '1.0°C', '上午10:00', '11°C', '1,033毫巴', '每小时0公里', '10.00公里', '部分多云 (1,524米)', '本地:', '10:00、2019年11月18日周一', '协调世界时:', '02:00、2019年11月18日周一', '来源:', '周期文件', '趋势:', '无重要变化', '露点:', '2°C', '原始:', 'ZUUU 180200Z 00000MPS 9999 SCT050 11/02 Q1033 NOSIG', '上午10:00', '11.0°C', '1,033毫巴', '每小时0公里', '10.00公里', '部分多云 (1,524米)', '本地:', '10:00、2019年11月18日周一', '协调世界时:', '02:00、2019年11月18日周一', '来源:', 'USAF 每小时地面观测', '报告类型:', 'METAR 航空例行天气报告', '露点:', '2.0°C', '上午11:00', '11°C', '1,032毫巴', '每小时3.60公里, 西南', '10.00公里', '部分多云 (1,219米)', '本地:', '11:00、2019年11月18日周一', '协调世界时:', '03:00、2019年11月18日周一', '来源:', '周期文件', '趋势:', '无重要变化', '露点:', '4°C', '原始:', 'ZUUU 180300Z 22001MPS 9999 SCT040 11/04 Q1032 NOSIG', '上午11:00', '11.0°C', '1,032毫巴', '每小时3.60公里, 西南', '10.00公里', '部分多云 (1,219米)', '本地:', '11:00、2019年11月18日周一', '协调世界时:', '03:00、2019年11月18日周一', '来源:', 'USAF 每小时地面观测', '报告类型:', 'METAR 航空例行天气报告', '露点:', '4.0°C', '下午12:00', '11°C', '1,031毫巴', '每小时7.20公里, 西南', '10.00公里', '部分多云 (1,524米)', '本地:', '12:00、2019年11月18日周一', '协调世界时:', '04:00、2019年11月18日周一', '来源:', '周期文件', '趋势:', '无重要变化', '露点:', '5°C', '天气:', 'Light Rain', '原始:', 'ZUUU 180400Z 23002MPS 200V270 9999 -RA SCT050 11/05 Q1031 NOSIG', '下午12:00', '11.0°C', '1,031毫巴', '每小时7.20公里, 西南', '10.00公里', '部分多云 (1,524米)', '本地:', '12:00、2019年11月18日周一', '协调世界时:', '04:00、2019年11月18日周一', '来源:', 'USAF 每小时地面观测', '报告类型:', 'METAR 航空例行天气报告', '露点:', '5.0°C', '天气:', 'Light Rain', '下午1:00', '12°C', '1,030毫巴', '每小时7.20公里, 西南', '10.00公里', '大部分晴天 (1,524米)', '本地:', '13:00、2019年11月18日周一', '协调世界时:', '05:00、2019年11月18日周一', '来源:', '周期文件', '趋势:', '无重要变化', '露点:', '5°C', '原始:', 'ZUUU 180500Z 21002MPS 170V240 9999 FEW050 12/05 Q1030 NOSIG', '下午1:00', '12.0°C', '1,030毫巴', '每小时7.20公里, 西南', '10.00公里', '大部分晴天 (1,524米)', '本地:', '13:00、2019年11月18日周一', '协调世界时:', '05:00、2019年11月18日周一', '来源:', 'USAF 每小时地面观测', '报告类型:', 'METAR 航空例行天气报告', '露点:', '5.0°C', '下午2:00', '12°C', '1,028毫巴', '每小时7.20公里', '≥ 10.00公里', '晴空万里', '本地:', '14:00、2019年11月18日周一', '协调世界时:', '06:00、2019年11月18日周一', '来源:', '周期文件', '趋势:', '无重要变化', '露点:', '4°C', '晴空万里:', '真', '原始:', 'ZUUU 180600Z VRB02MPS CAVOK 12/04 Q1028 NOSIG', '下午2:00', '12.0°C', '1,028毫巴', '每小时7.20公里', '9.90公里', '晴空万里', '本地:', '14:00、2019年11月18日周一', '协调世界时:', '06:00、2019年11月18日周一', '来源:', 'USAF 每小时地面观测', '报告类型:', 'METAR 航空例行天气报告', '露点:', '4.0°C', '晴空万里:', '真', '下午3:00', '12°C', '1,028毫巴', '每小时7.20公里, 西南', '≥ 10.00公里', '晴空万里', '本地:', '15:00、2019年11月18日周一', '协调世界时:', '07:00、2019年11月18日周一', '来源:', '周期文件', '趋势:', '无重要变化', '露点:', '0°C', '晴空万里:', '真', '原始:', 'ZUUU 180700Z 21002MPS 170V280 CAVOK 12/M00 Q1028 NOSIG', '下午3:00', '12.0°C', '1,028毫巴', '每小时7.20公里, 西南', '9.90公里', '晴空万里', '本地:', '15:00、2019年11月18日周一', '协调世界时:', '07:00、2019年11月18日周一', '来源:', 'USAF 每小时地面观测', '报告类型:', 'METAR 航空例行天气报告', '露点:', '0.0°C', '晴空万里:', '真', '下午4:00', '12°C', '1,027毫巴', '每小时3.60公里', '≥ 10.00公里', '晴空万里', '本地:', '16:00、2019年11月18日周一', '协调世界时:', '08:00、2019年11月18日周一', '来源:', '周期文件', '趋势:', '无重要变化', '露点:', '1°C', '晴空万里:', '真', '原始:', 'ZUUU 180800Z VRB01MPS CAVOK 12/01 Q1027 NOSIG', '下午4:00', '12.0°C', '1,027毫巴', '每小时3.60公里', '9.90公里', '晴空万里', '本地:', '16:00、2019年11月18日周一', '协调世界时:', '08:00、2019年11月18日周一', '来源:', 'USAF 每小时地面观测', '报告类型:', 'METAR 航空例行天气报告', '露点:', '1.0°C', '晴空万里:', '真', '下午5:00', '12°C', '1,027毫巴', '每小时7.20公里', '≥ 10.00公里', '晴空万里', '本地:', '17:00、2019年11月18日周一', '协调世界时:', '09:00、2019年11月18日周一', '来源:', '周期文件', '趋势:', '无重要变化', '露点:', '2°C', '晴空万里:', '真', '原始:', 'ZUUU 180900Z VRB02MPS CAVOK 12/02 Q1027 NOSIG', '下午5:00', '12.0°C', '1,027毫巴', '每小时7.20公里', '9.90公里', '晴空万里', '本地:', '17:00、2019年11月18日周一', '协调世界时:', '09:00、2019年11月18日周一', '来源:', 'USAF 每小时地面观测', '报告类型:', 'METAR 航空例行天气报告', '露点:', '2.0°C', '晴空万里:', '真', '下午6:00', '12°C', '1,027毫巴', '每小时7.20公里, 南', '≥ 10.00公里', '晴空万里', '本地:', '18:00、2019年11月18日周一', '协调世界时:', '10:00、2019年11月18日周一', '来源:', '周期文件', '趋势:', '无重要变化', '露点:', '2°C', '晴空万里:', '真', '原始:', 'ZUUU 181000Z 18002MPS 130V210 CAVOK 12/02 Q1027 NOSIG', '下午6:00', '12.0°C', '1,027毫巴', '每小时7.20公里, 南', '9.90公里', '晴空万里', '本地:', '18:00、2019年11月18日周一', '协调世界时:', '10:00、2019年11月18日周一', '来源:', 'USAF 每小时地面观测', '报告类型:', 'METAR 航空例行天气报告', '露点:', '2.0°C', '晴空万里:', '真', '下午7:00', '11°C', '1,027毫巴', '每小时3.60公里', '≥ 10.00公里', '晴空万里', '本地:', '19:00、2019年11月18日周一', '协调世界时:', '11:00、2019年11月18日周一', '来源:', '周期文件', '趋势:', '无重要变化', '露点:', '4°C', '晴空万里:', '真', '原始:', 'ZUUU 181100Z VRB01MPS CAVOK 11/04 Q1027 NOSIG', '下午7:00', '11.0°C', '1,027毫巴', '每小时3.60公里', '9.90公里', '晴空万里', '本地:', '19:00、2019年11月18日周一', '协调世界时:', '11:00、2019年11月18日周一', '来源:', 'USAF 每小时地面观测', '报告类型:', 'METAR 航空例行天气报告', '露点:', '4.0°C', '晴空万里:', '真', '下午8:00', '11°C', '1,028毫巴', '每小时3.60公里', '≥ 10.00公里', '晴空万里', '本地:', '20:00、2019年11月18日周一', '协调世界时:', '12:00、2019年11月18日周一', '来源:', '周期文件', '趋势:', '无重要变化', '露点:', '5°C', '晴空万里:', '真', '原始:', 'ZUUU 181200Z VRB01MPS CAVOK 11/05 Q1028 NOSIG', '下午8:00', '11.0°C', '1,028毫巴', '每小时3.60公里', '9.90公里', '晴空万里', '本地:', '20:00、2019年11月18日周一', '协调世界时:', '12:00、2019年11月18日周一', '来源:', 'USAF 每小时地面观测', '报告类型:', 'METAR 航空例行天气报告', '露点:', '5.0°C', '晴空万里:', '真', '下午9:00', '11°C', '1,029毫巴', '每小时3.60公里, 西南', '≥ 10.00公里', '晴空万里', '本地:', '21:00、2019年11月18日周一', '协调世界时:', '13:00、2019年11月18日周一', '来源:', '周期文件', '趋势:', '无重要变化', '露点:', '4°C', '晴空万里:', '真', '原始:', 'ZUUU 181300Z 22001MPS CAVOK 11/04 Q1029 NOSIG', '下午9:00', '11.0°C', '1,029毫巴', '每小时3.60公里, 西南', '9.90公里', '晴空万里', '本地:', '21:00、2019年11月18日周一', '协调世界时:', '13:00、2019年11月18日周一', '来源:', 'USAF 每小时地面观测', '报告类型:', 'METAR 航空例行天气报告', '露点:', '4.0°C', '晴空万里:', '真', '下午10:00', '10°C', '1,029毫巴', '每小时0公里', '10.00公里', '无重要云', '本地:', '22:00、2019年11月18日周一', '协调世界时:', '14:00、2019年11月18日周一', '来源:', '周期文件', '趋势:', '无重要变化', '露点:', '4°C', '天气:', 'Showers of Light Rain', '原始:', 'ZUUU 181400Z 00000MPS 9999 -SHRA NSC 10/04 Q1029 NOSIG', '下午10:00', '10.0°C', '1,029毫巴', '每小时0公里', '10.00公里', '未检测到云', '本地:', '22:00、2019年11月18日周一', '协调世界时:', '14:00、2019年11月18日周一', '来源:', 'USAF 每小时地面观测', '报告类型:', 'METAR 航空例行天气报告', '露点:', '4.0°C', '天气:', 'Showers of Light Rain', '下午11:00', '10°C', '1,029毫巴', '每小时0公里', '10.00公里', '部分多云 (1,524米)', '本地:', '23:00、2019年11月18日周一', '协调世界时:', '15:00、2019年11月18日周一', '来源:', '周期文件', '趋势:', '无重要变化', '露点:', '6°C', '天气:', 'Light Rain', '原始:', 'ZUUU 181500Z 00000MPS 9999 -RA SCT050 10/06 Q1029 NOSIG', '下午11:00', '10.0°C', '1,029毫巴', '每小时0公里', '10.00公里', '部分多云 (1,524米)', '本地:', '23:00、2019年11月18日周一', '协调世界时:', '15:00、2019年11月18日周一', '来源:', 'USAF 每小时地面观测', '报告类型:', 'METAR 航空例行天气报告', '露点:', '6.0°C', '天气:', 'Light Rain']