['Mist', 'BR、IWC10', 'Mist', 'BR、IWC10', 'Mist', 'BR、IWC10', 'Mist', 'BR、IWC10', 'Mist', 'BR、IWC10', 'Mist', 'BR、IWC10', 'Mist', 'BR、IWC10', 'Mist', 'BR、IWC10', 'Mist', 'BR、IWC10', 'Mist', 'BR、IWC10', 'Mist', 'BR、IWC10', 'Mist', 'BR、IWC10', 'Mist', 'BR、IWC10', 'Mist', 'BR、IWC10', 'Mist', 'BR、IWC10', 'Mist', 'BR、IWC10', 'Mist', 'BR、IWC10', 'Light Rain、Mist', '-RA、IWC61、BR、IWC10', 'Mist', 'BR、IWC10', 'Mist', 'BR、IWC10', 'Mist', 'BR、IWC10', 'Mist', 'BR、IWC10', 'Mist', 'BR、IWC10', 'Mist', 'BR、IWC10', '上午12:00', '16°C', '1,022毫巴', '每小时3.60公里, 西北', '4.00公里', '无重要云', '本地:', '00:00、2019年11月9日周六', '协调世界时:', '16:00、2019年11月8日周五', '来源:', '周期文件', '趋势:', '无重要变化', '露点:', '13°C', '天气:', 'Mist', '原始:', 'ZUUU 081600Z 33001MPS 4000 BR NSC 16/13 Q1022 NOSIG', '上午12:00', '16.0°C', '1,022毫巴', '每小时3.60公里, 西北', '4.00公里', '未检测到云', '本地:', '00:00、2019年11月9日周六', '协调世界时:', '16:00、2019年11月8日周五', '来源:', 'USAF 每小时地面观测', '报告类型:', 'METAR 航空例行天气报告', '露点:', '13.0°C', '天气:', 'Mist', '上午1:00', '15°C', '1,022毫巴', '每小时3.60公里', '4.50公里', '无重要云', '本地:', '01:00、2019年11月9日周六', '协调世界时:', '17:00、2019年11月8日周五', '来源:', '周期文件', '趋势:', '无重要变化', '露点:', '13°C', '天气:', 'Mist', '原始:', 'ZUUU 081700Z VRB01MPS 4500 BR NSC 15/13 Q1022 NOSIG', '上午1:00', '15.0°C', '1,022毫巴', '每小时3.60公里', '4.50公里', '未检测到云', '本地:', '01:00、2019年11月9日周六', '协调世界时:', '17:00、2019年11月8日周五', '来源:', 'USAF 每小时地面观测', '报告类型:', 'METAR 航空例行天气报告', '露点:', '13.0°C', '天气:', 'Mist', '上午2:00', '15°C', '1,021毫巴', '每小时0公里', '4.00公里', '无重要云', '本地:', '02:00、2019年11月9日周六', '协调世界时:', '18:00、2019年11月8日周五', '来源:', '周期文件', '趋势:', '无重要变化', '露点:', '13°C', '天气:', 'Mist', '原始:', 'ZUUU 081800Z 00000MPS 4000 BR NSC 15/13 Q1021 NOSIG', '上午2:00', '15.0°C', '1,021毫巴', '每小时0公里', '4.00公里', '未检测到云', '本地:', '02:00、2019年11月9日周六', '协调世界时:', '18:00、2019年11月8日周五', '来源:', 'USAF 每小时地面观测', '报告类型:', 'METAR 航空例行天气报告', '露点:', '13.0°C', '天气:', 'Mist', '上午3:00', '15°C', '1,021毫巴', '每小时0公里', '4.00公里', '无重要云', '本地:', '03:00、2019年11月9日周六', '协调世界时:', '19:00、2019年11月8日周五', '来源:', '周期文件', '趋势:', '无重要变化', '露点:', '14°C', '天气:', 'Mist', '原始:', 'ZUUU 081900Z 00000MPS 4000 BR NSC 15/14 Q1021 NOSIG', '上午3:00', '15.0°C', '1,021毫巴', '每小时0公里', '4.00公里', '未检测到云', '本地:', '03:00、2019年11月9日周六', '协调世界时:', '19:00、2019年11月8日周五', '来源:', 'USAF 每小时地面观测', '报告类型:', 'METAR 航空例行天气报告', '露点:', '14.0°C', '天气:', 'Mist', '上午4:00', '15°C', '1,020毫巴', '每小时3.60公里', '3.50公里', '无重要云', '本地:', '04:00、2019年11月9日周六', '协调世界时:', '20:00、2019年11月8日周五', '来源:', '周期文件', '趋势:', '无重要变化', '露点:', '13°C', '天气:', 'Mist', '原始:', 'ZUUU 082000Z VRB01MPS 3500 BR NSC 15/13 Q1020 NOSIG', '上午4:00', '15.0°C', '1,020毫巴', '每小时3.60公里', '3.50公里', '未检测到云', '本地:', '04:00、2019年11月9日周六', '协调世界时:', '20:00、2019年11月8日周五', '来源:', 'USAF 每小时地面观测', '报告类型:', 'METAR 航空例行天气报告', '露点:', '13.0°C', '天气:', 'Mist', '上午5:00', '15°C', '1,020毫巴', '每小时0公里', '3.20公里', '无重要云', '本地:', '05:00、2019年11月9日周六', '协调世界时:', '21:00、2019年11月8日周五', '来源:', '周期文件', '趋势:', '变化为', '露点:', '14°C', '天气:', 'Mist、Mist', '原始:', 'ZUUU 082100Z 00000MPS 3200 BR NSC 15/14 Q1020 BECMG TL2130 2700 BR', '上午5:00', '15.0°C', '1,020毫巴', '每小时0公里', '3.20公里', '未检测到云', '本地:', '05:00、2019年11月9日周六', '协调世界时:', '21:00、2019年11月8日周五', '来源:', 'USAF 每小时地面观测', '报告类型:', 'METAR 航空例行天气报告', '露点:', '14.0°C', '天气:', 'Mist', '上午6:00', '15°C', '1,020毫巴', '每小时0公里', '2.70公里', '部分多云 (1,219米)', '本地:', '06:00、2019年11月9日周六', '协调世界时:', '22:00、2019年11月8日周五', '来源:', '周期文件', '趋势:', '无重要变化', '露点:', '13°C', '天气:', 'Mist', '原始:', 'ZUUU 082200Z 00000MPS 2700 BR SCT040 15/13 Q1020 NOSIG', '上午6:00', '15.0°C', '1,020毫巴', '每小时0公里', '2.70公里', '部分多云 (1,219米)', '本地:', '06:00、2019年11月9日周六', '协调世界时:', '22:00、2019年11月8日周五', '来源:', 'USAF 每小时地面观测', '报告类型:', 'METAR 航空例行天气报告', '露点:', '13.0°C', '天气:', 'Mist', '上午7:00', '15°C', '1,021毫巴', '每小时3.60公里, 北', '2.70公里', '部分多云 (1,219米)', '本地:', '07:00、2019年11月9日周六', '协调世界时:', '23:00、2019年11月8日周五', '来源:', '周期文件', '趋势:', '无重要变化', '露点:', '13°C', '天气:', 'Mist', '原始:', 'ZUUU 082300Z 34001MPS 2700 BR SCT040 15/13 Q1021 NOSIG', '上午7:00', '15.0°C', '1,021毫巴', '每小时3.60公里, 北', '2.70公里', '部分多云 (1,219米)', '本地:', '07:00、2019年11月9日周六', '协调世界时:', '23:00、2019年11月8日周五', '来源:', 'USAF 每小时地面观测', '报告类型:', 'METAR 航空例行天气报告', '露点:', '13.0°C', '天气:', 'Mist', '上午8:00', '15°C', '1,021毫巴', '每小时3.60公里, 北', '2.70公里', '部分多云 (1,219米)', '本地:', '08:00、2019年11月9日周六', '协调世界时:', '00:00、2019年11月9日周六', '来源:', '周期文件', '趋势:', '变化为', '露点:', '13°C', '天气:', 'Mist', '原始:', 'ZUUU 090000Z 35001MPS 2700 BR SCT040 15/13 Q1021 BECMG 3000', '上午8:00', '15.0°C', '1,021毫巴', '每小时3.60公里, 北', '2.70公里', '部分多云 (1,219米)', '本地:', '08:00、2019年11月9日周六', '协调世界时:', '00:00、2019年11月9日周六', '来源:', 'USAF 每小时地面观测', '报告类型:', 'METAR 航空例行天气报告', '露点:', '13.0°C', '天气:', 'Mist', '上午9:00', '15°C', '1,022毫巴', '每小时3.60公里', '2.70公里', '部分多云 (1,219米)', '本地:', '09:00、2019年11月9日周六', '协调世界时:', '01:00、2019年11月9日周六', '来源:', '周期文件', '趋势:', '变化为', '露点:', '13°C', '天气:', 'Mist', '原始:', 'ZUUU 090100Z VRB01MPS 2700 BR SCT040 15/13 Q1022 BECMG 3000', '上午9:00', '15.0°C', '1,022毫巴', '每小时3.60公里', '2.70公里', '部分多云 (1,219米)', '本地:', '09:00、2019年11月9日周六', '协调世界时:', '01:00、2019年11月9日周六', '来源:', 'USAF 每小时地面观测', '报告类型:', 'METAR 航空例行天气报告', '露点:', '13.0°C', '天气:', 'Mist', '上午10:00', '16°C', '1,022毫巴', '每小时3.60公里', '2.70公里', '大部分晴天 (1,524米)', '本地:', '10:00、2019年11月9日周六', '协调世界时:', '02:00、2019年11月9日周六', '来源:', '周期文件', '趋势:', '变化为', '露点:', '13°C', '天气:', 'Mist', '原始:', 'ZUUU 090200Z VRB01MPS 2700 BR FEW050 16/13 Q1022 BECMG TL0300 3000', '上午10:00', '16.0°C', '1,022毫巴', '每小时3.60公里', '2.70公里', '大部分晴天 (1,524米)', '本地:', '10:00、2019年11月9日周六', '协调世界时:', '02:00、2019年11月9日周六', '来源:', 'USAF 每小时地面观测', '报告类型:', 'METAR 航空例行天气报告', '露点:', '13.0°C', '天气:', 'Mist', '上午11:00', '16°C', '1,022毫巴', '每小时0公里', '2.70公里', '大部分晴天 (1,524米)', '本地:', '11:00、2019年11月9日周六', '协调世界时:', '03:00、2019年11月9日周六', '来源:', '周期文件', '趋势:', '变化为', '露点:', '13°C', '天气:', 'Mist', '原始:', 'ZUUU 090300Z 00000MPS 2700 BR FEW050 16/13 Q1022 BECMG TL0330 3000', '上午11:00', '16.0°C', '1,022毫巴', '每小时0公里', '2.70公里', '大部分晴天 (1,524米)', '本地:', '11:00、2019年11月9日周六', '协调世界时:', '03:00、2019年11月9日周六', '来源:', 'USAF 每小时地面观测', '报告类型:', 'METAR 航空例行天气报告', '露点:', '13.0°C', '天气:', 'Mist', '下午12:00', '17°C', '1,021毫巴', '每小时3.60公里', '2.70公里', '部分多云 (610米)', '本地:', '12:00、2019年11月9日周六', '协调世界时:', '04:00、2019年11月9日周六', '来源:', '周期文件', '趋势:', '无重要变化', '露点:', '13°C', '其他云层:', '部分多云 (1,219米)', '天气:', 'Mist', '原始:', 'ZUUU 090400Z VRB01MPS 2700 BR SCT020 SCT040 17/13 Q1021 NOSIG', '下午12:00', '17.0°C', '1,021毫巴', '每小时3.60公里', '2.70公里', '部分多云 (610米)', '本地:', '12:00、2019年11月9日周六', '协调世界时:', '04:00、2019年11月9日周六', '来源:', 'USAF 每小时地面观测', '报告类型:', 'METAR 航空例行天气报告', '露点:', '13.0°C', '其他云层:', '部分多云 (1,219米)', '天气:', 'Mist', '下午1:00', '16°C', '1,020毫巴', '每小时3.60公里', '2.70公里', '大部分多云 (1,219米)', '本地:', '13:00、2019年11月9日周六', '协调世界时:', '05:00、2019年11月9日周六', '来源:', '周期文件', '趋势:', '变化为', '露点:', '13°C', '其他云层:', '部分多云 (610米)', '天气:', 'Mist', '原始:', 'ZUUU 090500Z VRB01MPS 2700 BR SCT020 BKN040 16/13 Q1020 BECMG TL0530 3000', '下午1:00', '16.0°C', '1,020毫巴', '每小时3.60公里', '2.70公里', '大部分多云 (1,219米)', '本地:', '13:00、2019年11月9日周六', '协调世界时:', '05:00、2019年11月9日周六', '来源:', 'USAF 每小时地面观测', '报告类型:', 'METAR 航空例行天气报告', '露点:', '13.0°C', '其他云层:', '部分多云 (610米)', '天气:', 'Mist', '下午2:00', '17°C', '1,019毫巴', '每小时3.60公里', '3.00公里', '大部分多云 (1,219米)', '本地:', '14:00、2019年11月9日周六', '协调世界时:', '06:00、2019年11月9日周六', '来源:', '周期文件', '趋势:', '无重要变化', '露点:', '13°C', '其他云层:', '大部分晴天 (610米)', '天气:', 'Mist', '原始:', 'ZUUU 090600Z VRB01MPS 3000 BR FEW020 BKN040 17/13 Q1019 NOSIG', '下午2:00', '17.0°C', '1,019毫巴', '每小时3.60公里', '3.00公里', '大部分多云 (1,219米)', '本地:', '14:00、2019年11月9日周六', '协调世界时:', '06:00、2019年11月9日周六', '来源:', 'USAF 每小时地面观测', '报告类型:', 'METAR 航空例行天气报告', '露点:', '13.0°C', '其他云层:', '大部分晴天 (610米)', '天气:', 'Mist', '下午3:00', '17°C', '1,019毫巴', '每小时7.20公里, 北', '3.00公里', '部分多云 (1,219米)', '本地:', '15:00、2019年11月9日周六', '协调世界时:', '07:00、2019年11月9日周六', '来源:', '周期文件', '趋势:', '无重要变化', '露点:', '13°C', '其他云层:', '大部分晴天 (610米)', '天气:', 'Mist', '原始:', 'ZUUU 090700Z 35002MPS 300V040 3000 BR FEW020 SCT040 17/13 Q1019 NOSIG', '下午3:00', '17.0°C', '1,019毫巴', '每小时7.20公里, 北', '3.00公里', '部分多云 (1,219米)', '本地:', '15:00、2019年11月9日周六', '协调世界时:', '07:00、2019年11月9日周六', '来源:', 'USAF 每小时地面观测', '报告类型:', 'METAR 航空例行天气报告', '露点:', '13.0°C', '其他云层:', '大部分晴天 (610米)', '天气:', 'Mist', '下午4:00', '17°C', '1,019毫巴', '每小时10.8公里, 北', '5.00公里', '部分多云 (1,219米)', '本地:', '16:00、2019年11月9日周六', '协调世界时:', '08:00、2019年11月9日周六', '来源:', '周期文件', '趋势:', '无重要变化', '露点:', '13°C', '其他云层:', '大部分晴天 (610米)', '天气:', 'Mist', '原始:', 'ZUUU 090800Z 01003MPS 320V030 5000 BR FEW020 SCT040 17/13 Q1019 NOSIG', '下午4:00', '17.0°C', '1,019毫巴', '每小时10.8公里, 北', '5.00公里', '部分多云 (1,219米)', '本地:', '16:00、2019年11月9日周六', '协调世界时:', '08:00、2019年11月9日周六', '来源:', 'USAF 每小时地面观测', '报告类型:', 'METAR 航空例行天气报告', '露点:', '13.0°C', '其他云层:', '大部分晴天 (610米)', '天气:', 'Mist', '下午5:00', '16°C', '1,020毫巴', '每小时14.4公里, 东北', '5.00公里', '部分多云 (1,219米)', '本地:', '17:00、2019年11月9日周六', '协调世界时:', '09:00、2019年11月9日周六', '来源:', '周期文件', '趋势:', '无重要变化', '露点:', '13°C', '其他云层:', '大部分晴天 (610米)', '天气:', 'Light Rain、Mist', '原始:', 'ZUUU 090900Z 03004MPS 360V060 5000 -RA BR FEW020 SCT040 16/13 Q1020 NOSIG', '下午5:00', '16.0°C', '1,020毫巴', '每小时14.4公里, 东北', '5.00公里', '部分多云 (1,219米)', '本地:', '17:00、2019年11月9日周六', '协调世界时:', '09:00、2019年11月9日周六', '来源:', 'USAF 每小时地面观测', '报告类型:', 'METAR 航空例行天气报告', '露点:', '13.0°C', '其他云层:', '大部分晴天 (610米)', '天气:', 'Mist、Light Rain', '下午6:00', '16°C', '1,022毫巴', '每小时0公里', '4.50公里', '部分多云 (1,219米)', '本地:', '18:00、2019年11月9日周六', '协调世界时:', '10:00、2019年11月9日周六', '来源:', '周期文件', '趋势:', '无重要变化', '露点:', '14°C', '天气:', 'Mist', '原始:', 'ZUUU 091000Z 00000MPS 4500 BR SCT040 16/14 Q1022 NOSIG', '下午6:00', '16.0°C', '1,022毫巴', '每小时0公里', '4.50公里', '部分多云 (1,219米)', '本地:', '18:00、2019年11月9日周六', '协调世界时:', '10:00、2019年11月9日周六', '来源:', 'USAF 每小时地面观测', '报告类型:', 'METAR 航空例行天气报告', '露点:', '14.0°C', '天气:', 'Mist', '下午7:00', '16°C', '1,022毫巴', '每小时0公里', '5.00公里', '部分多云 (1,219米)', '本地:', '19:00、2019年11月9日周六', '协调世界时:', '11:00、2019年11月9日周六', '来源:', '周期文件', '趋势:', '无重要变化', '露点:', '13°C', '天气:', 'Mist', '原始:', 'ZUUU 091100Z 00000MPS 5000 BR SCT040 16/13 Q1022 NOSIG', '下午7:00', '16.0°C', '1,022毫巴', '每小时0公里', '5.00公里', '部分多云 (1,219米)', '本地:', '19:00、2019年11月9日周六', '协调世界时:', '11:00、2019年11月9日周六', '来源:', 'USAF 每小时地面观测', '报告类型:', 'METAR 航空例行天气报告', '露点:', '13.0°C', '天气:', 'Mist', '下午8:00', '15°C', '1,024毫巴', '每小时0公里', '5.00公里', '部分多云 (1,524米)', '本地:', '20:00、2019年11月9日周六', '协调世界时:', '12:00、2019年11月9日周六', '来源:', '周期文件', '趋势:', '无重要变化', '露点:', '13°C', '天气:', 'Mist', '原始:', 'ZUUU 091200Z 00000MPS 5000 BR SCT050 15/13 Q1024 NOSIG', '下午8:00', '15.0°C', '1,024毫巴', '每小时0公里', '5.00公里', '部分多云 (1,524米)', '本地:', '20:00、2019年11月9日周六', '协调世界时:', '12:00、2019年11月9日周六', '来源:', 'USAF 每小时地面观测', '报告类型:', 'METAR 航空例行天气报告', '露点:', '13.0°C', '天气:', 'Mist', '下午9:00', '15°C', '1,025毫巴', '每小时0公里', '5.00公里', '部分多云 (1,524米)', '本地:', '21:00、2019年11月9日周六', '协调世界时:', '13:00、2019年11月9日周六', '来源:', '周期文件', '趋势:', '无重要变化', '露点:', '14°C', '天气:', 'Mist', '原始:', 'ZUUU 091300Z 00000MPS 5000 BR SCT050 15/14 Q1025 NOSIG', '下午9:00', '15.0°C', '1,025毫巴', '每小时0公里', '5.00公里', '部分多云 (1,524米)', '本地:', '21:00、2019年11月9日周六', '协调世界时:', '13:00、2019年11月9日周六', '来源:', 'USAF 每小时地面观测', '报告类型:', 'METAR 航空例行天气报告', '露点:', '14.0°C', '天气:', 'Mist', '下午10:00', '15°C', '1,026毫巴', '每小时0公里', '4.50公里', '部分多云 (1,524米)', '本地:', '22:00、2019年11月9日周六', '协调世界时:', '14:00、2019年11月9日周六', '来源:', '周期文件', '趋势:', '无重要变化', '露点:', '13°C', '天气:', 'Mist', '原始:', 'ZUUU 091400Z 00000MPS 4500 BR SCT050 15/13 Q1026 NOSIG', '下午10:00', '15.0°C', '1,026毫巴', '每小时0公里', '4.50公里', '部分多云 (1,524米)', '本地:', '22:00、2019年11月9日周六', '协调世界时:', '14:00、2019年11月9日周六', '来源:', 'USAF 每小时地面观测', '报告类型:', 'METAR 航空例行天气报告', '露点:', '13.0°C', '天气:', 'Mist', '下午11:00', '16°C', '1,026毫巴', '每小时0公里', '4.50公里', '部分多云 (1,524米)', '本地:', '23:00、2019年11月9日周六', '协调世界时:', '15:00、2019年11月9日周六', '来源:', '周期文件', '趋势:', '无重要变化', '露点:', '14°C', '天气:', 'Mist', '原始:', 'ZUUU 091500Z 00000MPS 4500 BR SCT050 16/14 Q1026 NOSIG', '下午11:00', '16.0°C', '1,026毫巴', '每小时0公里', '4.50公里', '部分多云 (1,524米)', '本地:', '23:00、2019年11月9日周六', '协调世界时:', '15:00、2019年11月9日周六', '来源:', 'USAF 每小时地面观测', '报告类型:', 'METAR 航空例行天气报告', '露点:', '14.0°C', '天气:', 'Mist']