['Showers of Light Rain', '-SHRA', 'Showers of Light Rain', '-SHRA', '上午12:00', '21°C', '1,011毫巴', '每小时7.20公里, 西', '10.00公里', '大部分晴天 (1,524米)', '本地:', '00:00、2019年5月16日周四', '协调世界时:', '16:00、2019年5月15日周三', '来源:', '周期文件', '趋势:', '无重要变化', '露点:', '18°C', '原始:', 'ZUUU 151600Z 25002MPS 220V300 9999 FEW050 21/18 Q1011 NOSIG', '上午12:00', '21.0°C', '1,011毫巴', '每小时7.20公里, 西', '10.00公里', '大部分晴天 (1,524米)', '本地:', '00:00、2019年5月16日周四', '协调世界时:', '16:00、2019年5月15日周三', '来源:', 'USAF 每小时地面观测', '报告类型:', 'METAR 航空例行天气报告', '露点:', '18.0°C', '上午1:00', '21°C', '1,010毫巴', '每小时7.20公里, 西南', '10.00公里', '部分多云 (1,524米)', '本地:', '01:00、2019年5月16日周四', '协调世界时:', '17:00、2019年5月15日周三', '来源:', '周期文件', '趋势:', '无重要变化', '露点:', '18°C', '原始:', 'ZUUU 151700Z 23002MPS 9999 SCT050 21/18 Q1010 NOSIG', '上午1:00', '21.0°C', '1,010毫巴', '每小时7.20公里, 西南', '10.00公里', '部分多云 (1,524米)', '本地:', '01:00、2019年5月16日周四', '协调世界时:', '17:00、2019年5月15日周三', '来源:', 'USAF 每小时地面观测', '报告类型:', 'METAR 航空例行天气报告', '露点:', '18.0°C', '上午2:00', '21°C', '1,009毫巴', '每小时7.20公里, 西南', '10.00公里', '部分多云 (1,524米)', '本地:', '02:00、2019年5月16日周四', '协调世界时:', '18:00、2019年5月15日周三', '来源:', '周期文件', '趋势:', '无重要变化', '露点:', '18°C', '原始:', 'ZUUU 151800Z 23002MPS 200V280 9999 SCT050 21/18 Q1009 NOSIG', '上午2:00', '21.0°C', '1,009毫巴', '每小时7.20公里, 西南', '10.00公里', '部分多云 (1,524米)', '本地:', '02:00、2019年5月16日周四', '协调世界时:', '18:00、2019年5月15日周三', '来源:', 'USAF 每小时地面观测', '报告类型:', 'METAR 航空例行天气报告', '露点:', '18.0°C', '上午3:00', '20°C', '1,009毫巴', '每小时7.20公里, 西南', '10.00公里', '部分多云 (1,524米)', '本地:', '03:00、2019年5月16日周四', '协调世界时:', '19:00、2019年5月15日周三', '来源:', '周期文件', '趋势:', '无重要变化', '露点:', '18°C', '原始:', 'ZUUU 151900Z 23002MPS 9999 SCT050 20/18 Q1009 NOSIG', '上午3:00', '20.0°C', '1,009毫巴', '每小时7.20公里, 西南', '10.00公里', '部分多云 (1,524米)', '本地:', '03:00、2019年5月16日周四', '协调世界时:', '19:00、2019年5月15日周三', '来源:', 'USAF 每小时地面观测', '报告类型:', 'METAR 航空例行天气报告', '露点:', '18.0°C', '上午4:00', '20°C', '1,008毫巴', '每小时7.20公里, 西南', '10.00公里', '部分多云 (1,524米)', '本地:', '04:00、2019年5月16日周四', '协调世界时:', '20:00、2019年5月15日周三', '来源:', '周期文件', '趋势:', '无重要变化', '露点:', '18°C', '原始:', 'ZUUU 152000Z 22002MPS 9999 SCT050 20/18 Q1008 NOSIG', '上午4:00', '20.0°C', '1,008毫巴', '每小时7.20公里, 西南', '10.00公里', '部分多云 (1,524米)', '本地:', '04:00、2019年5月16日周四', '协调世界时:', '20:00、2019年5月15日周三', '来源:', 'USAF 每小时地面观测', '报告类型:', 'METAR 航空例行天气报告', '露点:', '18.0°C', '上午5:00', '20°C', '1,007毫巴', '每小时7.20公里, 南', '10.00公里', '部分多云 (1,524米)', '本地:', '05:00、2019年5月16日周四', '协调世界时:', '21:00、2019年5月15日周三', '来源:', '周期文件', '趋势:', '无重要变化', '露点:', '18°C', '原始:', 'ZUUU 152100Z 18002MPS 150V210 9999 SCT050 20/18 Q1007 NOSIG', '上午5:00', '20.0°C', '1,007毫巴', '每小时7.20公里, 南', '10.00公里', '部分多云 (1,524米)', '本地:', '05:00、2019年5月16日周四', '协调世界时:', '21:00、2019年5月15日周三', '来源:', 'USAF 每小时地面观测', '报告类型:', 'METAR 航空例行天气报告', '露点:', '18.0°C', '上午6:00', '20°C', '1,007毫巴', '每小时3.60公里, 南', '10.00公里', '部分多云 (1,524米)', '本地:', '06:00、2019年5月16日周四', '协调世界时:', '22:00、2019年5月15日周三', '来源:', '周期文件', '趋势:', '无重要变化', '露点:', '18°C', '原始:', 'ZUUU 152200Z 19001MPS 9999 SCT050 20/18 Q1007 NOSIG', '上午6:00', '20.0°C', '1,007毫巴', '每小时3.60公里, 南', '10.00公里', '部分多云 (1,524米)', '本地:', '06:00、2019年5月16日周四', '协调世界时:', '22:00、2019年5月15日周三', '来源:', 'USAF 每小时地面观测', '报告类型:', 'METAR 航空例行天气报告', '露点:', '18.0°C', '上午7:00', '20°C', '1,007毫巴', '每小时3.60公里', '10.00公里', '部分多云 (1,524米)', '本地:', '07:00、2019年5月16日周四', '协调世界时:', '23:00、2019年5月15日周三', '来源:', '周期文件', '趋势:', '无重要变化', '露点:', '18°C', '原始:', 'ZUUU 152300Z VRB01MPS 9999 SCT050 20/18 Q1007 NOSIG', '上午8:00', '20°C', '1,008毫巴', '每小时0公里', '10.00公里', '部分多云 (1,524米)', '本地:', '08:00、2019年5月16日周四', '协调世界时:', '00:00、2019年5月16日周四', '来源:', '周期文件', '趋势:', '无重要变化', '露点:', '18°C', '原始:', 'ZUUU 160000Z 00000MPS 9999 SCT050 20/18 Q1008 NOSIG', '上午9:00', '21°C', '1,008毫巴', '每小时3.60公里, 西南', '10.00公里', '部分多云 (1,524米)', '本地:', '09:00、2019年5月16日周四', '协调世界时:', '01:00、2019年5月16日周四', '来源:', '周期文件', '趋势:', '无重要变化', '露点:', '17°C', '原始:', 'ZUUU 160100Z 21001MPS 9999 SCT050 21/17 Q1008 NOSIG', '上午10:00', '22°C', '1,008毫巴', '每小时0公里', '10.00公里', '部分多云 (1,524米)', '本地:', '10:00、2019年5月16日周四', '协调世界时:', '02:00、2019年5月16日周四', '来源:', '周期文件', '趋势:', '无重要变化', '露点:', '18°C', '原始:', 'ZUUU 160200Z 00000MPS 9999 SCT050 22/18 Q1008 NOSIG', '上午11:00', '24°C', '1,007毫巴', '每小时3.60公里', '10.00公里', '部分多云 (1,524米)', '本地:', '11:00、2019年5月16日周四', '协调世界时:', '03:00、2019年5月16日周四', '来源:', '周期文件', '趋势:', '无重要变化', '露点:', '17°C', '原始:', 'ZUUU 160300Z VRB01MPS 9999 SCT050 24/17 Q1007 NOSIG', '下午12:00', '26°C', '1,007毫巴', '每小时3.60公里', '≥ 10.00公里', '晴空万里', '本地:', '12:00、2019年5月16日周四', '协调世界时:', '04:00、2019年5月16日周四', '来源:', '周期文件', '趋势:', '无重要变化', '露点:', '16°C', '晴空万里:', '真', '原始:', 'ZUUU 160400Z VRB01MPS CAVOK 26/16 Q1007 NOSIG', '下午1:00', '28°C', '1,006毫巴', '每小时3.60公里', '≥ 10.00公里', '晴空万里', '本地:', '13:00、2019年5月16日周四', '协调世界时:', '05:00、2019年5月16日周四', '来源:', '周期文件', '趋势:', '无重要变化', '露点:', '17°C', '晴空万里:', '真', '原始:', 'ZUUU 160500Z VRB01MPS CAVOK 28/17 Q1006 NOSIG', '下午2:00', '28°C', '1,005毫巴', '每小时3.60公里', '10.00公里', '大部分晴天 (1,219米)', '本地:', '14:00、2019年5月16日周四', '协调世界时:', '06:00、2019年5月16日周四', '来源:', '周期文件', '趋势:', '无重要变化', '露点:', '16°C', '原始:', 'ZUUU 160600Z VRB01MPS 9999 FEW040 28/16 Q1005 NOSIG', '下午3:00', '29°C', '1,004毫巴', '每小时3.60公里', '10.00公里', '部分多云 (1,006米)', '本地:', '15:00、2019年5月16日周四', '协调世界时:', '07:00、2019年5月16日周四', '来源:', '周期文件', '趋势:', '无重要变化', '露点:', '15°C', '原始:', 'ZUUU 160700Z VRB01MPS 9999 SCT033 29/15 Q1004 NOSIG', '下午4:00', '28°C', '1,004毫巴', '每小时7.20公里, 北', '10.00公里', '部分多云 (914米)', '本地:', '16:00、2019年5月16日周四', '协调世界时:', '08:00、2019年5月16日周四', '来源:', '周期文件', '趋势:', '无重要变化', '露点:', '15°C', '原始:', 'ZUUU 160800Z 35002MPS 300V030 9999 SCT030 28/15 Q1004 NOSIG', '下午5:00', '28°C', '1,004毫巴', '每小时3.60公里', '10.00公里', '大部分多云 (914米)', '本地:', '17:00、2019年5月16日周四', '协调世界时:', '09:00、2019年5月16日周四', '来源:', '周期文件', '趋势:', '无重要变化', '露点:', '14°C', '原始:', 'ZUUU 160900Z VRB01MPS 9999 BKN030 28/14 Q1004 NOSIG', '下午6:00', '29°C', '1,004毫巴', '每小时0公里', '10.00公里', '大部分晴天 (1,219米)', '本地:', '18:00、2019年5月16日周四', '协调世界时:', '10:00、2019年5月16日周四', '来源:', '周期文件', '趋势:', '无重要变化', '露点:', '13°C', '原始:', 'ZUUU 161000Z 00000MPS 9999 FEW040 29/13 Q1004 NOSIG', '下午7:00', '28°C', '1,005毫巴', '每小时0公里', '10.00公里', '部分多云 (1,219米)', '本地:', '19:00、2019年5月16日周四', '协调世界时:', '11:00、2019年5月16日周四', '来源:', '周期文件', '趋势:', '无重要变化', '露点:', '15°C', '其他云层:', '大部分晴天 (914米)', '原始:', 'ZUUU 161100Z 00000MPS 9999 FEW030 SCT040 28/15 Q1005 NOSIG', '下午8:00', '28°C', '1,005毫巴', '每小时3.60公里', '10.00公里', '部分多云 (1,219米)', '本地:', '20:00、2019年5月16日周四', '协调世界时:', '12:00、2019年5月16日周四', '来源:', '周期文件', '趋势:', '无重要变化', '露点:', '17°C', '其他云层:', '大部分晴天 (914米)', '原始:', 'ZUUU 161200Z VRB01MPS 9999 FEW030 SCT040 28/17 Q1005 NOSIG', '下午9:00', '25°C', '1,006毫巴', '每小时3.60公里', '10.00公里', '部分多云 (1,219米)', '本地:', '21:00、2019年5月16日周四', '协调世界时:', '13:00、2019年5月16日周四', '来源:', '周期文件', '趋势:', '无重要变化', '露点:', '19°C', '其他云层:', '大部分晴天 (914米)', '天气:', 'Showers of Light Rain', '原始:', 'ZUUU 161300Z VRB01MPS 9999 -SHRA FEW030 SCT040 25/19 Q1006 NOSIG', '下午10:00', '25°C', '1,007毫巴', '每小时0公里', '10.00公里', '部分多云 (1,219米)', '本地:', '22:00、2019年5月16日周四', '协调世界时:', '14:00、2019年5月16日周四', '来源:', '周期文件', '趋势:', '无重要变化', '露点:', '18°C', '原始:', 'ZUUU 161400Z 00000MPS 9999 SCT040 25/18 Q1007 NOSIG', '下午11:00', '24°C', '1,008毫巴', '每小时3.60公里', '10.00公里', '部分多云 (1,219米)', '本地:', '23:00、2019年5月16日周四', '协调世界时:', '15:00、2019年5月16日周四', '来源:', '周期文件', '趋势:', '无重要变化', '露点:', '18°C', '其他云层:', '大部分晴天 (914米)', '天气:', 'Showers of Light Rain', '原始:', 'ZUUU 161500Z VRB01MPS 9999 -SHRA FEW030TCU SCT040 24/18 Q1008 NOSIG']