['Showers of Light Rain、Mist', '-SHRA、BR、IWC10', 'Showers of Light Rain、Mist', '-SHRA、BR、IWC10', 'Showers of Light Rain、Mist', '-SHRA、BR、IWC10', 'Showers of Light Rain、Mist', '-SHRA、IWC80、BR、IWC10', 'Showers of Light Rain、Mist', '-SHRA、IWC80、BR、IWC10', 'Showers of Light Rain、Mist', '-SHRA、IWC80、BR、IWC10', 'Showers of Light Rain、Mist', '-SHRA、IWC80、BR、IWC10', 'Showers of Light Rain、Mist', '-SHRA、IWC80、BR、IWC10', 'Showers of Light Rain、Mist', '-SHRA、IWC80、BR、IWC10', 'Showers of Light Rain、Mist', '-SHRA、IWC80、BR、IWC10', 'Showers of Light Rain、Mist', '-SHRA、IWC80、BR、IWC10', 'Mist', 'BR、IWC10', 'Mist', 'BR、IWC10', 'Mist', 'BR、IWC10', 'Mist', 'BR、IWC10', 'Haze', 'HZ、IWC05', '上午12:00', '23°C', '1,011毫巴', '每小时3.60公里', '3.50公里', '大部分晴天 (1,006米)', '本地:', '00:00、2019年10月1日周二', '协调世界时:', '16:00、2019年9月30日周一', '来源:', '周期文件', '趋势:', '变化为', '露点:', '20°C', '天气:', 'Mist、Showers of Light Rain、Mist', '原始:', 'ZUUU 301600Z VRB01MPS 3500 BR FEW033TCU FEW033 23/20 Q1011 BECMG TL1720 2700 -SHRA BR', '上午12:00', '23.0°C', '1,011毫巴', '每小时3.60公里', '3.50公里', '大部分晴天 (1,006米)', '本地:', '00:00、2019年10月1日周二', '协调世界时:', '16:00、2019年9月30日周一', '来源:', 'USAF 每小时地面观测', '报告类型:', 'METAR 航空例行天气报告', '露点:', '20.0°C', '天气:', 'Mist', '上午1:00', '22°C', '1,011毫巴', '每小时0公里', '3.50公里', '大部分晴天 (1,006米)', '本地:', '01:00、2019年10月1日周二', '协调世界时:', '17:00、2019年9月30日周一', '来源:', '周期文件', '趋势:', '变化为', '露点:', '20°C', '天气:', 'Mist、Showers of Light Rain、Mist', '原始:', 'ZUUU 301700Z 00000MPS 3500 BR FEW033TCU FEW033 22/20 Q1011 BECMG TL1850 2700 -SHRA BR', '上午1:00', '22.0°C', '1,011毫巴', '每小时0公里', '3.50公里', '大部分晴天 (1,006米)', '本地:', '01:00、2019年10月1日周二', '协调世界时:', '17:00、2019年9月30日周一', '来源:', 'USAF 每小时地面观测', '报告类型:', 'METAR 航空例行天气报告', '露点:', '20.0°C', '天气:', 'Mist', '上午2:00', '22°C', '1,010毫巴', '每小时0公里', '3.50公里', '大部分晴天 (1,006米)', '本地:', '02:00、2019年10月1日周二', '协调世界时:', '18:00、2019年9月30日周一', '来源:', '周期文件', '趋势:', '变化为', '露点:', '20°C', '天气:', 'Mist、Showers of Light Rain、Mist', '原始:', 'ZUUU 301800Z 00000MPS 3500 BR FEW033TCU FEW033 22/20 Q1010 BECMG TL1900 2700 -SHRA BR', '上午2:00', '22.0°C', '1,010毫巴', '每小时0公里', '3.50公里', '大部分晴天 (1,006米)', '本地:', '02:00、2019年10月1日周二', '协调世界时:', '18:00、2019年9月30日周一', '来源:', 'USAF 每小时地面观测', '报告类型:', 'METAR 航空例行天气报告', '露点:', '20.0°C', '天气:', 'Mist', '上午3:00', '22°C', '1,010毫巴', '每小时0公里', '3.50公里', '大部分晴天 (1,006米)', '本地:', '03:00、2019年10月1日周二', '协调世界时:', '19:00、2019年9月30日周一', '来源:', '周期文件', '趋势:', '变化为', '露点:', '20°C', '天气:', 'Showers of Light Rain、Mist、Showers of Light Rain', '原始:', 'ZUUU 301900Z 00000MPS 3500 -SHRA BR FEW033TCU FEW033 22/20 Q1010 BECMG TL2040 2700 -SHRA BR', '上午3:00', '22.0°C', '1,010毫巴', '每小时0公里', '3.50公里', '大部分晴天 (1,006米)', '本地:', '03:00、2019年10月1日周二', '协调世界时:', '19:00、2019年9月30日周一', '来源:', 'USAF 每小时地面观测', '报告类型:', 'METAR 航空例行天气报告', '露点:', '20.0°C', '天气:', 'Mist、Showers of Light Rain', '上午4:00', '22°C', '1,009毫巴', '每小时0公里', '2.70公里', '大部分晴天 (914米)', '本地:', '04:00、2019年10月1日周二', '协调世界时:', '20:00、2019年9月30日周一', '来源:', '周期文件', '趋势:', '无重要变化', '露点:', '20°C', '天气:', 'Showers of Light Rain、Mist', '原始:', 'ZUUU 302000Z 00000MPS 2700 -SHRA BR FEW030TCU FEW030 22/20 Q1009 NOSIG', '上午4:00', '22.0°C', '1,009毫巴', '每小时0公里', '2.70公里', '大部分晴天 (914米)', '本地:', '04:00、2019年10月1日周二', '协调世界时:', '20:00、2019年9月30日周一', '来源:', 'USAF 每小时地面观测', '报告类型:', 'METAR 航空例行天气报告', '露点:', '20.0°C', '天气:', 'Mist、Showers of Light Rain', '上午5:00', '21°C', '1,009毫巴', '每小时0公里', '2.70公里', '大部分晴天 (914米)', '本地:', '05:00、2019年10月1日周二', '协调世界时:', '21:00、2019年9月30日周一', '来源:', '周期文件', '趋势:', '无重要变化', '露点:', '20°C', '天气:', 'Showers of Light Rain、Mist', '原始:', 'ZUUU 302100Z 00000MPS 2700 -SHRA BR FEW030TCU FEW030 21/20 Q1009 NOSIG', '上午5:00', '21.0°C', '1,009毫巴', '每小时0公里', '2.70公里', '大部分晴天 (914米)', '本地:', '05:00、2019年10月1日周二', '协调世界时:', '21:00、2019年9月30日周一', '来源:', 'USAF 每小时地面观测', '报告类型:', 'METAR 航空例行天气报告', '露点:', '20.0°C', '天气:', 'Mist、Showers of Light Rain', '上午6:00', '21°C', '1,009毫巴', '每小时0公里', '2.70公里', '大部分晴天 (914米)', '本地:', '06:00、2019年10月1日周二', '协调世界时:', '22:00、2019年9月30日周一', '来源:', '周期文件', '趋势:', '变化为', '露点:', '20°C', '天气:', 'Showers of Light Rain、Mist', '原始:', 'ZUUU 302200Z 00000MPS 2700 -SHRA BR FEW030TCU FEW030 21/20 Q1009 BECMG TL2340 3000', '上午6:00', '21.0°C', '1,009毫巴', '每小时0公里', '2.70公里', '大部分晴天 (914米)', '本地:', '06:00、2019年10月1日周二', '协调世界时:', '22:00、2019年9月30日周一', '来源:', 'USAF 每小时地面观测', '报告类型:', 'METAR 航空例行天气报告', '露点:', '20.0°C', '天气:', 'Mist、Showers of Light Rain', '上午7:00', '21°C', '1,010毫巴', '每小时0公里', '1.80公里', '大部分晴天 (792米)', '本地:', '07:00、2019年10月1日周二', '协调世界时:', '23:00、2019年9月30日周一', '来源:', '周期文件', '趋势:', '变化为', '露点:', '20°C', '天气:', 'Showers of Light Rain、Mist', '原始:', 'ZUUU 302300Z 00000MPS 1800 -SHRA BR FEW026TCU FEW026 21/20 Q1010 BECMG TL0040 3000', '上午7:00', '21.0°C', '1,010毫巴', '每小时0公里', '1.80公里', '大部分晴天 (792米)', '本地:', '07:00、2019年10月1日周二', '协调世界时:', '23:00、2019年9月30日周一', '来源:', 'USAF 每小时地面观测', '报告类型:', 'METAR 航空例行天气报告', '露点:', '20.0°C', '天气:', 'Mist、Showers of Light Rain', '上午8:00', '21°C', '1,010毫巴', '每小时3.60公里, 西北', '1.80公里', '部分多云 (792米)', '本地:', '08:00、2019年10月1日周二', '协调世界时:', '00:00、2019年10月1日周二', '来源:', '周期文件', '趋势:', '变化为', '露点:', '20°C', '其他云层:', '大部分晴天 (792米)', '天气:', 'Showers of Light Rain、Mist', '原始:', 'ZUUU 010000Z 32001MPS 1800 -SHRA BR FEW026TCU SCT026 21/20 Q1010 BECMG TL0140 3000', '上午8:00', '21.0°C', '1,010毫巴', '每小时3.60公里, 西北', '1.80公里', '部分多云 (792米)', '本地:', '08:00、2019年10月1日周二', '协调世界时:', '00:00、2019年10月1日周二', '来源:', 'USAF 每小时地面观测', '报告类型:', 'METAR 航空例行天气报告', '露点:', '20.0°C', '其他云层:', '大部分晴天 (792米)', '天气:', 'Mist、Showers of Light Rain', '上午9:00', '21°C', '1,011毫巴', '每小时3.60公里, 西北', '1.80公里', '部分多云 (1,219米)', '本地:', '09:00、2019年10月1日周二', '协调世界时:', '01:00、2019年10月1日周二', '来源:', '周期文件', '趋势:', '变化为', '露点:', '20°C', '天气:', 'Showers of Light Rain、Mist', '原始:', 'ZUUU 010100Z 30001MPS 1800 -SHRA BR SCT040 21/20 Q1011 BECMG 3000', '上午9:00', '21.0°C', '1,011毫巴', '每小时3.60公里, 西北', '1.80公里', '部分多云 (1,219米)', '本地:', '09:00、2019年10月1日周二', '协调世界时:', '01:00、2019年10月1日周二', '来源:', 'USAF 每小时地面观测', '报告类型:', 'METAR 航空例行天气报告', '露点:', '20.0°C', '天气:', 'Mist、Showers of Light Rain', '上午10:00', '22°C', '1,011毫巴', '每小时0公里', '1.80公里', '部分多云 (1,219米)', '本地:', '10:00、2019年10月1日周二', '协调世界时:', '02:00、2019年10月1日周二', '来源:', '周期文件', '趋势:', '无重要变化', '露点:', '20°C', '天气:', 'Showers of Light Rain、Mist', '原始:', 'ZUUU 010200Z 00000MPS 1800 R02R/1200N -SHRA BR SCT040 22/20 Q1011 NOSIG', '上午10:00', '22.0°C', '1,011毫巴', '每小时0公里', '1.80公里', '部分多云 (1,219米)', '本地:', '10:00、2019年10月1日周二', '协调世界时:', '02:00、2019年10月1日周二', '来源:', 'USAF 每小时地面观测', '报告类型:', 'METAR 航空例行天气报告', '露点:', '20.0°C', '天气:', 'Mist、Showers of Light Rain', '上午11:00', '23°C', '1,011毫巴', '每小时7.20公里, 北', '2.00公里', '部分多云 (1,219米)', '本地:', '11:00、2019年10月1日周二', '协调世界时:', '03:00、2019年10月1日周二', '来源:', '周期文件', '趋势:', '变化为', '露点:', '20°C', '天气:', 'Mist', '原始:', 'ZUUU 010300Z 01002MPS 330V080 2000 BR SCT040 23/20 Q1011 BECMG TL0430 3000', '上午11:00', '23.0°C', '1,011毫巴', '每小时7.20公里, 北', '2.00公里', '部分多云 (1,219米)', '本地:', '11:00、2019年10月1日周二', '协调世界时:', '03:00、2019年10月1日周二', '来源:', 'USAF 每小时地面观测', '报告类型:', 'METAR 航空例行天气报告', '露点:', '20.0°C', '天气:', 'Mist', '下午12:00', '24°C', '1,011毫巴', '每小时7.20公里, 东北', '2.50公里', '部分多云 (1,219米)', '本地:', '12:00、2019年10月1日周二', '协调世界时:', '04:00、2019年10月1日周二', '来源:', '周期文件', '趋势:', '变化为', '露点:', '20°C', '天气:', 'Mist', '原始:', 'ZUUU 010400Z 03002MPS 350V070 2500 BR SCT040 24/20 Q1011 BECMG TL0430 3000', '下午12:00', '24.0°C', '1,011毫巴', '每小时7.20公里, 东北', '2.50公里', '部分多云 (1,219米)', '本地:', '12:00、2019年10月1日周二', '协调世界时:', '04:00、2019年10月1日周二', '来源:', 'USAF 每小时地面观测', '报告类型:', 'METAR 航空例行天气报告', '露点:', '20.0°C', '天气:', 'Mist', '下午1:00', '25°C', '1,011毫巴', '每小时14.4公里, 东北', '3.00公里', '部分多云 (1,219米)', '本地:', '13:00、2019年10月1日周二', '协调世界时:', '05:00、2019年10月1日周二', '来源:', '周期文件', '趋势:', '无重要变化', '露点:', '20°C', '其他云层:', '大部分晴天 (396米)', '天气:', 'Mist', '原始:', 'ZUUU 010500Z 03004MPS 350V050 3000 BR FEW013 SCT040 25/20 Q1011 NOSIG', '下午1:00', '25.0°C', '1,011毫巴', '每小时14.4公里, 东北', '3.00公里', '部分多云 (1,219米)', '本地:', '13:00、2019年10月1日周二', '协调世界时:', '05:00、2019年10月1日周二', '来源:', 'USAF 每小时地面观测', '报告类型:', 'METAR 航空例行天气报告', '露点:', '20.0°C', '其他云层:', '大部分晴天 (396米)', '天气:', 'Mist', '下午2:00', '25°C', '1,010毫巴', '每小时14.4公里, 东北', '3.00公里', '部分多云 (1,219米)', '本地:', '14:00、2019年10月1日周二', '协调世界时:', '06:00、2019年10月1日周二', '来源:', '周期文件', '趋势:', '无重要变化', '露点:', '20°C', '其他云层:', '大部分晴天 (396米)', '天气:', 'Mist', '原始:', 'ZUUU 010600Z 03004MPS 360V080 3000 BR FEW013 SCT040 25/20 Q1010 NOSIG', '下午2:00', '25.0°C', '1,010毫巴', '每小时14.4公里, 东北', '3.00公里', '部分多云 (1,219米)', '本地:', '14:00、2019年10月1日周二', '协调世界时:', '06:00、2019年10月1日周二', '来源:', 'USAF 每小时地面观测', '报告类型:', 'METAR 航空例行天气报告', '露点:', '20.0°C', '其他云层:', '大部分晴天 (396米)', '天气:', 'Mist', '下午3:00', '25°C', '1,010毫巴', '每小时18.0公里, 东北', '3.00公里', '部分多云 (1,219米)', '本地:', '15:00、2019年10月1日周二', '协调世界时:', '07:00、2019年10月1日周二', '来源:', '周期文件', '趋势:', '无重要变化', '露点:', '19°C', '其他云层:', '大部分晴天 (396米)', '天气:', 'Haze', '原始:', 'ZUUU 010700Z 04005MPS 3000 HZ FEW013 SCT040 25/19 Q1010 NOSIG', '下午3:00', '25.0°C', '1,010毫巴', '每小时18.0公里, 东北', '3.00公里', '部分多云 (1,219米)', '本地:', '15:00、2019年10月1日周二', '协调世界时:', '07:00、2019年10月1日周二', '来源:', 'USAF 每小时地面观测', '报告类型:', 'METAR 航空例行天气报告', '露点:', '19.0°C', '其他云层:', '大部分晴天 (396米)', '天气:', 'Haze', '下午4:00', '25°C', '1,010毫巴', '每小时7.20公里, 北', '6.00公里', '部分多云 (1,219米)', '本地:', '16:00、2019年10月1日周二', '协调世界时:', '08:00、2019年10月1日周二', '来源:', '周期文件', '趋势:', '无重要变化', '露点:', '19°C', '原始:', 'ZUUU 010800Z 36002MPS 330V030 6000 SCT040 25/19 Q1010 NOSIG', '下午4:00', '25.0°C', '1,010毫巴', '每小时7.20公里, 北', '6.00公里', '部分多云 (1,219米)', '本地:', '16:00、2019年10月1日周二', '协调世界时:', '08:00、2019年10月1日周二', '来源:', 'USAF 每小时地面观测', '报告类型:', 'METAR 航空例行天气报告', '露点:', '19.0°C', '下午5:00', '25°C', '1,010毫巴', '每小时10.8公里, 北', '7.00公里', '部分多云 (1,219米)', '本地:', '17:00、2019年10月1日周二', '协调世界时:', '09:00、2019年10月1日周二', '来源:', '周期文件', '趋势:', '无重要变化', '露点:', '19°C', '原始:', 'ZUUU 010900Z 01003MPS 330V040 7000 SCT040 25/19 Q1010 NOSIG', '下午5:00', '25.0°C', '1,010毫巴', '每小时10.8公里, 北', '7.00公里', '部分多云 (1,219米)', '本地:', '17:00、2019年10月1日周二', '协调世界时:', '09:00、2019年10月1日周二', '来源:', 'USAF 每小时地面观测', '报告类型:', 'METAR 航空例行天气报告', '露点:', '19.0°C', '下午6:00', '24°C', '1,011毫巴', '每小时7.20公里, 北', '10.00公里', '部分多云 (1,524米)', '本地:', '18:00、2019年10月1日周二', '协调世界时:', '10:00、2019年10月1日周二', '来源:', '周期文件', '趋势:', '无重要变化', '露点:', '19°C', '原始:', 'ZUUU 011000Z 01002MPS 340V040 9999 SCT050 24/19 Q1011 NOSIG', '下午6:00', '24.0°C', '1,011毫巴', '每小时7.20公里, 北', '10.00公里', '部分多云 (1,524米)', '本地:', '18:00、2019年10月1日周二', '协调世界时:', '10:00、2019年10月1日周二', '来源:', 'USAF 每小时地面观测', '报告类型:', 'METAR 航空例行天气报告', '露点:', '19.0°C', '下午7:00', '24°C', '1,011毫巴', '每小时14.4公里, 东北', '10.00公里', '部分多云 (1,524米)', '本地:', '19:00、2019年10月1日周二', '协调世界时:', '11:00、2019年10月1日周二', '来源:', '周期文件', '趋势:', '无重要变化', '露点:', '18°C', '原始:', 'ZUUU 011100Z 05004MPS 9999 SCT050 24/18 Q1011 NOSIG', '下午7:00', '24.0°C', '1,011毫巴', '每小时14.4公里, 东北', '10.00公里', '部分多云 (1,524米)', '本地:', '19:00、2019年10月1日周二', '协调世界时:', '11:00、2019年10月1日周二', '来源:', 'USAF 每小时地面观测', '报告类型:', 'METAR 航空例行天气报告', '露点:', '18.0°C', '下午8:00', '24°C', '1,012毫巴', '每小时14.4公里, 东北', '10.00公里', '部分多云 (1,524米)', '本地:', '20:00、2019年10月1日周二', '协调世界时:', '12:00、2019年10月1日周二', '来源:', '周期文件', '趋势:', '无重要变化', '露点:', '18°C', '原始:', 'ZUUU 011200Z 03004MPS 9999 SCT050 24/18 Q1012 NOSIG', '下午8:00', '24.0°C', '1,012毫巴', '每小时14.4公里, 东北', '10.00公里', '部分多云 (1,524米)', '本地:', '20:00、2019年10月1日周二', '协调世界时:', '12:00、2019年10月1日周二', '来源:', 'USAF 每小时地面观测', '报告类型:', 'METAR 航空例行天气报告', '露点:', '18.0°C', '下午9:00', '23°C', '1,013毫巴', '每小时10.8公里, 东北', '10.00公里', '部分多云 (1,524米)', '本地:', '21:00、2019年10月1日周二', '协调世界时:', '13:00、2019年10月1日周二', '来源:', '周期文件', '趋势:', '无重要变化', '露点:', '18°C', '原始:', 'ZUUU 011300Z 04003MPS 010V080 9999 SCT050 23/18 Q1013 NOSIG', '下午9:00', '23.0°C', '1,013毫巴', '每小时10.8公里, 东北', '10.00公里', '部分多云 (1,524米)', '本地:', '21:00、2019年10月1日周二', '协调世界时:', '13:00、2019年10月1日周二', '来源:', 'USAF 每小时地面观测', '报告类型:', 'METAR 航空例行天气报告', '露点:', '18.0°C', '下午10:00', '23°C', '1,014毫巴', '每小时10.8公里, 东北', '10.00公里', '部分多云 (1,524米)', '本地:', '22:00、2019年10月1日周二', '协调世界时:', '14:00、2019年10月1日周二', '来源:', '周期文件', '趋势:', '无重要变化', '露点:', '18°C', '原始:', 'ZUUU 011400Z 04003MPS 340V080 9999 SCT050 23/18 Q1014 NOSIG', '下午10:00', '23.0°C', '1,014毫巴', '每小时10.8公里, 东北', '10.00公里', '部分多云 (1,524米)', '本地:', '22:00、2019年10月1日周二', '协调世界时:', '14:00、2019年10月1日周二', '来源:', 'USAF 每小时地面观测', '报告类型:', 'METAR 航空例行天气报告', '露点:', '18.0°C', '下午11:00', '23°C', '1,014毫巴', '每小时14.4公里, 东北', '10.00公里', '部分多云 (1,524米)', '本地:', '23:00、2019年10月1日周二', '协调世界时:', '15:00、2019年10月1日周二', '来源:', '周期文件', '趋势:', '无重要变化', '露点:', '18°C', '原始:', 'ZUUU 011500Z 04004MPS 9999 SCT050 23/18 Q1014 NOSIG', '下午11:00', '23.0°C', '1,014毫巴', '每小时14.4公里, 东北', '10.00公里', '部分多云 (1,524米)', '本地:', '23:00、2019年10月1日周二', '协调世界时:', '15:00、2019年10月1日周二', '来源:', 'USAF 每小时地面观测', '报告类型:', 'METAR 航空例行天气报告', '露点:', '18.0°C']