['Mist', 'BR、IWC10', 'Mist', 'BR、IWC10', 'Mist', 'BR、IWC10', 'Mist', 'BR、IWC10', 'Mist', 'BR、IWC10', 'Mist', 'BR、IWC10', '上午12:00', '24°C', '1,007毫巴', '每小时7.20公里, 南', '≥ 10.00公里', '晴空万里', '本地:', '00:00、2019年4月24日周三', '协调世界时:', '16:00、2019年4月23日周二', '来源:', '周期文件', '趋势:', '无重要变化', '露点:', '18°C', '晴空万里:', '真', '原始:', 'ZUUU 231600Z 17002MPS 130V210 CAVOK 24/18 Q1007 NOSIG', '上午12:00', '24.0°C', '1,007毫巴', '每小时7.20公里, 南', '-', '晴空万里', '本地:', '00:00、2019年4月24日周三', '协调世界时:', '16:00、2019年4月23日周二', '来源:', 'USAF 每小时地面观测', '报告类型:', 'METAR 航空例行天气报告', '露点:', '18.0°C', '晴空万里:', '真', '上午1:00', '26°C', '1,006毫巴', '每小时3.60公里', '≥ 10.00公里', '晴空万里', '本地:', '01:00、2019年4月24日周三', '协调世界时:', '17:00、2019年4月23日周二', '来源:', '周期文件', '趋势:', '无重要变化', '露点:', '17°C', '晴空万里:', '真', '原始:', 'ZUUU 231700Z VRB01MPS CAVOK 26/17 Q1006 NOSIG', '上午1:00', '26.0°C', '1,006毫巴', '每小时3.60公里', '-', '晴空万里', '本地:', '01:00、2019年4月24日周三', '协调世界时:', '17:00、2019年4月23日周二', '来源:', 'USAF 每小时地面观测', '报告类型:', 'METAR 航空例行天气报告', '露点:', '17.0°C', '晴空万里:', '真', '上午2:00', '23°C', '1,006毫巴', '每小时0公里', '≥ 10.00公里', '晴空万里', '本地:', '02:00、2019年4月24日周三', '协调世界时:', '18:00、2019年4月23日周二', '来源:', '周期文件', '趋势:', '无重要变化', '露点:', '19°C', '晴空万里:', '真', '原始:', 'ZUUU 231800Z 00000MPS CAVOK 23/19 Q1006 NOSIG', '上午2:00', '23.0°C', '1,006毫巴', '每小时0公里', '-', '晴空万里', '本地:', '02:00、2019年4月24日周三', '协调世界时:', '18:00、2019年4月23日周二', '来源:', 'USAF 每小时地面观测', '报告类型:', 'METAR 航空例行天气报告', '露点:', '19.0°C', '晴空万里:', '真', '上午3:00', '22°C', '1,005毫巴', '每小时0公里', '7.00公里', '无重要云', '本地:', '03:00、2019年4月24日周三', '协调世界时:', '19:00、2019年4月23日周二', '来源:', '周期文件', '趋势:', '无重要变化', '露点:', '18°C', '原始:', 'ZUUU 231900Z 00000MPS 7000 NSC 22/18 Q1005 NOSIG', '上午3:00', '22.0°C', '1,005毫巴', '每小时0公里', '7.00公里', '未检测到云', '本地:', '03:00、2019年4月24日周三', '协调世界时:', '19:00、2019年4月23日周二', '来源:', 'USAF 每小时地面观测', '报告类型:', 'METAR 航空例行天气报告', '露点:', '18.0°C', '上午4:00', '21°C', '1,005毫巴', '每小时0公里', '5.00公里', '无重要云', '本地:', '04:00、2019年4月24日周三', '协调世界时:', '20:00、2019年4月23日周二', '来源:', '周期文件', '趋势:', '无重要变化', '露点:', '19°C', '天气:', 'Mist', '原始:', 'ZUUU 232000Z 00000MPS 5000 BR NSC 21/19 Q1005 NOSIG', '上午4:00', '21.0°C', '1,005毫巴', '每小时0公里', '5.00公里', '未检测到云', '本地:', '04:00、2019年4月24日周三', '协调世界时:', '20:00、2019年4月23日周二', '来源:', 'USAF 每小时地面观测', '报告类型:', 'METAR 航空例行天气报告', '露点:', '19.0°C', '天气:', 'Mist', '上午5:00', '20°C', '1,005毫巴', '每小时0公里', '5.00公里', '无重要云', '本地:', '05:00、2019年4月24日周三', '协调世界时:', '21:00、2019年4月23日周二', '来源:', '周期文件', '趋势:', '无重要变化', '露点:', '19°C', '天气:', 'Mist', '原始:', 'ZUUU 232100Z 00000MPS 5000 BR NSC 20/19 Q1005 NOSIG', '上午5:00', '20.0°C', '1,005毫巴', '每小时0公里', '5.00公里', '未检测到云', '本地:', '05:00、2019年4月24日周三', '协调世界时:', '21:00、2019年4月23日周二', '来源:', 'USAF 每小时地面观测', '报告类型:', 'METAR 航空例行天气报告', '露点:', '19.0°C', '天气:', 'Mist', '上午6:00', '19°C', '1,006毫巴', '每小时3.60公里', '4.00公里', '无重要云', '本地:', '06:00、2019年4月24日周三', '协调世界时:', '22:00、2019年4月23日周二', '来源:', '周期文件', '趋势:', '无重要变化', '露点:', '18°C', '天气:', 'Mist', '原始:', 'ZUUU 232200Z VRB01MPS 4000 BR NSC 19/18 Q1006 NOSIG', '上午6:00', '19.0°C', '1,006毫巴', '每小时3.60公里', '4.00公里', '未检测到云', '本地:', '06:00、2019年4月24日周三', '协调世界时:', '22:00、2019年4月23日周二', '来源:', 'USAF 每小时地面观测', '报告类型:', 'METAR 航空例行天气报告', '露点:', '18.0°C', '天气:', 'Mist', '上午7:00', '20°C', '1,007毫巴', '每小时0公里', '3.50公里', '无重要云', '本地:', '07:00、2019年4月24日周三', '协调世界时:', '23:00、2019年4月23日周二', '来源:', '周期文件', '趋势:', '无重要变化', '露点:', '19°C', '天气:', 'Mist', '原始:', 'ZUUU 232300Z 00000MPS 3500 BR NSC 20/19 Q1007 NOSIG', '上午7:00', '20.0°C', '1,007毫巴', '每小时0公里', '3.50公里', '未检测到云', '本地:', '07:00、2019年4月24日周三', '协调世界时:', '23:00、2019年4月23日周二', '来源:', 'USAF 每小时地面观测', '报告类型:', 'METAR 航空例行天气报告', '露点:', '19.0°C', '天气:', 'Mist', '上午8:00', '21°C', '1,007毫巴', '每小时0公里', '3.60公里', '无重要云', '本地:', '08:00、2019年4月24日周三', '协调世界时:', '00:00、2019年4月24日周三', '来源:', '周期文件', '趋势:', '无重要变化', '露点:', '20°C', '天气:', 'Mist', '原始:', 'ZUUU 240000Z 00000MPS 3600 BR NSC 21/20 Q1007 NOSIG', '上午8:00', '21.0°C', '1,007毫巴', '每小时0公里', '3.60公里', '未检测到云', '本地:', '08:00、2019年4月24日周三', '协调世界时:', '00:00、2019年4月24日周三', '来源:', 'USAF 每小时地面观测', '报告类型:', 'METAR 航空例行天气报告', '露点:', '20.0°C', '天气:', 'Mist', '上午9:00', '23°C', '1,008毫巴', '每小时10.8公里, 西南', '5.00公里', '无重要云', '本地:', '09:00、2019年4月24日周三', '协调世界时:', '01:00、2019年4月24日周三', '来源:', '周期文件', '趋势:', '无重要变化', '露点:', '19°C', '天气:', 'Mist', '原始:', 'ZUUU 240100Z 21003MPS 180V260 5000 BR NSC 23/19 Q1008 NOSIG', '上午9:00', '23.0°C', '1,008毫巴', '每小时10.8公里, 西南', '5.00公里', '未检测到云', '本地:', '09:00、2019年4月24日周三', '协调世界时:', '01:00、2019年4月24日周三', '来源:', 'USAF 每小时地面观测', '报告类型:', 'METAR 航空例行天气报告', '露点:', '19.0°C', '天气:', 'Mist', '上午10:00', '26°C', '1,009毫巴', '每小时0公里', '7.00公里', '无重要云', '本地:', '10:00、2019年4月24日周三', '协调世界时:', '02:00、2019年4月24日周三', '来源:', '周期文件', '趋势:', '无重要变化', '露点:', '19°C', '原始:', 'ZUUU 240200Z 00000MPS 7000 NSC 26/19 Q1009 NOSIG', '上午10:00', '26.0°C', '1,009毫巴', '每小时0公里', '7.00公里', '未检测到云', '本地:', '10:00、2019年4月24日周三', '协调世界时:', '02:00、2019年4月24日周三', '来源:', 'USAF 每小时地面观测', '报告类型:', 'METAR 航空例行天气报告', '露点:', '19.0°C', '上午11:00', '29°C', '1,009毫巴', '每小时3.60公里', '≥ 10.00公里', '晴空万里', '本地:', '11:00、2019年4月24日周三', '协调世界时:', '03:00、2019年4月24日周三', '来源:', '周期文件', '趋势:', '无重要变化', '露点:', '20°C', '晴空万里:', '真', '原始:', 'ZUUU 240300Z VRB01MPS CAVOK 29/20 Q1009 NOSIG', '上午11:00', '29.0°C', '1,009毫巴', '每小时3.60公里', '-', '晴空万里', '本地:', '11:00、2019年4月24日周三', '协调世界时:', '03:00、2019年4月24日周三', '来源:', 'USAF 每小时地面观测', '报告类型:', 'METAR 航空例行天气报告', '露点:', '20.0°C', '晴空万里:', '真', '下午12:00', '30°C', '1,008毫巴', '每小时3.60公里', '≥ 10.00公里', '晴空万里', '本地:', '12:00、2019年4月24日周三', '协调世界时:', '04:00、2019年4月24日周三', '来源:', '周期文件', '趋势:', '无重要变化', '露点:', '19°C', '晴空万里:', '真', '原始:', 'ZUUU 240400Z VRB01MPS CAVOK 30/19 Q1008 NOSIG', '下午12:00', '30.0°C', '1,008毫巴', '每小时3.60公里', '-', '晴空万里', '本地:', '12:00、2019年4月24日周三', '协调世界时:', '04:00、2019年4月24日周三', '来源:', 'USAF 每小时地面观测', '报告类型:', 'METAR 航空例行天气报告', '露点:', '19.0°C', '晴空万里:', '真', '下午1:00', '30°C', '1,007毫巴', '每小时3.60公里', '10.00公里', '部分多云 (792米)', '本地:', '13:00、2019年4月24日周三', '协调世界时:', '05:00、2019年4月24日周三', '来源:', '周期文件', '趋势:', '无重要变化', '露点:', '19°C', '原始:', 'ZUUU 240500Z VRB01MPS 9999 SCT026 30/19 Q1007 NOSIG', '下午1:00', '30.0°C', '1,007毫巴', '每小时3.60公里', '10.00公里', '部分多云 (792米)', '本地:', '13:00、2019年4月24日周三', '协调世界时:', '05:00、2019年4月24日周三', '来源:', 'USAF 每小时地面观测', '报告类型:', 'METAR 航空例行天气报告', '露点:', '19.0°C', '下午2:00', '31°C', '1,006毫巴', '每小时3.60公里', '10.00公里', '部分多云 (792米)', '本地:', '14:00、2019年4月24日周三', '协调世界时:', '06:00、2019年4月24日周三', '来源:', '周期文件', '趋势:', '无重要变化', '露点:', '17°C', '原始:', 'ZUUU 240600Z VRB01MPS 9999 SCT026 31/17 Q1006 NOSIG', '下午2:00', '31.0°C', '1,006毫巴', '每小时3.60公里', '10.00公里', '部分多云 (792米)', '本地:', '14:00、2019年4月24日周三', '协调世界时:', '06:00、2019年4月24日周三', '来源:', 'USAF 每小时地面观测', '报告类型:', 'METAR 航空例行天气报告', '露点:', '17.0°C', '下午3:00', '31°C', '1,005毫巴', '每小时7.20公里', '10.00公里', '部分多云 (792米)', '本地:', '15:00、2019年4月24日周三', '协调世界时:', '07:00、2019年4月24日周三', '来源:', '周期文件', '趋势:', '无重要变化', '露点:', '17°C', '原始:', 'ZUUU 240700Z VRB02MPS 9999 SCT026 31/17 Q1005 NOSIG', '下午3:00', '31.0°C', '1,005毫巴', '每小时7.20公里', '10.00公里', '部分多云 (792米)', '本地:', '15:00、2019年4月24日周三', '协调世界时:', '07:00、2019年4月24日周三', '来源:', 'USAF 每小时地面观测', '报告类型:', 'METAR 航空例行天气报告', '露点:', '17.0°C', '下午4:00', '31°C', '1,005毫巴', '每小时7.20公里, 北', '10.00公里', '部分多云 (792米)', '本地:', '16:00、2019年4月24日周三', '协调世界时:', '08:00、2019年4月24日周三', '来源:', '周期文件', '趋势:', '无重要变化', '露点:', '17°C', '原始:', 'ZUUU 240800Z 35002MPS 270V060 9999 SCT026 31/17 Q1005 NOSIG', '下午4:00', '31.0°C', '1,005毫巴', '每小时7.20公里, 北', '10.00公里', '部分多云 (792米)', '本地:', '16:00、2019年4月24日周三', '协调世界时:', '08:00、2019年4月24日周三', '来源:', 'USAF 每小时地面观测', '报告类型:', 'METAR 航空例行天气报告', '露点:', '17.0°C', '下午5:00', '31°C', '1,005毫巴', '每小时3.60公里', '10.00公里', '部分多云 (1,219米)', '本地:', '17:00、2019年4月24日周三', '协调世界时:', '09:00、2019年4月24日周三', '来源:', '周期文件', '趋势:', '无重要变化', '露点:', '16°C', '原始:', 'ZUUU 240900Z VRB01MPS 9999 SCT040 31/16 Q1005 NOSIG', '下午5:00', '31.0°C', '1,005毫巴', '每小时3.60公里', '10.00公里', '部分多云 (1,219米)', '本地:', '17:00、2019年4月24日周三', '协调世界时:', '09:00、2019年4月24日周三', '来源:', 'USAF 每小时地面观测', '报告类型:', 'METAR 航空例行天气报告', '露点:', '16.0°C', '下午6:00', '30°C', '1,005毫巴', '每小时7.20公里, 西', '10.00公里', '部分多云 (1,311米)', '本地:', '18:00、2019年4月24日周三', '协调世界时:', '10:00、2019年4月24日周三', '来源:', '周期文件', '趋势:', '无重要变化', '露点:', '18°C', '原始:', 'ZUUU 241000Z 28002MPS 240V340 9999 SCT043 30/18 Q1005 NOSIG', '下午6:00', '30.0°C', '1,005毫巴', '每小时7.20公里, 西', '10.00公里', '部分多云 (1,311米)', '本地:', '18:00、2019年4月24日周三', '协调世界时:', '10:00、2019年4月24日周三', '来源:', 'USAF 每小时地面观测', '报告类型:', 'METAR 航空例行天气报告', '露点:', '18.0°C', '下午7:00', '29°C', '1,006毫巴', '每小时7.20公里, 西北', '10.00公里', '部分多云 (1,311米)', '本地:', '19:00、2019年4月24日周三', '协调世界时:', '11:00、2019年4月24日周三', '来源:', '周期文件', '趋势:', '无重要变化', '露点:', '19°C', '原始:', 'ZUUU 241100Z 32002MPS 280V020 9999 SCT043 29/19 Q1006 NOSIG', '下午7:00', '29.0°C', '1,006毫巴', '每小时7.20公里, 西北', '10.00公里', '部分多云 (1,311米)', '本地:', '19:00、2019年4月24日周三', '协调世界时:', '11:00、2019年4月24日周三', '来源:', 'USAF 每小时地面观测', '报告类型:', 'METAR 航空例行天气报告', '露点:', '19.0°C', '下午8:00', '27°C', '1,006毫巴', '每小时3.60公里', '10.00公里', '部分多云 (1,311米)', '本地:', '20:00、2019年4月24日周三', '协调世界时:', '12:00、2019年4月24日周三', '来源:', '周期文件', '趋势:', '无重要变化', '露点:', '19°C', '原始:', 'ZUUU 241200Z VRB01MPS 9999 SCT043 27/19 Q1006 NOSIG', '下午8:00', '27.0°C', '1,006毫巴', '每小时3.60公里', '10.00公里', '部分多云 (1,311米)', '本地:', '20:00、2019年4月24日周三', '协调世界时:', '12:00、2019年4月24日周三', '来源:', 'USAF 每小时地面观测', '报告类型:', 'METAR 航空例行天气报告', '露点:', '19.0°C', '下午9:00', '28°C', '1,009毫巴', '每小时7.20公里, 北', '10.00公里', '部分多云 (1,311米)', '本地:', '21:00、2019年4月24日周三', '协调世界时:', '13:00、2019年4月24日周三', '来源:', '周期文件', '趋势:', '无重要变化', '露点:', '19°C', '其他云层:', '大部分晴天 (610米)', '原始:', 'ZUUU 241300Z 36002MPS 320V050 9999 FEW020 SCT043 28/19 Q1009 NOSIG', '下午9:00', '28.0°C', '1,009毫巴', '每小时7.20公里, 北', '10.00公里', '部分多云 (1,311米)', '本地:', '21:00、2019年4月24日周三', '协调世界时:', '13:00、2019年4月24日周三', '来源:', 'USAF 每小时地面观测', '报告类型:', 'METAR 航空例行天气报告', '露点:', '19.0°C', '其他云层:', '大部分晴天 (610米)', '下午10:00', '27°C', '1,009毫巴', '每小时7.20公里, 北', '10.00公里', '部分多云 (1,524米)', '本地:', '22:00、2019年4月24日周三', '协调世界时:', '14:00、2019年4月24日周三', '来源:', '周期文件', '趋势:', '无重要变化', '露点:', '19°C', '原始:', 'ZUUU 241400Z 35002MPS 310V020 9999 SCT050 27/19 Q1009 NOSIG', '下午10:00', '27.0°C', '1,009毫巴', '每小时7.20公里, 北', '10.00公里', '部分多云 (1,524米)', '本地:', '22:00、2019年4月24日周三', '协调世界时:', '14:00、2019年4月24日周三', '来源:', 'USAF 每小时地面观测', '报告类型:', 'METAR 航空例行天气报告', '露点:', '19.0°C', '下午11:00', '26°C', '1,009毫巴', '每小时7.20公里, 北', '10.00公里', '部分多云 (1,524米)', '本地:', '23:00、2019年4月24日周三', '协调世界时:', '15:00、2019年4月24日周三', '来源:', '周期文件', '趋势:', '无重要变化', '露点:', '19°C', '原始:', 'ZUUU 241500Z 36002MPS 330V030 9999 SCT050 26/19 Q1009 NOSIG', '下午11:00', '26.0°C', '1,009毫巴', '每小时7.20公里, 北', '10.00公里', '部分多云 (1,524米)', '本地:', '23:00、2019年4月24日周三', '协调世界时:', '15:00、2019年4月24日周三', '来源:', 'USAF 每小时地面观测', '报告类型:', 'METAR 航空例行天气报告', '露点:', '19.0°C']