['Mist', 'BR、IWC10', 'Mist', 'BR、IWC10', 'Mist', 'BR、IWC10', 'Mist', 'BR、IWC10', 'Mist', 'BR、IWC10', 'Mist', 'BR、IWC10', 'Mist', 'BR、IWC10', 'Mist', 'BR、IWC10', 'Mist', 'BR、IWC10', 'Mist', 'BR、IWC10', 'Mist', 'BR、IWC10', 'Mist', 'BR、IWC10', 'Mist', 'BR、IWC10', 'Mist', 'BR、IWC10', 'Mist', 'BR、IWC10', 'Mist', 'BR、IWC10', 'Mist', 'BR、IWC10', 'Mist', 'BR、IWC10', 'Mist', 'BR、IWC10', 'Mist', 'BR、IWC10', 'Mist', 'BR、IWC10', 'Mist', 'BR、IWC10', 'Mist', 'BR、IWC10', 'Mist', 'BR、IWC10', '上午12:00', '8°C', '1,014毫巴', '每小时0公里', '4.50公里', '大部分晴天 (1,219米)', '本地:', '00:00、2019年2月2日周六', '协调世界时:', '16:00、2019年2月1日周五', '来源:', '周期文件', '趋势:', '无重要变化', '露点:', '6°C', '天气:', 'Mist', '原始:', 'ZUUU 011600Z 00000MPS 4500 BR FEW040 08/06 Q1014 NOSIG', '上午12:00', '8.0°C', '1,014毫巴', '每小时0公里', '4.50公里', '大部分晴天 (1,219米)', '本地:', '00:00、2019年2月2日周六', '协调世界时:', '16:00、2019年2月1日周五', '来源:', 'USAF 每小时地面观测', '报告类型:', 'METAR 航空例行天气报告', '露点:', '6.0°C', '天气:', 'Mist', '上午1:00', '9°C', '1,013毫巴', '每小时0公里', '5.00公里', '部分多云 (1,524米)', '本地:', '01:00、2019年2月2日周六', '协调世界时:', '17:00、2019年2月1日周五', '来源:', '周期文件', '趋势:', '无重要变化', '露点:', '5°C', '天气:', 'Mist', '原始:', 'ZUUU 011700Z 00000MPS 5000 BR SCT050 09/05 Q1013 NOSIG', '上午1:00', '9.0°C', '1,013毫巴', '每小时0公里', '5.00公里', '部分多云 (1,524米)', '本地:', '01:00、2019年2月2日周六', '协调世界时:', '17:00、2019年2月1日周五', '来源:', 'USAF 每小时地面观测', '报告类型:', 'METAR 航空例行天气报告', '露点:', '5.0°C', '天气:', 'Mist', '上午2:00', '9°C', '1,012毫巴', '每小时3.60公里', '5.00公里', '部分多云 (1,524米)', '本地:', '02:00、2019年2月2日周六', '协调世界时:', '18:00、2019年2月1日周五', '来源:', '周期文件', '趋势:', '无重要变化', '露点:', '5°C', '天气:', 'Mist', '原始:', 'ZUUU 011800Z VRB01MPS 5000 BR SCT050 09/05 Q1012 NOSIG', '上午2:00', '9.0°C', '1,012毫巴', '每小时3.60公里', '5.00公里', '部分多云 (1,524米)', '本地:', '02:00、2019年2月2日周六', '协调世界时:', '18:00、2019年2月1日周五', '来源:', 'USAF 每小时地面观测', '报告类型:', 'METAR 航空例行天气报告', '露点:', '5.0°C', '天气:', 'Mist', '上午3:00', '8°C', '1,011毫巴', '每小时3.60公里', '5.00公里', '部分多云 (1,524米)', '本地:', '03:00、2019年2月2日周六', '协调世界时:', '19:00、2019年2月1日周五', '来源:', '周期文件', '趋势:', '无重要变化', '露点:', '4°C', '天气:', 'Mist', '原始:', 'ZUUU 011900Z VRB01MPS 5000 BR SCT050 08/04 Q1011 NOSIG', '上午3:00', '8.0°C', '1,011毫巴', '每小时3.60公里', '5.00公里', '部分多云 (1,524米)', '本地:', '03:00、2019年2月2日周六', '协调世界时:', '19:00、2019年2月1日周五', '来源:', 'USAF 每小时地面观测', '报告类型:', 'METAR 航空例行天气报告', '露点:', '4.0°C', '天气:', 'Mist', '上午4:00', '8°C', '1,010毫巴', '每小时0公里', '5.00公里', '部分多云 (1,524米)', '本地:', '04:00、2019年2月2日周六', '协调世界时:', '20:00、2019年2月1日周五', '来源:', '周期文件', '趋势:', '无重要变化', '露点:', '5°C', '天气:', 'Mist', '原始:', 'ZUUU 012000Z 00000MPS 5000 BR SCT050 08/05 Q1010 NOSIG', '上午4:00', '8.0°C', '1,010毫巴', '每小时0公里', '5.00公里', '部分多云 (1,524米)', '本地:', '04:00、2019年2月2日周六', '协调世界时:', '20:00、2019年2月1日周五', '来源:', 'USAF 每小时地面观测', '报告类型:', 'METAR 航空例行天气报告', '露点:', '5.0°C', '天气:', 'Mist', '上午5:00', '8°C', '1,010毫巴', '每小时0公里', '5.00公里', '部分多云 (1,219米)', '本地:', '05:00、2019年2月2日周六', '协调世界时:', '21:00、2019年2月1日周五', '来源:', '周期文件', '趋势:', '无重要变化', '露点:', '4°C', '天气:', 'Mist', '原始:', 'ZUUU 012100Z 00000MPS 5000 BR SCT040 08/04 Q1010 NOSIG', '上午5:00', '8.0°C', '1,010毫巴', '每小时0公里', '5.00公里', '部分多云 (1,219米)', '本地:', '05:00、2019年2月2日周六', '协调世界时:', '21:00、2019年2月1日周五', '来源:', 'USAF 每小时地面观测', '报告类型:', 'METAR 航空例行天气报告', '露点:', '4.0°C', '天气:', 'Mist', '上午6:00', '8°C', '1,009毫巴', '每小时0公里', '5.00公里', '部分多云 (1,219米)', '本地:', '06:00、2019年2月2日周六', '协调世界时:', '22:00、2019年2月1日周五', '来源:', '周期文件', '趋势:', '无重要变化', '露点:', '5°C', '天气:', 'Mist', '原始:', 'ZUUU 012200Z 00000MPS 5000 BR SCT040 08/05 Q1009 NOSIG', '上午6:00', '8.0°C', '1,009毫巴', '每小时0公里', '5.00公里', '部分多云 (1,219米)', '本地:', '06:00、2019年2月2日周六', '协调世界时:', '22:00、2019年2月1日周五', '来源:', 'USAF 每小时地面观测', '报告类型:', 'METAR 航空例行天气报告', '露点:', '5.0°C', '天气:', 'Mist', '上午7:00', '8°C', '1,009毫巴', '每小时0公里', '4.50公里', '部分多云 (1,219米)', '本地:', '07:00、2019年2月2日周六', '协调世界时:', '23:00、2019年2月1日周五', '来源:', '周期文件', '趋势:', '无重要变化', '露点:', '5°C', '天气:', 'Mist', '原始:', 'ZUUU 012300Z 00000MPS 4500 BR SCT040 08/05 Q1009 NOSIG', '上午7:00', '8.0°C', '1,009毫巴', '每小时0公里', '4.50公里', '部分多云 (1,219米)', '本地:', '07:00、2019年2月2日周六', '协调世界时:', '23:00、2019年2月1日周五', '来源:', 'USAF 每小时地面观测', '报告类型:', 'METAR 航空例行天气报告', '露点:', '5.0°C', '天气:', 'Mist', '上午8:00', '7°C', '1,009毫巴', '每小时0公里', '4.00公里', '部分多云 (1,219米)', '本地:', '08:00、2019年2月2日周六', '协调世界时:', '00:00、2019年2月2日周六', '来源:', '周期文件', '趋势:', '无重要变化', '露点:', '5°C', '天气:', 'Mist', '原始:', 'ZUUU 020000Z 00000MPS 4000 BR SCT040 07/05 Q1009 NOSIG', '上午8:00', '7.0°C', '1,009毫巴', '每小时0公里', '4.00公里', '部分多云 (1,219米)', '本地:', '08:00、2019年2月2日周六', '协调世界时:', '00:00、2019年2月2日周六', '来源:', 'USAF 每小时地面观测', '报告类型:', 'METAR 航空例行天气报告', '露点:', '5.0°C', '天气:', 'Mist', '上午9:00', '8°C', '1,010毫巴', '每小时7.20公里, 北', '4.00公里', '部分多云 (1,524米)', '本地:', '09:00、2019年2月2日周六', '协调世界时:', '01:00、2019年2月2日周六', '来源:', '周期文件', '趋势:', '无重要变化', '露点:', '5°C', '其他云层:', '大部分晴天 (1,006米)', '天气:', 'Mist', '原始:', 'ZUUU 020100Z 35002MPS 310V010 4000 BR FEW033 SCT050 08/05 Q1010 NOSIG', '上午9:00', '8.0°C', '1,010毫巴', '每小时7.20公里, 北', '4.00公里', '部分多云 (1,524米)', '本地:', '09:00、2019年2月2日周六', '协调世界时:', '01:00、2019年2月2日周六', '来源:', 'USAF 每小时地面观测', '报告类型:', 'METAR 航空例行天气报告', '露点:', '5.0°C', '其他云层:', '大部分晴天 (1,006米)', '天气:', 'Mist', '上午10:00', '8°C', '1,011毫巴', '每小时7.20公里, 北', '4.00公里', '部分多云 (1,219米)', '本地:', '10:00、2019年2月2日周六', '协调世界时:', '02:00、2019年2月2日周六', '来源:', '周期文件', '趋势:', '无重要变化', '露点:', '5°C', '天气:', 'Mist', '原始:', 'ZUUU 020200Z 35002MPS 320V030 4000 BR SCT040 08/05 Q1011 NOSIG', '上午10:00', '8.0°C', '1,011毫巴', '每小时7.20公里, 北', '4.00公里', '部分多云 (1,219米)', '本地:', '10:00、2019年2月2日周六', '协调世界时:', '02:00、2019年2月2日周六', '来源:', 'USAF 每小时地面观测', '报告类型:', 'METAR 航空例行天气报告', '露点:', '5.0°C', '天气:', 'Mist', '上午11:00', '8°C', '1,011毫巴', '每小时7.20公里, 北', '4.00公里', '部分多云 (1,219米)', '本地:', '11:00、2019年2月2日周六', '协调世界时:', '03:00、2019年2月2日周六', '来源:', '周期文件', '趋势:', '无重要变化', '露点:', '5°C', '天气:', 'Mist', '原始:', 'ZUUU 020300Z 02002MPS 330V040 4000 BR SCT040 08/05 Q1011 NOSIG', '上午11:00', '8.0°C', '1,011毫巴', '每小时7.20公里, 北', '4.00公里', '部分多云 (1,219米)', '本地:', '11:00、2019年2月2日周六', '协调世界时:', '03:00、2019年2月2日周六', '来源:', 'USAF 每小时地面观测', '报告类型:', 'METAR 航空例行天气报告', '露点:', '5.0°C', '天气:', 'Mist', '下午12:00', '9°C', '1,011毫巴', '每小时7.20公里, 北', '4.00公里', '部分多云 (1,219米)', '本地:', '12:00、2019年2月2日周六', '协调世界时:', '04:00、2019年2月2日周六', '来源:', '周期文件', '趋势:', '无重要变化', '露点:', '6°C', '其他云层:', '大部分晴天 (701米)', '天气:', 'Mist', '原始:', 'ZUUU 020400Z 36002MPS 320V030 4000 BR FEW023 SCT040 09/06 Q1011 NOSIG', '下午12:00', '9.0°C', '1,011毫巴', '每小时7.20公里, 北', '4.00公里', '部分多云 (1,219米)', '本地:', '12:00、2019年2月2日周六', '协调世界时:', '04:00、2019年2月2日周六', '来源:', 'USAF 每小时地面观测', '报告类型:', 'METAR 航空例行天气报告', '露点:', '6.0°C', '其他云层:', '大部分晴天 (701米)', '天气:', 'Mist', '下午1:00', '9°C', '1,010毫巴', '每小时10.8公里, 北', '4.00公里', '部分多云 (1,219米)', '本地:', '13:00、2019年2月2日周六', '协调世界时:', '05:00、2019年2月2日周六', '来源:', '周期文件', '趋势:', '无重要变化', '露点:', '6°C', '其他云层:', '大部分晴天 (701米)', '天气:', 'Mist', '原始:', 'ZUUU 020500Z 02003MPS 340V040 4000 BR FEW023 SCT040 09/06 Q1010 NOSIG', '下午1:00', '9.0°C', '1,010毫巴', '每小时10.8公里, 北', '4.00公里', '部分多云 (1,219米)', '本地:', '13:00、2019年2月2日周六', '协调世界时:', '05:00、2019年2月2日周六', '来源:', 'USAF 每小时地面观测', '报告类型:', 'METAR 航空例行天气报告', '露点:', '6.0°C', '其他云层:', '大部分晴天 (701米)', '天气:', 'Mist', '下午2:00', '8°C', '1,009毫巴', '每小时10.8公里, 北', '4.00公里', '部分多云 (1,219米)', '本地:', '14:00、2019年2月2日周六', '协调世界时:', '06:00、2019年2月2日周六', '来源:', '周期文件', '趋势:', '无重要变化', '露点:', '6°C', '其他云层:', '大部分晴天 (610米)', '天气:', 'Mist', '原始:', 'ZUUU 020600Z 36003MPS 320V040 4000 BR FEW020 SCT040 08/06 Q1009 NOSIG', '下午2:00', '8.0°C', '1,009毫巴', '每小时10.8公里, 北', '4.00公里', '部分多云 (1,219米)', '本地:', '14:00、2019年2月2日周六', '协调世界时:', '06:00、2019年2月2日周六', '来源:', 'USAF 每小时地面观测', '报告类型:', 'METAR 航空例行天气报告', '露点:', '6.0°C', '其他云层:', '大部分晴天 (610米)', '天气:', 'Mist', '下午3:00', '9°C', '1,009毫巴', '每小时10.8公里, 北', '4.00公里', '大部分多云 (914米)', '本地:', '15:00、2019年2月2日周六', '协调世界时:', '07:00、2019年2月2日周六', '来源:', '周期文件', '趋势:', '无重要变化', '露点:', '6°C', '其他云层:', '大部分晴天 (305米)', '天气:', 'Mist', '原始:', 'ZUUU 020700Z 01003MPS 330V040 4000 BR FEW010 BKN030 09/06 Q1009 NOSIG', '下午3:00', '9.0°C', '1,009毫巴', '每小时10.8公里, 北', '4.00公里', '大部分多云 (914米)', '本地:', '15:00、2019年2月2日周六', '协调世界时:', '07:00、2019年2月2日周六', '来源:', 'USAF 每小时地面观测', '报告类型:', 'METAR 航空例行天气报告', '露点:', '6.0°C', '其他云层:', '大部分晴天 (305米)', '天气:', 'Mist', '下午4:00', '9°C', '1,009毫巴', '每小时10.8公里, 北', '4.00公里', '大部分多云 (1,006米)', '本地:', '16:00、2019年2月2日周六', '协调世界时:', '08:00、2019年2月2日周六', '来源:', '周期文件', '趋势:', '无重要变化', '露点:', '6°C', '其他云层:', '大部分晴天 (305米)', '天气:', 'Mist', '原始:', 'ZUUU 020800Z 36003MPS 320V040 4000 BR FEW010 BKN033 09/06 Q1009 NOSIG', '下午4:00', '9.0°C', '1,009毫巴', '每小时10.8公里, 北', '4.00公里', '大部分多云 (1,006米)', '本地:', '16:00、2019年2月2日周六', '协调世界时:', '08:00、2019年2月2日周六', '来源:', 'USAF 每小时地面观测', '报告类型:', 'METAR 航空例行天气报告', '露点:', '6.0°C', '其他云层:', '大部分晴天 (305米)', '天气:', 'Mist', '下午5:00', '9°C', '1,010毫巴', '每小时7.20公里, 北', '4.00公里', '大部分多云 (1,006米)', '本地:', '17:00、2019年2月2日周六', '协调世界时:', '09:00、2019年2月2日周六', '来源:', '周期文件', '趋势:', '无重要变化', '露点:', '6°C', '其他云层:', '大部分晴天 (305米)', '天气:', 'Mist', '原始:', 'ZUUU 020900Z 36002MPS 320V030 4000 BR FEW010 BKN033 09/06 Q1010 NOSIG', '下午5:00', '9.0°C', '1,010毫巴', '每小时7.20公里, 北', '4.00公里', '大部分多云 (1,006米)', '本地:', '17:00、2019年2月2日周六', '协调世界时:', '09:00、2019年2月2日周六', '来源:', 'USAF 每小时地面观测', '报告类型:', 'METAR 航空例行天气报告', '露点:', '6.0°C', '其他云层:', '大部分晴天 (305米)', '天气:', 'Mist', '下午6:00', '9°C', '1,011毫巴', '每小时3.60公里', '4.00公里', '部分多云 (1,219米)', '本地:', '18:00、2019年2月2日周六', '协调世界时:', '10:00、2019年2月2日周六', '来源:', '周期文件', '趋势:', '无重要变化', '露点:', '6°C', '其他云层:', '大部分晴天 (305米)', '天气:', 'Mist', '原始:', 'ZUUU 021000Z VRB01MPS 4000 BR FEW010 SCT040 09/06 Q1011 NOSIG', '下午6:00', '9.0°C', '1,011毫巴', '每小时3.60公里', '4.00公里', '部分多云 (1,219米)', '本地:', '18:00、2019年2月2日周六', '协调世界时:', '10:00、2019年2月2日周六', '来源:', 'USAF 每小时地面观测', '报告类型:', 'METAR 航空例行天气报告', '露点:', '6.0°C', '其他云层:', '大部分晴天 (305米)', '天气:', 'Mist', '下午7:00', '9°C', '1,012毫巴', '每小时7.20公里, 西北', '5.00公里', '部分多云 (1,219米)', '本地:', '19:00、2019年2月2日周六', '协调世界时:', '11:00、2019年2月2日周六', '来源:', '周期文件', '趋势:', '无重要变化', '露点:', '6°C', '其他云层:', '大部分晴天 (305米)', '天气:', 'Mist', '原始:', 'ZUUU 021100Z 32002MPS 290V010 5000 BR FEW010 SCT040 09/06 Q1012 NOSIG', '下午7:00', '9.0°C', '1,012毫巴', '每小时7.20公里, 西北', '5.00公里', '部分多云 (1,219米)', '本地:', '19:00、2019年2月2日周六', '协调世界时:', '11:00、2019年2月2日周六', '来源:', 'USAF 每小时地面观测', '报告类型:', 'METAR 航空例行天气报告', '露点:', '6.0°C', '其他云层:', '大部分晴天 (305米)', '天气:', 'Mist', '下午8:00', '9°C', '1,013毫巴', '每小时7.20公里, 西北', '5.00公里', '部分多云 (1,524米)', '本地:', '20:00、2019年2月2日周六', '协调世界时:', '12:00、2019年2月2日周六', '来源:', '周期文件', '趋势:', '无重要变化', '露点:', '6°C', '其他云层:', '大部分晴天 (305米)', '天气:', 'Mist', '原始:', 'ZUUU 021200Z 30002MPS 270V360 5000 BR FEW010 SCT050 09/06 Q1013 NOSIG', '下午8:00', '9.0°C', '1,013毫巴', '每小时7.20公里, 西北', '5.00公里', '部分多云 (1,524米)', '本地:', '20:00、2019年2月2日周六', '协调世界时:', '12:00、2019年2月2日周六', '来源:', 'USAF 每小时地面观测', '报告类型:', 'METAR 航空例行天气报告', '露点:', '6.0°C', '其他云层:', '大部分晴天 (305米)', '天气:', 'Mist', '下午9:00', '9°C', '1,015毫巴', '每小时7.20公里, 西北', '5.00公里', '部分多云 (1,524米)', '本地:', '21:00、2019年2月2日周六', '协调世界时:', '13:00、2019年2月2日周六', '来源:', '周期文件', '趋势:', '无重要变化', '露点:', '6°C', '天气:', 'Mist', '原始:', 'ZUUU 021300Z 31002MPS 270V340 5000 BR SCT050 09/06 Q1015 NOSIG', '下午9:00', '9.0°C', '1,015毫巴', '每小时7.20公里, 西北', '5.00公里', '部分多云 (1,524米)', '本地:', '21:00、2019年2月2日周六', '协调世界时:', '13:00、2019年2月2日周六', '来源:', 'USAF 每小时地面观测', '报告类型:', 'METAR 航空例行天气报告', '露点:', '6.0°C', '天气:', 'Mist', '下午10:00', '7°C', '1,016毫巴', '每小时0公里', '4.50公里', '大部分晴天 (1,524米)', '本地:', '22:00、2019年2月2日周六', '协调世界时:', '14:00、2019年2月2日周六', '来源:', '周期文件', '趋势:', '无重要变化', '露点:', '6°C', '天气:', 'Mist', '原始:', 'ZUUU 021400Z 00000MPS 4500 BR FEW050 07/06 Q1016 NOSIG', '下午10:00', '7.0°C', '1,016毫巴', '每小时0公里', '4.50公里', '大部分晴天 (1,524米)', '本地:', '22:00、2019年2月2日周六', '协调世界时:', '14:00、2019年2月2日周六', '来源:', 'USAF 每小时地面观测', '报告类型:', 'METAR 航空例行天气报告', '露点:', '6.0°C', '天气:', 'Mist', '下午11:00', '5°C', '1,016毫巴', '每小时3.60公里, 西南', '3.80公里', '大部分晴天 (1,524米)', '本地:', '23:00、2019年2月2日周六', '协调世界时:', '15:00、2019年2月2日周六', '来源:', '周期文件', '趋势:', '无重要变化', '露点:', '5°C', '天气:', 'Mist', '原始:', 'ZUUU 021500Z 21001MPS 3800 BR FEW050 05/05 Q1016 NOSIG', '下午11:00', '5.0°C', '1,016毫巴', '每小时3.60公里, 西南', '3.80公里', '大部分晴天 (1,524米)', '本地:', '23:00、2019年2月2日周六', '协调世界时:', '15:00、2019年2月2日周六', '来源:', 'USAF 每小时地面观测', '报告类型:', 'METAR 航空例行天气报告', '露点:', '5.0°C', '天气:', 'Mist']