['Showers of Light Rain', '-SHRA、IWC80', 'Showers of Light Rain', '-SHRA、IWC80', 'Showers of Light Rain', '-SHRA、IWC80', 'Showers of Light Rain', '-SHRA、IWC80', 'Showers of Light Rain', '-SHRA、IWC80', 'Showers of Light Rain', '-SHRA、IWC80', 'Showers of Light Rain', '-SHRA、IWC80', 'Showers of Light Rain', '-SHRA、IWC80', '上午12:00', '17°C', '1,027毫巴', '每小时3.60公里, 北', '10.00公里', '部分多云 (1,006米)', '本地:', '00:00、2019年10月15日周二', '协调世界时:', '16:00、2019年10月14日周一', '来源:', '周期文件', '趋势:', '无重要变化', '露点:', '15°C', '天气:', 'Showers of Light Rain', '原始:', 'ZUUU 141600Z 36001MPS 9999 -SHRA SCT033 17/15 Q1027 NOSIG', '上午12:00', '17.0°C', '1,027毫巴', '每小时3.60公里, 北', '10.00公里', '部分多云 (1,006米)', '本地:', '00:00、2019年10月15日周二', '协调世界时:', '16:00、2019年10月14日周一', '来源:', 'USAF 每小时地面观测', '报告类型:', 'METAR 航空例行天气报告', '露点:', '15.0°C', '天气:', 'Showers of Light Rain', '上午1:00', '16°C', '1,027毫巴', '每小时3.60公里', '7.00公里', '部分多云 (1,006米)', '本地:', '01:00、2019年10月15日周二', '协调世界时:', '17:00、2019年10月14日周一', '来源:', '周期文件', '趋势:', '无重要变化', '露点:', '15°C', '天气:', 'Showers of Light Rain', '原始:', 'ZUUU 141700Z VRB01MPS 7000 -SHRA SCT033 16/15 Q1027 NOSIG', '上午1:00', '16.0°C', '1,027毫巴', '每小时3.60公里', '7.00公里', '部分多云 (1,006米)', '本地:', '01:00、2019年10月15日周二', '协调世界时:', '17:00、2019年10月14日周一', '来源:', 'USAF 每小时地面观测', '报告类型:', 'METAR 航空例行天气报告', '露点:', '15.0°C', '天气:', 'Showers of Light Rain', '上午2:00', '16°C', '1,026毫巴', '每小时3.60公里', '8.00公里', '部分多云 (1,006米)', '本地:', '02:00、2019年10月15日周二', '协调世界时:', '18:00、2019年10月14日周一', '来源:', '周期文件', '趋势:', '无重要变化', '露点:', '15°C', '天气:', 'Showers of Light Rain', '原始:', 'ZUUU 141800Z VRB01MPS 8000 -SHRA SCT033 16/15 Q1026 NOSIG', '上午2:00', '16.0°C', '1,026毫巴', '每小时3.60公里', '8.00公里', '部分多云 (1,006米)', '本地:', '02:00、2019年10月15日周二', '协调世界时:', '18:00、2019年10月14日周一', '来源:', 'USAF 每小时地面观测', '报告类型:', 'METAR 航空例行天气报告', '露点:', '15.0°C', '天气:', 'Showers of Light Rain', '上午3:00', '16°C', '1,025毫巴', '每小时3.60公里', '10.00公里', '部分多云 (1,006米)', '本地:', '03:00、2019年10月15日周二', '协调世界时:', '19:00、2019年10月14日周一', '来源:', '周期文件', '趋势:', '无重要变化', '露点:', '15°C', '天气:', 'Showers of Light Rain', '原始:', 'ZUUU 141900Z VRB01MPS 9999 -SHRA SCT033 16/15 Q1025 NOSIG', '上午3:00', '16.0°C', '1,025毫巴', '每小时3.60公里', '10.00公里', '部分多云 (1,006米)', '本地:', '03:00、2019年10月15日周二', '协调世界时:', '19:00、2019年10月14日周一', '来源:', 'USAF 每小时地面观测', '报告类型:', 'METAR 航空例行天气报告', '露点:', '15.0°C', '天气:', 'Showers of Light Rain', '上午4:00', '16°C', '1,024毫巴', '每小时3.60公里', '10.00公里', '部分多云 (1,006米)', '本地:', '04:00、2019年10月15日周二', '协调世界时:', '20:00、2019年10月14日周一', '来源:', '周期文件', '趋势:', '无重要变化', '露点:', '15°C', '其他云层:', '大部分晴天 (305米)', '天气:', 'Showers of Light Rain', '原始:', 'ZUUU 142000Z VRB01MPS 9999 -SHRA FEW010 SCT033 16/15 Q1024 NOSIG', '上午4:00', '16.0°C', '1,024毫巴', '每小时3.60公里', '10.00公里', '部分多云 (1,006米)', '本地:', '04:00、2019年10月15日周二', '协调世界时:', '20:00、2019年10月14日周一', '来源:', 'USAF 每小时地面观测', '报告类型:', 'METAR 航空例行天气报告', '露点:', '15.0°C', '其他云层:', '大部分晴天 (305米)', '天气:', 'Showers of Light Rain', '上午5:00', '16°C', '1,024毫巴', '每小时3.60公里, 北', '10.00公里', '部分多云 (1,006米)', '本地:', '05:00、2019年10月15日周二', '协调世界时:', '21:00、2019年10月14日周一', '来源:', '周期文件', '趋势:', '无重要变化', '露点:', '15°C', '天气:', 'Showers of Light Rain', '原始:', 'ZUUU 142100Z 01001MPS 9999 -SHRA SCT033 16/15 Q1024 NOSIG', '上午5:00', '16.0°C', '1,024毫巴', '每小时3.60公里, 北', '10.00公里', '部分多云 (1,006米)', '本地:', '05:00、2019年10月15日周二', '协调世界时:', '21:00、2019年10月14日周一', '来源:', 'USAF 每小时地面观测', '报告类型:', 'METAR 航空例行天气报告', '露点:', '15.0°C', '天气:', 'Showers of Light Rain', '上午6:00', '16°C', '1,023毫巴', '每小时0公里', '10.00公里', '部分多云 (1,006米)', '本地:', '06:00、2019年10月15日周二', '协调世界时:', '22:00、2019年10月14日周一', '来源:', '周期文件', '趋势:', '无重要变化', '露点:', '15°C', '原始:', 'ZUUU 142200Z 00000MPS 9999 SCT033 16/15 Q1023 NOSIG', '上午6:00', '16.0°C', '1,023毫巴', '每小时0公里', '10.00公里', '部分多云 (1,006米)', '本地:', '06:00、2019年10月15日周二', '协调世界时:', '22:00、2019年10月14日周一', '来源:', 'USAF 每小时地面观测', '报告类型:', 'METAR 航空例行天气报告', '露点:', '15.0°C', '上午7:00', '16°C', '1,023毫巴', '每小时0公里', '10.00公里', '部分多云 (1,006米)', '本地:', '07:00、2019年10月15日周二', '协调世界时:', '23:00、2019年10月14日周一', '来源:', '周期文件', '趋势:', '无重要变化', '露点:', '15°C', '其他云层:', '大部分晴天 (396米)', '原始:', 'ZUUU 142300Z 00000MPS 9999 FEW013 SCT033 16/15 Q1023 NOSIG', '上午7:00', '16.0°C', '1,023毫巴', '每小时0公里', '10.00公里', '部分多云 (1,006米)', '本地:', '07:00、2019年10月15日周二', '协调世界时:', '23:00、2019年10月14日周一', '来源:', 'USAF 每小时地面观测', '报告类型:', 'METAR 航空例行天气报告', '露点:', '15.0°C', '其他云层:', '大部分晴天 (396米)', '上午8:00', '17°C', '1,023毫巴', '每小时0公里', '10.00公里', '部分多云 (1,524米)', '本地:', '08:00、2019年10月15日周二', '协调世界时:', '00:00、2019年10月15日周二', '来源:', '周期文件', '趋势:', '无重要变化', '露点:', '15°C', '其他云层:', '大部分晴天 (366米)', '原始:', 'ZUUU 150000Z 00000MPS 9999 FEW012 SCT050 17/15 Q1023 NOSIG', '上午8:00', '17.0°C', '1,023毫巴', '每小时0公里', '10.00公里', '部分多云 (1,524米)', '本地:', '08:00、2019年10月15日周二', '协调世界时:', '00:00、2019年10月15日周二', '来源:', 'USAF 每小时地面观测', '报告类型:', 'METAR 航空例行天气报告', '露点:', '15.0°C', '其他云层:', '大部分晴天 (366米)', '上午9:00', '17°C', '1,024毫巴', '每小时7.20公里, 西南', '8.00公里', '部分多云 (1,524米)', '本地:', '09:00、2019年10月15日周二', '协调世界时:', '01:00、2019年10月15日周二', '来源:', '周期文件', '趋势:', '无重要变化', '露点:', '15°C', '其他云层:', '大部分晴天 (366米)', '原始:', 'ZUUU 150100Z 22002MPS 8000 FEW012 SCT050 17/15 Q1024 NOSIG', '上午9:00', '17.0°C', '1,024毫巴', '每小时7.20公里, 西南', '8.00公里', '部分多云 (1,524米)', '本地:', '09:00、2019年10月15日周二', '协调世界时:', '01:00、2019年10月15日周二', '来源:', 'USAF 每小时地面观测', '报告类型:', 'METAR 航空例行天气报告', '露点:', '15.0°C', '其他云层:', '大部分晴天 (366米)', '上午10:00', '17°C', '1,024毫巴', '每小时7.20公里, 西南', '6.00公里', '部分多云 (274米)', '本地:', '10:00、2019年10月15日周二', '协调世界时:', '02:00、2019年10月15日周二', '来源:', '周期文件', '趋势:', '无重要变化', '露点:', '15°C', '其他云层:', '大部分晴天 (183米)', '原始:', 'ZUUU 150200Z 22002MPS 6000 FEW006 SCT009 17/15 Q1024 NOSIG', '上午10:00', '17.0°C', '1,024毫巴', '每小时7.20公里, 西南', '6.00公里', '部分多云 (274米)', '本地:', '10:00、2019年10月15日周二', '协调世界时:', '02:00、2019年10月15日周二', '来源:', 'USAF 每小时地面观测', '报告类型:', 'METAR 航空例行天气报告', '露点:', '15.0°C', '其他云层:', '大部分晴天 (183米)', '上午11:00', '17°C', '1,023毫巴', '每小时7.20公里, 西南', '6.00公里', '大部分多云 (1,006米)', '本地:', '11:00、2019年10月15日周二', '协调世界时:', '03:00、2019年10月15日周二', '来源:', '周期文件', '趋势:', '无重要变化', '露点:', '15°C', '其他云层:', '部分多云 (274米)', '原始:', 'ZUUU 150300Z 24002MPS 210V270 6000 SCT009 BKN033 17/15 Q1023 NOSIG', '上午11:00', '17.0°C', '1,023毫巴', '每小时7.20公里, 西南', '6.00公里', '大部分多云 (1,006米)', '本地:', '11:00、2019年10月15日周二', '协调世界时:', '03:00、2019年10月15日周二', '来源:', 'USAF 每小时地面观测', '报告类型:', 'METAR 航空例行天气报告', '露点:', '15.0°C', '其他云层:', '部分多云 (274米)', '下午12:00', '18°C', '1,023毫巴', '每小时7.20公里, 南', '6.00公里', '大部分多云 (1,219米)', '本地:', '12:00、2019年10月15日周二', '协调世界时:', '04:00、2019年10月15日周二', '来源:', '周期文件', '趋势:', '无重要变化', '露点:', '15°C', '其他云层:', '部分多云 (305米)', '原始:', 'ZUUU 150400Z 20002MPS 160V240 6000 SCT010 BKN040 18/15 Q1023 NOSIG', '下午12:00', '18.0°C', '1,023毫巴', '每小时7.20公里, 南', '6.00公里', '大部分多云 (1,219米)', '本地:', '12:00、2019年10月15日周二', '协调世界时:', '04:00、2019年10月15日周二', '来源:', 'USAF 每小时地面观测', '报告类型:', 'METAR 航空例行天气报告', '露点:', '15.0°C', '其他云层:', '部分多云 (305米)', '下午1:00', '19°C', '1,021毫巴', '每小时3.60公里', '7.00公里', '部分多云 (427米)', '本地:', '13:00、2019年10月15日周二', '协调世界时:', '05:00、2019年10月15日周二', '来源:', '周期文件', '趋势:', '无重要变化', '露点:', '14°C', '其他云层:', '部分多云 (1,219米)', '原始:', 'ZUUU 150500Z VRB01MPS 7000 SCT014 SCT040 19/14 Q1021 NOSIG', '下午1:00', '19.0°C', '1,021毫巴', '每小时3.60公里', '7.00公里', '部分多云 (427米)', '本地:', '13:00、2019年10月15日周二', '协调世界时:', '05:00、2019年10月15日周二', '来源:', 'USAF 每小时地面观测', '报告类型:', 'METAR 航空例行天气报告', '露点:', '14.0°C', '其他云层:', '部分多云 (1,219米)', '下午2:00', '20°C', '1,020毫巴', '每小时3.60公里', '10.00公里', '部分多云 (1,219米)', '本地:', '14:00、2019年10月15日周二', '协调世界时:', '06:00、2019年10月15日周二', '来源:', '周期文件', '趋势:', '无重要变化', '露点:', '14°C', '其他云层:', '大部分晴天 (610米)', '原始:', 'ZUUU 150600Z VRB01MPS 9999 FEW020 SCT040 20/14 Q1020 NOSIG', '下午2:00', '20.0°C', '1,020毫巴', '每小时3.60公里', '10.00公里', '部分多云 (1,219米)', '本地:', '14:00、2019年10月15日周二', '协调世界时:', '06:00、2019年10月15日周二', '来源:', 'USAF 每小时地面观测', '报告类型:', 'METAR 航空例行天气报告', '露点:', '14.0°C', '其他云层:', '大部分晴天 (610米)', '下午3:00', '20°C', '1,019毫巴', '每小时3.60公里', '10.00公里', '部分多云 (1,219米)', '本地:', '15:00、2019年10月15日周二', '协调世界时:', '07:00、2019年10月15日周二', '来源:', '周期文件', '趋势:', '无重要变化', '露点:', '14°C', '其他云层:', '大部分晴天 (610米)', '原始:', 'ZUUU 150700Z VRB01MPS 9999 FEW020 SCT040 20/14 Q1019 NOSIG', '下午3:00', '20.0°C', '1,019毫巴', '每小时3.60公里', '10.00公里', '部分多云 (1,219米)', '本地:', '15:00、2019年10月15日周二', '协调世界时:', '07:00、2019年10月15日周二', '来源:', 'USAF 每小时地面观测', '报告类型:', 'METAR 航空例行天气报告', '露点:', '14.0°C', '其他云层:', '大部分晴天 (610米)', '下午4:00', '20°C', '1,019毫巴', '每小时3.60公里', '10.00公里', '部分多云 (1,219米)', '本地:', '16:00、2019年10月15日周二', '协调世界时:', '08:00、2019年10月15日周二', '来源:', '周期文件', '趋势:', '无重要变化', '露点:', '14°C', '其他云层:', '大部分晴天 (610米)', '原始:', 'ZUUU 150800Z VRB01MPS 9999 FEW020 SCT040 20/14 Q1019 NOSIG', '下午4:00', '20.0°C', '1,019毫巴', '每小时3.60公里', '10.00公里', '部分多云 (1,219米)', '本地:', '16:00、2019年10月15日周二', '协调世界时:', '08:00、2019年10月15日周二', '来源:', 'USAF 每小时地面观测', '报告类型:', 'METAR 航空例行天气报告', '露点:', '14.0°C', '其他云层:', '大部分晴天 (610米)', '下午5:00', '20°C', '1,019毫巴', '每小时7.20公里, 东', '10.00公里', '部分多云 (610米)', '本地:', '17:00、2019年10月15日周二', '协调世界时:', '09:00、2019年10月15日周二', '来源:', '周期文件', '趋势:', '无重要变化', '露点:', '14°C', '其他云层:', '部分多云 (1,219米)', '原始:', 'ZUUU 150900Z 08002MPS 040V140 9999 SCT020 SCT040 20/14 Q1019 NOSIG', '下午5:00', '20.0°C', '1,019毫巴', '每小时7.20公里, 东', '10.00公里', '部分多云 (610米)', '本地:', '17:00、2019年10月15日周二', '协调世界时:', '09:00、2019年10月15日周二', '来源:', 'USAF 每小时地面观测', '报告类型:', 'METAR 航空例行天气报告', '露点:', '14.0°C', '其他云层:', '部分多云 (1,219米)', '下午6:00', '19°C', '1,020毫巴', '每小时10.8公里, 东', '10.00公里', '部分多云 (610米)', '本地:', '18:00、2019年10月15日周二', '协调世界时:', '10:00、2019年10月15日周二', '来源:', '周期文件', '趋势:', '无重要变化', '露点:', '14°C', '其他云层:', '部分多云 (1,219米)', '原始:', 'ZUUU 151000Z 08003MPS 040V110 9999 SCT020 SCT040 19/14 Q1020 NOSIG', '下午6:00', '19.0°C', '1,020毫巴', '每小时10.8公里, 东', '10.00公里', '部分多云 (610米)', '本地:', '18:00、2019年10月15日周二', '协调世界时:', '10:00、2019年10月15日周二', '来源:', 'USAF 每小时地面观测', '报告类型:', 'METAR 航空例行天气报告', '露点:', '14.0°C', '其他云层:', '部分多云 (1,219米)', '下午7:00', '19°C', '1,020毫巴', '每小时10.8公里, 东', '8.00公里', '部分多云 (1,219米)', '本地:', '19:00、2019年10月15日周二', '协调世界时:', '11:00、2019年10月15日周二', '来源:', '周期文件', '趋势:', '无重要变化', '露点:', '15°C', '原始:', 'ZUUU 151100Z 10003MPS 050V140 8000 SCT040 19/15 Q1020 NOSIG', '下午7:00', '19.0°C', '1,020毫巴', '每小时10.8公里, 东', '8.00公里', '部分多云 (1,219米)', '本地:', '19:00、2019年10月15日周二', '协调世界时:', '11:00、2019年10月15日周二', '来源:', 'USAF 每小时地面观测', '报告类型:', 'METAR 航空例行天气报告', '露点:', '15.0°C', '下午8:00', '19°C', '1,021毫巴', '每小时7.20公里, 东北', '7.00公里', '部分多云 (1,219米)', '本地:', '20:00、2019年10月15日周二', '协调世界时:', '12:00、2019年10月15日周二', '来源:', '周期文件', '趋势:', '无重要变化', '露点:', '15°C', '原始:', 'ZUUU 151200Z 04002MPS 350V070 7000 SCT040 19/15 Q1021 NOSIG', '下午8:00', '19.0°C', '1,021毫巴', '每小时7.20公里, 东北', '7.00公里', '部分多云 (1,219米)', '本地:', '20:00、2019年10月15日周二', '协调世界时:', '12:00、2019年10月15日周二', '来源:', 'USAF 每小时地面观测', '报告类型:', 'METAR 航空例行天气报告', '露点:', '15.0°C', '下午9:00', '19°C', '1,021毫巴', '每小时10.8公里, 东', '7.00公里', '大部分多云 (1,006米)', '本地:', '21:00、2019年10月15日周二', '协调世界时:', '13:00、2019年10月15日周二', '来源:', '周期文件', '趋势:', '无重要变化', '露点:', '15°C', '其他云层:', '大部分晴天 (1,006米)', '原始:', 'ZUUU 151300Z 07003MPS 010V100 7000 FEW033TCU BKN033 19/15 Q1021 NOSIG', '下午9:00', '19.0°C', '1,021毫巴', '每小时10.8公里, 东', '7.00公里', '大部分多云 (1,006米)', '本地:', '21:00、2019年10月15日周二', '协调世界时:', '13:00、2019年10月15日周二', '来源:', 'USAF 每小时地面观测', '报告类型:', 'METAR 航空例行天气报告', '露点:', '15.0°C', '其他云层:', '大部分晴天 (1,006米)', '下午10:00', '18°C', '1,022毫巴', '每小时0公里', '7.00公里', '大部分多云 (792米)', '本地:', '22:00、2019年10月15日周二', '协调世界时:', '14:00、2019年10月15日周二', '来源:', '周期文件', '趋势:', '无重要变化', '露点:', '15°C', '其他云层:', '大部分晴天 (396米)、大部分晴天 (792米)', '天气:', 'Showers of Light Rain', '原始:', 'ZUUU 151400Z 00000MPS 7000 -SHRA FEW013 FEW026TCU BKN026 18/15 Q1022 NOSIG', '下午10:00', '18.0°C', '1,022毫巴', '每小时0公里', '7.00公里', '大部分多云 (792米)', '本地:', '22:00、2019年10月15日周二', '协调世界时:', '14:00、2019年10月15日周二', '来源:', 'USAF 每小时地面观测', '报告类型:', 'METAR 航空例行天气报告', '露点:', '15.0°C', '其他云层:', '大部分晴天 (396米)、大部分晴天 (792米)', '天气:', 'Showers of Light Rain', '下午11:00', '17°C', '1,023毫巴', '每小时7.20公里, 北', '6.00公里', '大部分多云 (792米)', '本地:', '23:00、2019年10月15日周二', '协调世界时:', '15:00、2019年10月15日周二', '来源:', '周期文件', '趋势:', '无重要变化', '露点:', '16°C', '其他云层:', '大部分晴天 (792米)', '天气:', 'Showers of Light Rain', '原始:', 'ZUUU 151500Z 36002MPS 320V030 6000 -SHRA FEW026TCU BKN026 17/16 Q1023 NOSIG', '下午11:00', '17.0°C', '1,023毫巴', '每小时7.20公里, 北', '6.00公里', '大部分多云 (792米)', '本地:', '23:00、2019年10月15日周二', '协调世界时:', '15:00、2019年10月15日周二', '来源:', 'USAF 每小时地面观测', '报告类型:', 'METAR 航空例行天气报告', '露点:', '16.0°C', '其他云层:', '大部分晴天 (792米)', '天气:', 'Showers of Light Rain']