['上午12:00', '8°C', '1,030毫巴', '每小时0公里', '≥ 10.00公里', '晴空万里', '本地:', '00:00、2019年12月3日周二', '协调世界时:', '16:00、2019年12月2日周一', '来源:', '周期文件', '趋势:', '无重要变化', '露点:', '5°C', '晴空万里:', '真', '原始:', 'ZUUU 021600Z 00000MPS CAVOK 08/05 Q1030 NOSIG', '上午12:00', '8.0°C', '1,030毫巴', '每小时0公里', '9.90公里', '晴空万里', '本地:', '00:00、2019年12月3日周二', '协调世界时:', '16:00、2019年12月2日周一', '来源:', 'USAF 每小时地面观测', '报告类型:', 'METAR 航空例行天气报告', '露点:', '5.0°C', '晴空万里:', '真', '上午1:00', '8°C', '1,030毫巴', '每小时0公里', '≥ 10.00公里', '晴空万里', '本地:', '01:00、2019年12月3日周二', '协调世界时:', '17:00、2019年12月2日周一', '来源:', '周期文件', '趋势:', '无重要变化', '露点:', '6°C', '晴空万里:', '真', '原始:', 'ZUUU 021700Z 00000MPS CAVOK 08/06 Q1030 NOSIG', '上午1:00', '8.0°C', '1,030毫巴', '每小时0公里', '9.90公里', '晴空万里', '本地:', '01:00、2019年12月3日周二', '协调世界时:', '17:00、2019年12月2日周一', '来源:', 'USAF 每小时地面观测', '报告类型:', 'METAR 航空例行天气报告', '露点:', '6.0°C', '晴空万里:', '真', '上午2:00', '8°C', '1,029毫巴', '每小时0公里', '≥ 10.00公里', '晴空万里', '本地:', '02:00、2019年12月3日周二', '协调世界时:', '18:00、2019年12月2日周一', '来源:', '周期文件', '趋势:', '无重要变化', '露点:', '6°C', '晴空万里:', '真', '原始:', 'ZUUU 021800Z 00000MPS CAVOK 08/06 Q1029 NOSIG', '上午2:00', '8.0°C', '1,029毫巴', '每小时0公里', '9.90公里', '晴空万里', '本地:', '02:00、2019年12月3日周二', '协调世界时:', '18:00、2019年12月2日周一', '来源:', 'USAF 每小时地面观测', '报告类型:', 'METAR 航空例行天气报告', '露点:', '6.0°C', '晴空万里:', '真', '上午3:00', '8°C', '1,029毫巴', '每小时0公里', '≥ 10.00公里', '晴空万里', '本地:', '03:00、2019年12月3日周二', '协调世界时:', '19:00、2019年12月2日周一', '来源:', '周期文件', '趋势:', '无重要变化', '露点:', '6°C', '晴空万里:', '真', '原始:', 'ZUUU 021900Z 00000MPS CAVOK 08/06 Q1029 NOSIG', '上午3:00', '8.0°C', '1,029毫巴', '每小时0公里', '9.90公里', '晴空万里', '本地:', '03:00、2019年12月3日周二', '协调世界时:', '19:00、2019年12月2日周一', '来源:', 'USAF 每小时地面观测', '报告类型:', 'METAR 航空例行天气报告', '露点:', '6.0°C', '晴空万里:', '真', '上午4:00', '7°C', '1,029毫巴', '每小时0公里', '≥ 10.00公里', '晴空万里', '本地:', '04:00、2019年12月3日周二', '协调世界时:', '20:00、2019年12月2日周一', '来源:', '周期文件', '趋势:', '无重要变化', '露点:', '6°C', '晴空万里:', '真', '原始:', 'ZUUU 022000Z 00000MPS CAVOK 07/06 Q1029 NOSIG', '上午4:00', '7.0°C', '1,029毫巴', '每小时0公里', '9.90公里', '晴空万里', '本地:', '04:00、2019年12月3日周二', '协调世界时:', '20:00、2019年12月2日周一', '来源:', 'USAF 每小时地面观测', '报告类型:', 'METAR 航空例行天气报告', '露点:', '6.0°C', '晴空万里:', '真', '上午5:00', '7°C', '1,029毫巴', '每小时0公里', '≥ 10.00公里', '晴空万里', '本地:', '05:00、2019年12月3日周二', '协调世界时:', '21:00、2019年12月2日周一', '来源:', '周期文件', '趋势:', '无重要变化', '露点:', '6°C', '晴空万里:', '真', '原始:', 'ZUUU 022100Z 00000MPS CAVOK 07/06 Q1029 NOSIG', '上午5:00', '7.0°C', '1,029毫巴', '每小时0公里', '9.90公里', '晴空万里', '本地:', '05:00、2019年12月3日周二', '协调世界时:', '21:00、2019年12月2日周一', '来源:', 'USAF 每小时地面观测', '报告类型:', 'METAR 航空例行天气报告', '露点:', '6.0°C', '晴空万里:', '真', '上午6:00', '7°C', '1,028毫巴', '每小时0公里', '≥ 10.00公里', '晴空万里', '本地:', '06:00、2019年12月3日周二', '协调世界时:', '22:00、2019年12月2日周一', '来源:', '周期文件', '趋势:', '无重要变化', '露点:', '6°C', '晴空万里:', '真', '原始:', 'ZUUU 022200Z 00000MPS CAVOK 07/06 Q1028 NOSIG', '上午6:00', '7.0°C', '1,028毫巴', '每小时0公里', '9.90公里', '晴空万里', '本地:', '06:00、2019年12月3日周二', '协调世界时:', '22:00、2019年12月2日周一', '来源:', 'USAF 每小时地面观测', '报告类型:', 'METAR 航空例行天气报告', '露点:', '6.0°C', '晴空万里:', '真', '上午7:00', '7°C', '1,029毫巴', '每小时0公里', '7.00公里', '无重要云', '本地:', '07:00、2019年12月3日周二', '协调世界时:', '23:00、2019年12月2日周一', '来源:', '周期文件', '趋势:', '无重要变化', '露点:', '6°C', '原始:', 'ZUUU 022300Z 00000MPS 7000 NSC 07/06 Q1029 NOSIG', '上午7:00', '7.0°C', '1,029毫巴', '每小时0公里', '7.00公里', '未检测到云', '本地:', '07:00、2019年12月3日周二', '协调世界时:', '23:00、2019年12月2日周一', '来源:', 'USAF 每小时地面观测', '报告类型:', 'METAR 航空例行天气报告', '露点:', '6.0°C', '上午8:00', '8°C', '1,029毫巴', '每小时3.60公里, 西南', '6.00公里', '无重要云', '本地:', '08:00、2019年12月3日周二', '协调世界时:', '00:00、2019年12月3日周二', '来源:', '周期文件', '趋势:', '无重要变化', '露点:', '6°C', '原始:', 'ZUUU 030000Z 22001MPS 6000 NSC 08/06 Q1029 NOSIG', '上午8:00', '8.0°C', '1,029毫巴', '每小时3.60公里, 西南', '6.00公里', '未检测到云', '本地:', '08:00、2019年12月3日周二', '协调世界时:', '00:00、2019年12月3日周二', '来源:', 'USAF 每小时地面观测', '报告类型:', 'METAR 航空例行天气报告', '露点:', '6.0°C', '上午9:00', '8°C', '1,030毫巴', '每小时0公里', '6.00公里', '无重要云', '本地:', '09:00、2019年12月3日周二', '协调世界时:', '01:00、2019年12月3日周二', '来源:', '周期文件', '趋势:', '无重要变化', '露点:', '7°C', '原始:', 'ZUUU 030100Z 00000MPS 6000 NSC 08/07 Q1030 NOSIG', '上午9:00', '8.0°C', '1,030毫巴', '每小时0公里', '6.00公里', '未检测到云', '本地:', '09:00、2019年12月3日周二', '协调世界时:', '01:00、2019年12月3日周二', '来源:', 'USAF 每小时地面观测', '报告类型:', 'METAR 航空例行天气报告', '露点:', '7.0°C', '上午10:00', '9°C', '1,031毫巴', '每小时3.60公里, 西南', '6.00公里', '无重要云', '本地:', '10:00、2019年12月3日周二', '协调世界时:', '02:00、2019年12月3日周二', '来源:', '周期文件', '趋势:', '无重要变化', '露点:', '7°C', '原始:', 'ZUUU 030200Z 21001MPS 6000 NSC 09/07 Q1031 NOSIG', '上午10:00', '9.0°C', '1,031毫巴', '每小时3.60公里, 西南', '6.00公里', '未检测到云', '本地:', '10:00、2019年12月3日周二', '协调世界时:', '02:00、2019年12月3日周二', '来源:', 'USAF 每小时地面观测', '报告类型:', 'METAR 航空例行天气报告', '露点:', '7.0°C', '上午11:00', '10°C', '1,031毫巴', '每小时7.20公里, 西南', '6.00公里', '无重要云', '本地:', '11:00、2019年12月3日周二', '协调世界时:', '03:00、2019年12月3日周二', '来源:', '周期文件', '趋势:', '无重要变化', '露点:', '6°C', '原始:', 'ZUUU 030300Z 22002MPS 180V240 6000 NSC 10/06 Q1031 NOSIG', '上午11:00', '10.0°C', '1,031毫巴', '每小时7.20公里, 西南', '6.00公里', '未检测到云', '本地:', '11:00、2019年12月3日周二', '协调世界时:', '03:00、2019年12月3日周二', '来源:', 'USAF 每小时地面观测', '报告类型:', 'METAR 航空例行天气报告', '露点:', '6.0°C', '下午12:00', '11°C', '1,030毫巴', '每小时3.60公里', '6.00公里', '无重要云', '本地:', '12:00、2019年12月3日周二', '协调世界时:', '04:00、2019年12月3日周二', '来源:', '周期文件', '趋势:', '无重要变化', '露点:', '5°C', '原始:', 'ZUUU 030400Z VRB01MPS 6000 NSC 11/05 Q1030 NOSIG', '下午12:00', '11.0°C', '1,030毫巴', '每小时3.60公里', '6.00公里', '未检测到云', '本地:', '12:00、2019年12月3日周二', '协调世界时:', '04:00、2019年12月3日周二', '来源:', 'USAF 每小时地面观测', '报告类型:', 'METAR 航空例行天气报告', '露点:', '5.0°C', '下午1:00', '12°C', '1,029毫巴', '每小时7.20公里', '6.00公里', '无重要云', '本地:', '13:00、2019年12月3日周二', '协调世界时:', '05:00、2019年12月3日周二', '来源:', '周期文件', '趋势:', '无重要变化', '露点:', '4°C', '原始:', 'ZUUU 030500Z VRB02MPS 6000 NSC 12/04 Q1029 NOSIG', '下午1:00', '12.0°C', '1,029毫巴', '每小时7.20公里', '6.00公里', '未检测到云', '本地:', '13:00、2019年12月3日周二', '协调世界时:', '05:00、2019年12月3日周二', '来源:', 'USAF 每小时地面观测', '报告类型:', 'METAR 航空例行天气报告', '露点:', '4.0°C', '下午2:00', '12°C', '1,028毫巴', '每小时7.20公里, 南', '8.00公里', '大部分晴天 (792米)', '本地:', '14:00、2019年12月3日周二', '协调世界时:', '06:00、2019年12月3日周二', '来源:', '周期文件', '趋势:', '无重要变化', '露点:', '3°C', '原始:', 'ZUUU 030600Z 16002MPS 080V220 8000 FEW026 12/03 Q1028 NOSIG', '下午2:00', '12.0°C', '1,028毫巴', '每小时7.20公里, 南', '8.00公里', '大部分晴天 (792米)', '本地:', '14:00、2019年12月3日周二', '协调世界时:', '06:00、2019年12月3日周二', '来源:', 'USAF 每小时地面观测', '报告类型:', 'METAR 航空例行天气报告', '露点:', '3.0°C', '下午3:00', '13°C', '1,027毫巴', '每小时3.60公里', '10.00公里', '大部分晴天 (792米)', '本地:', '15:00、2019年12月3日周二', '协调世界时:', '07:00、2019年12月3日周二', '来源:', '周期文件', '趋势:', '无重要变化', '露点:', '2°C', '原始:', 'ZUUU 030700Z VRB01MPS 9999 FEW026 13/02 Q1027 NOSIG', '下午3:00', '13.0°C', '1,027毫巴', '每小时3.60公里', '10.00公里', '大部分晴天 (792米)', '本地:', '15:00、2019年12月3日周二', '协调世界时:', '07:00、2019年12月3日周二', '来源:', 'USAF 每小时地面观测', '报告类型:', 'METAR 航空例行天气报告', '露点:', '2.0°C', '下午4:00', '12°C', '1,027毫巴', '每小时3.60公里', '≥ 10.00公里', '晴空万里', '本地:', '16:00、2019年12月3日周二', '协调世界时:', '08:00、2019年12月3日周二', '来源:', '周期文件', '趋势:', '无重要变化', '露点:', '0°C', '晴空万里:', '真', '原始:', 'ZUUU 030800Z VRB01MPS CAVOK 12/00 Q1027 NOSIG', '下午4:00', '12.0°C', '1,027毫巴', '每小时3.60公里', '9.90公里', '晴空万里', '本地:', '16:00、2019年12月3日周二', '协调世界时:', '08:00、2019年12月3日周二', '来源:', 'USAF 每小时地面观测', '报告类型:', 'METAR 航空例行天气报告', '露点:', '0.0°C', '晴空万里:', '真', '下午5:00', '12°C', '1,027毫巴', '每小时7.20公里, 东', '≥ 10.00公里', '晴空万里', '本地:', '17:00、2019年12月3日周二', '协调世界时:', '09:00、2019年12月3日周二', '来源:', '周期文件', '趋势:', '无重要变化', '露点:', '0°C', '晴空万里:', '真', '原始:', 'ZUUU 030900Z 11002MPS 050V160 CAVOK 12/M00 Q1027 NOSIG', '下午5:00', '12.0°C', '1,027毫巴', '每小时7.20公里, 东', '9.90公里', '晴空万里', '本地:', '17:00、2019年12月3日周二', '协调世界时:', '09:00、2019年12月3日周二', '来源:', 'USAF 每小时地面观测', '报告类型:', 'METAR 航空例行天气报告', '露点:', '0.0°C', '晴空万里:', '真', '下午6:00', '11°C', '1,028毫巴', '每小时3.60公里', '≥ 10.00公里', '晴空万里', '本地:', '18:00、2019年12月3日周二', '协调世界时:', '10:00、2019年12月3日周二', '来源:', '周期文件', '趋势:', '无重要变化', '露点:', '0°C', '晴空万里:', '真', '原始:', 'ZUUU 031000Z VRB01MPS CAVOK 11/00 Q1028 NOSIG', '下午6:00', '11.0°C', '1,028毫巴', '每小时3.60公里', '9.90公里', '晴空万里', '本地:', '18:00、2019年12月3日周二', '协调世界时:', '10:00、2019年12月3日周二', '来源:', 'USAF 每小时地面观测', '报告类型:', 'METAR 航空例行天气报告', '露点:', '0.0°C', '晴空万里:', '真', '下午7:00', '7°C', '1,029毫巴', '每小时0公里', '≥ 10.00公里', '晴空万里', '本地:', '19:00、2019年12月3日周二', '协调世界时:', '11:00、2019年12月3日周二', '来源:', '周期文件', '趋势:', '无重要变化', '露点:', '5°C', '晴空万里:', '真', '原始:', 'ZUUU 031100Z 00000MPS CAVOK 07/05 Q1029 NOSIG', '下午7:00', '7.0°C', '1,029毫巴', '每小时0公里', '9.90公里', '晴空万里', '本地:', '19:00、2019年12月3日周二', '协调世界时:', '11:00、2019年12月3日周二', '来源:', 'USAF 每小时地面观测', '报告类型:', 'METAR 航空例行天气报告', '露点:', '5.0°C', '晴空万里:', '真', '下午8:00', '6°C', '1,030毫巴', '每小时3.60公里, 西南', '≥ 10.00公里', '晴空万里', '本地:', '20:00、2019年12月3日周二', '协调世界时:', '12:00、2019年12月3日周二', '来源:', '周期文件', '趋势:', '无重要变化', '露点:', '4°C', '晴空万里:', '真', '原始:', 'ZUUU 031200Z 22001MPS CAVOK 06/04 Q1030 NOSIG', '下午8:00', '6.0°C', '1,030毫巴', '每小时3.60公里, 西南', '9.90公里', '晴空万里', '本地:', '20:00、2019年12月3日周二', '协调世界时:', '12:00、2019年12月3日周二', '来源:', 'USAF 每小时地面观测', '报告类型:', 'METAR 航空例行天气报告', '露点:', '4.0°C', '晴空万里:', '真', '下午9:00', '7°C', '1,030毫巴', '每小时0公里', '≥ 10.00公里', '晴空万里', '本地:', '21:00、2019年12月3日周二', '协调世界时:', '13:00、2019年12月3日周二', '来源:', '周期文件', '趋势:', '无重要变化', '露点:', '4°C', '晴空万里:', '真', '原始:', 'ZUUU 031300Z 00000MPS CAVOK 07/04 Q1030 NOSIG', '下午9:00', '7.0°C', '1,030毫巴', '每小时0公里', '9.90公里', '晴空万里', '本地:', '21:00、2019年12月3日周二', '协调世界时:', '13:00、2019年12月3日周二', '来源:', 'USAF 每小时地面观测', '报告类型:', 'METAR 航空例行天气报告', '露点:', '4.0°C', '晴空万里:', '真', '下午10:00', '7°C', '1,031毫巴', '每小时0公里', '8.00公里', '无重要云', '本地:', '22:00、2019年12月3日周二', '协调世界时:', '14:00、2019年12月3日周二', '来源:', '周期文件', '趋势:', '无重要变化', '露点:', '5°C', '原始:', 'ZUUU 031400Z 00000MPS 8000 NSC 07/05 Q1031 NOSIG', '下午10:00', '7.0°C', '1,031毫巴', '每小时0公里', '8.00公里', '未检测到云', '本地:', '22:00、2019年12月3日周二', '协调世界时:', '14:00、2019年12月3日周二', '来源:', 'USAF 每小时地面观测', '报告类型:', 'METAR 航空例行天气报告', '露点:', '5.0°C', '下午11:00', '8°C', '1,031毫巴', '每小时0公里', '8.00公里', '无重要云', '本地:', '23:00、2019年12月3日周二', '协调世界时:', '15:00、2019年12月3日周二', '来源:', '周期文件', '趋势:', '无重要变化', '露点:', '4°C', '原始:', 'ZUUU 031500Z 00000MPS 8000 NSC 08/04 Q1031 NOSIG', '下午11:00', '8.0°C', '1,031毫巴', '每小时0公里', '8.00公里', '未检测到云', '本地:', '23:00、2019年12月3日周二', '协调世界时:', '15:00、2019年12月3日周二', '来源:', 'USAF 每小时地面观测', '报告类型:', 'METAR 航空例行天气报告', '露点:', '4.0°C']