['Mist', 'BR、IWC10', 'Mist', 'BR、IWC10', 'Mist', 'BR、IWC10', 'Mist', 'BR、IWC10', 'Mist', 'BR、IWC10', '上午12:00', '10°C', '1,018毫巴', '每小时3.60公里', '4.50公里', '大部分多云 (1,524米)', '本地:', '00:00、2019年2月27日周三', '协调世界时:', '16:00、2019年2月26日周二', '来源:', '周期文件', '趋势:', '无重要变化', '露点:', '9°C', '其他云层:', '大部分晴天 (610米)', '天气:', 'Mist', '原始:', 'ZUUU 261600Z VRB01MPS 4500 BR FEW020 BKN050 10/09 Q1018 NOSIG', '上午12:00', '10.0°C', '1,018毫巴', '每小时3.60公里', '4.50公里', '大部分多云 (1,524米)', '本地:', '00:00、2019年2月27日周三', '协调世界时:', '16:00、2019年2月26日周二', '来源:', 'USAF 每小时地面观测', '报告类型:', 'METAR 航空例行天气报告', '露点:', '9.0°C', '其他云层:', '大部分晴天 (610米)', '天气:', 'Mist', '上午1:00', '10°C', '1,018毫巴', '每小时7.20公里, 北', '5.00公里', '部分多云 (1,524米)', '本地:', '01:00、2019年2月27日周三', '协调世界时:', '17:00、2019年2月26日周二', '来源:', '周期文件', '趋势:', '无重要变化', '露点:', '8°C', '天气:', 'Mist', '原始:', 'ZUUU 261700Z 35002MPS 310V030 5000 BR SCT050 10/08 Q1018 NOSIG', '上午1:00', '10.0°C', '1,018毫巴', '每小时7.20公里, 北', '5.00公里', '部分多云 (1,524米)', '本地:', '01:00、2019年2月27日周三', '协调世界时:', '17:00、2019年2月26日周二', '来源:', 'USAF 每小时地面观测', '报告类型:', 'METAR 航空例行天气报告', '露点:', '8.0°C', '天气:', 'Mist', '上午2:00', '10°C', '1,018毫巴', '每小时7.20公里, 北', '5.00公里', '部分多云 (1,219米)', '本地:', '02:00、2019年2月27日周三', '协调世界时:', '18:00、2019年2月26日周二', '来源:', '周期文件', '趋势:', '无重要变化', '露点:', '8°C', '其他云层:', '大部分晴天 (579米)', '天气:', 'Mist', '原始:', 'ZUUU 261800Z 35002MPS 320V020 5000 BR FEW019 SCT040 10/08 Q1018 NOSIG', '上午2:00', '10.0°C', '1,018毫巴', '每小时7.20公里, 北', '5.00公里', '部分多云 (1,219米)', '本地:', '02:00、2019年2月27日周三', '协调世界时:', '18:00、2019年2月26日周二', '来源:', 'USAF 每小时地面观测', '报告类型:', 'METAR 航空例行天气报告', '露点:', '8.0°C', '其他云层:', '大部分晴天 (579米)', '天气:', 'Mist', '上午3:00', '9°C', '1,018毫巴', '每小时7.20公里, 北', '5.00公里', '部分多云 (1,219米)', '本地:', '03:00、2019年2月27日周三', '协调世界时:', '19:00、2019年2月26日周二', '来源:', '周期文件', '趋势:', '无重要变化', '露点:', '8°C', '其他云层:', '大部分晴天 (579米)', '天气:', 'Mist', '原始:', 'ZUUU 261900Z 35002MPS 320V020 5000 BR FEW019 SCT040 09/08 Q1018 NOSIG', '上午3:00', '9.0°C', '1,018毫巴', '每小时7.20公里, 北', '5.00公里', '部分多云 (1,219米)', '本地:', '03:00、2019年2月27日周三', '协调世界时:', '19:00、2019年2月26日周二', '来源:', 'USAF 每小时地面观测', '报告类型:', 'METAR 航空例行天气报告', '露点:', '8.0°C', '其他云层:', '大部分晴天 (579米)', '天气:', 'Mist', '上午4:00', '9°C', '1,018毫巴', '每小时3.60公里', '5.00公里', '部分多云 (1,524米)', '本地:', '04:00、2019年2月27日周三', '协调世界时:', '20:00、2019年2月26日周二', '来源:', '周期文件', '趋势:', '无重要变化', '露点:', '8°C', '天气:', 'Mist', '原始:', 'ZUUU 262000Z VRB01MPS 5000 BR SCT050 09/08 Q1018 NOSIG', '上午4:00', '9.0°C', '1,018毫巴', '每小时3.60公里', '5.00公里', '部分多云 (1,524米)', '本地:', '04:00、2019年2月27日周三', '协调世界时:', '20:00、2019年2月26日周二', '来源:', 'USAF 每小时地面观测', '报告类型:', 'METAR 航空例行天气报告', '露点:', '8.0°C', '天气:', 'Mist', '上午5:00', '9°C', '1,017毫巴', '每小时7.20公里, 北', '6.00公里', '部分多云 (1,219米)', '本地:', '05:00、2019年2月27日周三', '协调世界时:', '21:00、2019年2月26日周二', '来源:', '周期文件', '趋势:', '无重要变化', '露点:', '8°C', '原始:', 'ZUUU 262100Z 36002MPS 320V040 6000 SCT040 09/08 Q1017 NOSIG', '上午5:00', '9.0°C', '1,017毫巴', '每小时7.20公里, 北', '6.00公里', '部分多云 (1,219米)', '本地:', '05:00、2019年2月27日周三', '协调世界时:', '21:00、2019年2月26日周二', '来源:', 'USAF 每小时地面观测', '报告类型:', 'METAR 航空例行天气报告', '露点:', '8.0°C', '上午6:00', '9°C', '1,017毫巴', '每小时3.60公里', '8.00公里', '部分多云 (1,219米)', '本地:', '06:00、2019年2月27日周三', '协调世界时:', '22:00、2019年2月26日周二', '来源:', '周期文件', '趋势:', '无重要变化', '露点:', '7°C', '原始:', 'ZUUU 262200Z VRB01MPS 8000 SCT040 09/07 Q1017 NOSIG', '上午6:00', '9.0°C', '1,017毫巴', '每小时3.60公里', '8.00公里', '部分多云 (1,219米)', '本地:', '06:00、2019年2月27日周三', '协调世界时:', '22:00、2019年2月26日周二', '来源:', 'USAF 每小时地面观测', '报告类型:', 'METAR 航空例行天气报告', '露点:', '7.0°C', '上午7:00', '9°C', '1,018毫巴', '每小时7.20公里, 北', '10.00公里', '部分多云 (1,524米)', '本地:', '07:00、2019年2月27日周三', '协调世界时:', '23:00、2019年2月26日周二', '来源:', '周期文件', '趋势:', '无重要变化', '露点:', '6°C', '原始:', 'ZUUU 262300Z 36002MPS 320V030 9999 SCT050 09/06 Q1018 NOSIG', '上午7:00', '9.0°C', '1,018毫巴', '每小时7.20公里, 北', '10.00公里', '部分多云 (1,524米)', '本地:', '07:00、2019年2月27日周三', '协调世界时:', '23:00、2019年2月26日周二', '来源:', 'USAF 每小时地面观测', '报告类型:', 'METAR 航空例行天气报告', '露点:', '6.0°C', '上午8:00', '9°C', '1,018毫巴', '每小时7.20公里, 北', '10.00公里', '部分多云 (1,524米)', '本地:', '08:00、2019年2月27日周三', '协调世界时:', '00:00、2019年2月27日周三', '来源:', '周期文件', '趋势:', '无重要变化', '露点:', '6°C', '原始:', 'ZUUU 270000Z 36002MPS 330V030 9999 SCT050 09/06 Q1018 NOSIG', '上午8:00', '9.0°C', '1,018毫巴', '每小时7.20公里, 北', '10.00公里', '部分多云 (1,524米)', '本地:', '08:00、2019年2月27日周三', '协调世界时:', '00:00、2019年2月27日周三', '来源:', 'USAF 每小时地面观测', '报告类型:', 'METAR 航空例行天气报告', '露点:', '6.0°C', '上午9:00', '9°C', '1,018毫巴', '每小时10.8公里, 北', '10.00公里', '部分多云 (1,524米)', '本地:', '09:00、2019年2月27日周三', '协调世界时:', '01:00、2019年2月27日周三', '来源:', '周期文件', '趋势:', '无重要变化', '露点:', '6°C', '原始:', 'ZUUU 270100Z 02003MPS 9999 SCT050 09/06 Q1018 NOSIG', '上午9:00', '9.0°C', '1,018毫巴', '每小时10.8公里, 北', '10.00公里', '部分多云 (1,524米)', '本地:', '09:00、2019年2月27日周三', '协调世界时:', '01:00、2019年2月27日周三', '来源:', 'USAF 每小时地面观测', '报告类型:', 'METAR 航空例行天气报告', '露点:', '6.0°C', '上午10:00', '10°C', '1,019毫巴', '每小时10.8公里, 东', '10.00公里', '部分多云 (1,524米)', '本地:', '10:00、2019年2月27日周三', '协调世界时:', '02:00、2019年2月27日周三', '来源:', '周期文件', '趋势:', '无重要变化', '露点:', '6°C', '其他云层:', '大部分晴天 (792米)', '原始:', 'ZUUU 270200Z 07003MPS 020V090 9999 FEW026 SCT050 10/06 Q1019 NOSIG', '上午10:00', '10.0°C', '1,019毫巴', '每小时10.8公里, 东', '10.00公里', '部分多云 (1,524米)', '本地:', '10:00、2019年2月27日周三', '协调世界时:', '02:00、2019年2月27日周三', '来源:', 'USAF 每小时地面观测', '报告类型:', 'METAR 航空例行天气报告', '露点:', '6.0°C', '其他云层:', '大部分晴天 (792米)', '上午11:00', '10°C', '1,019毫巴', '每小时7.20公里, 东南', '10.00公里', '部分多云 (1,524米)', '本地:', '11:00、2019年2月27日周三', '协调世界时:', '03:00、2019年2月27日周三', '来源:', '周期文件', '趋势:', '无重要变化', '露点:', '6°C', '其他云层:', '大部分晴天 (792米)', '原始:', 'ZUUU 270300Z 12002MPS 060V170 9999 FEW026 SCT050 10/06 Q1019 NOSIG', '上午11:00', '10.0°C', '1,019毫巴', '每小时7.20公里, 东南', '10.00公里', '部分多云 (1,524米)', '本地:', '11:00、2019年2月27日周三', '协调世界时:', '03:00、2019年2月27日周三', '来源:', 'USAF 每小时地面观测', '报告类型:', 'METAR 航空例行天气报告', '露点:', '6.0°C', '其他云层:', '大部分晴天 (792米)', '下午12:00', '11°C', '1,019毫巴', '每小时7.20公里, 东', '10.00公里', '部分多云 (1,524米)', '本地:', '12:00、2019年2月27日周三', '协调世界时:', '04:00、2019年2月27日周三', '来源:', '周期文件', '趋势:', '无重要变化', '露点:', '6°C', '其他云层:', '大部分晴天 (792米)', '原始:', 'ZUUU 270400Z 10002MPS 040V160 9999 FEW026 SCT050 11/06 Q1019 NOSIG', '下午12:00', '11.0°C', '1,019毫巴', '每小时7.20公里, 东', '10.00公里', '部分多云 (1,524米)', '本地:', '12:00、2019年2月27日周三', '协调世界时:', '04:00、2019年2月27日周三', '来源:', 'USAF 每小时地面观测', '报告类型:', 'METAR 航空例行天气报告', '露点:', '6.0°C', '其他云层:', '大部分晴天 (792米)', '下午1:00', '11°C', '1,018毫巴', '每小时3.60公里', '10.00公里', '大部分多云 (1,219米)', '本地:', '13:00、2019年2月27日周三', '协调世界时:', '05:00、2019年2月27日周三', '来源:', '周期文件', '趋势:', '无重要变化', '露点:', '5°C', '原始:', 'ZUUU 270500Z VRB01MPS 9999 BKN040 11/05 Q1018 NOSIG', '下午1:00', '11.0°C', '1,018毫巴', '每小时3.60公里', '10.00公里', '大部分多云 (1,219米)', '本地:', '13:00、2019年2月27日周三', '协调世界时:', '05:00、2019年2月27日周三', '来源:', 'USAF 每小时地面观测', '报告类型:', 'METAR 航空例行天气报告', '露点:', '5.0°C', '下午2:00', '11°C', '1,016毫巴', '每小时7.20公里, 北', '10.00公里', '大部分多云 (1,219米)', '本地:', '14:00、2019年2月27日周三', '协调世界时:', '06:00、2019年2月27日周三', '来源:', '周期文件', '趋势:', '无重要变化', '露点:', '6°C', '原始:', 'ZUUU 270600Z 01002MPS 310V080 9999 BKN040 11/06 Q1016 NOSIG', '下午2:00', '11.0°C', '1,016毫巴', '每小时7.20公里, 北', '10.00公里', '大部分多云 (1,219米)', '本地:', '14:00、2019年2月27日周三', '协调世界时:', '06:00、2019年2月27日周三', '来源:', 'USAF 每小时地面观测', '报告类型:', 'METAR 航空例行天气报告', '露点:', '6.0°C', '下午3:00', '11°C', '1,016毫巴', '每小时0公里', '10.00公里', '大部分多云 (1,219米)', '本地:', '15:00、2019年2月27日周三', '协调世界时:', '07:00、2019年2月27日周三', '来源:', '周期文件', '趋势:', '无重要变化', '露点:', '6°C', '原始:', 'ZUUU 270700Z 00000MPS 9999 BKN040 11/06 Q1016 NOSIG', '下午3:00', '11.0°C', '1,016毫巴', '每小时0公里', '10.00公里', '大部分多云 (1,219米)', '本地:', '15:00、2019年2月27日周三', '协调世界时:', '07:00、2019年2月27日周三', '来源:', 'USAF 每小时地面观测', '报告类型:', 'METAR 航空例行天气报告', '露点:', '6.0°C', '下午4:00', '11°C', '1,016毫巴', '每小时3.60公里', '10.00公里', '大部分多云 (1,006米)', '本地:', '16:00、2019年2月27日周三', '协调世界时:', '08:00、2019年2月27日周三', '来源:', '周期文件', '趋势:', '无重要变化', '露点:', '6°C', '原始:', 'ZUUU 270800Z VRB01MPS 9999 BKN033 11/06 Q1016 NOSIG', '下午4:00', '11.0°C', '1,016毫巴', '每小时3.60公里', '10.00公里', '大部分多云 (1,006米)', '本地:', '16:00、2019年2月27日周三', '协调世界时:', '08:00、2019年2月27日周三', '来源:', 'USAF 每小时地面观测', '报告类型:', 'METAR 航空例行天气报告', '露点:', '6.0°C', '下午5:00', '11°C', '1,016毫巴', '每小时3.60公里', '10.00公里', '大部分多云 (1,006米)', '本地:', '17:00、2019年2月27日周三', '协调世界时:', '09:00、2019年2月27日周三', '来源:', '周期文件', '趋势:', '无重要变化', '露点:', '5°C', '原始:', 'ZUUU 270900Z VRB01MPS 9999 BKN033 11/05 Q1016 NOSIG', '下午5:00', '11.0°C', '1,016毫巴', '每小时3.60公里', '10.00公里', '大部分多云 (1,006米)', '本地:', '17:00、2019年2月27日周三', '协调世界时:', '09:00、2019年2月27日周三', '来源:', 'USAF 每小时地面观测', '报告类型:', 'METAR 航空例行天气报告', '露点:', '5.0°C', '下午6:00', '11°C', '1,016毫巴', '每小时10.8公里, 北', '10.00公里', '部分多云 (1,006米)', '本地:', '18:00、2019年2月27日周三', '协调世界时:', '10:00、2019年2月27日周三', '来源:', '周期文件', '趋势:', '无重要变化', '露点:', '5°C', '原始:', 'ZUUU 271000Z 01003MPS 340V040 9999 SCT033 11/05 Q1016 NOSIG', '下午6:00', '11.0°C', '1,016毫巴', '每小时10.8公里, 北', '10.00公里', '部分多云 (1,006米)', '本地:', '18:00、2019年2月27日周三', '协调世界时:', '10:00、2019年2月27日周三', '来源:', 'USAF 每小时地面观测', '报告类型:', 'METAR 航空例行天气报告', '露点:', '5.0°C', '下午7:00', '11°C', '1,017毫巴', '每小时3.60公里', '10.00公里', '大部分晴天 (1,524米)', '本地:', '19:00、2019年2月27日周三', '协调世界时:', '11:00、2019年2月27日周三', '来源:', '周期文件', '趋势:', '无重要变化', '露点:', '5°C', '原始:', 'ZUUU 271100Z VRB01MPS 9999 FEW050 11/05 Q1017 NOSIG', '下午7:00', '11.0°C', '1,017毫巴', '每小时3.60公里', '10.00公里', '大部分晴天 (1,524米)', '本地:', '19:00、2019年2月27日周三', '协调世界时:', '11:00、2019年2月27日周三', '来源:', 'USAF 每小时地面观测', '报告类型:', 'METAR 航空例行天气报告', '露点:', '5.0°C', '下午8:00', '10°C', '1,018毫巴', '每小时0公里', '10.00公里', '大部分晴天 (1,219米)', '本地:', '20:00、2019年2月27日周三', '协调世界时:', '12:00、2019年2月27日周三', '来源:', '周期文件', '趋势:', '无重要变化', '露点:', '5°C', '原始:', 'ZUUU 271200Z 00000MPS 9999 FEW040 10/05 Q1018 NOSIG', '下午8:00', '10.0°C', '1,018毫巴', '每小时0公里', '10.00公里', '大部分晴天 (1,219米)', '本地:', '20:00、2019年2月27日周三', '协调世界时:', '12:00、2019年2月27日周三', '来源:', 'USAF 每小时地面观测', '报告类型:', 'METAR 航空例行天气报告', '露点:', '5.0°C', '下午9:00', '10°C', '1,019毫巴', '每小时7.20公里, 北', '7.00公里', '无重要云', '本地:', '21:00、2019年2月27日周三', '协调世界时:', '13:00、2019年2月27日周三', '来源:', '周期文件', '趋势:', '无重要变化', '露点:', '6°C', '原始:', 'ZUUU 271300Z 01002MPS 340V040 7000 NSC 10/06 Q1019 NOSIG', '下午9:00', '10.0°C', '1,019毫巴', '每小时7.20公里, 北', '7.00公里', '未检测到云', '本地:', '21:00、2019年2月27日周三', '协调世界时:', '13:00、2019年2月27日周三', '来源:', 'USAF 每小时地面观测', '报告类型:', 'METAR 航空例行天气报告', '露点:', '6.0°C', '下午10:00', '9°C', '1,020毫巴', '每小时3.60公里, 北', '7.00公里', '无重要云', '本地:', '22:00、2019年2月27日周三', '协调世界时:', '14:00、2019年2月27日周三', '来源:', '周期文件', '趋势:', '无重要变化', '露点:', '6°C', '原始:', 'ZUUU 271400Z 34001MPS 7000 NSC 09/06 Q1020 NOSIG', '下午10:00', '9.0°C', '1,020毫巴', '每小时3.60公里, 北', '7.00公里', '未检测到云', '本地:', '22:00、2019年2月27日周三', '协调世界时:', '14:00、2019年2月27日周三', '来源:', 'USAF 每小时地面观测', '报告类型:', 'METAR 航空例行天气报告', '露点:', '6.0°C', '下午11:00', '11°C', '1,020毫巴', '每小时7.20公里, 东', '7.00公里', '部分多云 (1,524米)', '本地:', '23:00、2019年2月27日周三', '协调世界时:', '15:00、2019年2月27日周三', '来源:', '周期文件', '趋势:', '无重要变化', '露点:', '6°C', '原始:', 'ZUUU 271500Z 11002MPS 040V190 7000 SCT050 11/06 Q1020 NOSIG', '下午11:00', '11.0°C', '1,020毫巴', '每小时7.20公里, 东', '7.00公里', '部分多云 (1,524米)', '本地:', '23:00、2019年2月27日周三', '协调世界时:', '15:00、2019年2月27日周三', '来源:', 'USAF 每小时地面观测', '报告类型:', 'METAR 航空例行天气报告', '露点:', '6.0°C']