['Showers of Light Rain', '-SHRA', 'Showers of Light Rain、Mist', '-SHRA、BR', 'Showers of Rain、Mist', 'SHRA、BR', 'Showers of Rain、Showers of Light Rain、Mist', 'SHRA、-SHRA、BR', 'Recent Showers of Rain、Showers of Light Rain、Mist', 'RESHRA、-SHRA、BR', 'Showers of Light Rain', '-SHRA', 'Showers of Light Rain、Mist', '-SHRA、BR', 'Showers of Light Rain', '-SHRA', 'Showers of Light Rain', '-SHRA', 'Showers of Light Rain', '-SHRA', 'Showers of Light Rain', '-SHRA', 'Showers of Light Rain', '-SHRA', 'Showers of Light Rain', '-SHRA', '上午12:00', '23°C', '1,007毫巴', '每小时0公里', '6.00公里', '部分多云 (1,006米)', '本地:', '00:00、2019年5月19日周日', '协调世界时:', '16:00、2019年5月18日周六', '来源:', '周期文件', '趋势:', '无重要变化', '露点:', '22°C', '其他云层:', '大部分晴天 (1,006米)', '原始:', 'ZUUU 181600Z 00000MPS 6000 FEW033CB SCT033 23/22 Q1007 NOSIG', '上午1:00', '23°C', '1,008毫巴', '每小时10.8公里, 西南', '6.00公里', '部分多云 (1,006米)', '本地:', '01:00、2019年5月19日周日', '协调世界时:', '17:00、2019年5月18日周六', '来源:', '周期文件', '趋势:', '无重要变化', '露点:', '22°C', '其他云层:', '大部分晴天 (1,006米)', '天气:', 'Showers of Light Rain', '原始:', 'ZUUU 181700Z 21003MPS 6000 -SHRA FEW033CB SCT033 23/22 Q1008 NOSIG', '上午2:00', '22°C', '1,007毫巴', '每小时7.20公里, 西南', '5.00公里', '部分多云 (1,006米)', '本地:', '02:00、2019年5月19日周日', '协调世界时:', '18:00、2019年5月18日周六', '来源:', '周期文件', '趋势:', '无重要变化', '露点:', '22°C', '其他云层:', '大部分晴天 (1,006米)', '天气:', 'Showers of Light Rain、Mist', '原始:', 'ZUUU 181800Z 21002MPS 5000 -SHRA BR FEW033CB SCT033 22/22 Q1007 NOSIG', '上午3:00', '22°C', '1,008毫巴', '每小时0公里', '4.00公里', '部分多云 (1,006米)', '本地:', '03:00、2019年5月19日周日', '协调世界时:', '19:00、2019年5月18日周六', '来源:', '周期文件', '趋势:', '无重要变化', '露点:', '22°C', '其他云层:', '大部分晴天 (1,006米)', '天气:', 'Showers of Rain、Mist', '原始:', 'ZUUU 181900Z 00000MPS 4000 SHRA BR FEW033CB SCT033 22/22 Q1008 NOSIG', '上午4:00', '22°C', '1,008毫巴', '每小时3.60公里', '4.00公里', '部分多云 (1,006米)', '本地:', '04:00、2019年5月19日周日', '协调世界时:', '20:00、2019年5月18日周六', '来源:', '周期文件', '趋势:', '变化为', '露点:', '22°C', '其他云层:', '大部分晴天 (1,006米)', '天气:', 'Showers of Rain、Mist、Showers of Light Rain', '原始:', 'ZUUU 182000Z VRB01MPS 4000 SHRA BR FEW033CB SCT033 22/22 Q1008 BECMG TL2100 -SHRA', '上午5:00', '22°C', '1,008毫巴', '每小时7.20公里, 北', '5.00公里', '部分多云 (1,006米)', '本地:', '05:00、2019年5月19日周日', '协调世界时:', '21:00、2019年5月18日周六', '来源:', '周期文件', '趋势:', '无重要变化', '露点:', '22°C', '其他云层:', '大部分晴天 (1,006米)', '天气:', 'Showers of Light Rain、Mist、Recent Showers of Rain', '原始:', 'ZUUU 182100Z 35002MPS 300V030 5000 -SHRA BR FEW033CB SCT033 22/22 Q1008 RESHRA NOSIG', '上午6:00', '22°C', '1,009毫巴', '每小时3.60公里', '7.00公里', '部分多云 (1,219米)', '本地:', '06:00、2019年5月19日周日', '协调世界时:', '22:00、2019年5月18日周六', '来源:', '周期文件', '趋势:', '无重要变化', '露点:', '22°C', '其他云层:', '大部分晴天 (305米)、大部分晴天 (1,219米)', '天气:', 'Showers of Light Rain', '原始:', 'ZUUU 182200Z VRB01MPS 7000 -SHRA FEW010 FEW040CB SCT040 22/22 Q1009 NOSIG', '上午7:00', '21°C', '1,010毫巴', '每小时3.60公里', '5.00公里', '部分多云 (1,219米)', '本地:', '07:00、2019年5月19日周日', '协调世界时:', '23:00、2019年5月18日周六', '来源:', '周期文件', '趋势:', '无重要变化', '露点:', '21°C', '其他云层:', '大部分晴天 (305米)、大部分晴天 (1,219米)', '天气:', 'Showers of Light Rain、Mist', '原始:', 'ZUUU 182300Z VRB01MPS 5000 -SHRA BR FEW010 FEW040CB SCT040 21/21 Q1010 NOSIG', '上午8:00', '21°C', '1,011毫巴', '每小时3.60公里', '7.00公里', '部分多云 (1,219米)', '本地:', '08:00、2019年5月19日周日', '协调世界时:', '00:00、2019年5月19日周日', '来源:', '周期文件', '趋势:', '无重要变化', '露点:', '21°C', '其他云层:', '大部分晴天 (305米)、大部分晴天 (1,219米)', '天气:', 'Showers of Light Rain', '原始:', 'ZUUU 190000Z VRB01MPS 7000 -SHRA FEW010 FEW040TCU SCT040 21/21 Q1011 NOSIG', '上午9:00', '22°C', '1,012毫巴', '每小时3.60公里', '8.00公里', '部分多云 (1,219米)', '本地:', '09:00、2019年5月19日周日', '协调世界时:', '01:00、2019年5月19日周日', '来源:', '周期文件', '趋势:', '无重要变化', '露点:', '22°C', '其他云层:', '大部分晴天 (1,219米)', '天气:', 'Showers of Light Rain', '原始:', 'ZUUU 190100Z VRB01MPS 8000 -SHRA FEW040TCU SCT040 22/22 Q1012 NOSIG', '上午10:00', '22°C', '1,013毫巴', '每小时0公里', '10.00公里', '部分多云 (1,219米)', '本地:', '10:00、2019年5月19日周日', '协调世界时:', '02:00、2019年5月19日周日', '来源:', '周期文件', '趋势:', '无重要变化', '露点:', '21°C', '其他云层:', '大部分晴天 (1,219米)', '原始:', 'ZUUU 190200Z 00000MPS 9999 FEW040TCU SCT040 22/21 Q1013 NOSIG', '上午11:00', '23°C', '1,014毫巴', '每小时21.6公里, 东北', '10.00公里', '部分多云 (1,006米)', '本地:', '11:00、2019年5月19日周日', '协调世界时:', '03:00、2019年5月19日周日', '来源:', '周期文件', '趋势:', '无重要变化', '露点:', '15°C', '阵风风速:', '每小时43.2公里', '其他云层:', '大部分晴天 (1,006米)', '原始:', 'ZUUU 190300Z 03006G12MPS 360V060 9999 FEW033CB SCT033 23/15 Q1014 NOSIG', '下午12:00', '21°C', '1,014毫巴', '每小时18.0公里, 东北', '10.00公里', '部分多云 (1,006米)', '本地:', '12:00、2019年5月19日周日', '协调世界时:', '04:00、2019年5月19日周日', '来源:', '周期文件', '趋势:', '无重要变化', '露点:', '17°C', '其他云层:', '大部分晴天 (1,006米)', '天气:', 'Showers of Light Rain', '原始:', 'ZUUU 190400Z 03005MPS 9999 -SHRA FEW033CB SCT033 21/17 Q1014 NOSIG', '下午1:00', '22°C', '1,015毫巴', '每小时10.8公里, 东北', '10.00公里', '部分多云 (1,006米)', '本地:', '13:00、2019年5月19日周日', '协调世界时:', '05:00、2019年5月19日周日', '来源:', '周期文件', '趋势:', '无重要变化', '露点:', '16°C', '其他云层:', '大部分晴天 (1,006米)', '天气:', 'Showers of Light Rain', '原始:', 'ZUUU 190500Z 03003MPS 350V080 9999 -SHRA FEW033CB SCT033 22/16 Q1015 NOSIG', '下午2:00', '23°C', '1,015毫巴', '每小时18.0公里, 东北', '10.00公里', '部分多云 (1,219米)', '本地:', '14:00、2019年5月19日周日', '协调世界时:', '06:00、2019年5月19日周日', '来源:', '周期文件', '趋势:', '无重要变化', '露点:', '15°C', '阵风风速:', '每小时36.0公里', '原始:', 'ZUUU 190600Z 06005G10MPS 030V090 9999 SCT040 23/15 Q1015 NOSIG', '下午3:00', '23°C', '1,015毫巴', '每小时18.0公里, 东北', '10.00公里', '部分多云 (1,524米)', '本地:', '15:00、2019年5月19日周日', '协调世界时:', '07:00、2019年5月19日周日', '来源:', '周期文件', '趋势:', '无重要变化', '露点:', '15°C', '原始:', 'ZUUU 190700Z 04005MPS 340V070 9999 SCT050 23/15 Q1015 NOSIG', '下午4:00', '22°C', '1,015毫巴', '每小时0公里', '10.00公里', '部分多云 (1,524米)', '本地:', '16:00、2019年5月19日周日', '协调世界时:', '08:00、2019年5月19日周日', '来源:', '周期文件', '趋势:', '无重要变化', '露点:', '17°C', '原始:', 'ZUUU 190800Z 00000MPS 9999 SCT050 22/17 Q1015 NOSIG', '下午5:00', '22°C', '1,015毫巴', '每小时7.20公里, 西', '≥ 10.00公里', '晴空万里', '本地:', '17:00、2019年5月19日周日', '协调世界时:', '09:00、2019年5月19日周日', '来源:', '周期文件', '趋势:', '无重要变化', '露点:', '17°C', '晴空万里:', '真', '原始:', 'ZUUU 190900Z 26002MPS 230V310 CAVOK 22/17 Q1015 NOSIG', '下午6:00', '22°C', '1,016毫巴', '每小时0公里', '≥ 10.00公里', '晴空万里', '本地:', '18:00、2019年5月19日周日', '协调世界时:', '10:00、2019年5月19日周日', '来源:', '周期文件', '趋势:', '无重要变化', '露点:', '17°C', '晴空万里:', '真', '原始:', 'ZUUU 191000Z 00000MPS CAVOK 22/17 Q1016 NOSIG', '下午7:00', '22°C', '1,017毫巴', '每小时0公里', '≥ 10.00公里', '晴空万里', '本地:', '19:00、2019年5月19日周日', '协调世界时:', '11:00、2019年5月19日周日', '来源:', '周期文件', '趋势:', '无重要变化', '露点:', '14°C', '晴空万里:', '真', '原始:', 'ZUUU 191100Z 00000MPS CAVOK 22/14 Q1017 NOSIG', '下午8:00', '21°C', '1,018毫巴', '每小时7.20公里, 西南', '≥ 10.00公里', '晴空万里', '本地:', '20:00、2019年5月19日周日', '协调世界时:', '12:00、2019年5月19日周日', '来源:', '周期文件', '趋势:', '无重要变化', '露点:', '17°C', '晴空万里:', '真', '原始:', 'ZUUU 191200Z 21002MPS CAVOK 21/17 Q1018 NOSIG', '下午9:00', '20°C', '1,019毫巴', '每小时10.8公里, 南', '10.00公里', '大部分晴天 (396米)', '本地:', '21:00、2019年5月19日周日', '协调世界时:', '13:00、2019年5月19日周日', '来源:', '周期文件', '趋势:', '无重要变化', '露点:', '18°C', '原始:', 'ZUUU 191300Z 19003MPS 150V220 9999 FEW013 20/18 Q1019 NOSIG', '下午10:00', '20°C', '1,020毫巴', '每小时10.8公里, 西南', '10.00公里', '大部分晴天 (396米)', '本地:', '22:00、2019年5月19日周日', '协调世界时:', '14:00、2019年5月19日周日', '来源:', '周期文件', '趋势:', '无重要变化', '露点:', '17°C', '天气:', 'Showers of Light Rain', '原始:', 'ZUUU 191400Z 21003MPS 9999 -SHRA FEW013 20/17 Q1020 NOSIG', '下午11:00', '19°C', '1,020毫巴', '每小时7.20公里, 西南', '10.00公里', '无重要云', '本地:', '23:00、2019年5月19日周日', '协调世界时:', '15:00、2019年5月19日周日', '来源:', '周期文件', '趋势:', '无重要变化', '露点:', '17°C', '天气:', 'Showers of Light Rain', '原始:', 'ZUUU 191500Z 23002MPS 200V260 9999 -SHRA NSC 19/17 Q1020 NOSIG']