['Showers of Light Rain', '-SHRA、IWC80', 'Showers of Light Rain', '-SHRA、IWC80', 'Showers of Light Rain', '-SHRA、IWC80', 'Showers of Light Rain', '-SHRA、IWC80', 'Showers of Light Rain、Mist', '-SHRA、IWC80、BR、IWC10', 'Showers of Light Rain', '-SHRA、IWC80', 'Showers of Light Rain', '-SHRA、IWC80', '上午12:00', '23°C', '1,010毫巴', '每小时10.8公里, 北', '10.00公里', '部分多云 (1,219米)', '本地:', '00:00、2019年6月24日周一', '协调世界时:', '16:00、2019年6月23日周日', '来源:', '周期文件', '趋势:', '无重要变化', '露点:', '19°C', '其他云层:', '大部分晴天 (1,219米)', '原始:', 'ZUUU 231600Z 01003MPS 320V040 9999 FEW040TCU SCT040 23/19 Q1010 NOSIG', '上午12:00', '23.0°C', '1,010毫巴', '每小时10.8公里, 北', '10.00公里', '部分多云 (1,219米)', '本地:', '00:00、2019年6月24日周一', '协调世界时:', '16:00、2019年6月23日周日', '来源:', 'USAF 每小时地面观测', '报告类型:', 'METAR 航空例行天气报告', '露点:', '19.0°C', '其他云层:', '大部分晴天 (1,219米)', '上午1:00', '22°C', '1,010毫巴', '每小时10.8公里, 北', '10.00公里', '部分多云 (1,006米)', '本地:', '01:00、2019年6月24日周一', '协调世界时:', '17:00、2019年6月23日周日', '来源:', '周期文件', '趋势:', '无重要变化', '露点:', '19°C', '其他云层:', '大部分晴天 (1,006米)', '原始:', 'ZUUU 231700Z 02003MPS 340V050 9999 FEW033TCU SCT033 22/19 Q1010 NOSIG', '上午1:00', '22.0°C', '1,010毫巴', '每小时10.8公里, 北', '10.00公里', '部分多云 (1,006米)', '本地:', '01:00、2019年6月24日周一', '协调世界时:', '17:00、2019年6月23日周日', '来源:', 'USAF 每小时地面观测', '报告类型:', 'METAR 航空例行天气报告', '露点:', '19.0°C', '其他云层:', '大部分晴天 (1,006米)', '上午2:00', '23°C', '1,009毫巴', '每小时10.8公里, 东北', '10.00公里', '部分多云 (1,006米)', '本地:', '02:00、2019年6月24日周一', '协调世界时:', '18:00、2019年6月23日周日', '来源:', '周期文件', '趋势:', '无重要变化', '露点:', '19°C', '原始:', 'ZUUU 231800Z 05003MPS 9999 SCT033 23/19 Q1009 NOSIG', '上午2:00', '23.0°C', '1,009毫巴', '每小时10.8公里, 东北', '10.00公里', '部分多云 (1,006米)', '本地:', '02:00、2019年6月24日周一', '协调世界时:', '18:00、2019年6月23日周日', '来源:', 'USAF 每小时地面观测', '报告类型:', 'METAR 航空例行天气报告', '露点:', '19.0°C', '上午3:00', '23°C', '1,009毫巴', '每小时3.60公里', '10.00公里', '部分多云 (1,219米)', '本地:', '03:00、2019年6月24日周一', '协调世界时:', '19:00、2019年6月23日周日', '来源:', '周期文件', '趋势:', '无重要变化', '露点:', '19°C', '原始:', 'ZUUU 231900Z VRB01MPS 9999 SCT040 23/19 Q1009 NOSIG', '上午3:00', '23.0°C', '1,009毫巴', '每小时3.60公里', '10.00公里', '部分多云 (1,219米)', '本地:', '03:00、2019年6月24日周一', '协调世界时:', '19:00、2019年6月23日周日', '来源:', 'USAF 每小时地面观测', '报告类型:', 'METAR 航空例行天气报告', '露点:', '19.0°C', '上午4:00', '23°C', '1,009毫巴', '每小时3.60公里', '10.00公里', '部分多云 (1,219米)', '本地:', '04:00、2019年6月24日周一', '协调世界时:', '20:00、2019年6月23日周日', '来源:', '周期文件', '趋势:', '无重要变化', '露点:', '19°C', '原始:', 'ZUUU 232000Z VRB01MPS 9999 SCT040 23/19 Q1009 NOSIG', '上午4:00', '23.0°C', '1,009毫巴', '每小时3.60公里', '10.00公里', '部分多云 (1,219米)', '本地:', '04:00、2019年6月24日周一', '协调世界时:', '20:00、2019年6月23日周日', '来源:', 'USAF 每小时地面观测', '报告类型:', 'METAR 航空例行天气报告', '露点:', '19.0°C', '上午5:00', '22°C', '1,008毫巴', '每小时7.20公里, 北', '10.00公里', '部分多云 (1,219米)', '本地:', '05:00、2019年6月24日周一', '协调世界时:', '21:00、2019年6月23日周日', '来源:', '周期文件', '趋势:', '无重要变化', '露点:', '18°C', '原始:', 'ZUUU 232100Z 36002MPS 330V040 9999 SCT040 22/18 Q1008 NOSIG', '上午5:00', '22.0°C', '1,008毫巴', '每小时7.20公里, 北', '10.00公里', '部分多云 (1,219米)', '本地:', '05:00、2019年6月24日周一', '协调世界时:', '21:00、2019年6月23日周日', '来源:', 'USAF 每小时地面观测', '报告类型:', 'METAR 航空例行天气报告', '露点:', '18.0°C', '上午6:00', '22°C', '1,008毫巴', '每小时7.20公里, 北', '10.00公里', '部分多云 (1,219米)', '本地:', '06:00、2019年6月24日周一', '协调世界时:', '22:00、2019年6月23日周日', '来源:', '周期文件', '趋势:', '无重要变化', '露点:', '19°C', '其他云层:', '大部分晴天 (792米)', '原始:', 'ZUUU 232200Z 36002MPS 330V040 9999 FEW026 SCT040 22/19 Q1008 NOSIG', '上午6:00', '22.0°C', '1,008毫巴', '每小时7.20公里, 北', '10.00公里', '部分多云 (1,219米)', '本地:', '06:00、2019年6月24日周一', '协调世界时:', '22:00、2019年6月23日周日', '来源:', 'USAF 每小时地面观测', '报告类型:', 'METAR 航空例行天气报告', '露点:', '19.0°C', '其他云层:', '大部分晴天 (792米)', '上午7:00', '22°C', '1,009毫巴', '每小时7.20公里, 北', '10.00公里', '部分多云 (1,219米)', '本地:', '07:00、2019年6月24日周一', '协调世界时:', '23:00、2019年6月23日周日', '来源:', '周期文件', '趋势:', '无重要变化', '露点:', '19°C', '其他云层:', '大部分晴天 (792米)', '原始:', 'ZUUU 232300Z 01002MPS 330V030 9999 FEW026 SCT040 22/19 Q1009 NOSIG', '上午7:00', '22.0°C', '1,009毫巴', '每小时7.20公里, 北', '10.00公里', '部分多云 (1,219米)', '本地:', '07:00、2019年6月24日周一', '协调世界时:', '23:00、2019年6月23日周日', '来源:', 'USAF 每小时地面观测', '报告类型:', 'METAR 航空例行天气报告', '露点:', '19.0°C', '其他云层:', '大部分晴天 (792米)', '上午8:00', '21°C', '1,009毫巴', '每小时7.20公里, 北', '6.00公里', '大部分多云 (914米)', '本地:', '08:00、2019年6月24日周一', '协调世界时:', '00:00、2019年6月24日周一', '来源:', '周期文件', '趋势:', '无重要变化', '露点:', '20°C', '其他云层:', '大部分晴天 (914米)', '天气:', 'Showers of Light Rain', '原始:', 'ZUUU 240000Z 36002MPS 320V040 6000 -SHRA FEW030TCU BKN030 21/20 Q1009 NOSIG', '上午8:00', '21.0°C', '1,009毫巴', '每小时7.20公里, 北', '6.00公里', '大部分多云 (914米)', '本地:', '08:00、2019年6月24日周一', '协调世界时:', '00:00、2019年6月24日周一', '来源:', 'USAF 每小时地面观测', '报告类型:', 'METAR 航空例行天气报告', '露点:', '20.0°C', '其他云层:', '大部分晴天 (914米)', '天气:', 'Showers of Light Rain', '上午9:00', '21°C', '1,010毫巴', '每小时7.20公里, 北', '6.00公里', '部分多云 (792米)', '本地:', '09:00、2019年6月24日周一', '协调世界时:', '01:00、2019年6月24日周一', '来源:', '周期文件', '趋势:', '无重要变化', '露点:', '20°C', '其他云层:', '大部分晴天 (305米)、大部分晴天 (792米)', '天气:', 'Showers of Light Rain', '原始:', 'ZUUU 240100Z 36002MPS 320V030 6000 -SHRA FEW010 FEW026TCU SCT026 21/20 Q1010 NOSIG', '上午9:00', '21.0°C', '1,010毫巴', '每小时7.20公里, 北', '6.00公里', '部分多云 (792米)', '本地:', '09:00、2019年6月24日周一', '协调世界时:', '01:00、2019年6月24日周一', '来源:', 'USAF 每小时地面观测', '报告类型:', 'METAR 航空例行天气报告', '露点:', '20.0°C', '其他云层:', '大部分晴天 (305米)、大部分晴天 (792米)', '天气:', 'Showers of Light Rain', '上午10:00', '21°C', '1,010毫巴', '每小时7.20公里, 北', '6.00公里', '部分多云 (792米)', '本地:', '10:00、2019年6月24日周一', '协调世界时:', '02:00、2019年6月24日周一', '来源:', '周期文件', '趋势:', '无重要变化', '露点:', '20°C', '其他云层:', '大部分晴天 (305米)、大部分晴天 (792米)', '天气:', 'Showers of Light Rain', '原始:', 'ZUUU 240200Z 36002MPS 310V040 6000 -SHRA FEW010 FEW026TCU SCT026 21/20 Q1010 NOSIG', '上午10:00', '21.0°C', '1,010毫巴', '每小时7.20公里, 北', '6.00公里', '部分多云 (792米)', '本地:', '10:00、2019年6月24日周一', '协调世界时:', '02:00、2019年6月24日周一', '来源:', 'USAF 每小时地面观测', '报告类型:', 'METAR 航空例行天气报告', '露点:', '20.0°C', '其他云层:', '大部分晴天 (305米)、大部分晴天 (792米)', '天气:', 'Showers of Light Rain', '上午11:00', '21°C', '1,010毫巴', '每小时7.20公里, 北', '6.00公里', '部分多云 (792米)', '本地:', '11:00、2019年6月24日周一', '协调世界时:', '03:00、2019年6月24日周一', '来源:', '周期文件', '趋势:', '无重要变化', '露点:', '21°C', '其他云层:', '大部分晴天 (305米)、大部分晴天 (792米)', '天气:', 'Showers of Light Rain', '原始:', 'ZUUU 240300Z 36002MPS 320V040 6000 -SHRA FEW010 FEW026TCU SCT026 21/21 Q1010 NOSIG', '上午11:00', '21.0°C', '1,010毫巴', '每小时7.20公里, 北', '6.00公里', '部分多云 (792米)', '本地:', '11:00、2019年6月24日周一', '协调世界时:', '03:00、2019年6月24日周一', '来源:', 'USAF 每小时地面观测', '报告类型:', 'METAR 航空例行天气报告', '露点:', '21.0°C', '其他云层:', '大部分晴天 (305米)、大部分晴天 (792米)', '天气:', 'Showers of Light Rain', '下午12:00', '21°C', '1,010毫巴', '每小时10.8公里, 北', '5.00公里', '部分多云 (305米)', '本地:', '12:00、2019年6月24日周一', '协调世界时:', '04:00、2019年6月24日周一', '来源:', '周期文件', '趋势:', '无重要变化', '露点:', '21°C', '其他云层:', '大部分晴天 (792米)、部分多云 (792米)', '天气:', 'Showers of Light Rain、Mist', '原始:', 'ZUUU 240400Z 01003MPS 330V040 5000 -SHRA BR SCT010 FEW026TCU SCT026 21/21 Q1010 NOSIG', '下午12:00', '21.0°C', '1,010毫巴', '每小时10.8公里, 北', '5.00公里', '部分多云 (305米)', '本地:', '12:00、2019年6月24日周一', '协调世界时:', '04:00、2019年6月24日周一', '来源:', 'USAF 每小时地面观测', '报告类型:', 'METAR 航空例行天气报告', '露点:', '21.0°C', '其他云层:', '大部分晴天 (792米)、部分多云 (792米)', '天气:', 'Mist、Showers of Light Rain', '下午1:00', '22°C', '1,010毫巴', '每小时10.8公里, 北', '10.00公里', '部分多云 (792米)', '本地:', '13:00、2019年6月24日周一', '协调世界时:', '05:00、2019年6月24日周一', '来源:', '周期文件', '趋势:', '无重要变化', '露点:', '21°C', '其他云层:', '大部分晴天 (152米)、大部分晴天 (792米)', '原始:', 'ZUUU 240500Z 02003MPS 9999 FEW005 FEW026TCU SCT026 22/21 Q1010 NOSIG', '下午1:00', '22.0°C', '1,010毫巴', '每小时10.8公里, 北', '10.00公里', '部分多云 (792米)', '本地:', '13:00、2019年6月24日周一', '协调世界时:', '05:00、2019年6月24日周一', '来源:', 'USAF 每小时地面观测', '报告类型:', 'METAR 航空例行天气报告', '露点:', '21.0°C', '其他云层:', '大部分晴天 (152米)、大部分晴天 (792米)', '下午2:00', '22°C', '1,009毫巴', '每小时10.8公里, 东北', '10.00公里', '部分多云 (396米)', '本地:', '14:00、2019年6月24日周一', '协调世界时:', '06:00、2019年6月24日周一', '来源:', '周期文件', '趋势:', '无重要变化', '露点:', '21°C', '其他云层:', '大部分晴天 (183米)、大部分晴天 (792米)', '天气:', 'Showers of Light Rain', '原始:', 'ZUUU 240600Z 03003MPS 010V070 9999 -SHRA FEW006 SCT013 FEW026TCU 22/21 Q1009 NOSIG', '下午2:00', '22.0°C', '1,009毫巴', '每小时10.8公里, 东北', '10.00公里', '部分多云 (396米)', '本地:', '14:00、2019年6月24日周一', '协调世界时:', '06:00、2019年6月24日周一', '来源:', 'USAF 每小时地面观测', '报告类型:', 'METAR 航空例行天气报告', '露点:', '21.0°C', '其他云层:', '大部分晴天 (183米)、大部分晴天 (792米)', '天气:', 'Showers of Light Rain', '下午3:00', '23°C', '1,009毫巴', '每小时7.20公里, 东北', '8.00公里', '大部分多云 (792米)', '本地:', '15:00、2019年6月24日周一', '协调世界时:', '07:00、2019年6月24日周一', '来源:', '周期文件', '趋势:', '无重要变化', '露点:', '21°C', '其他云层:', '大部分晴天 (183米)、部分多云 (396米)', '天气:', 'Showers of Light Rain', '原始:', 'ZUUU 240700Z 06002MPS 330V120 8000 -SHRA FEW006 SCT013 BKN026 23/21 Q1009 NOSIG', '下午3:00', '23.0°C', '1,009毫巴', '每小时7.20公里, 东北', '8.00公里', '大部分多云 (792米)', '本地:', '15:00、2019年6月24日周一', '协调世界时:', '07:00、2019年6月24日周一', '来源:', 'USAF 每小时地面观测', '报告类型:', 'METAR 航空例行天气报告', '露点:', '21.0°C', '其他云层:', '大部分晴天 (183米)、部分多云 (396米)', '天气:', 'Showers of Light Rain', '下午4:00', '23°C', '1,008毫巴', '每小时7.20公里, 北', '10.00公里', '部分多云 (396米)', '本地:', '16:00、2019年6月24日周一', '协调世界时:', '08:00、2019年6月24日周一', '来源:', '周期文件', '趋势:', '无重要变化', '露点:', '21°C', '其他云层:', '大部分晴天 (274米)', '原始:', 'ZUUU 240800Z 01002MPS 340V040 9999 FEW009 SCT013 23/21 Q1008 NOSIG', '下午4:00', '23.0°C', '1,008毫巴', '每小时7.20公里, 北', '10.00公里', '部分多云 (396米)', '本地:', '16:00、2019年6月24日周一', '协调世界时:', '08:00、2019年6月24日周一', '来源:', 'USAF 每小时地面观测', '报告类型:', 'METAR 航空例行天气报告', '露点:', '21.0°C', '其他云层:', '大部分晴天 (274米)', '下午5:00', '24°C', '1,008毫巴', '每小时3.60公里', '10.00公里', '部分多云 (1,006米)', '本地:', '17:00、2019年6月24日周一', '协调世界时:', '09:00、2019年6月24日周一', '来源:', '周期文件', '趋势:', '无重要变化', '露点:', '21°C', '其他云层:', '大部分晴天 (610米)', '原始:', 'ZUUU 240900Z VRB01MPS 9999 FEW020 SCT033 24/21 Q1008 NOSIG', '下午5:00', '24.0°C', '1,008毫巴', '每小时3.60公里', '10.00公里', '部分多云 (1,006米)', '本地:', '17:00、2019年6月24日周一', '协调世界时:', '09:00、2019年6月24日周一', '来源:', 'USAF 每小时地面观测', '报告类型:', 'METAR 航空例行天气报告', '露点:', '21.0°C', '其他云层:', '大部分晴天 (610米)', '下午6:00', '24°C', '1,008毫巴', '每小时3.60公里', '10.00公里', '部分多云 (1,219米)', '本地:', '18:00、2019年6月24日周一', '协调世界时:', '10:00、2019年6月24日周一', '来源:', '周期文件', '趋势:', '无重要变化', '露点:', '21°C', '其他云层:', '大部分晴天 (610米)', '原始:', 'ZUUU 241000Z VRB01MPS 9999 FEW020 SCT040 24/21 Q1008 NOSIG', '下午6:00', '24.0°C', '1,008毫巴', '每小时3.60公里', '10.00公里', '部分多云 (1,219米)', '本地:', '18:00、2019年6月24日周一', '协调世界时:', '10:00、2019年6月24日周一', '来源:', 'USAF 每小时地面观测', '报告类型:', 'METAR 航空例行天气报告', '露点:', '21.0°C', '其他云层:', '大部分晴天 (610米)', '下午7:00', '24°C', '1,008毫巴', '每小时0公里', '10.00公里', '部分多云 (792米)', '本地:', '19:00、2019年6月24日周一', '协调世界时:', '11:00、2019年6月24日周一', '来源:', '周期文件', '趋势:', '无重要变化', '露点:', '21°C', '原始:', 'ZUUU 241100Z 00000MPS 9999 SCT026 24/21 Q1008 NOSIG', '下午7:00', '24.0°C', '1,008毫巴', '每小时0公里', '10.00公里', '部分多云 (792米)', '本地:', '19:00、2019年6月24日周一', '协调世界时:', '11:00、2019年6月24日周一', '来源:', 'USAF 每小时地面观测', '报告类型:', 'METAR 航空例行天气报告', '露点:', '21.0°C', '下午8:00', '23°C', '1,009毫巴', '每小时7.20公里, 西南', '10.00公里', '部分多云 (701米)', '本地:', '20:00、2019年6月24日周一', '协调世界时:', '12:00、2019年6月24日周一', '来源:', '周期文件', '趋势:', '无重要变化', '露点:', '22°C', '原始:', 'ZUUU 241200Z 22002MPS 9999 SCT023 23/22 Q1009 NOSIG', '下午8:00', '23.0°C', '1,009毫巴', '每小时7.20公里, 西南', '10.00公里', '部分多云 (701米)', '本地:', '20:00、2019年6月24日周一', '协调世界时:', '12:00、2019年6月24日周一', '来源:', 'USAF 每小时地面观测', '报告类型:', 'METAR 航空例行天气报告', '露点:', '22.0°C', '下午9:00', '24°C', '1,009毫巴', '每小时7.20公里, 西南', '10.00公里', '部分多云 (701米)', '本地:', '21:00、2019年6月24日周一', '协调世界时:', '13:00、2019年6月24日周一', '来源:', '周期文件', '趋势:', '无重要变化', '露点:', '22°C', '原始:', 'ZUUU 241300Z 24002MPS 210V270 9999 SCT023 24/22 Q1009 NOSIG', '下午9:00', '24.0°C', '1,009毫巴', '每小时7.20公里, 西南', '10.00公里', '部分多云 (701米)', '本地:', '21:00、2019年6月24日周一', '协调世界时:', '13:00、2019年6月24日周一', '来源:', 'USAF 每小时地面观测', '报告类型:', 'METAR 航空例行天气报告', '露点:', '22.0°C', '下午10:00', '23°C', '1,010毫巴', '每小时7.20公里, 南', '8.00公里', '部分多云 (701米)', '本地:', '22:00、2019年6月24日周一', '协调世界时:', '14:00、2019年6月24日周一', '来源:', '周期文件', '趋势:', '无重要变化', '露点:', '22°C', '原始:', 'ZUUU 241400Z 20002MPS 8000 SCT023 23/22 Q1010 NOSIG', '下午10:00', '23.0°C', '1,010毫巴', '每小时7.20公里, 南', '8.00公里', '部分多云 (701米)', '本地:', '22:00、2019年6月24日周一', '协调世界时:', '14:00、2019年6月24日周一', '来源:', 'USAF 每小时地面观测', '报告类型:', 'METAR 航空例行天气报告', '露点:', '22.0°C', '下午11:00', '23°C', '1,010毫巴', '每小时3.60公里', '8.00公里', '部分多云 (701米)', '本地:', '23:00、2019年6月24日周一', '协调世界时:', '15:00、2019年6月24日周一', '来源:', '周期文件', '趋势:', '无重要变化', '露点:', '22°C', '原始:', 'ZUUU 241500Z VRB01MPS 8000 SCT023 23/22 Q1010 NOSIG', '下午11:00', '23.0°C', '1,010毫巴', '每小时3.60公里', '8.00公里', '部分多云 (701米)', '本地:', '23:00、2019年6月24日周一', '协调世界时:', '15:00、2019年6月24日周一', '来源:', 'USAF 每小时地面观测', '报告类型:', 'METAR 航空例行天气报告', '露点:', '22.0°C']