['Mist', 'BR、IWC10', 'Mist', 'BR、IWC10', 'Mist', 'BR、IWC10', 'Mist', 'BR、IWC10', 'Mist', 'BR、IWC10', 'Mist', 'BR、IWC10', 'Mist', 'BR、IWC10', 'Mist', 'BR、IWC10', 'Mist', 'BR、IWC10', 'Mist', 'BR、IWC10', 'Mist', 'BR、IWC10', 'Mist', 'BR、IWC10', 'Mist', 'BR、IWC10', 'Mist', 'BR、IWC10', 'Mist', 'BR、IWC10', 'Mist', 'BR、IWC10', 'Mist', 'BR、IWC10', 'Mist', 'BR、IWC10', 'Mist', 'BR、IWC10', 'Mist', 'BR、IWC10', 'Mist', 'BR、IWC10', '上午12:00', '9°C', '1,022毫巴', '每小时0公里', '6.00公里', '部分多云 (1,524米)', '本地:', '00:00、2019年12月24日周二', '协调世界时:', '16:00、2019年12月23日周一', '来源:', '周期文件', '趋势:', '无重要变化', '露点:', '7°C', '原始:', 'ZUUU 231600Z 00000MPS 6000 SCT050 09/07 Q1022 NOSIG', '上午12:00', '9.0°C', '1,022毫巴', '每小时0公里', '6.00公里', '部分多云 (1,524米)', '本地:', '00:00、2019年12月24日周二', '协调世界时:', '16:00、2019年12月23日周一', '来源:', 'USAF 每小时地面观测', '报告类型:', 'METAR 航空例行天气报告', '露点:', '7.0°C', '上午1:00', '9°C', '1,021毫巴', '每小时0公里', '6.00公里', '部分多云 (1,524米)', '本地:', '01:00、2019年12月24日周二', '协调世界时:', '17:00、2019年12月23日周一', '来源:', '周期文件', '趋势:', '无重要变化', '露点:', '7°C', '原始:', 'ZUUU 231700Z 00000MPS 6000 SCT050 09/07 Q1021 NOSIG', '上午1:00', '9.0°C', '1,021毫巴', '每小时0公里', '6.00公里', '部分多云 (1,524米)', '本地:', '01:00、2019年12月24日周二', '协调世界时:', '17:00、2019年12月23日周一', '来源:', 'USAF 每小时地面观测', '报告类型:', 'METAR 航空例行天气报告', '露点:', '7.0°C', '上午2:00', '9°C', '1,021毫巴', '每小时0公里', '6.00公里', '部分多云 (1,524米)', '本地:', '02:00、2019年12月24日周二', '协调世界时:', '18:00、2019年12月23日周一', '来源:', '周期文件', '趋势:', '无重要变化', '露点:', '8°C', '原始:', 'ZUUU 231800Z 00000MPS 6000 SCT050 09/08 Q1021 NOSIG', '上午2:00', '9.0°C', '1,021毫巴', '每小时0公里', '6.00公里', '部分多云 (1,524米)', '本地:', '02:00、2019年12月24日周二', '协调世界时:', '18:00、2019年12月23日周一', '来源:', 'USAF 每小时地面观测', '报告类型:', 'METAR 航空例行天气报告', '露点:', '8.0°C', '上午3:00', '9°C', '1,021毫巴', '每小时0公里', '5.00公里', '部分多云 (1,524米)', '本地:', '03:00、2019年12月24日周二', '协调世界时:', '19:00、2019年12月23日周一', '来源:', '周期文件', '趋势:', '无重要变化', '露点:', '7°C', '天气:', 'Mist', '原始:', 'ZUUU 231900Z 00000MPS 5000 BR SCT050 09/07 Q1021 NOSIG', '上午3:00', '9.0°C', '1,021毫巴', '每小时0公里', '5.00公里', '部分多云 (1,524米)', '本地:', '03:00、2019年12月24日周二', '协调世界时:', '19:00、2019年12月23日周一', '来源:', 'USAF 每小时地面观测', '报告类型:', 'METAR 航空例行天气报告', '露点:', '7.0°C', '天气:', 'Mist', '上午4:00', '9°C', '1,021毫巴', '每小时0公里', '4.50公里', '部分多云 (1,524米)', '本地:', '04:00、2019年12月24日周二', '协调世界时:', '20:00、2019年12月23日周一', '来源:', '周期文件', '趋势:', '无重要变化', '露点:', '7°C', '天气:', 'Mist', '原始:', 'ZUUU 232000Z 00000MPS 4500 BR SCT050 09/07 Q1021 NOSIG', '上午4:00', '9.0°C', '1,021毫巴', '每小时0公里', '4.50公里', '部分多云 (1,524米)', '本地:', '04:00、2019年12月24日周二', '协调世界时:', '20:00、2019年12月23日周一', '来源:', 'USAF 每小时地面观测', '报告类型:', 'METAR 航空例行天气报告', '露点:', '7.0°C', '天气:', 'Mist', '上午5:00', '9°C', '1,020毫巴', '每小时0公里', '4.50公里', '部分多云 (1,524米)', '本地:', '05:00、2019年12月24日周二', '协调世界时:', '21:00、2019年12月23日周一', '来源:', '周期文件', '趋势:', '无重要变化', '露点:', '7°C', '天气:', 'Mist', '原始:', 'ZUUU 232100Z 00000MPS 4500 BR SCT050 09/07 Q1020 NOSIG', '上午5:00', '9.0°C', '1,020毫巴', '每小时0公里', '4.50公里', '部分多云 (1,524米)', '本地:', '05:00、2019年12月24日周二', '协调世界时:', '21:00、2019年12月23日周一', '来源:', 'USAF 每小时地面观测', '报告类型:', 'METAR 航空例行天气报告', '露点:', '7.0°C', '天气:', 'Mist', '上午6:00', '9°C', '1,020毫巴', '每小时0公里', '4.50公里', '部分多云 (1,524米)', '本地:', '06:00、2019年12月24日周二', '协调世界时:', '22:00、2019年12月23日周一', '来源:', '周期文件', '趋势:', '变化为', '露点:', '7°C', '天气:', 'Mist、Mist', '原始:', 'ZUUU 232200Z 00000MPS 4500 BR SCT050 09/07 Q1020 BECMG 2700 BR', '上午6:00', '9.0°C', '1,020毫巴', '每小时0公里', '4.50公里', '部分多云 (1,524米)', '本地:', '06:00、2019年12月24日周二', '协调世界时:', '22:00、2019年12月23日周一', '来源:', 'USAF 每小时地面观测', '报告类型:', 'METAR 航空例行天气报告', '露点:', '7.0°C', '天气:', 'Mist', '上午7:00', '9°C', '1,020毫巴', '每小时0公里', '4.50公里', '部分多云 (1,219米)', '本地:', '07:00、2019年12月24日周二', '协调世界时:', '23:00、2019年12月23日周一', '来源:', '周期文件', '趋势:', '无重要变化', '露点:', '7°C', '天气:', 'Mist', '原始:', 'ZUUU 232300Z 00000MPS 4500 BR SCT040 09/07 Q1020 NOSIG', '上午7:00', '9.0°C', '1,020毫巴', '每小时0公里', '4.50公里', '部分多云 (1,219米)', '本地:', '07:00、2019年12月24日周二', '协调世界时:', '23:00、2019年12月23日周一', '来源:', 'USAF 每小时地面观测', '报告类型:', 'METAR 航空例行天气报告', '露点:', '7.0°C', '天气:', 'Mist', '上午8:00', '9°C', '1,021毫巴', '每小时0公里', '3.50公里', '部分多云 (1,219米)', '本地:', '08:00、2019年12月24日周二', '协调世界时:', '00:00、2019年12月24日周二', '来源:', '周期文件', '趋势:', '变化为', '露点:', '8°C', '天气:', 'Mist、Mist', '原始:', 'ZUUU 240000Z 00000MPS 3500 BR SCT040 09/08 Q1021 BECMG TL0030 2700 BR', '上午8:00', '9.0°C', '1,021毫巴', '每小时0公里', '3.50公里', '部分多云 (1,219米)', '本地:', '08:00、2019年12月24日周二', '协调世界时:', '00:00、2019年12月24日周二', '来源:', 'USAF 每小时地面观测', '报告类型:', 'METAR 航空例行天气报告', '露点:', '8.0°C', '天气:', 'Mist', '上午9:00', '9°C', '1,021毫巴', '每小时0公里', '2.70公里', '部分多云 (1,219米)', '本地:', '09:00、2019年12月24日周二', '协调世界时:', '01:00、2019年12月24日周二', '来源:', '周期文件', '趋势:', '变化为', '露点:', '7°C', '天气:', 'Mist', '原始:', 'ZUUU 240100Z 00000MPS 2700 BR SCT040 09/07 Q1021 BECMG TL0230 3200', '上午9:00', '9.0°C', '1,021毫巴', '每小时0公里', '2.70公里', '部分多云 (1,219米)', '本地:', '09:00、2019年12月24日周二', '协调世界时:', '01:00、2019年12月24日周二', '来源:', 'USAF 每小时地面观测', '报告类型:', 'METAR 航空例行天气报告', '露点:', '7.0°C', '天气:', 'Mist', '上午10:00', '9°C', '1,021毫巴', '每小时0公里', '2.70公里', '部分多云 (1,219米)', '本地:', '10:00、2019年12月24日周二', '协调世界时:', '02:00、2019年12月24日周二', '来源:', '周期文件', '趋势:', '变化为', '露点:', '8°C', '天气:', 'Mist', '原始:', 'ZUUU 240200Z 00000MPS 2700 BR SCT040 09/08 Q1021 BECMG TL0330 3200', '上午10:00', '9.0°C', '1,021毫巴', '每小时0公里', '2.70公里', '部分多云 (1,219米)', '本地:', '10:00、2019年12月24日周二', '协调世界时:', '02:00、2019年12月24日周二', '来源:', 'USAF 每小时地面观测', '报告类型:', 'METAR 航空例行天气报告', '露点:', '8.0°C', '天气:', 'Mist', '上午11:00', '10°C', '1,021毫巴', '每小时0公里', '3.00公里', '部分多云 (1,219米)', '本地:', '11:00、2019年12月24日周二', '协调世界时:', '03:00、2019年12月24日周二', '来源:', '周期文件', '趋势:', '无重要变化', '露点:', '8°C', '其他云层:', '大部分晴天 (610米)', '天气:', 'Mist', '原始:', 'ZUUU 240300Z 00000MPS 3000 BR FEW020 SCT040 10/08 Q1021 NOSIG', '上午11:00', '10.0°C', '1,021毫巴', '每小时0公里', '3.00公里', '部分多云 (1,219米)', '本地:', '11:00、2019年12月24日周二', '协调世界时:', '03:00、2019年12月24日周二', '来源:', 'USAF 每小时地面观测', '报告类型:', 'METAR 航空例行天气报告', '露点:', '8.0°C', '其他云层:', '大部分晴天 (610米)', '天气:', 'Mist', '下午12:00', '10°C', '1,020毫巴', '每小时0公里', '3.50公里', '部分多云 (1,219米)', '本地:', '12:00、2019年12月24日周二', '协调世界时:', '04:00、2019年12月24日周二', '来源:', '周期文件', '趋势:', '无重要变化', '露点:', '8°C', '其他云层:', '大部分晴天 (610米)', '天气:', 'Mist', '原始:', 'ZUUU 240400Z 00000MPS 3500 BR FEW020 SCT040 10/08 Q1020 NOSIG', '下午12:00', '10.0°C', '1,020毫巴', '每小时0公里', '3.50公里', '部分多云 (1,219米)', '本地:', '12:00、2019年12月24日周二', '协调世界时:', '04:00、2019年12月24日周二', '来源:', 'USAF 每小时地面观测', '报告类型:', 'METAR 航空例行天气报告', '露点:', '8.0°C', '其他云层:', '大部分晴天 (610米)', '天气:', 'Mist', '下午1:00', '10°C', '1,019毫巴', '每小时3.60公里, 西南', '4.00公里', '部分多云 (1,219米)', '本地:', '13:00、2019年12月24日周二', '协调世界时:', '05:00、2019年12月24日周二', '来源:', '周期文件', '趋势:', '无重要变化', '露点:', '8°C', '天气:', 'Mist', '原始:', 'ZUUU 240500Z 24001MPS 4000 BR SCT040 10/08 Q1019 NOSIG', '下午1:00', '10.0°C', '1,019毫巴', '每小时3.60公里, 西南', '4.00公里', '部分多云 (1,219米)', '本地:', '13:00、2019年12月24日周二', '协调世界时:', '05:00、2019年12月24日周二', '来源:', 'USAF 每小时地面观测', '报告类型:', 'METAR 航空例行天气报告', '露点:', '8.0°C', '天气:', 'Mist', '下午2:00', '10°C', '1,017毫巴', '每小时0公里', '4.00公里', '部分多云 (1,219米)', '本地:', '14:00、2019年12月24日周二', '协调世界时:', '06:00、2019年12月24日周二', '来源:', '周期文件', '趋势:', '无重要变化', '露点:', '7°C', '其他云层:', '大部分晴天 (701米)', '天气:', 'Mist', '原始:', 'ZUUU 240600Z 00000MPS 4000 BR FEW023 SCT040 10/07 Q1017 NOSIG', '下午2:00', '10.0°C', '1,017毫巴', '每小时0公里', '4.00公里', '部分多云 (1,219米)', '本地:', '14:00、2019年12月24日周二', '协调世界时:', '06:00、2019年12月24日周二', '来源:', 'USAF 每小时地面观测', '报告类型:', 'METAR 航空例行天气报告', '露点:', '7.0°C', '其他云层:', '大部分晴天 (701米)', '天气:', 'Mist', '下午3:00', '11°C', '1,016毫巴', '每小时3.60公里', '5.00公里', '部分多云 (1,219米)', '本地:', '15:00、2019年12月24日周二', '协调世界时:', '07:00、2019年12月24日周二', '来源:', '周期文件', '趋势:', '无重要变化', '露点:', '7°C', '天气:', 'Mist', '原始:', 'ZUUU 240700Z VRB01MPS 5000 BR SCT040 11/07 Q1016 NOSIG', '下午3:00', '11.0°C', '1,016毫巴', '每小时3.60公里', '5.00公里', '部分多云 (1,219米)', '本地:', '15:00、2019年12月24日周二', '协调世界时:', '07:00、2019年12月24日周二', '来源:', 'USAF 每小时地面观测', '报告类型:', 'METAR 航空例行天气报告', '露点:', '7.0°C', '天气:', 'Mist', '下午4:00', '11°C', '1,015毫巴', '每小时3.60公里', '5.00公里', '部分多云 (1,219米)', '本地:', '16:00、2019年12月24日周二', '协调世界时:', '08:00、2019年12月24日周二', '来源:', '周期文件', '趋势:', '无重要变化', '露点:', '6°C', '天气:', 'Mist', '原始:', 'ZUUU 240800Z VRB01MPS 5000 BR SCT040 11/06 Q1015 NOSIG', '下午4:00', '11.0°C', '1,015毫巴', '每小时3.60公里', '5.00公里', '部分多云 (1,219米)', '本地:', '16:00、2019年12月24日周二', '协调世界时:', '08:00、2019年12月24日周二', '来源:', 'USAF 每小时地面观测', '报告类型:', 'METAR 航空例行天气报告', '露点:', '6.0°C', '天气:', 'Mist', '下午5:00', '10°C', '1,015毫巴', '每小时0公里', '5.00公里', '部分多云 (1,524米)', '本地:', '17:00、2019年12月24日周二', '协调世界时:', '09:00、2019年12月24日周二', '来源:', '周期文件', '趋势:', '无重要变化', '露点:', '7°C', '其他云层:', '大部分晴天 (792米)', '天气:', 'Mist', '原始:', 'ZUUU 240900Z 00000MPS 5000 BR FEW026 SCT050 10/07 Q1015 NOSIG', '下午5:00', '10.0°C', '1,015毫巴', '每小时0公里', '5.00公里', '部分多云 (1,524米)', '本地:', '17:00、2019年12月24日周二', '协调世界时:', '09:00、2019年12月24日周二', '来源:', 'USAF 每小时地面观测', '报告类型:', 'METAR 航空例行天气报告', '露点:', '7.0°C', '其他云层:', '大部分晴天 (792米)', '天气:', 'Mist', '下午6:00', '10°C', '1,016毫巴', '每小时3.60公里', '3.20公里', '大部分多云 (1,524米)', '本地:', '18:00、2019年12月24日周二', '协调世界时:', '10:00、2019年12月24日周二', '来源:', '周期文件', '趋势:', '无重要变化', '露点:', '7°C', '其他云层:', '大部分晴天 (792米)', '天气:', 'Mist', '原始:', 'ZUUU 241000Z VRB01MPS 3200 BR FEW026 BKN050 10/07 Q1016 NOSIG', '下午6:00', '10.0°C', '1,016毫巴', '每小时3.60公里', '3.20公里', '大部分多云 (1,524米)', '本地:', '18:00、2019年12月24日周二', '协调世界时:', '10:00、2019年12月24日周二', '来源:', 'USAF 每小时地面观测', '报告类型:', 'METAR 航空例行天气报告', '露点:', '7.0°C', '其他云层:', '大部分晴天 (792米)', '天气:', 'Mist', '下午7:00', '10°C', '1,016毫巴', '每小时3.60公里', '4.00公里', '大部分多云 (1,524米)', '本地:', '19:00、2019年12月24日周二', '协调世界时:', '11:00、2019年12月24日周二', '来源:', '周期文件', '趋势:', '无重要变化', '露点:', '7°C', '其他云层:', '大部分晴天 (701米)', '天气:', 'Mist', '原始:', 'ZUUU 241100Z VRB01MPS 4000 BR FEW023 BKN050 10/07 Q1016 NOSIG', '下午7:00', '10.0°C', '1,016毫巴', '每小时3.60公里', '4.00公里', '大部分多云 (1,524米)', '本地:', '19:00、2019年12月24日周二', '协调世界时:', '11:00、2019年12月24日周二', '来源:', 'USAF 每小时地面观测', '报告类型:', 'METAR 航空例行天气报告', '露点:', '7.0°C', '其他云层:', '大部分晴天 (701米)', '天气:', 'Mist', '下午8:00', '10°C', '1,016毫巴', '每小时3.60公里', '4.00公里', '大部分多云 (1,524米)', '本地:', '20:00、2019年12月24日周二', '协调世界时:', '12:00、2019年12月24日周二', '来源:', '周期文件', '趋势:', '无重要变化', '露点:', '7°C', '其他云层:', '大部分晴天 (610米)', '天气:', 'Mist', '原始:', 'ZUUU 241200Z VRB01MPS 4000 BR FEW020 BKN050 10/07 Q1016 NOSIG', '下午8:00', '10.0°C', '1,016毫巴', '每小时3.60公里', '4.00公里', '大部分多云 (1,524米)', '本地:', '20:00、2019年12月24日周二', '协调世界时:', '12:00、2019年12月24日周二', '来源:', 'USAF 每小时地面观测', '报告类型:', 'METAR 航空例行天气报告', '露点:', '7.0°C', '其他云层:', '大部分晴天 (610米)', '天气:', 'Mist', '下午9:00', '10°C', '1,017毫巴', '每小时0公里', '4.50公里', '大部分多云 (1,524米)', '本地:', '21:00、2019年12月24日周二', '协调世界时:', '13:00、2019年12月24日周二', '来源:', '周期文件', '趋势:', '无重要变化', '露点:', '8°C', '其他云层:', '大部分晴天 (610米)', '天气:', 'Mist', '原始:', 'ZUUU 241300Z 00000MPS 4500 BR FEW020 BKN050 10/08 Q1017 NOSIG', '下午9:00', '10.0°C', '1,017毫巴', '每小时0公里', '4.50公里', '大部分多云 (1,524米)', '本地:', '21:00、2019年12月24日周二', '协调世界时:', '13:00、2019年12月24日周二', '来源:', 'USAF 每小时地面观测', '报告类型:', 'METAR 航空例行天气报告', '露点:', '8.0°C', '其他云层:', '大部分晴天 (610米)', '天气:', 'Mist', '下午10:00', '9°C', '1,017毫巴', '每小时3.60公里', '3.50公里', '大部分多云 (1,524米)', '本地:', '22:00、2019年12月24日周二', '协调世界时:', '14:00、2019年12月24日周二', '来源:', '周期文件', '趋势:', '无重要变化', '露点:', '7°C', '天气:', 'Mist', '原始:', 'ZUUU 241400Z VRB01MPS 3500 BR BKN050 09/07 Q1017 NOSIG', '下午10:00', '9.0°C', '1,017毫巴', '每小时3.60公里', '3.50公里', '大部分多云 (1,524米)', '本地:', '22:00、2019年12月24日周二', '协调世界时:', '14:00、2019年12月24日周二', '来源:', 'USAF 每小时地面观测', '报告类型:', 'METAR 航空例行天气报告', '露点:', '7.0°C', '天气:', 'Mist', '下午11:00', '9°C', '1,017毫巴', '每小时3.60公里', '3.50公里', '大部分多云 (1,524米)', '本地:', '23:00、2019年12月24日周二', '协调世界时:', '15:00、2019年12月24日周二', '来源:', '周期文件', '趋势:', '无重要变化', '露点:', '7°C', '天气:', 'Mist', '原始:', 'ZUUU 241500Z VRB01MPS 3500 BR BKN050 09/07 Q1017 NOSIG', '下午11:00', '9.0°C', '1,017毫巴', '每小时3.60公里', '3.50公里', '大部分多云 (1,524米)', '本地:', '23:00、2019年12月24日周二', '协调世界时:', '15:00、2019年12月24日周二', '来源:', 'USAF 每小时地面观测', '报告类型:', 'METAR 航空例行天气报告', '露点:', '7.0°C', '天气:', 'Mist']