['Showers of Light Rain', '-SHRA、IWC80', 'Showers of Light Rain', '-SHRA、IWC80', 'Showers of Light Rain', '-SHRA、IWC80', 'Showers of Light Rain', '-SHRA、IWC80', 'Showers of Light Rain', '-SHRA、IWC80', 'Showers of Light Rain', '-SHRA、IWC80', 'Showers of Light Rain', '-SHRA、IWC80', 'Showers of Light Rain', '-SHRA、IWC80', 'Showers of Light Rain', '-SHRA、IWC80', 'Showers of Light Rain', '-SHRA、IWC80', '上午12:00', '20°C', '1,020毫巴', '每小时3.60公里', '≥ 10.00公里', '晴空万里', '本地:', '00:00、2019年10月13日周日', '协调世界时:', '16:00、2019年10月12日周六', '来源:', '周期文件', '趋势:', '无重要变化', '露点:', '15°C', '晴空万里:', '真', '原始:', 'ZUUU 121600Z VRB01MPS CAVOK 20/15 Q1020 NOSIG', '上午12:00', '20.0°C', '1,020毫巴', '每小时3.60公里', '9.90公里', '晴空万里', '本地:', '00:00、2019年10月13日周日', '协调世界时:', '16:00、2019年10月12日周六', '来源:', 'USAF 每小时地面观测', '报告类型:', 'METAR 航空例行天气报告', '露点:', '15.0°C', '晴空万里:', '真', '上午1:00', '19°C', '1,020毫巴', '每小时3.60公里, 西南', '≥ 10.00公里', '晴空万里', '本地:', '01:00、2019年10月13日周日', '协调世界时:', '17:00、2019年10月12日周六', '来源:', '周期文件', '趋势:', '无重要变化', '露点:', '15°C', '晴空万里:', '真', '原始:', 'ZUUU 121700Z 22001MPS CAVOK 19/15 Q1020 NOSIG', '上午1:00', '19.0°C', '1,020毫巴', '每小时3.60公里, 西南', '9.90公里', '晴空万里', '本地:', '01:00、2019年10月13日周日', '协调世界时:', '17:00、2019年10月12日周六', '来源:', 'USAF 每小时地面观测', '报告类型:', 'METAR 航空例行天气报告', '露点:', '15.0°C', '晴空万里:', '真', '上午2:00', '18°C', '1,020毫巴', '每小时7.20公里, 西南', '≥ 10.00公里', '晴空万里', '本地:', '02:00、2019年10月13日周日', '协调世界时:', '18:00、2019年10月12日周六', '来源:', '周期文件', '趋势:', '无重要变化', '露点:', '16°C', '晴空万里:', '真', '原始:', 'ZUUU 121800Z 22002MPS CAVOK 18/16 Q1020 NOSIG', '上午2:00', '18.0°C', '1,020毫巴', '每小时7.20公里, 西南', '9.90公里', '晴空万里', '本地:', '02:00、2019年10月13日周日', '协调世界时:', '18:00、2019年10月12日周六', '来源:', 'USAF 每小时地面观测', '报告类型:', 'METAR 航空例行天气报告', '露点:', '16.0°C', '晴空万里:', '真', '上午3:00', '19°C', '1,020毫巴', '每小时7.20公里, 南', '≥ 10.00公里', '晴空万里', '本地:', '03:00、2019年10月13日周日', '协调世界时:', '19:00、2019年10月12日周六', '来源:', '周期文件', '趋势:', '无重要变化', '露点:', '15°C', '晴空万里:', '真', '原始:', 'ZUUU 121900Z 18002MPS CAVOK 19/15 Q1020 NOSIG', '上午3:00', '19.0°C', '1,020毫巴', '每小时7.20公里, 南', '9.90公里', '晴空万里', '本地:', '03:00、2019年10月13日周日', '协调世界时:', '19:00、2019年10月12日周六', '来源:', 'USAF 每小时地面观测', '报告类型:', 'METAR 航空例行天气报告', '露点:', '15.0°C', '晴空万里:', '真', '上午4:00', '19°C', '1,020毫巴', '每小时0公里', '≥ 10.00公里', '晴空万里', '本地:', '04:00、2019年10月13日周日', '协调世界时:', '20:00、2019年10月12日周六', '来源:', '周期文件', '趋势:', '无重要变化', '露点:', '15°C', '晴空万里:', '真', '原始:', 'ZUUU 122000Z 00000MPS CAVOK 19/15 Q1020 NOSIG', '上午4:00', '19.0°C', '1,020毫巴', '每小时0公里', '9.90公里', '晴空万里', '本地:', '04:00、2019年10月13日周日', '协调世界时:', '20:00、2019年10月12日周六', '来源:', 'USAF 每小时地面观测', '报告类型:', 'METAR 航空例行天气报告', '露点:', '15.0°C', '晴空万里:', '真', '上午5:00', '19°C', '1,020毫巴', '每小时0公里', '≥ 10.00公里', '晴空万里', '本地:', '05:00、2019年10月13日周日', '协调世界时:', '21:00、2019年10月12日周六', '来源:', '周期文件', '趋势:', '无重要变化', '露点:', '16°C', '晴空万里:', '真', '原始:', 'ZUUU 122100Z 00000MPS CAVOK 19/16 Q1020 NOSIG', '上午5:00', '19.0°C', '1,020毫巴', '每小时0公里', '9.90公里', '晴空万里', '本地:', '05:00、2019年10月13日周日', '协调世界时:', '21:00、2019年10月12日周六', '来源:', 'USAF 每小时地面观测', '报告类型:', 'METAR 航空例行天气报告', '露点:', '16.0°C', '晴空万里:', '真', '上午6:00', '19°C', '1,020毫巴', '每小时0公里', '10.00公里', '大部分晴天 (1,219米)', '本地:', '06:00、2019年10月13日周日', '协调世界时:', '22:00、2019年10月12日周六', '来源:', '周期文件', '趋势:', '无重要变化', '露点:', '16°C', '天气:', 'Showers of Light Rain', '原始:', 'ZUUU 122200Z 00000MPS 9999 -SHRA FEW040 19/16 Q1020 NOSIG', '上午6:00', '19°C', '1,020毫巴', '每小时0公里', '10.00公里', '无重要云', '本地:', '06:00、2019年10月13日周日', '协调世界时:', '22:00、2019年10月12日周六', '来源:', '周期文件', '趋势:', '无重要变化', '露点:', '16°C', '天气:', 'Showers of Light Rain', '原始:', 'ZUUU 122200Z 00000MPS 9999 -SHRA NSC 19/16 Q1020 NOSIG', '上午6:00', '19.0°C', '1,020毫巴', '每小时0公里', '10.00公里', '大部分晴天 (1,219米)', '本地:', '06:00、2019年10月13日周日', '协调世界时:', '22:00、2019年10月12日周六', '来源:', 'USAF 每小时地面观测', '报告类型:', 'METAR 航空例行天气报告', '露点:', '16.0°C', '天气:', 'Showers of Light Rain', '上午7:00', '17°C', '1,020毫巴', '每小时7.20公里, 西南', '8.00公里', '部分多云 (1,219米)', '本地:', '07:00、2019年10月13日周日', '协调世界时:', '23:00、2019年10月12日周六', '来源:', '周期文件', '趋势:', '无重要变化', '露点:', '16°C', '其他云层:', '大部分晴天 (305米)', '天气:', 'Showers of Light Rain', '原始:', 'ZUUU 122300Z 21002MPS 140V240 8000 -SHRA FEW010 SCT040 17/16 Q1020 NOSIG', '上午7:00', '17.0°C', '1,020毫巴', '每小时7.20公里, 西南', '8.00公里', '部分多云 (1,219米)', '本地:', '07:00、2019年10月13日周日', '协调世界时:', '23:00、2019年10月12日周六', '来源:', 'USAF 每小时地面观测', '报告类型:', 'METAR 航空例行天气报告', '露点:', '16.0°C', '其他云层:', '大部分晴天 (305米)', '天气:', 'Showers of Light Rain', '上午8:00', '18°C', '1,021毫巴', '每小时0公里', '10.00公里', '部分多云 (1,006米)', '本地:', '08:00、2019年10月13日周日', '协调世界时:', '00:00、2019年10月13日周日', '来源:', '周期文件', '趋势:', '无重要变化', '露点:', '16°C', '其他云层:', '大部分晴天 (305米)', '天气:', 'Showers of Light Rain', '原始:', 'ZUUU 130000Z 00000MPS 9999 -SHRA FEW010 SCT033 18/16 Q1021 NOSIG', '上午8:00', '18.0°C', '1,021毫巴', '每小时0公里', '10.00公里', '部分多云 (1,006米)', '本地:', '08:00、2019年10月13日周日', '协调世界时:', '00:00、2019年10月13日周日', '来源:', 'USAF 每小时地面观测', '报告类型:', 'METAR 航空例行天气报告', '露点:', '16.0°C', '其他云层:', '大部分晴天 (305米)', '天气:', 'Showers of Light Rain', '上午9:00', '18°C', '1,022毫巴', '每小时0公里', '10.00公里', '部分多云 (1,006米)', '本地:', '09:00、2019年10月13日周日', '协调世界时:', '01:00、2019年10月13日周日', '来源:', '周期文件', '趋势:', '无重要变化', '露点:', '16°C', '天气:', 'Showers of Light Rain', '原始:', 'ZUUU 130100Z 00000MPS 9999 -SHRA SCT033 18/16 Q1022 NOSIG', '上午9:00', '18.0°C', '1,022毫巴', '每小时0公里', '10.00公里', '部分多云 (1,006米)', '本地:', '09:00、2019年10月13日周日', '协调世界时:', '01:00、2019年10月13日周日', '来源:', 'USAF 每小时地面观测', '报告类型:', 'METAR 航空例行天气报告', '露点:', '16.0°C', '天气:', 'Showers of Light Rain', '上午10:00', '20°C', '1,023毫巴', '每小时3.60公里', '8.00公里', '部分多云 (1,524米)', '本地:', '10:00、2019年10月13日周日', '协调世界时:', '02:00、2019年10月13日周日', '来源:', '周期文件', '趋势:', '无重要变化', '露点:', '17°C', '其他云层:', '大部分晴天 (335米)', '原始:', 'ZUUU 130200Z VRB01MPS 8000 FEW011 SCT050 20/17 Q1023 NOSIG', '上午10:00', '20.0°C', '1,023毫巴', '每小时3.60公里', '8.00公里', '部分多云 (1,524米)', '本地:', '10:00、2019年10月13日周日', '协调世界时:', '02:00、2019年10月13日周日', '来源:', 'USAF 每小时地面观测', '报告类型:', 'METAR 航空例行天气报告', '露点:', '17.0°C', '其他云层:', '大部分晴天 (335米)', '上午11:00', '20°C', '1,023毫巴', '每小时0公里', '7.00公里', '部分多云 (1,524米)', '本地:', '11:00、2019年10月13日周日', '协调世界时:', '03:00、2019年10月13日周日', '来源:', '周期文件', '趋势:', '无重要变化', '露点:', '17°C', '其他云层:', '大部分晴天 (366米)', '原始:', 'ZUUU 130300Z 00000MPS 7000 FEW012 SCT050 20/17 Q1023 NOSIG', '上午11:00', '20.0°C', '1,023毫巴', '每小时0公里', '7.00公里', '部分多云 (1,524米)', '本地:', '11:00、2019年10月13日周日', '协调世界时:', '03:00、2019年10月13日周日', '来源:', 'USAF 每小时地面观测', '报告类型:', 'METAR 航空例行天气报告', '露点:', '17.0°C', '其他云层:', '大部分晴天 (366米)', '下午12:00', '19°C', '1,022毫巴', '每小时3.60公里', '6.00公里', '部分多云 (701米)', '本地:', '12:00、2019年10月13日周日', '协调世界时:', '04:00、2019年10月13日周日', '来源:', '周期文件', '趋势:', '无重要变化', '露点:', '17°C', '其他云层:', '大部分晴天 (366米)', '原始:', 'ZUUU 130400Z VRB01MPS 6000 FEW012 SCT023 19/17 Q1022 NOSIG', '下午12:00', '19.0°C', '1,022毫巴', '每小时3.60公里', '6.00公里', '部分多云 (701米)', '本地:', '12:00、2019年10月13日周日', '协调世界时:', '04:00、2019年10月13日周日', '来源:', 'USAF 每小时地面观测', '报告类型:', 'METAR 航空例行天气报告', '露点:', '17.0°C', '其他云层:', '大部分晴天 (366米)', '下午1:00', '20°C', '1,021毫巴', '每小时3.60公里', '6.00公里', '大部分多云 (701米)', '本地:', '13:00、2019年10月13日周日', '协调世界时:', '05:00、2019年10月13日周日', '来源:', '周期文件', '趋势:', '无重要变化', '露点:', '17°C', '其他云层:', '大部分晴天 (366米)', '天气:', 'Showers of Light Rain', '原始:', 'ZUUU 130500Z VRB01MPS 6000 -SHRA FEW012 BKN023 20/17 Q1021 NOSIG', '下午1:00', '20.0°C', '1,021毫巴', '每小时3.60公里', '6.00公里', '大部分多云 (701米)', '本地:', '13:00、2019年10月13日周日', '协调世界时:', '05:00、2019年10月13日周日', '来源:', 'USAF 每小时地面观测', '报告类型:', 'METAR 航空例行天气报告', '露点:', '17.0°C', '其他云层:', '大部分晴天 (366米)', '天气:', 'Showers of Light Rain', '下午2:00', '20°C', '1,021毫巴', '每小时3.60公里', '6.00公里', '大部分多云 (701米)', '本地:', '14:00、2019年10月13日周日', '协调世界时:', '06:00、2019年10月13日周日', '来源:', '周期文件', '趋势:', '无重要变化', '露点:', '16°C', '其他云层:', '大部分晴天 (366米)', '天气:', 'Showers of Light Rain', '原始:', 'ZUUU 130600Z VRB01MPS 6000 -SHRA FEW012 BKN023 20/16 Q1021 NOSIG', '下午2:00', '20.0°C', '1,021毫巴', '每小时3.60公里', '6.00公里', '大部分多云 (701米)', '本地:', '14:00、2019年10月13日周日', '协调世界时:', '06:00、2019年10月13日周日', '来源:', 'USAF 每小时地面观测', '报告类型:', 'METAR 航空例行天气报告', '露点:', '16.0°C', '其他云层:', '大部分晴天 (366米)', '天气:', 'Showers of Light Rain', '下午3:00', '20°C', '1,020毫巴', '每小时3.60公里', '6.00公里', '部分多云 (792米)', '本地:', '15:00、2019年10月13日周日', '协调世界时:', '07:00、2019年10月13日周日', '来源:', '周期文件', '趋势:', '无重要变化', '露点:', '16°C', '其他云层:', '大部分晴天 (366米)', '原始:', 'ZUUU 130700Z VRB01MPS 6000 FEW012 SCT026 20/16 Q1020 NOSIG', '下午3:00', '20.0°C', '1,020毫巴', '每小时3.60公里', '6.00公里', '部分多云 (792米)', '本地:', '15:00、2019年10月13日周日', '协调世界时:', '07:00、2019年10月13日周日', '来源:', 'USAF 每小时地面观测', '报告类型:', 'METAR 航空例行天气报告', '露点:', '16.0°C', '其他云层:', '大部分晴天 (366米)', '下午4:00', '20°C', '1,020毫巴', '每小时7.20公里, 北', '6.00公里', '部分多云 (1,006米)', '本地:', '16:00、2019年10月13日周日', '协调世界时:', '08:00、2019年10月13日周日', '来源:', '周期文件', '趋势:', '无重要变化', '露点:', '16°C', '其他云层:', '大部分晴天 (396米)', '原始:', 'ZUUU 130800Z 01002MPS 330V080 6000 FEW013 SCT033 20/16 Q1020 NOSIG', '下午4:00', '20.0°C', '1,020毫巴', '每小时7.20公里, 北', '6.00公里', '部分多云 (1,006米)', '本地:', '16:00、2019年10月13日周日', '协调世界时:', '08:00、2019年10月13日周日', '来源:', 'USAF 每小时地面观测', '报告类型:', 'METAR 航空例行天气报告', '露点:', '16.0°C', '其他云层:', '大部分晴天 (396米)', '下午5:00', '20°C', '1,020毫巴', '每小时7.20公里, 北', '6.00公里', '部分多云 (1,219米)', '本地:', '17:00、2019年10月13日周日', '协调世界时:', '09:00、2019年10月13日周日', '来源:', '周期文件', '趋势:', '无重要变化', '露点:', '16°C', '原始:', 'ZUUU 130900Z 36002MPS 320V030 6000 SCT040 20/16 Q1020 NOSIG', '下午5:00', '20.0°C', '1,020毫巴', '每小时7.20公里, 北', '6.00公里', '部分多云 (1,219米)', '本地:', '17:00、2019年10月13日周日', '协调世界时:', '09:00、2019年10月13日周日', '来源:', 'USAF 每小时地面观测', '报告类型:', 'METAR 航空例行天气报告', '露点:', '16.0°C', '下午6:00', '20°C', '1,021毫巴', '每小时10.8公里, 北', '8.00公里', '部分多云 (914米)', '本地:', '18:00、2019年10月13日周日', '协调世界时:', '10:00、2019年10月13日周日', '来源:', '周期文件', '趋势:', '无重要变化', '露点:', '16°C', '其他云层:', '大部分晴天 (366米)', '天气:', 'Showers of Light Rain', '原始:', 'ZUUU 131000Z 36003MPS 330V030 8000 -SHRA FEW012 SCT030 20/16 Q1021 NOSIG', '下午6:00', '20.0°C', '1,021毫巴', '每小时10.8公里, 北', '8.00公里', '部分多云 (914米)', '本地:', '18:00、2019年10月13日周日', '协调世界时:', '10:00、2019年10月13日周日', '来源:', 'USAF 每小时地面观测', '报告类型:', 'METAR 航空例行天气报告', '露点:', '16.0°C', '其他云层:', '大部分晴天 (366米)', '天气:', 'Showers of Light Rain', '下午7:00', '18°C', '1,021毫巴', '每小时10.8公里, 北', '7.00公里', '部分多云 (366米)', '本地:', '19:00、2019年10月13日周日', '协调世界时:', '11:00、2019年10月13日周日', '来源:', '周期文件', '趋势:', '无重要变化', '露点:', '17°C', '其他云层:', '大部分晴天 (213米)', '天气:', 'Showers of Light Rain', '原始:', 'ZUUU 131100Z 01003MPS 7000 -SHRA FEW007 SCT012 18/17 Q1021 NOSIG', '下午7:00', '18.0°C', '1,021毫巴', '每小时10.8公里, 北', '7.00公里', '部分多云 (366米)', '本地:', '19:00、2019年10月13日周日', '协调世界时:', '11:00、2019年10月13日周日', '来源:', 'USAF 每小时地面观测', '报告类型:', 'METAR 航空例行天气报告', '露点:', '17.0°C', '其他云层:', '大部分晴天 (213米)', '天气:', 'Showers of Light Rain', '下午8:00', '18°C', '1,023毫巴', '每小时7.20公里, 北', '10.00公里', '大部分多云 (792米)', '本地:', '20:00、2019年10月13日周日', '协调世界时:', '12:00、2019年10月13日周日', '来源:', '周期文件', '趋势:', '无重要变化', '露点:', '16°C', '其他云层:', '大部分晴天 (305米)', '天气:', 'Showers of Light Rain', '原始:', 'ZUUU 131200Z 01002MPS 340V040 9999 -SHRA FEW010 BKN026 18/16 Q1023 NOSIG', '下午8:00', '18.0°C', '1,023毫巴', '每小时7.20公里, 北', '10.00公里', '大部分多云 (792米)', '本地:', '20:00、2019年10月13日周日', '协调世界时:', '12:00、2019年10月13日周日', '来源:', 'USAF 每小时地面观测', '报告类型:', 'METAR 航空例行天气报告', '露点:', '16.0°C', '其他云层:', '大部分晴天 (305米)', '天气:', 'Showers of Light Rain', '下午9:00', '18°C', '1,023毫巴', '每小时7.20公里, 北', '10.00公里', '大部分多云 (792米)', '本地:', '21:00、2019年10月13日周日', '协调世界时:', '13:00、2019年10月13日周日', '来源:', '周期文件', '趋势:', '无重要变化', '露点:', '16°C', '其他云层:', '大部分晴天 (305米)', '天气:', 'Showers of Light Rain', '原始:', 'ZUUU 131300Z 36002MPS 330V030 9999 -SHRA FEW010 BKN026 18/16 Q1023 NOSIG', '下午9:00', '18.0°C', '1,023毫巴', '每小时7.20公里, 北', '10.00公里', '大部分多云 (792米)', '本地:', '21:00、2019年10月13日周日', '协调世界时:', '13:00、2019年10月13日周日', '来源:', 'USAF 每小时地面观测', '报告类型:', 'METAR 航空例行天气报告', '露点:', '16.0°C', '其他云层:', '大部分晴天 (305米)', '天气:', 'Showers of Light Rain', '下午10:00', '18°C', '1,024毫巴', '每小时7.20公里, 北', '10.00公里', '大部分多云 (792米)', '本地:', '22:00、2019年10月13日周日', '协调世界时:', '14:00、2019年10月13日周日', '来源:', '周期文件', '趋势:', '无重要变化', '露点:', '16°C', '其他云层:', '大部分晴天 (305米)', '原始:', 'ZUUU 131400Z 36002MPS 330V030 9999 FEW010 BKN026 18/16 Q1024 NOSIG', '下午10:00', '18.0°C', '1,024毫巴', '每小时7.20公里, 北', '10.00公里', '大部分多云 (792米)', '本地:', '22:00、2019年10月13日周日', '协调世界时:', '14:00、2019年10月13日周日', '来源:', 'USAF 每小时地面观测', '报告类型:', 'METAR 航空例行天气报告', '露点:', '16.0°C', '其他云层:', '大部分晴天 (305米)', '下午11:00', '18°C', '1,025毫巴', '每小时7.20公里, 北', '10.00公里', '大部分多云 (792米)', '本地:', '23:00、2019年10月13日周日', '协调世界时:', '15:00、2019年10月13日周日', '来源:', '周期文件', '趋势:', '无重要变化', '露点:', '16°C', '其他云层:', '大部分晴天 (305米)', '原始:', 'ZUUU 131500Z 36002MPS 320V030 9999 FEW010 BKN026 18/16 Q1025 NOSIG', '下午11:00', '18.0°C', '1,025毫巴', '每小时7.20公里, 北', '10.00公里', '大部分多云 (792米)', '本地:', '23:00、2019年10月13日周日', '协调世界时:', '15:00、2019年10月13日周日', '来源:', 'USAF 每小时地面观测', '报告类型:', 'METAR 航空例行天气报告', '露点:', '16.0°C', '其他云层:', '大部分晴天 (305米)']