['Mist', 'BR、IWC10', 'Mist', 'BR、IWC10', 'Mist', 'BR、IWC10', 'Mist', 'BR、IWC10', 'Mist', 'BR、IWC10', 'Mist', 'BR、IWC10', 'Mist', 'BR、IWC10', 'Mist', 'BR、IWC10', 'Mist', 'BR、IWC10', 'Mist', 'BR、IWC10', 'Mist', 'BR、IWC10', 'Mist', 'BR、IWC10', 'Mist', 'BR、IWC10', 'Mist', 'BR、IWC10', 'Haze', 'HZ、IWC05', 'Haze', 'HZ、IWC05', 'Haze', 'HZ、IWC05', 'Haze', 'HZ、IWC05', 'Haze', 'HZ、IWC05', 'Haze', 'HZ、IWC05', 'Mist', 'BR、IWC10', 'Mist', 'BR、IWC10', 'Mist', 'BR、IWC10', 'Showers of Light Rain、Mist', '-SHRA、BR、IWC10', '上午12:00', '21°C', '1,015毫巴', '每小时0公里', '4.00公里', '无重要云', '本地:', '00:00、2019年9月30日周一', '协调世界时:', '16:00、2019年9月29日周日', '来源:', '周期文件', '趋势:', '无重要变化', '露点:', '19°C', '天气:', 'Mist', '原始:', 'ZUUU 291600Z 00000MPS 4000 BR NSC 21/19 Q1015 NOSIG', '上午12:00', '21.0°C', '1,015毫巴', '每小时0公里', '4.00公里', '未检测到云', '本地:', '00:00、2019年9月30日周一', '协调世界时:', '16:00、2019年9月29日周日', '来源:', 'USAF 每小时地面观测', '报告类型:', 'METAR 航空例行天气报告', '露点:', '19.0°C', '天气:', 'Mist', '上午1:00', '20°C', '1,015毫巴', '每小时0公里', '4.00公里', '无重要云', '本地:', '01:00、2019年9月30日周一', '协调世界时:', '17:00、2019年9月29日周日', '来源:', '周期文件', '趋势:', '无重要变化', '露点:', '18°C', '天气:', 'Mist', '原始:', 'ZUUU 291700Z 00000MPS 4000 BR NSC 20/18 Q1015 NOSIG', '上午1:00', '20.0°C', '1,015毫巴', '每小时0公里', '4.00公里', '未检测到云', '本地:', '01:00、2019年9月30日周一', '协调世界时:', '17:00、2019年9月29日周日', '来源:', 'USAF 每小时地面观测', '报告类型:', 'METAR 航空例行天气报告', '露点:', '18.0°C', '天气:', 'Mist', '上午2:00', '21°C', '1,014毫巴', '每小时3.60公里', '4.00公里', '无重要云', '本地:', '02:00、2019年9月30日周一', '协调世界时:', '18:00、2019年9月29日周日', '来源:', '周期文件', '趋势:', '无重要变化', '露点:', '19°C', '天气:', 'Mist', '原始:', 'ZUUU 291800Z VRB01MPS 4000 BR NSC 21/19 Q1014 NOSIG', '上午2:00', '21.0°C', '1,014毫巴', '每小时3.60公里', '4.00公里', '未检测到云', '本地:', '02:00、2019年9月30日周一', '协调世界时:', '18:00、2019年9月29日周日', '来源:', 'USAF 每小时地面观测', '报告类型:', 'METAR 航空例行天气报告', '露点:', '19.0°C', '天气:', 'Mist', '上午3:00', '20°C', '1,014毫巴', '每小时0公里', '3.50公里', '无重要云', '本地:', '03:00、2019年9月30日周一', '协调世界时:', '19:00、2019年9月29日周日', '来源:', '周期文件', '趋势:', '无重要变化', '露点:', '18°C', '天气:', 'Mist', '原始:', 'ZUUU 291900Z 00000MPS 3500 BR NSC 20/18 Q1014 NOSIG', '上午3:00', '20.0°C', '1,014毫巴', '每小时0公里', '3.50公里', '未检测到云', '本地:', '03:00、2019年9月30日周一', '协调世界时:', '19:00、2019年9月29日周日', '来源:', 'USAF 每小时地面观测', '报告类型:', 'METAR 航空例行天气报告', '露点:', '18.0°C', '天气:', 'Mist', '上午4:00', '20°C', '1,013毫巴', '每小时0公里', '3.50公里', '无重要云', '本地:', '04:00、2019年9月30日周一', '协调世界时:', '20:00、2019年9月29日周日', '来源:', '周期文件', '趋势:', '变化为', '露点:', '19°C', '天气:', 'Mist、Mist', '原始:', 'ZUUU 292000Z 00000MPS 3500 BR NSC 20/19 Q1013 BECMG TL2100 2700 BR', '上午4:00', '20.0°C', '1,013毫巴', '每小时0公里', '3.50公里', '未检测到云', '本地:', '04:00、2019年9月30日周一', '协调世界时:', '20:00、2019年9月29日周日', '来源:', 'USAF 每小时地面观测', '报告类型:', 'METAR 航空例行天气报告', '露点:', '19.0°C', '天气:', 'Mist', '上午5:00', '19°C', '1,013毫巴', '每小时0公里', '3.00公里', '无重要云', '本地:', '05:00、2019年9月30日周一', '协调世界时:', '21:00、2019年9月29日周日', '来源:', '周期文件', '趋势:', '变化为', '露点:', '18°C', '天气:', 'Mist、Mist', '原始:', 'ZUUU 292100Z 00000MPS 3000 BR NSC 19/18 Q1013 BECMG TL2200 2700 BR', '上午5:00', '19.0°C', '1,013毫巴', '每小时0公里', '3.00公里', '未检测到云', '本地:', '05:00、2019年9月30日周一', '协调世界时:', '21:00、2019年9月29日周日', '来源:', 'USAF 每小时地面观测', '报告类型:', 'METAR 航空例行天气报告', '露点:', '18.0°C', '天气:', 'Mist', '上午6:00', '19°C', '1,013毫巴', '每小时0公里', '2.70公里', '无重要云', '本地:', '06:00、2019年9月30日周一', '协调世界时:', '22:00、2019年9月29日周日', '来源:', '周期文件', '趋势:', '无重要变化', '露点:', '18°C', '天气:', 'Mist', '原始:', 'ZUUU 292200Z 00000MPS 2700 BR NSC 19/18 Q1013 NOSIG', '上午6:00', '19.0°C', '1,013毫巴', '每小时0公里', '2.70公里', '未检测到云', '本地:', '06:00、2019年9月30日周一', '协调世界时:', '22:00、2019年9月29日周日', '来源:', 'USAF 每小时地面观测', '报告类型:', 'METAR 航空例行天气报告', '露点:', '18.0°C', '天气:', 'Mist', '上午7:00', '20°C', '1,013毫巴', '每小时0公里', '2.50公里', '大部分晴天 (1,219米)', '本地:', '07:00、2019年9月30日周一', '协调世界时:', '23:00、2019年9月29日周日', '来源:', '周期文件', '趋势:', '无重要变化', '露点:', '19°C', '天气:', 'Mist', '原始:', 'ZUUU 292300Z 00000MPS 2500 BR FEW040 20/19 Q1013 NOSIG', '上午7:00', '20.0°C', '1,013毫巴', '每小时0公里', '2.50公里', '大部分晴天 (1,219米)', '本地:', '07:00、2019年9月30日周一', '协调世界时:', '23:00、2019年9月29日周日', '来源:', 'USAF 每小时地面观测', '报告类型:', 'METAR 航空例行天气报告', '露点:', '19.0°C', '天气:', 'Mist', '上午8:00', '20°C', '1,014毫巴', '每小时0公里', '2.70公里', '大部分晴天 (1,219米)', '本地:', '08:00、2019年9月30日周一', '协调世界时:', '00:00、2019年9月30日周一', '来源:', '周期文件', '趋势:', '变化为', '露点:', '19°C', '天气:', 'Mist', '原始:', 'ZUUU 300000Z 00000MPS 2700 BR FEW040 20/19 Q1014 BECMG TL0100 3000', '上午8:00', '20.0°C', '1,014毫巴', '每小时0公里', '2.70公里', '大部分晴天 (1,219米)', '本地:', '08:00、2019年9月30日周一', '协调世界时:', '00:00、2019年9月30日周一', '来源:', 'USAF 每小时地面观测', '报告类型:', 'METAR 航空例行天气报告', '露点:', '19.0°C', '天气:', 'Mist', '上午9:00', '21°C', '1,014毫巴', '每小时0公里', '3.20公里', '大部分晴天 (1,524米)', '本地:', '09:00、2019年9月30日周一', '协调世界时:', '01:00、2019年9月30日周一', '来源:', '周期文件', '趋势:', '无重要变化', '露点:', '20°C', '天气:', 'Mist', '原始:', 'ZUUU 300100Z 00000MPS 3200 BR FEW050 21/20 Q1014 NOSIG', '上午9:00', '21.0°C', '1,014毫巴', '每小时0公里', '3.20公里', '大部分晴天 (1,524米)', '本地:', '09:00、2019年9月30日周一', '协调世界时:', '01:00、2019年9月30日周一', '来源:', 'USAF 每小时地面观测', '报告类型:', 'METAR 航空例行天气报告', '露点:', '20.0°C', '天气:', 'Mist', '上午10:00', '22°C', '1,015毫巴', '每小时3.60公里, 西南', '2.70公里', '大部分晴天 (1,524米)', '本地:', '10:00、2019年9月30日周一', '协调世界时:', '02:00、2019年9月30日周一', '来源:', '周期文件', '趋势:', '变化为', '露点:', '19°C', '天气:', 'Mist', '原始:', 'ZUUU 300200Z 24001MPS 2700 BR FEW050 22/19 Q1015 BECMG TL0230 3200', '上午10:00', '22.0°C', '1,015毫巴', '每小时3.60公里, 西南', '2.70公里', '大部分晴天 (1,524米)', '本地:', '10:00、2019年9月30日周一', '协调世界时:', '02:00、2019年9月30日周一', '来源:', 'USAF 每小时地面观测', '报告类型:', 'METAR 航空例行天气报告', '露点:', '19.0°C', '天气:', 'Mist', '上午11:00', '22°C', '1,015毫巴', '每小时3.60公里', '2.70公里', '大部分晴天 (1,524米)', '本地:', '11:00、2019年9月30日周一', '协调世界时:', '03:00、2019年9月30日周一', '来源:', '周期文件', '趋势:', '无重要变化', '露点:', '19°C', '天气:', 'Mist', '原始:', 'ZUUU 300300Z VRB01MPS 2700 BR FEW050 22/19 Q1015 NOSIG', '上午11:00', '22.0°C', '1,015毫巴', '每小时3.60公里', '2.70公里', '大部分晴天 (1,524米)', '本地:', '11:00、2019年9月30日周一', '协调世界时:', '03:00、2019年9月30日周一', '来源:', 'USAF 每小时地面观测', '报告类型:', 'METAR 航空例行天气报告', '露点:', '19.0°C', '天气:', 'Mist', '下午12:00', '23°C', '1,014毫巴', '每小时7.20公里, 西', '2.70公里', '部分多云 (1,524米)', '本地:', '12:00、2019年9月30日周一', '协调世界时:', '04:00、2019年9月30日周一', '来源:', '周期文件', '趋势:', '无重要变化', '露点:', '19°C', '天气:', 'Mist', '原始:', 'ZUUU 300400Z 25002MPS 220V300 2700 BR SCT050 23/19 Q1014 NOSIG', '下午12:00', '23.0°C', '1,014毫巴', '每小时7.20公里, 西', '2.70公里', '部分多云 (1,524米)', '本地:', '12:00、2019年9月30日周一', '协调世界时:', '04:00、2019年9月30日周一', '来源:', 'USAF 每小时地面观测', '报告类型:', 'METAR 航空例行天气报告', '露点:', '19.0°C', '天气:', 'Mist', '下午1:00', '24°C', '1,013毫巴', '每小时3.60公里', '2.70公里', '部分多云 (1,524米)', '本地:', '13:00、2019年9月30日周一', '协调世界时:', '05:00、2019年9月30日周一', '来源:', '周期文件', '趋势:', '无重要变化', '露点:', '19°C', '天气:', 'Mist', '原始:', 'ZUUU 300500Z VRB01MPS 2700 BR SCT050 24/19 Q1013 NOSIG', '下午1:00', '24.0°C', '1,013毫巴', '每小时3.60公里', '2.70公里', '部分多云 (1,524米)', '本地:', '13:00、2019年9月30日周一', '协调世界时:', '05:00、2019年9月30日周一', '来源:', 'USAF 每小时地面观测', '报告类型:', 'METAR 航空例行天气报告', '露点:', '19.0°C', '天气:', 'Mist', '下午2:00', '25°C', '1,012毫巴', '每小时3.60公里', '3.20公里', '大部分晴天 (1,524米)', '本地:', '14:00、2019年9月30日周一', '协调世界时:', '06:00、2019年9月30日周一', '来源:', '周期文件', '趋势:', '无重要变化', '露点:', '19°C', '天气:', 'Haze', '原始:', 'ZUUU 300600Z VRB01MPS 3200 HZ FEW050 25/19 Q1012 NOSIG', '下午2:00', '25.0°C', '1,012毫巴', '每小时3.60公里', '3.20公里', '大部分晴天 (1,524米)', '本地:', '14:00、2019年9月30日周一', '协调世界时:', '06:00、2019年9月30日周一', '来源:', 'USAF 每小时地面观测', '报告类型:', 'METAR 航空例行天气报告', '露点:', '19.0°C', '天气:', 'Haze', '下午3:00', '26°C', '1,011毫巴', '每小时10.8公里, 西', '4.50公里', '大部分晴天 (1,524米)', '本地:', '15:00、2019年9月30日周一', '协调世界时:', '07:00、2019年9月30日周一', '来源:', '周期文件', '趋势:', '无重要变化', '露点:', '19°C', '天气:', 'Haze', '原始:', 'ZUUU 300700Z 26003MPS 220V300 4500 HZ FEW050 26/19 Q1011 NOSIG', '下午3:00', '26.0°C', '1,011毫巴', '每小时10.8公里, 西', '4.50公里', '大部分晴天 (1,524米)', '本地:', '15:00、2019年9月30日周一', '协调世界时:', '07:00、2019年9月30日周一', '来源:', 'USAF 每小时地面观测', '报告类型:', 'METAR 航空例行天气报告', '露点:', '19.0°C', '天气:', 'Haze', '下午4:00', '27°C', '1,011毫巴', '每小时3.60公里', '4.50公里', '无重要云', '本地:', '16:00、2019年9月30日周一', '协调世界时:', '08:00、2019年9月30日周一', '来源:', '周期文件', '趋势:', '无重要变化', '露点:', '18°C', '天气:', 'Haze', '原始:', 'ZUUU 300800Z VRB01MPS 4500 HZ NSC 27/18 Q1011 NOSIG', '下午4:00', '27.0°C', '1,011毫巴', '每小时3.60公里', '4.50公里', '未检测到云', '本地:', '16:00、2019年9月30日周一', '协调世界时:', '08:00、2019年9月30日周一', '来源:', 'USAF 每小时地面观测', '报告类型:', 'METAR 航空例行天气报告', '露点:', '18.0°C', '天气:', 'Haze', '下午5:00', '26°C', '1,011毫巴', '每小时7.20公里, 西北', '5.00公里', '无重要云', '本地:', '17:00、2019年9月30日周一', '协调世界时:', '09:00、2019年9月30日周一', '来源:', '周期文件', '趋势:', '无重要变化', '露点:', '18°C', '天气:', 'Haze', '原始:', 'ZUUU 300900Z 30002MPS 240V350 5000 HZ NSC 26/18 Q1011 NOSIG', '下午5:00', '26.0°C', '1,011毫巴', '每小时7.20公里, 西北', '5.00公里', '未检测到云', '本地:', '17:00、2019年9月30日周一', '协调世界时:', '09:00、2019年9月30日周一', '来源:', 'USAF 每小时地面观测', '报告类型:', 'METAR 航空例行天气报告', '露点:', '18.0°C', '天气:', 'Haze', '下午6:00', '25°C', '1,010毫巴', '每小时7.20公里, 西北', '5.00公里', '无重要云', '本地:', '18:00、2019年9月30日周一', '协调世界时:', '10:00、2019年9月30日周一', '来源:', '周期文件', '趋势:', '无重要变化', '露点:', '18°C', '天气:', 'Haze', '原始:', 'ZUUU 301000Z 30002MPS 5000 HZ NSC 25/18 Q1010 NOSIG', '下午6:00', '25.0°C', '1,010毫巴', '每小时7.20公里, 西北', '5.00公里', '未检测到云', '本地:', '18:00、2019年9月30日周一', '协调世界时:', '10:00、2019年9月30日周一', '来源:', 'USAF 每小时地面观测', '报告类型:', 'METAR 航空例行天气报告', '露点:', '18.0°C', '天气:', 'Haze', '下午7:00', '24°C', '1,010毫巴', '每小时3.60公里', '4.50公里', '大部分晴天 (1,006米)', '本地:', '19:00、2019年9月30日周一', '协调世界时:', '11:00、2019年9月30日周一', '来源:', '周期文件', '趋势:', '无重要变化', '露点:', '18°C', '天气:', 'Haze', '原始:', 'ZUUU 301100Z VRB01MPS 4500 HZ FEW033TCU 24/18 Q1010 NOSIG', '下午7:00', '24.0°C', '1,010毫巴', '每小时3.60公里', '4.50公里', '大部分晴天 (1,006米)', '本地:', '19:00、2019年9月30日周一', '协调世界时:', '11:00、2019年9月30日周一', '来源:', 'USAF 每小时地面观测', '报告类型:', 'METAR 航空例行天气报告', '露点:', '18.0°C', '天气:', 'Haze', '下午8:00', '24°C', '1,011毫巴', '每小时3.60公里', '5.00公里', '大部分晴天 (1,006米)', '本地:', '20:00、2019年9月30日周一', '协调世界时:', '12:00、2019年9月30日周一', '来源:', '周期文件', '趋势:', '无重要变化', '露点:', '19°C', '天气:', 'Mist', '原始:', 'ZUUU 301200Z VRB01MPS 5000 BR FEW033TCU 24/19 Q1011 NOSIG', '下午8:00', '24.0°C', '1,011毫巴', '每小时3.60公里', '5.00公里', '大部分晴天 (1,006米)', '本地:', '20:00、2019年9月30日周一', '协调世界时:', '12:00、2019年9月30日周一', '来源:', 'USAF 每小时地面观测', '报告类型:', 'METAR 航空例行天气报告', '露点:', '19.0°C', '天气:', 'Mist', '下午9:00', '23°C', '1,011毫巴', '每小时3.60公里, 西北', '5.00公里', '大部分晴天 (1,006米)', '本地:', '21:00、2019年9月30日周一', '协调世界时:', '13:00、2019年9月30日周一', '来源:', '周期文件', '趋势:', '无重要变化', '露点:', '20°C', '天气:', 'Mist', '原始:', 'ZUUU 301300Z 31001MPS 5000 BR FEW033TCU FEW033 23/20 Q1011 NOSIG', '下午9:00', '23.0°C', '1,011毫巴', '每小时3.60公里, 西北', '5.00公里', '大部分晴天 (1,006米)', '本地:', '21:00、2019年9月30日周一', '协调世界时:', '13:00、2019年9月30日周一', '来源:', 'USAF 每小时地面观测', '报告类型:', 'METAR 航空例行天气报告', '露点:', '20.0°C', '天气:', 'Mist', '下午10:00', '23°C', '1,012毫巴', '每小时0公里', '4.50公里', '大部分晴天 (1,006米)', '本地:', '22:00、2019年9月30日周一', '协调世界时:', '14:00、2019年9月30日周一', '来源:', '周期文件', '趋势:', '无重要变化', '露点:', '20°C', '天气:', 'Mist', '原始:', 'ZUUU 301400Z 00000MPS 4500 BR FEW033 FEW033TCU 23/20 Q1012 NOSIG', '下午10:00', '23.0°C', '1,012毫巴', '每小时0公里', '4.50公里', '大部分晴天 (1,006米)', '本地:', '22:00、2019年9月30日周一', '协调世界时:', '14:00、2019年9月30日周一', '来源:', 'USAF 每小时地面观测', '报告类型:', 'METAR 航空例行天气报告', '露点:', '20.0°C', '天气:', 'Mist', '下午11:00', '23°C', '1,011毫巴', '每小时7.20公里, 西', '3.70公里', '大部分晴天 (1,006米)', '本地:', '23:00、2019年9月30日周一', '协调世界时:', '15:00、2019年9月30日周一', '来源:', '周期文件', '趋势:', '变化为', '露点:', '20°C', '天气:', 'Mist、Showers of Light Rain、Mist', '原始:', 'ZUUU 301500Z 25002MPS 190V270 3700 BR FEW033TCU FEW033 23/20 Q1011 BECMG TL1650 2500 -SHRA BR', '下午11:00', '23.0°C', '1,011毫巴', '每小时7.20公里, 西', '3.70公里', '大部分晴天 (1,006米)', '本地:', '23:00、2019年9月30日周一', '协调世界时:', '15:00、2019年9月30日周一', '来源:', 'USAF 每小时地面观测', '报告类型:', 'METAR 航空例行天气报告', '露点:', '20.0°C', '天气:', 'Mist']