['Light Rain、Mist', '-RA、IWC61、BR、IWC10', 'Light Rain、Mist', '-RA、IWC61、BR、IWC10', 'Mist', 'BR、IWC10', 'Light Rain、Mist', '-RA、IWC61、BR、IWC10', 'Light Rain、Mist', '-RA、IWC61、BR、IWC10', 'Light Rain、Mist', '-RA、IWC61、BR、IWC10', 'Light Rain、Mist', '-RA、IWC61、BR、IWC10', 'Light Rain、Mist', '-RA、IWC61、BR、IWC10', 'Light Rain、Mist', '-RA、IWC61、BR、IWC10', 'Light Rain、Mist', '-RA、IWC61、BR、IWC10', 'Light Rain、Mist', '-RA、IWC61、BR、IWC10', 'Light Rain、Mist', '-RA、IWC61、BR、IWC10', 'Light Rain、Mist', '-RA、IWC61、BR、IWC10', 'Light Rain、Mist', '-RA、IWC61、BR、IWC10', 'Light Rain、Mist', '-RA、IWC61、BR、IWC10', 'Light Rain、Mist', '-RA、IWC61、BR、IWC10', 'Light Rain、Mist', '-RA、IWC61、BR、IWC10', 'Light Rain、Mist', '-RA、IWC61、BR、IWC10', 'Light Rain、Mist', '-RA、IWC61、BR、IWC10', 'Light Rain、Mist', '-RA、IWC61、BR、IWC10', 'Light Rain、Mist', '-RA、IWC61、BR、IWC10', 'Light Rain、Mist', '-RA、IWC61、BR、IWC10', 'Mist', 'BR、IWC10', 'Mist', 'BR、IWC10', '上午12:00', '5°C', '1,029毫巴', '每小时3.60公里', '3.50公里', '大部分多云 (1,219米)', '本地:', '00:00、2019年1月3日周四', '协调世界时:', '16:00、2019年1月2日周三', '来源:', '周期文件', '趋势:', '无重要变化', '露点:', '4°C', '其他云层:', '部分多云 (396米)、部分多云 (792米)', '天气:', 'Light Rain、Mist', '原始:', 'ZUUU 021600Z VRB01MPS 3500 -RA BR SCT013 SCT026 BKN040 05/04 Q1029 NOSIG', '上午12:00', '5.0°C', '1,029毫巴', '每小时3.60公里', '3.50公里', '大部分多云 (1,219米)', '本地:', '00:00、2019年1月3日周四', '协调世界时:', '16:00、2019年1月2日周三', '来源:', 'USAF 每小时地面观测', '报告类型:', 'METAR 航空例行天气报告', '露点:', '4.0°C', '其他云层:', '部分多云 (396米)、部分多云 (792米)', '天气:', 'Mist、Light Rain', '上午1:00', '5°C', '1,029毫巴', '每小时3.60公里', '3.50公里', '大部分多云 (792米)', '本地:', '01:00、2019年1月3日周四', '协调世界时:', '17:00、2019年1月2日周三', '来源:', '周期文件', '趋势:', '无重要变化', '露点:', '4°C', '其他云层:', '部分多云 (305米)', '天气:', 'Light Rain、Mist', '原始:', 'ZUUU 021700Z VRB01MPS 3500 -RA BR SCT010 BKN026 05/04 Q1029 NOSIG', '上午1:00', '5.0°C', '1,029毫巴', '每小时3.60公里', '3.50公里', '大部分多云 (792米)', '本地:', '01:00、2019年1月3日周四', '协调世界时:', '17:00、2019年1月2日周三', '来源:', 'USAF 每小时地面观测', '报告类型:', 'METAR 航空例行天气报告', '露点:', '4.0°C', '其他云层:', '部分多云 (305米)', '天气:', 'Mist、Light Rain', '上午2:00', '5°C', '1,029毫巴', '每小时0公里', '3.50公里', '大部分多云 (792米)', '本地:', '02:00、2019年1月3日周四', '协调世界时:', '18:00、2019年1月2日周三', '来源:', '周期文件', '趋势:', '无重要变化', '露点:', '4°C', '其他云层:', '部分多云 (396米)', '天气:', 'Mist', '原始:', 'ZUUU 021800Z 00000MPS 3500 BR SCT013 BKN026 05/04 Q1029 NOSIG', '上午2:00', '5.0°C', '1,029毫巴', '每小时0公里', '3.50公里', '大部分多云 (792米)', '本地:', '02:00、2019年1月3日周四', '协调世界时:', '18:00、2019年1月2日周三', '来源:', 'USAF 每小时地面观测', '报告类型:', 'METAR 航空例行天气报告', '露点:', '4.0°C', '其他云层:', '部分多云 (396米)', '天气:', 'Mist', '上午3:00', '5°C', '1,028毫巴', '每小时3.60公里', '3.20公里', '大部分多云 (792米)', '本地:', '03:00、2019年1月3日周四', '协调世界时:', '19:00、2019年1月2日周三', '来源:', '周期文件', '趋势:', '无重要变化', '露点:', '4°C', '其他云层:', '大部分晴天 (213米)', '天气:', 'Light Rain、Mist', '原始:', 'ZUUU 021900Z VRB01MPS 3200 -RA BR FEW007 BKN026 05/04 Q1028 NOSIG', '上午3:00', '5.0°C', '1,028毫巴', '每小时3.60公里', '3.20公里', '大部分多云 (792米)', '本地:', '03:00、2019年1月3日周四', '协调世界时:', '19:00、2019年1月2日周三', '来源:', 'USAF 每小时地面观测', '报告类型:', 'METAR 航空例行天气报告', '露点:', '4.0°C', '其他云层:', '大部分晴天 (213米)', '天气:', 'Mist、Light Rain', '上午4:00', '4°C', '1,027毫巴', '每小时3.60公里', '3.00公里', '大部分多云 (792米)', '本地:', '04:00、2019年1月3日周四', '协调世界时:', '20:00、2019年1月2日周三', '来源:', '周期文件', '趋势:', '无重要变化', '露点:', '4°C', '其他云层:', '大部分晴天 (152米)', '天气:', 'Light Rain、Mist', '原始:', 'ZUUU 022000Z VRB01MPS 3000 -RA BR FEW005 BKN026 04/04 Q1027 NOSIG', '上午4:00', '4.0°C', '1,027毫巴', '每小时3.60公里', '3.00公里', '大部分多云 (792米)', '本地:', '04:00、2019年1月3日周四', '协调世界时:', '20:00、2019年1月2日周三', '来源:', 'USAF 每小时地面观测', '报告类型:', 'METAR 航空例行天气报告', '露点:', '4.0°C', '其他云层:', '大部分晴天 (152米)', '天气:', 'Mist、Light Rain', '上午5:00', '4°C', '1,026毫巴', '每小时0公里', '3.00公里', '大部分多云 (792米)', '本地:', '05:00、2019年1月3日周四', '协调世界时:', '21:00、2019年1月2日周三', '来源:', '周期文件', '趋势:', '无重要变化', '露点:', '4°C', '其他云层:', '大部分晴天 (152米)', '天气:', 'Light Rain、Mist', '原始:', 'ZUUU 022100Z 00000MPS 3000 -RA BR FEW005 BKN026 04/04 Q1026 NOSIG', '上午5:00', '4.0°C', '1,026毫巴', '每小时0公里', '3.00公里', '大部分多云 (792米)', '本地:', '05:00、2019年1月3日周四', '协调世界时:', '21:00、2019年1月2日周三', '来源:', 'USAF 每小时地面观测', '报告类型:', 'METAR 航空例行天气报告', '露点:', '4.0°C', '其他云层:', '大部分晴天 (152米)', '天气:', 'Mist、Light Rain', '上午6:00', '4°C', '1,026毫巴', '每小时0公里', '3.50公里', '大部分多云 (792米)', '本地:', '06:00、2019年1月3日周四', '协调世界时:', '22:00、2019年1月2日周三', '来源:', '周期文件', '趋势:', '无重要变化', '露点:', '4°C', '其他云层:', '大部分晴天 (152米)', '天气:', 'Light Rain、Mist', '原始:', 'ZUUU 022200Z 00000MPS 3500 -RA BR FEW005 BKN026 04/04 Q1026 NOSIG', '上午6:00', '4.0°C', '1,026毫巴', '每小时0公里', '3.50公里', '大部分多云 (792米)', '本地:', '06:00、2019年1月3日周四', '协调世界时:', '22:00、2019年1月2日周三', '来源:', 'USAF 每小时地面观测', '报告类型:', 'METAR 航空例行天气报告', '露点:', '4.0°C', '其他云层:', '大部分晴天 (152米)', '天气:', 'Mist、Light Rain', '上午7:00', '4°C', '1,026毫巴', '每小时3.60公里', '3.50公里', '大部分多云 (792米)', '本地:', '07:00、2019年1月3日周四', '协调世界时:', '23:00、2019年1月2日周三', '来源:', '周期文件', '趋势:', '无重要变化', '露点:', '4°C', '其他云层:', '部分多云 (183米)', '天气:', 'Light Rain、Mist', '原始:', 'ZUUU 022300Z VRB01MPS 3500 -RA BR SCT006 BKN026 04/04 Q1026 NOSIG', '上午7:00', '4.0°C', '1,026毫巴', '每小时3.60公里', '3.50公里', '大部分多云 (792米)', '本地:', '07:00、2019年1月3日周四', '协调世界时:', '23:00、2019年1月2日周三', '来源:', 'USAF 每小时地面观测', '报告类型:', 'METAR 航空例行天气报告', '露点:', '4.0°C', '其他云层:', '部分多云 (183米)', '天气:', 'Mist、Light Rain', '上午8:00', '4°C', '1,026毫巴', '每小时0公里', '3.50公里', '大部分多云 (792米)', '本地:', '08:00、2019年1月3日周四', '协调世界时:', '00:00、2019年1月3日周四', '来源:', '周期文件', '趋势:', '无重要变化', '露点:', '4°C', '其他云层:', '大部分晴天 (305米)', '天气:', 'Light Rain、Mist', '原始:', 'ZUUU 030000Z 00000MPS 3500 -RA BR FEW010 BKN026 04/04 Q1026 NOSIG', '上午8:00', '4.0°C', '1,026毫巴', '每小时0公里', '3.50公里', '大部分多云 (792米)', '本地:', '08:00、2019年1月3日周四', '协调世界时:', '00:00、2019年1月3日周四', '来源:', 'USAF 每小时地面观测', '报告类型:', 'METAR 航空例行天气报告', '露点:', '4.0°C', '其他云层:', '大部分晴天 (305米)', '天气:', 'Mist、Light Rain', '上午9:00', '4°C', '1,027毫巴', '每小时0公里', '3.20公里', '大部分多云 (792米)', '本地:', '09:00、2019年1月3日周四', '协调世界时:', '01:00、2019年1月3日周四', '来源:', '周期文件', '趋势:', '无重要变化', '露点:', '4°C', '其他云层:', '大部分晴天 (305米)', '天气:', 'Light Rain、Mist', '原始:', 'ZUUU 030100Z 00000MPS 3200 -RA BR FEW010 BKN026 04/04 Q1027 NOSIG', '上午9:00', '4.0°C', '1,027毫巴', '每小时0公里', '3.20公里', '大部分多云 (792米)', '本地:', '09:00、2019年1月3日周四', '协调世界时:', '01:00、2019年1月3日周四', '来源:', 'USAF 每小时地面观测', '报告类型:', 'METAR 航空例行天气报告', '露点:', '4.0°C', '其他云层:', '大部分晴天 (305米)', '天气:', 'Mist、Light Rain', '上午10:00', '4°C', '1,027毫巴', '每小时0公里', '3.20公里', '部分多云 (1,219米)', '本地:', '10:00、2019年1月3日周四', '协调世界时:', '02:00、2019年1月3日周四', '来源:', '周期文件', '趋势:', '无重要变化', '露点:', '4°C', '其他云层:', '大部分晴天 (213米)', '天气:', 'Light Rain、Mist', '原始:', 'ZUUU 030200Z 00000MPS 3200 -RA BR FEW007 SCT040 04/04 Q1027 NOSIG', '上午10:00', '4.0°C', '1,027毫巴', '每小时0公里', '3.20公里', '部分多云 (1,219米)', '本地:', '10:00、2019年1月3日周四', '协调世界时:', '02:00、2019年1月3日周四', '来源:', 'USAF 每小时地面观测', '报告类型:', 'METAR 航空例行天气报告', '露点:', '4.0°C', '其他云层:', '大部分晴天 (213米)', '天气:', 'Mist、Light Rain', '上午11:00', '5°C', '1,027毫巴', '每小时0公里', '3.50公里', '部分多云 (1,219米)', '本地:', '11:00、2019年1月3日周四', '协调世界时:', '03:00、2019年1月3日周四', '来源:', '周期文件', '趋势:', '无重要变化', '露点:', '4°C', '其他云层:', '大部分晴天 (274米)', '天气:', 'Light Rain、Mist', '原始:', 'ZUUU 030300Z 00000MPS 3500 -RA BR FEW009 SCT040 05/04 Q1027 NOSIG', '上午11:00', '5.0°C', '1,027毫巴', '每小时0公里', '3.50公里', '部分多云 (1,219米)', '本地:', '11:00、2019年1月3日周四', '协调世界时:', '03:00、2019年1月3日周四', '来源:', 'USAF 每小时地面观测', '报告类型:', 'METAR 航空例行天气报告', '露点:', '4.0°C', '其他云层:', '大部分晴天 (274米)', '天气:', 'Mist、Light Rain', '下午12:00', '5°C', '1,026毫巴', '每小时0公里', '3.50公里', '部分多云 (305米)', '本地:', '12:00、2019年1月3日周四', '协调世界时:', '04:00、2019年1月3日周四', '来源:', '周期文件', '趋势:', '无重要变化', '露点:', '4°C', '其他云层:', '部分多云 (1,219米)', '天气:', 'Light Rain、Mist', '原始:', 'ZUUU 030400Z 00000MPS 3500 -RA BR SCT010 SCT040 05/04 Q1026 NOSIG', '下午12:00', '5.0°C', '1,026毫巴', '每小时0公里', '3.50公里', '部分多云 (305米)', '本地:', '12:00、2019年1月3日周四', '协调世界时:', '04:00、2019年1月3日周四', '来源:', 'USAF 每小时地面观测', '报告类型:', 'METAR 航空例行天气报告', '露点:', '4.0°C', '其他云层:', '部分多云 (1,219米)', '天气:', 'Mist、Light Rain', '下午1:00', '5°C', '1,024毫巴', '每小时3.60公里', '2.50公里', '部分多云 (305米)', '本地:', '13:00、2019年1月3日周四', '协调世界时:', '05:00、2019年1月3日周四', '来源:', '周期文件', '趋势:', '无重要变化', '露点:', '4°C', '其他云层:', '部分多云 (1,006米)', '天气:', 'Light Rain、Mist', '原始:', 'ZUUU 030500Z VRB01MPS 2500 -RA BR SCT010 SCT033 05/04 Q1024 NOSIG', '下午1:00', '5.0°C', '1,024毫巴', '每小时3.60公里', '2.50公里', '部分多云 (305米)', '本地:', '13:00、2019年1月3日周四', '协调世界时:', '05:00、2019年1月3日周四', '来源:', 'USAF 每小时地面观测', '报告类型:', 'METAR 航空例行天气报告', '露点:', '4.0°C', '其他云层:', '部分多云 (1,006米)', '天气:', 'Mist、Light Rain', '下午2:00', '4°C', '1,023毫巴', '每小时7.20公里, 北', '1.50公里', '部分多云 (305米)', '本地:', '14:00、2019年1月3日周四', '协调世界时:', '06:00、2019年1月3日周四', '来源:', '周期文件', '趋势:', '无重要变化', '露点:', '4°C', '其他云层:', '部分多云 (1,006米)', '天气:', 'Light Rain、Mist', '原始:', 'ZUUU 030600Z 01002MPS 1500 -RA BR SCT010 SCT033 04/04 Q1023 NOSIG', '下午2:00', '4.0°C', '1,023毫巴', '每小时7.20公里, 北', '1.50公里', '部分多云 (305米)', '本地:', '14:00、2019年1月3日周四', '协调世界时:', '06:00、2019年1月3日周四', '来源:', 'USAF 每小时地面观测', '报告类型:', 'METAR 航空例行天气报告', '露点:', '4.0°C', '其他云层:', '部分多云 (1,006米)', '天气:', 'Mist、Light Rain', '下午3:00', '4°C', '1,023毫巴', '每小时10.8公里, 东北', '1.40公里', '部分多云 (305米)', '本地:', '15:00、2019年1月3日周四', '协调世界时:', '07:00、2019年1月3日周四', '来源:', '周期文件', '趋势:', '无重要变化', '露点:', '4°C', '其他云层:', '部分多云 (1,006米)', '天气:', 'Light Rain、Mist', '原始:', 'ZUUU 030700Z 04003MPS 1400 R02L/1600D R02R/1700D -RA BR SCT010 SCT033 04/04 Q1023 NOSIG', '下午3:00', '4.0°C', '1,023毫巴', '每小时10.8公里, 东北', '1.40公里', '部分多云 (305米)', '本地:', '15:00、2019年1月3日周四', '协调世界时:', '07:00、2019年1月3日周四', '来源:', 'USAF 每小时地面观测', '报告类型:', 'METAR 航空例行天气报告', '露点:', '4.0°C', '其他云层:', '部分多云 (1,006米)', '天气:', 'Mist、Light Rain', '下午4:00', '4°C', '1,024毫巴', '每小时10.8公里, 东北', '1.20公里', '部分多云 (1,006米)', '本地:', '16:00、2019年1月3日周四', '协调世界时:', '08:00、2019年1月3日周四', '来源:', '周期文件', '趋势:', '无重要变化', '露点:', '4°C', '其他云层:', '大部分晴天 (305米)', '天气:', 'Light Rain、Mist', '原始:', 'ZUUU 030800Z 06003MPS 030V090 1200 R02L/1600N R02R/1200U -RA BR FEW010 SCT033 04/04 Q1024 NOSIG', '下午4:00', '4.0°C', '1,024毫巴', '每小时10.8公里, 东北', '1.20公里', '部分多云 (1,006米)', '本地:', '16:00、2019年1月3日周四', '协调世界时:', '08:00、2019年1月3日周四', '来源:', 'USAF 每小时地面观测', '报告类型:', 'METAR 航空例行天气报告', '露点:', '4.0°C', '其他云层:', '大部分晴天 (305米)', '天气:', 'Mist、Light Rain', '下午5:00', '4°C', '1,024毫巴', '每小时0公里', '1.60公里', '部分多云 (1,219米)', '本地:', '17:00、2019年1月3日周四', '协调世界时:', '09:00、2019年1月3日周四', '来源:', '周期文件', '趋势:', '无重要变化', '露点:', '4°C', '其他云层:', '大部分晴天 (305米)', '天气:', 'Light Rain、Mist', '原始:', 'ZUUU 030900Z 00000MPS 1600 -RA BR FEW010 SCT040 04/04 Q1024 NOSIG', '下午5:00', '4.0°C', '1,024毫巴', '每小时0公里', '1.60公里', '部分多云 (1,219米)', '本地:', '17:00、2019年1月3日周四', '协调世界时:', '09:00、2019年1月3日周四', '来源:', 'USAF 每小时地面观测', '报告类型:', 'METAR 航空例行天气报告', '露点:', '4.0°C', '其他云层:', '大部分晴天 (305米)', '天气:', 'Mist、Light Rain', '下午6:00', '4°C', '1,025毫巴', '每小时7.20公里, 北', '2.00公里', '部分多云 (914米)', '本地:', '18:00、2019年1月3日周四', '协调世界时:', '10:00、2019年1月3日周四', '来源:', '周期文件', '趋势:', '无重要变化', '露点:', '4°C', '其他云层:', '大部分晴天 (305米)', '天气:', 'Light Rain、Mist', '原始:', 'ZUUU 031000Z 36002MPS 2000 -RA BR FEW010 SCT030 04/04 Q1025 NOSIG', '下午6:00', '4.0°C', '1,025毫巴', '每小时7.20公里, 北', '2.00公里', '部分多云 (914米)', '本地:', '18:00、2019年1月3日周四', '协调世界时:', '10:00、2019年1月3日周四', '来源:', 'USAF 每小时地面观测', '报告类型:', 'METAR 航空例行天气报告', '露点:', '4.0°C', '其他云层:', '大部分晴天 (305米)', '天气:', 'Mist、Light Rain', '下午7:00', '4°C', '1,026毫巴', '每小时7.20公里, 北', '2.30公里', '部分多云 (914米)', '本地:', '19:00、2019年1月3日周四', '协调世界时:', '11:00、2019年1月3日周四', '来源:', '周期文件', '趋势:', '变化为', '露点:', '4°C', '其他云层:', '大部分晴天 (305米)', '天气:', 'Light Rain、Mist', '原始:', 'ZUUU 031100Z 36002MPS 330V030 2300 -RA BR FEW010 SCT030 04/04 Q1026 BECMG TL1240 3000', '下午7:00', '4.0°C', '1,026毫巴', '每小时7.20公里, 北', '2.30公里', '部分多云 (914米)', '本地:', '19:00、2019年1月3日周四', '协调世界时:', '11:00、2019年1月3日周四', '来源:', 'USAF 每小时地面观测', '报告类型:', 'METAR 航空例行天气报告', '露点:', '4.0°C', '其他云层:', '大部分晴天 (305米)', '天气:', 'Mist、Light Rain', '下午8:00', '4°C', '1,027毫巴', '每小时7.20公里, 北', '2.70公里', '部分多云 (914米)', '本地:', '20:00、2019年1月3日周四', '协调世界时:', '12:00、2019年1月3日周四', '来源:', '周期文件', '趋势:', '无重要变化', '露点:', '4°C', '其他云层:', '大部分晴天 (305米)', '天气:', 'Light Rain、Mist', '原始:', 'ZUUU 031200Z 36002MPS 340V040 2700 -RA BR FEW010 SCT030 04/04 Q1027 NOSIG', '下午8:00', '4.0°C', '1,027毫巴', '每小时7.20公里, 北', '2.70公里', '部分多云 (914米)', '本地:', '20:00、2019年1月3日周四', '协调世界时:', '12:00、2019年1月3日周四', '来源:', 'USAF 每小时地面观测', '报告类型:', 'METAR 航空例行天气报告', '露点:', '4.0°C', '其他云层:', '大部分晴天 (305米)', '天气:', 'Mist、Light Rain', '下午9:00', '4°C', '1,028毫巴', '每小时7.20公里, 北', '2.70公里', '部分多云 (914米)', '本地:', '21:00、2019年1月3日周四', '协调世界时:', '13:00、2019年1月3日周四', '来源:', '周期文件', '趋势:', '变化为', '露点:', '3°C', '其他云层:', '大部分晴天 (305米)', '天气:', 'Light Rain、Mist', '原始:', 'ZUUU 031300Z 36002MPS 2700 -RA BR FEW010 SCT030 04/03 Q1028 BECMG TL1400 3000', '下午9:00', '4.0°C', '1,028毫巴', '每小时7.20公里, 北', '2.70公里', '部分多云 (914米)', '本地:', '21:00、2019年1月3日周四', '协调世界时:', '13:00、2019年1月3日周四', '来源:', 'USAF 每小时地面观测', '报告类型:', 'METAR 航空例行天气报告', '露点:', '3.0°C', '其他云层:', '大部分晴天 (305米)', '天气:', 'Mist、Light Rain', '下午10:00', '4°C', '1,028毫巴', '每小时3.60公里', '3.00公里', '部分多云 (914米)', '本地:', '22:00、2019年1月3日周四', '协调世界时:', '14:00、2019年1月3日周四', '来源:', '周期文件', '趋势:', '无重要变化', '露点:', '3°C', '其他云层:', '大部分晴天 (305米)', '天气:', 'Mist', '原始:', 'ZUUU 031400Z VRB01MPS 3000 BR FEW010 SCT030 04/03 Q1028 NOSIG', '下午10:00', '4.0°C', '1,028毫巴', '每小时3.60公里', '3.00公里', '部分多云 (914米)', '本地:', '22:00、2019年1月3日周四', '协调世界时:', '14:00、2019年1月3日周四', '来源:', 'USAF 每小时地面观测', '报告类型:', 'METAR 航空例行天气报告', '露点:', '3.0°C', '其他云层:', '大部分晴天 (305米)', '天气:', 'Mist', '下午11:00', '4°C', '1,028毫巴', '每小时3.60公里', '3.50公里', '部分多云 (1,219米)', '本地:', '23:00、2019年1月3日周四', '协调世界时:', '15:00、2019年1月3日周四', '来源:', '周期文件', '趋势:', '无重要变化', '露点:', '3°C', '其他云层:', '大部分晴天 (305米)', '天气:', 'Mist', '原始:', 'ZUUU 031500Z VRB01MPS 3500 BR FEW010 SCT040 04/03 Q1028 NOSIG', '下午11:00', '4.0°C', '1,028毫巴', '每小时3.60公里', '3.50公里', '部分多云 (1,219米)', '本地:', '23:00、2019年1月3日周四', '协调世界时:', '15:00、2019年1月3日周四', '来源:', 'USAF 每小时地面观测', '报告类型:', 'METAR 航空例行天气报告', '露点:', '3.0°C', '其他云层:', '大部分晴天 (305米)', '天气:', 'Mist']