['Light Rain', '-RA、IWC61', 'Light Rain', '-RA、IWC61', 'Light Rain', '-RA、IWC61', 'Light Rain', '-RA、IWC61', 'Mist', 'BR、IWC10', '上午12:00', '18°C', '1,019毫巴', '每小时10.8公里', '10.00公里', '部分多云 (1,219米)', '本地:', '00:00、2019年4月15日周一', '协调世界时:', '16:00、2019年4月14日周日', '来源:', '周期文件', '趋势:', '无重要变化', '露点:', '14°C', '原始:', 'ZUUU 141600Z VRB03MPS 9999 SCT040 18/14 Q1019 NOSIG', '上午12:00', '18.0°C', '1,019毫巴', '每小时10.8公里', '10.00公里', '部分多云 (1,219米)', '本地:', '00:00、2019年4月15日周一', '协调世界时:', '16:00、2019年4月14日周日', '来源:', 'USAF 每小时地面观测', '报告类型:', 'METAR 航空例行天气报告', '露点:', '14.0°C', '上午1:00', '18°C', '1,019毫巴', '每小时10.8公里, 东南', '10.00公里', '部分多云 (1,219米)', '本地:', '01:00、2019年4月15日周一', '协调世界时:', '17:00、2019年4月14日周日', '来源:', '周期文件', '趋势:', '无重要变化', '露点:', '14°C', '原始:', 'ZUUU 141700Z 13003MPS 100V190 9999 SCT040 18/14 Q1019 NOSIG', '上午1:00', '18.0°C', '1,019毫巴', '每小时10.8公里, 东南', '10.00公里', '部分多云 (1,219米)', '本地:', '01:00、2019年4月15日周一', '协调世界时:', '17:00、2019年4月14日周日', '来源:', 'USAF 每小时地面观测', '报告类型:', 'METAR 航空例行天气报告', '露点:', '14.0°C', '上午2:00', '18°C', '1,018毫巴', '每小时7.20公里', '10.00公里', '部分多云 (1,219米)', '本地:', '02:00、2019年4月15日周一', '协调世界时:', '18:00、2019年4月14日周日', '来源:', '周期文件', '趋势:', '无重要变化', '露点:', '14°C', '原始:', 'ZUUU 141800Z VRB02MPS 9999 SCT040 18/14 Q1018 NOSIG', '上午2:00', '18.0°C', '1,018毫巴', '每小时7.20公里', '10.00公里', '部分多云 (1,219米)', '本地:', '02:00、2019年4月15日周一', '协调世界时:', '18:00、2019年4月14日周日', '来源:', 'USAF 每小时地面观测', '报告类型:', 'METAR 航空例行天气报告', '露点:', '14.0°C', '上午3:00', '17°C', '1,017毫巴', '每小时0公里', '10.00公里', '部分多云 (1,524米)', '本地:', '03:00、2019年4月15日周一', '协调世界时:', '19:00、2019年4月14日周日', '来源:', '周期文件', '趋势:', '无重要变化', '露点:', '14°C', '原始:', 'ZUUU 141900Z 00000MPS 9999 SCT050 17/14 Q1017 NOSIG', '上午3:00', '17.0°C', '1,017毫巴', '每小时0公里', '10.00公里', '部分多云 (1,524米)', '本地:', '03:00、2019年4月15日周一', '协调世界时:', '19:00、2019年4月14日周日', '来源:', 'USAF 每小时地面观测', '报告类型:', 'METAR 航空例行天气报告', '露点:', '14.0°C', '上午4:00', '16°C', '1,016毫巴', '每小时7.20公里, 西南', '10.00公里', '部分多云 (1,524米)', '本地:', '04:00、2019年4月15日周一', '协调世界时:', '20:00、2019年4月14日周日', '来源:', '周期文件', '趋势:', '无重要变化', '露点:', '14°C', '原始:', 'ZUUU 142000Z 21002MPS 9999 SCT050 16/14 Q1016 NOSIG', '上午4:00', '16.0°C', '1,016毫巴', '每小时7.20公里, 西南', '10.00公里', '部分多云 (1,524米)', '本地:', '04:00、2019年4月15日周一', '协调世界时:', '20:00、2019年4月14日周日', '来源:', 'USAF 每小时地面观测', '报告类型:', 'METAR 航空例行天气报告', '露点:', '14.0°C', '上午5:00', '16°C', '1,016毫巴', '每小时3.60公里, 西南', '10.00公里', '部分多云 (1,524米)', '本地:', '05:00、2019年4月15日周一', '协调世界时:', '21:00、2019年4月14日周日', '来源:', '周期文件', '趋势:', '无重要变化', '露点:', '14°C', '原始:', 'ZUUU 142100Z 21001MPS 9999 SCT050 16/14 Q1016 NOSIG', '上午5:00', '16.0°C', '1,016毫巴', '每小时3.60公里, 西南', '10.00公里', '部分多云 (1,524米)', '本地:', '05:00、2019年4月15日周一', '协调世界时:', '21:00、2019年4月14日周日', '来源:', 'USAF 每小时地面观测', '报告类型:', 'METAR 航空例行天气报告', '露点:', '14.0°C', '上午6:00', '17°C', '1,016毫巴', '每小时0公里', '10.00公里', '部分多云 (1,219米)', '本地:', '06:00、2019年4月15日周一', '协调世界时:', '22:00、2019年4月14日周日', '来源:', '周期文件', '趋势:', '无重要变化', '露点:', '14°C', '原始:', 'ZUUU 142200Z 00000MPS 9999 SCT040 17/14 Q1016 NOSIG', '上午6:00', '17.0°C', '1,016毫巴', '每小时0公里', '10.00公里', '部分多云 (1,219米)', '本地:', '06:00、2019年4月15日周一', '协调世界时:', '22:00、2019年4月14日周日', '来源:', 'USAF 每小时地面观测', '报告类型:', 'METAR 航空例行天气报告', '露点:', '14.0°C', '上午7:00', '16°C', '1,016毫巴', '每小时18.0公里, 东北', '8.00公里', '大部分多云 (1,219米)', '本地:', '07:00、2019年4月15日周一', '协调世界时:', '23:00、2019年4月14日周日', '来源:', '周期文件', '趋势:', '无重要变化', '露点:', '14°C', '其他云层:', '大部分晴天 (610米)', '原始:', 'ZUUU 142300Z 04005MPS 8000 FEW020 BKN040 16/14 Q1016 NOSIG', '上午7:00', '16.0°C', '1,016毫巴', '每小时18.0公里, 东北', '8.00公里', '大部分多云 (1,219米)', '本地:', '07:00、2019年4月15日周一', '协调世界时:', '23:00、2019年4月14日周日', '来源:', 'USAF 每小时地面观测', '报告类型:', 'METAR 航空例行天气报告', '露点:', '14.0°C', '其他云层:', '大部分晴天 (610米)', '上午8:00', '17°C', '1,017毫巴', '每小时7.20公里, 东', '8.00公里', '大部分多云 (1,219米)', '本地:', '08:00、2019年4月15日周一', '协调世界时:', '00:00、2019年4月15日周一', '来源:', '周期文件', '趋势:', '无重要变化', '露点:', '14°C', '其他云层:', '大部分晴天 (610米)', '原始:', 'ZUUU 150000Z 07002MPS 030V090 8000 FEW020 BKN040 17/14 Q1017 NOSIG', '上午8:00', '17.0°C', '1,017毫巴', '每小时7.20公里, 东', '8.00公里', '大部分多云 (1,219米)', '本地:', '08:00、2019年4月15日周一', '协调世界时:', '00:00、2019年4月15日周一', '来源:', 'USAF 每小时地面观测', '报告类型:', 'METAR 航空例行天气报告', '露点:', '14.0°C', '其他云层:', '大部分晴天 (610米)', '上午9:00', '17°C', '1,017毫巴', '每小时7.20公里, 东南', '6.00公里', '大部分多云 (792米)', '本地:', '09:00、2019年4月15日周一', '协调世界时:', '01:00、2019年4月15日周一', '来源:', '周期文件', '趋势:', '无重要变化', '露点:', '15°C', '其他云层:', '大部分晴天 (335米)', '原始:', 'ZUUU 150100Z 13002MPS 070V190 6000 FEW011 BKN026 17/15 Q1017 NOSIG', '上午9:00', '17.0°C', '1,017毫巴', '每小时7.20公里, 东南', '6.00公里', '大部分多云 (792米)', '本地:', '09:00、2019年4月15日周一', '协调世界时:', '01:00、2019年4月15日周一', '来源:', 'USAF 每小时地面观测', '报告类型:', 'METAR 航空例行天气报告', '露点:', '15.0°C', '其他云层:', '大部分晴天 (335米)', '上午10:00', '17°C', '1,018毫巴', '每小时3.60公里', '6.00公里', '大部分多云 (792米)', '本地:', '10:00、2019年4月15日周一', '协调世界时:', '02:00、2019年4月15日周一', '来源:', '周期文件', '趋势:', '无重要变化', '露点:', '15°C', '其他云层:', '部分多云 (335米)', '天气:', 'Light Rain', '原始:', 'ZUUU 150200Z VRB01MPS 6000 -RA SCT011 BKN026 17/15 Q1018 NOSIG', '上午10:00', '17.0°C', '1,018毫巴', '每小时3.60公里', '6.00公里', '大部分多云 (792米)', '本地:', '10:00、2019年4月15日周一', '协调世界时:', '02:00、2019年4月15日周一', '来源:', 'USAF 每小时地面观测', '报告类型:', 'METAR 航空例行天气报告', '露点:', '15.0°C', '其他云层:', '部分多云 (335米)', '天气:', 'Light Rain', '上午11:00', '17°C', '1,018毫巴', '每小时7.20公里, 北', '8.00公里', '大部分多云 (792米)', '本地:', '11:00、2019年4月15日周一', '协调世界时:', '03:00、2019年4月15日周一', '来源:', '周期文件', '趋势:', '无重要变化', '露点:', '15°C', '其他云层:', '部分多云 (335米)', '天气:', 'Light Rain', '原始:', 'ZUUU 150300Z 01002MPS 330V050 8000 -RA SCT011 BKN026 17/15 Q1018 NOSIG', '上午11:00', '17.0°C', '1,018毫巴', '每小时7.20公里, 北', '8.00公里', '大部分多云 (792米)', '本地:', '11:00、2019年4月15日周一', '协调世界时:', '03:00、2019年4月15日周一', '来源:', 'USAF 每小时地面观测', '报告类型:', 'METAR 航空例行天气报告', '露点:', '15.0°C', '其他云层:', '部分多云 (335米)', '天气:', 'Light Rain', '下午12:00', '17°C', '1,017毫巴', '每小时10.8公里, 北', '6.00公里', '大部分多云 (701米)', '本地:', '12:00、2019年4月15日周一', '协调世界时:', '04:00、2019年4月15日周一', '来源:', '周期文件', '趋势:', '无重要变化', '露点:', '15°C', '其他云层:', '大部分晴天 (335米)', '原始:', 'ZUUU 150400Z 01003MPS 340V050 6000 FEW011 BKN023 17/15 Q1017 NOSIG', '下午12:00', '17.0°C', '1,017毫巴', '每小时10.8公里, 北', '6.00公里', '大部分多云 (701米)', '本地:', '12:00、2019年4月15日周一', '协调世界时:', '04:00、2019年4月15日周一', '来源:', 'USAF 每小时地面观测', '报告类型:', 'METAR 航空例行天气报告', '露点:', '15.0°C', '其他云层:', '大部分晴天 (335米)', '下午1:00', '18°C', '1,016毫巴', '每小时10.8公里, 东北', '8.00公里', '部分多云 (1,219米)', '本地:', '13:00、2019年4月15日周一', '协调世界时:', '05:00、2019年4月15日周一', '来源:', '周期文件', '趋势:', '无重要变化', '露点:', '15°C', '原始:', 'ZUUU 150500Z 06003MPS 030V090 8000 SCT040 18/15 Q1016 NOSIG', '下午1:00', '18.0°C', '1,016毫巴', '每小时10.8公里, 东北', '8.00公里', '部分多云 (1,219米)', '本地:', '13:00、2019年4月15日周一', '协调世界时:', '05:00、2019年4月15日周一', '来源:', 'USAF 每小时地面观测', '报告类型:', 'METAR 航空例行天气报告', '露点:', '15.0°C', '下午2:00', '19°C', '1,015毫巴', '每小时10.8公里, 东', '10.00公里', '部分多云 (1,524米)', '本地:', '14:00、2019年4月15日周一', '协调世界时:', '06:00、2019年4月15日周一', '来源:', '周期文件', '趋势:', '无重要变化', '露点:', '15°C', '原始:', 'ZUUU 150600Z 08003MPS 030V120 9999 SCT050 19/15 Q1015 NOSIG', '下午2:00', '19.0°C', '1,015毫巴', '每小时10.8公里, 东', '10.00公里', '部分多云 (1,524米)', '本地:', '14:00、2019年4月15日周一', '协调世界时:', '06:00、2019年4月15日周一', '来源:', 'USAF 每小时地面观测', '报告类型:', 'METAR 航空例行天气报告', '露点:', '15.0°C', '下午3:00', '21°C', '1,015毫巴', '每小时10.8公里', '10.00公里', '部分多云 (701米)', '本地:', '15:00、2019年4月15日周一', '协调世界时:', '07:00、2019年4月15日周一', '来源:', '周期文件', '趋势:', '无重要变化', '露点:', '15°C', '其他云层:', '部分多云 (1,524米)', '原始:', 'ZUUU 150700Z VRB03MPS 9999 SCT023 SCT050 21/15 Q1015 NOSIG', '下午3:00', '21.0°C', '1,015毫巴', '每小时10.8公里', '10.00公里', '部分多云 (701米)', '本地:', '15:00、2019年4月15日周一', '协调世界时:', '07:00、2019年4月15日周一', '来源:', 'USAF 每小时地面观测', '报告类型:', 'METAR 航空例行天气报告', '露点:', '15.0°C', '其他云层:', '部分多云 (1,524米)', '下午4:00', '21°C', '1,014毫巴', '每小时10.8公里, 东', '10.00公里', '部分多云 (792米)', '本地:', '16:00、2019年4月15日周一', '协调世界时:', '08:00、2019年4月15日周一', '来源:', '周期文件', '趋势:', '无重要变化', '露点:', '14°C', '其他云层:', '部分多云 (1,524米)', '原始:', 'ZUUU 150800Z 09003MPS 040V150 9999 SCT026 SCT050 21/14 Q1014 NOSIG', '下午4:00', '21.0°C', '1,014毫巴', '每小时10.8公里, 东', '10.00公里', '部分多云 (792米)', '本地:', '16:00、2019年4月15日周一', '协调世界时:', '08:00、2019年4月15日周一', '来源:', 'USAF 每小时地面观测', '报告类型:', 'METAR 航空例行天气报告', '露点:', '14.0°C', '其他云层:', '部分多云 (1,524米)', '下午5:00', '20°C', '1,014毫巴', '每小时14.4公里, 东南', '10.00公里', '部分多云 (1,524米)', '本地:', '17:00、2019年4月15日周一', '协调世界时:', '09:00、2019年4月15日周一', '来源:', '周期文件', '趋势:', '无重要变化', '露点:', '14°C', '原始:', 'ZUUU 150900Z 12004MPS 070V140 9999 SCT050 20/14 Q1014 NOSIG', '下午5:00', '20.0°C', '1,014毫巴', '每小时14.4公里, 东南', '10.00公里', '部分多云 (1,524米)', '本地:', '17:00、2019年4月15日周一', '协调世界时:', '09:00、2019年4月15日周一', '来源:', 'USAF 每小时地面观测', '报告类型:', 'METAR 航空例行天气报告', '露点:', '14.0°C', '下午6:00', '20°C', '1,014毫巴', '每小时10.8公里, 东南', '10.00公里', '部分多云 (1,524米)', '本地:', '18:00、2019年4月15日周一', '协调世界时:', '10:00、2019年4月15日周一', '来源:', '周期文件', '趋势:', '无重要变化', '露点:', '14°C', '原始:', 'ZUUU 151000Z 14003MPS 070V170 9999 SCT050 20/14 Q1014 NOSIG', '下午6:00', '20.0°C', '1,014毫巴', '每小时10.8公里, 东南', '10.00公里', '部分多云 (1,524米)', '本地:', '18:00、2019年4月15日周一', '协调世界时:', '10:00、2019年4月15日周一', '来源:', 'USAF 每小时地面观测', '报告类型:', 'METAR 航空例行天气报告', '露点:', '14.0°C', '下午7:00', '20°C', '1,015毫巴', '每小时10.8公里, 东南', '10.00公里', '部分多云 (1,524米)', '本地:', '19:00、2019年4月15日周一', '协调世界时:', '11:00、2019年4月15日周一', '来源:', '周期文件', '趋势:', '无重要变化', '露点:', '14°C', '其他云层:', '大部分晴天 (701米)', '原始:', 'ZUUU 151100Z 12003MPS 040V170 9999 FEW023 SCT050 20/14 Q1015 NOSIG', '下午7:00', '20.0°C', '1,015毫巴', '每小时10.8公里, 东南', '10.00公里', '部分多云 (1,524米)', '本地:', '19:00、2019年4月15日周一', '协调世界时:', '11:00、2019年4月15日周一', '来源:', 'USAF 每小时地面观测', '报告类型:', 'METAR 航空例行天气报告', '露点:', '14.0°C', '其他云层:', '大部分晴天 (701米)', '下午8:00', '18°C', '1,017毫巴', '每小时7.20公里, 北', '6.00公里', '部分多云 (1,006米)', '本地:', '20:00、2019年4月15日周一', '协调世界时:', '12:00、2019年4月15日周一', '来源:', '周期文件', '趋势:', '无重要变化', '露点:', '15°C', '其他云层:', '大部分晴天 (610米)', '天气:', 'Light Rain', '原始:', 'ZUUU 151200Z 35002MPS 280V050 6000 -RA FEW020 SCT033 18/15 Q1017 NOSIG', '下午8:00', '18.0°C', '1,017毫巴', '每小时7.20公里, 北', '6.00公里', '部分多云 (1,006米)', '本地:', '20:00、2019年4月15日周一', '协调世界时:', '12:00、2019年4月15日周一', '来源:', 'USAF 每小时地面观测', '报告类型:', 'METAR 航空例行天气报告', '露点:', '15.0°C', '其他云层:', '大部分晴天 (610米)', '天气:', 'Light Rain', '下午9:00', '17°C', '1,019毫巴', '每小时3.60公里', '6.00公里', '大部分多云 (1,006米)', '本地:', '21:00、2019年4月15日周一', '协调世界时:', '13:00、2019年4月15日周一', '来源:', '周期文件', '趋势:', '无重要变化', '露点:', '16°C', '其他云层:', '大部分晴天 (610米)', '天气:', 'Light Rain', '原始:', 'ZUUU 151300Z VRB01MPS 6000 -RA FEW020 BKN033 17/16 Q1019 NOSIG', '下午9:00', '17.0°C', '1,019毫巴', '每小时3.60公里', '6.00公里', '大部分多云 (1,006米)', '本地:', '21:00、2019年4月15日周一', '协调世界时:', '13:00、2019年4月15日周一', '来源:', 'USAF 每小时地面观测', '报告类型:', 'METAR 航空例行天气报告', '露点:', '16.0°C', '其他云层:', '大部分晴天 (610米)', '天气:', 'Light Rain', '下午10:00', '17°C', '1,020毫巴', '每小时7.20公里, 西', '6.00公里', '部分多云 (1,524米)', '本地:', '22:00、2019年4月15日周一', '协调世界时:', '14:00、2019年4月15日周一', '来源:', '周期文件', '趋势:', '无重要变化', '露点:', '16°C', '其他云层:', '大部分晴天 (610米)', '原始:', 'ZUUU 151400Z 29002MPS 250V330 6000 FEW020 SCT050 17/16 Q1020 NOSIG', '下午10:00', '17.0°C', '1,020毫巴', '每小时7.20公里, 西', '6.00公里', '部分多云 (1,524米)', '本地:', '22:00、2019年4月15日周一', '协调世界时:', '14:00、2019年4月15日周一', '来源:', 'USAF 每小时地面观测', '报告类型:', 'METAR 航空例行天气报告', '露点:', '16.0°C', '其他云层:', '大部分晴天 (610米)', '下午11:00', '17°C', '1,021毫巴', '每小时7.20公里, 西', '5.00公里', '部分多云 (792米)', '本地:', '23:00、2019年4月15日周一', '协调世界时:', '15:00、2019年4月15日周一', '来源:', '周期文件', '趋势:', '无重要变化', '露点:', '16°C', '天气:', 'Mist', '原始:', 'ZUUU 151500Z 27002MPS 240V300 5000 BR SCT026 17/16 Q1021 NOSIG', '下午11:00', '17.0°C', '1,021毫巴', '每小时7.20公里, 西', '5.00公里', '部分多云 (792米)', '本地:', '23:00、2019年4月15日周一', '协调世界时:', '15:00、2019年4月15日周一', '来源:', 'USAF 每小时地面观测', '报告类型:', 'METAR 航空例行天气报告', '露点:', '16.0°C', '天气:', 'Mist']