['上午12:00', '26°C', '1,008毫巴', '每小时14.4公里, 东北', '10.00公里', '部分多云 (1,524米)', '本地:', '00:00、2019年6月23日周日', '协调世界时:', '16:00、2019年6月22日周六', '来源:', '周期文件', '趋势:', '无重要变化', '露点:', '20°C', '其他云层:', '大部分晴天 (1,219米)', '原始:', 'ZUUU 221600Z 06004MPS 020V090 9999 FEW040TCU SCT050 26/20 Q1008 NOSIG', '上午12:00', '26.0°C', '1,008毫巴', '每小时14.4公里, 东北', '10.00公里', '部分多云 (1,524米)', '本地:', '00:00、2019年6月23日周日', '协调世界时:', '16:00、2019年6月22日周六', '来源:', 'USAF 每小时地面观测', '报告类型:', 'METAR 航空例行天气报告', '露点:', '20.0°C', '其他云层:', '大部分晴天 (1,219米)', '上午1:00', '26°C', '1,008毫巴', '每小时7.20公里, 东北', '10.00公里', '部分多云 (1,524米)', '本地:', '01:00、2019年6月23日周日', '协调世界时:', '17:00、2019年6月22日周六', '来源:', '周期文件', '趋势:', '无重要变化', '露点:', '20°C', '原始:', 'ZUUU 221700Z 06002MPS 030V100 9999 SCT050 26/20 Q1008 NOSIG', '上午1:00', '26.0°C', '1,008毫巴', '每小时7.20公里, 东北', '10.00公里', '部分多云 (1,524米)', '本地:', '01:00、2019年6月23日周日', '协调世界时:', '17:00、2019年6月22日周六', '来源:', 'USAF 每小时地面观测', '报告类型:', 'METAR 航空例行天气报告', '露点:', '20.0°C', '上午2:00', '26°C', '1,008毫巴', '每小时7.20公里, 东北', '10.00公里', '部分多云 (1,524米)', '本地:', '02:00、2019年6月23日周日', '协调世界时:', '18:00、2019年6月22日周六', '来源:', '周期文件', '趋势:', '无重要变化', '露点:', '20°C', '原始:', 'ZUUU 221800Z 06002MPS 010V120 9999 SCT050 26/20 Q1008 NOSIG', '上午2:00', '26.0°C', '1,008毫巴', '每小时7.20公里, 东北', '10.00公里', '部分多云 (1,524米)', '本地:', '02:00、2019年6月23日周日', '协调世界时:', '18:00、2019年6月22日周六', '来源:', 'USAF 每小时地面观测', '报告类型:', 'METAR 航空例行天气报告', '露点:', '20.0°C', '上午3:00', '25°C', '1,007毫巴', '每小时10.8公里, 东北', '10.00公里', '部分多云 (1,524米)', '本地:', '03:00、2019年6月23日周日', '协调世界时:', '19:00、2019年6月22日周六', '来源:', '周期文件', '趋势:', '无重要变化', '露点:', '20°C', '原始:', 'ZUUU 221900Z 04003MPS 9999 SCT050 25/20 Q1007 NOSIG', '上午3:00', '25.0°C', '1,007毫巴', '每小时10.8公里, 东北', '10.00公里', '部分多云 (1,524米)', '本地:', '03:00、2019年6月23日周日', '协调世界时:', '19:00、2019年6月22日周六', '来源:', 'USAF 每小时地面观测', '报告类型:', 'METAR 航空例行天气报告', '露点:', '20.0°C', '上午4:00', '25°C', '1,007毫巴', '每小时7.20公里, 东北', '10.00公里', '部分多云 (1,524米)', '本地:', '04:00、2019年6月23日周日', '协调世界时:', '20:00、2019年6月22日周六', '来源:', '周期文件', '趋势:', '无重要变化', '露点:', '20°C', '原始:', 'ZUUU 222000Z 04002MPS 350V080 9999 SCT050 25/20 Q1007 NOSIG', '上午4:00', '25.0°C', '1,007毫巴', '每小时7.20公里, 东北', '10.00公里', '部分多云 (1,524米)', '本地:', '04:00、2019年6月23日周日', '协调世界时:', '20:00、2019年6月22日周六', '来源:', 'USAF 每小时地面观测', '报告类型:', 'METAR 航空例行天气报告', '露点:', '20.0°C', '上午5:00', '25°C', '1,007毫巴', '每小时7.20公里, 东', '10.00公里', '部分多云 (1,219米)', '本地:', '05:00、2019年6月23日周日', '协调世界时:', '21:00、2019年6月22日周六', '来源:', '周期文件', '趋势:', '无重要变化', '露点:', '20°C', '原始:', 'ZUUU 222100Z 07002MPS 9999 SCT040 25/20 Q1007 NOSIG', '上午5:00', '25.0°C', '1,007毫巴', '每小时7.20公里, 东', '10.00公里', '部分多云 (1,219米)', '本地:', '05:00、2019年6月23日周日', '协调世界时:', '21:00、2019年6月22日周六', '来源:', 'USAF 每小时地面观测', '报告类型:', 'METAR 航空例行天气报告', '露点:', '20.0°C', '上午6:00', '25°C', '1,008毫巴', '每小时3.60公里', '10.00公里', '部分多云 (1,219米)', '本地:', '06:00、2019年6月23日周日', '协调世界时:', '22:00、2019年6月22日周六', '来源:', '周期文件', '趋势:', '无重要变化', '露点:', '20°C', '原始:', 'ZUUU 222200Z VRB01MPS 9999 SCT040 25/20 Q1008 NOSIG', '上午6:00', '25.0°C', '1,008毫巴', '每小时3.60公里', '10.00公里', '部分多云 (1,219米)', '本地:', '06:00、2019年6月23日周日', '协调世界时:', '22:00、2019年6月22日周六', '来源:', 'USAF 每小时地面观测', '报告类型:', 'METAR 航空例行天气报告', '露点:', '20.0°C', '上午7:00', '26°C', '1,008毫巴', '每小时7.20公里, 东北', '10.00公里', '部分多云 (1,524米)', '本地:', '07:00、2019年6月23日周日', '协调世界时:', '23:00、2019年6月22日周六', '来源:', '周期文件', '趋势:', '无重要变化', '露点:', '19°C', '原始:', 'ZUUU 222300Z 06002MPS 010V090 9999 SCT050 26/19 Q1008 NOSIG', '上午7:00', '26.0°C', '1,008毫巴', '每小时7.20公里, 东北', '10.00公里', '部分多云 (1,524米)', '本地:', '07:00、2019年6月23日周日', '协调世界时:', '23:00、2019年6月22日周六', '来源:', 'USAF 每小时地面观测', '报告类型:', 'METAR 航空例行天气报告', '露点:', '19.0°C', '上午8:00', '25°C', '1,009毫巴', '每小时7.20公里, 北', '≥ 10.00公里', '晴空万里', '本地:', '08:00、2019年6月23日周日', '协调世界时:', '00:00、2019年6月23日周日', '来源:', '周期文件', '趋势:', '无重要变化', '露点:', '20°C', '晴空万里:', '真', '原始:', 'ZUUU 230000Z 36002MPS 320V040 CAVOK 25/20 Q1009 NOSIG', '上午8:00', '25.0°C', '1,009毫巴', '每小时7.20公里, 北', '-', '晴空万里', '本地:', '08:00、2019年6月23日周日', '协调世界时:', '00:00、2019年6月23日周日', '来源:', 'USAF 每小时地面观测', '报告类型:', 'METAR 航空例行天气报告', '露点:', '20.0°C', '晴空万里:', '真', '上午9:00', '26°C', '1,009毫巴', '每小时7.20公里, 北', '≥ 10.00公里', '晴空万里', '本地:', '09:00、2019年6月23日周日', '协调世界时:', '01:00、2019年6月23日周日', '来源:', '周期文件', '趋势:', '无重要变化', '露点:', '20°C', '晴空万里:', '真', '原始:', 'ZUUU 230100Z 36002MPS 330V030 CAVOK 26/20 Q1009 NOSIG', '上午9:00', '26.0°C', '1,009毫巴', '每小时7.20公里, 北', '-', '晴空万里', '本地:', '09:00、2019年6月23日周日', '协调世界时:', '01:00、2019年6月23日周日', '来源:', 'USAF 每小时地面观测', '报告类型:', 'METAR 航空例行天气报告', '露点:', '20.0°C', '晴空万里:', '真', '上午10:00', '26°C', '1,010毫巴', '每小时7.20公里, 北', '10.00公里', '部分多云 (1,524米)', '本地:', '10:00、2019年6月23日周日', '协调世界时:', '02:00、2019年6月23日周日', '来源:', '周期文件', '趋势:', '无重要变化', '露点:', '19°C', '原始:', 'ZUUU 230200Z 36002MPS 310V040 9999 SCT050 26/19 Q1010 NOSIG', '上午10:00', '26.0°C', '1,010毫巴', '每小时7.20公里, 北', '10.00公里', '部分多云 (1,524米)', '本地:', '10:00、2019年6月23日周日', '协调世界时:', '02:00、2019年6月23日周日', '来源:', 'USAF 每小时地面观测', '报告类型:', 'METAR 航空例行天气报告', '露点:', '19.0°C', '上午11:00', '26°C', '1,010毫巴', '每小时7.20公里, 北', '10.00公里', '部分多云 (1,615米)', '本地:', '11:00、2019年6月23日周日', '协调世界时:', '03:00、2019年6月23日周日', '来源:', '周期文件', '趋势:', '无重要变化', '露点:', '20°C', '原始:', 'ZUUU 230300Z 34002MPS 290V040 9999 SCT053 26/20 Q1010 NOSIG', '上午11:00', '26.0°C', '1,010毫巴', '每小时7.20公里, 北', '10.00公里', '部分多云 (1,615米)', '本地:', '11:00、2019年6月23日周日', '协调世界时:', '03:00、2019年6月23日周日', '来源:', 'USAF 每小时地面观测', '报告类型:', 'METAR 航空例行天气报告', '露点:', '20.0°C', '下午12:00', '27°C', '1,009毫巴', '每小时10.8公里, 北', '10.00公里', '大部分晴天 (701米)', '本地:', '12:00、2019年6月23日周日', '协调世界时:', '04:00、2019年6月23日周日', '来源:', '周期文件', '趋势:', '无重要变化', '露点:', '19°C', '原始:', 'ZUUU 230400Z 36003MPS 300V050 9999 FEW023 27/19 Q1009 NOSIG', '下午12:00', '27.0°C', '1,009毫巴', '每小时10.8公里, 北', '10.00公里', '大部分晴天 (701米)', '本地:', '12:00、2019年6月23日周日', '协调世界时:', '04:00、2019年6月23日周日', '来源:', 'USAF 每小时地面观测', '报告类型:', 'METAR 航空例行天气报告', '露点:', '19.0°C', '下午1:00', '27°C', '1,009毫巴', '每小时14.4公里, 东北', '10.00公里', '部分多云 (701米)', '本地:', '13:00、2019年6月23日周日', '协调世界时:', '05:00、2019年6月23日周日', '来源:', '周期文件', '趋势:', '无重要变化', '露点:', '18°C', '原始:', 'ZUUU 230500Z 04004MPS 340V070 9999 SCT023 27/18 Q1009 NOSIG', '下午1:00', '27.0°C', '1,009毫巴', '每小时14.4公里, 东北', '10.00公里', '部分多云 (701米)', '本地:', '13:00、2019年6月23日周日', '协调世界时:', '05:00、2019年6月23日周日', '来源:', 'USAF 每小时地面观测', '报告类型:', 'METAR 航空例行天气报告', '露点:', '18.0°C', '下午2:00', '28°C', '1,008毫巴', '每小时14.4公里, 东北', '10.00公里', '部分多云 (914米)', '本地:', '14:00、2019年6月23日周日', '协调世界时:', '06:00、2019年6月23日周日', '来源:', '周期文件', '趋势:', '无重要变化', '露点:', '19°C', '原始:', 'ZUUU 230600Z 05004MPS 360V080 9999 SCT030 28/19 Q1008 NOSIG', '下午2:00', '28.0°C', '1,008毫巴', '每小时14.4公里, 东北', '10.00公里', '部分多云 (914米)', '本地:', '14:00、2019年6月23日周日', '协调世界时:', '06:00、2019年6月23日周日', '来源:', 'USAF 每小时地面观测', '报告类型:', 'METAR 航空例行天气报告', '露点:', '19.0°C', '下午3:00', '28°C', '1,008毫巴', '每小时14.4公里, 东北', '10.00公里', '部分多云 (1,219米)', '本地:', '15:00、2019年6月23日周日', '协调世界时:', '07:00、2019年6月23日周日', '来源:', '周期文件', '趋势:', '无重要变化', '露点:', '19°C', '原始:', 'ZUUU 230700Z 06004MPS 020V090 9999 SCT040 28/19 Q1008 NOSIG', '下午3:00', '28.0°C', '1,008毫巴', '每小时14.4公里, 东北', '10.00公里', '部分多云 (1,219米)', '本地:', '15:00、2019年6月23日周日', '协调世界时:', '07:00、2019年6月23日周日', '来源:', 'USAF 每小时地面观测', '报告类型:', 'METAR 航空例行天气报告', '露点:', '19.0°C', '下午4:00', '27°C', '1,008毫巴', '每小时14.4公里, 东北', '10.00公里', '部分多云 (1,219米)', '本地:', '16:00、2019年6月23日周日', '协调世界时:', '08:00、2019年6月23日周日', '来源:', '周期文件', '趋势:', '无重要变化', '露点:', '18°C', '原始:', 'ZUUU 230800Z 04004MPS 9999 SCT040 27/18 Q1008 NOSIG', '下午4:00', '27.0°C', '1,008毫巴', '每小时14.4公里, 东北', '10.00公里', '部分多云 (1,219米)', '本地:', '16:00、2019年6月23日周日', '协调世界时:', '08:00、2019年6月23日周日', '来源:', 'USAF 每小时地面观测', '报告类型:', 'METAR 航空例行天气报告', '露点:', '18.0°C', '下午5:00', '27°C', '1,007毫巴', '每小时21.6公里, 东北', '10.00公里', '大部分晴天 (1,219米)', '本地:', '17:00、2019年6月23日周日', '协调世界时:', '09:00、2019年6月23日周日', '来源:', '周期文件', '趋势:', '无重要变化', '露点:', '18°C', '原始:', 'ZUUU 230900Z 05006MPS 020V080 9999 FEW040 27/18 Q1007 NOSIG', '下午5:00', '27.0°C', '1,007毫巴', '每小时21.6公里, 东北', '10.00公里', '大部分晴天 (1,219米)', '本地:', '17:00、2019年6月23日周日', '协调世界时:', '09:00、2019年6月23日周日', '来源:', 'USAF 每小时地面观测', '报告类型:', 'METAR 航空例行天气报告', '露点:', '18.0°C', '下午6:00', '26°C', '1,008毫巴', '每小时14.4公里, 东北', '10.00公里', '部分多云 (1,524米)', '本地:', '18:00、2019年6月23日周日', '协调世界时:', '10:00、2019年6月23日周日', '来源:', '周期文件', '趋势:', '无重要变化', '露点:', '18°C', '原始:', 'ZUUU 231000Z 05004MPS 020V090 9999 SCT050 26/18 Q1008 NOSIG', '下午6:00', '26.0°C', '1,008毫巴', '每小时14.4公里, 东北', '10.00公里', '部分多云 (1,524米)', '本地:', '18:00、2019年6月23日周日', '协调世界时:', '10:00、2019年6月23日周日', '来源:', 'USAF 每小时地面观测', '报告类型:', 'METAR 航空例行天气报告', '露点:', '18.0°C', '下午7:00', '26°C', '1,008毫巴', '每小时14.4公里, 东北', '10.00公里', '部分多云 (1,524米)', '本地:', '19:00、2019年6月23日周日', '协调世界时:', '11:00、2019年6月23日周日', '来源:', '周期文件', '趋势:', '无重要变化', '露点:', '18°C', '原始:', 'ZUUU 231100Z 04004MPS 010V070 9999 SCT050 26/18 Q1008 NOSIG', '下午7:00', '26.0°C', '1,008毫巴', '每小时14.4公里, 东北', '10.00公里', '部分多云 (1,524米)', '本地:', '19:00、2019年6月23日周日', '协调世界时:', '11:00、2019年6月23日周日', '来源:', 'USAF 每小时地面观测', '报告类型:', 'METAR 航空例行天气报告', '露点:', '18.0°C', '下午8:00', '25°C', '1,009毫巴', '每小时10.8公里, 北', '10.00公里', '部分多云 (1,524米)', '本地:', '20:00、2019年6月23日周日', '协调世界时:', '12:00、2019年6月23日周日', '来源:', '周期文件', '趋势:', '无重要变化', '露点:', '19°C', '原始:', 'ZUUU 231200Z 02003MPS 9999 SCT050 25/19 Q1009 NOSIG', '下午8:00', '25.0°C', '1,009毫巴', '每小时10.8公里, 北', '10.00公里', '部分多云 (1,524米)', '本地:', '20:00、2019年6月23日周日', '协调世界时:', '12:00、2019年6月23日周日', '来源:', 'USAF 每小时地面观测', '报告类型:', 'METAR 航空例行天气报告', '露点:', '19.0°C', '下午9:00', '25°C', '1,009毫巴', '每小时18.0公里, 北', '10.00公里', '部分多云 (1,524米)', '本地:', '21:00、2019年6月23日周日', '协调世界时:', '13:00、2019年6月23日周日', '来源:', '周期文件', '趋势:', '无重要变化', '露点:', '18°C', '其他云层:', '大部分晴天 (1,006米)', '原始:', 'ZUUU 231300Z 02005MPS 9999 FEW033 SCT050 25/18 Q1009 NOSIG', '下午9:00', '25.0°C', '1,009毫巴', '每小时18.0公里, 北', '10.00公里', '部分多云 (1,524米)', '本地:', '21:00、2019年6月23日周日', '协调世界时:', '13:00、2019年6月23日周日', '来源:', 'USAF 每小时地面观测', '报告类型:', 'METAR 航空例行天气报告', '露点:', '18.0°C', '其他云层:', '大部分晴天 (1,006米)', '下午10:00', '24°C', '1,010毫巴', '每小时21.6公里, 东北', '10.00公里', '部分多云 (1,524米)', '本地:', '22:00、2019年6月23日周日', '协调世界时:', '14:00、2019年6月23日周日', '来源:', '周期文件', '趋势:', '无重要变化', '露点:', '19°C', '其他云层:', '大部分晴天 (1,006米)', '原始:', 'ZUUU 231400Z 04006MPS 9999 FEW033 SCT050 24/19 Q1010 NOSIG', '下午10:00', '24.0°C', '1,010毫巴', '每小时21.6公里, 东北', '10.00公里', '部分多云 (1,524米)', '本地:', '22:00、2019年6月23日周日', '协调世界时:', '14:00、2019年6月23日周日', '来源:', 'USAF 每小时地面观测', '报告类型:', 'METAR 航空例行天气报告', '露点:', '19.0°C', '其他云层:', '大部分晴天 (1,006米)', '下午11:00', '23°C', '1,010毫巴', '每小时10.8公里, 北', '10.00公里', '大部分多云 (1,524米)', '本地:', '23:00、2019年6月23日周日', '协调世界时:', '15:00、2019年6月23日周日', '来源:', '周期文件', '趋势:', '无重要变化', '露点:', '19°C', '原始:', 'ZUUU 231500Z 01003MPS 340V060 9999 BKN050 23/19 Q1010 NOSIG', '下午11:00', '23.0°C', '1,010毫巴', '每小时10.8公里, 北', '10.00公里', '大部分多云 (1,524米)', '本地:', '23:00、2019年6月23日周日', '协调世界时:', '15:00、2019年6月23日周日', '来源:', 'USAF 每小时地面观测', '报告类型:', 'METAR 航空例行天气报告', '露点:', '19.0°C']