['Mist', 'BR、IWC10', 'Mist', 'BR、IWC10', 'Mist', 'BR、IWC10', 'Mist', 'BR、IWC10', 'Mist', 'BR、IWC10', 'Mist', 'BR、IWC10', 'Mist', 'BR、IWC10', 'Mist', 'BR、IWC10', 'Mist', 'BR、IWC10', 'Mist', 'BR、IWC10', 'Mist', 'BR、IWC10', '上午12:00', '7°C', '1,021毫巴', '每小时7.20公里, 西南', '5.00公里', '无重要云', '本地:', '00:00、2019年1月19日周六', '协调世界时:', '16:00、2019年1月18日周五', '来源:', '周期文件', '趋势:', '无重要变化', '露点:', '5°C', '天气:', 'Mist', '原始:', 'ZUUU 181600Z 24002MPS 210V270 5000 BR NSC 07/05 Q1021 NOSIG', '上午12:00', '7.0°C', '1,021毫巴', '每小时7.20公里, 西南', '5.00公里', '未检测到云', '本地:', '00:00、2019年1月19日周六', '协调世界时:', '16:00、2019年1月18日周五', '来源:', 'USAF 每小时地面观测', '报告类型:', 'METAR 航空例行天气报告', '露点:', '5.0°C', '天气:', 'Mist', '上午1:00', '7°C', '1,021毫巴', '每小时0公里', '5.00公里', '无重要云', '本地:', '01:00、2019年1月19日周六', '协调世界时:', '17:00、2019年1月18日周五', '来源:', '周期文件', '趋势:', '无重要变化', '露点:', '5°C', '天气:', 'Mist', '原始:', 'ZUUU 181700Z 00000MPS 5000 BR NSC 07/05 Q1021 NOSIG', '上午1:00', '7.0°C', '1,021毫巴', '每小时0公里', '5.00公里', '未检测到云', '本地:', '01:00、2019年1月19日周六', '协调世界时:', '17:00、2019年1月18日周五', '来源:', 'USAF 每小时地面观测', '报告类型:', 'METAR 航空例行天气报告', '露点:', '5.0°C', '天气:', 'Mist', '上午2:00', '6°C', '1,021毫巴', '每小时0公里', '4.00公里', '无重要云', '本地:', '02:00、2019年1月19日周六', '协调世界时:', '18:00、2019年1月18日周五', '来源:', '周期文件', '趋势:', '无重要变化', '露点:', '4°C', '天气:', 'Mist', '原始:', 'ZUUU 181800Z 00000MPS 4000 BR NSC 06/04 Q1021 NOSIG', '上午2:00', '6.0°C', '1,021毫巴', '每小时0公里', '4.00公里', '未检测到云', '本地:', '02:00、2019年1月19日周六', '协调世界时:', '18:00、2019年1月18日周五', '来源:', 'USAF 每小时地面观测', '报告类型:', 'METAR 航空例行天气报告', '露点:', '4.0°C', '天气:', 'Mist', '上午3:00', '5°C', '1,021毫巴', '每小时0公里', '4.00公里', '无重要云', '本地:', '03:00、2019年1月19日周六', '协调世界时:', '19:00、2019年1月18日周五', '来源:', '周期文件', '趋势:', '变化为', '露点:', '4°C', '天气:', 'Mist、Mist', '原始:', 'ZUUU 181900Z 00000MPS 4000 BR NSC 05/04 Q1021 BECMG TL2050 2300 BR', '上午3:00', '5.0°C', '1,021毫巴', '每小时0公里', '4.00公里', '未检测到云', '本地:', '03:00、2019年1月19日周六', '协调世界时:', '19:00、2019年1月18日周五', '来源:', 'USAF 每小时地面观测', '报告类型:', 'METAR 航空例行天气报告', '露点:', '4.0°C', '天气:', 'Mist', '上午4:00', '4°C', '1,021毫巴', '每小时0公里', '3.50公里', '无重要云', '本地:', '04:00、2019年1月19日周六', '协调世界时:', '20:00、2019年1月18日周五', '来源:', '周期文件', '趋势:', '变化为', '露点:', '3°C', '天气:', 'Mist、Mist', '原始:', 'ZUUU 182000Z 00000MPS 3500 BR NSC 04/03 Q1021 BECMG TL2130 2700 BR', '上午4:00', '4.0°C', '1,021毫巴', '每小时0公里', '3.50公里', '未检测到云', '本地:', '04:00、2019年1月19日周六', '协调世界时:', '20:00、2019年1月18日周五', '来源:', 'USAF 每小时地面观测', '报告类型:', 'METAR 航空例行天气报告', '露点:', '3.0°C', '天气:', 'Mist', '上午5:00', '3°C', '1,021毫巴', '每小时0公里', '3.00公里', '无重要云', '本地:', '05:00、2019年1月19日周六', '协调世界时:', '21:00、2019年1月18日周五', '来源:', '周期文件', '趋势:', '变化为', '露点:', '3°C', '天气:', 'Mist、Mist', '原始:', 'ZUUU 182100Z 00000MPS 3000 BR NSC 03/03 Q1021 BECMG TL2130 2700 BR', '上午5:00', '3.0°C', '1,021毫巴', '每小时0公里', '3.00公里', '未检测到云', '本地:', '05:00、2019年1月19日周六', '协调世界时:', '21:00、2019年1月18日周五', '来源:', 'USAF 每小时地面观测', '报告类型:', 'METAR 航空例行天气报告', '露点:', '3.0°C', '天气:', 'Mist', '上午6:00', '2°C', '1,021毫巴', '每小时0公里', '2.50公里', '无重要云', '本地:', '06:00、2019年1月19日周六', '协调世界时:', '22:00、2019年1月18日周五', '来源:', '周期文件', '趋势:', '变化为', '露点:', '2°C', '天气:', 'Mist、Mist', '原始:', 'ZUUU 182200Z 00000MPS 2500 BR NSC 02/02 Q1021 BECMG TL2330 1400 BR', '上午6:00', '2.0°C', '1,021毫巴', '每小时0公里', '2.50公里', '未检测到云', '本地:', '06:00、2019年1月19日周六', '协调世界时:', '22:00、2019年1月18日周五', '来源:', 'USAF 每小时地面观测', '报告类型:', 'METAR 航空例行天气报告', '露点:', '2.0°C', '天气:', 'Mist', '上午7:00', '2°C', '1,021毫巴', '每小时0公里', '2.70公里', '无重要云', '本地:', '07:00、2019年1月19日周六', '协调世界时:', '23:00、2019年1月18日周五', '来源:', '周期文件', '趋势:', '变化为', '露点:', '2°C', '天气:', 'Mist、Mist', '原始:', 'ZUUU 182300Z 00000MPS 2700 BR NSC 02/02 Q1021 BECMG TL0030 1400 BR', '上午7:00', '2.0°C', '1,021毫巴', '每小时0公里', '2.70公里', '未检测到云', '本地:', '07:00、2019年1月19日周六', '协调世界时:', '23:00、2019年1月18日周五', '来源:', 'USAF 每小时地面观测', '报告类型:', 'METAR 航空例行天气报告', '露点:', '2.0°C', '天气:', 'Mist', '上午8:00', '2°C', '1,022毫巴', '每小时0公里', '2.70公里', '无重要云', '本地:', '08:00、2019年1月19日周六', '协调世界时:', '00:00、2019年1月19日周六', '来源:', '周期文件', '趋势:', '变化为', '露点:', '2°C', '天气:', 'Mist', '原始:', 'ZUUU 190000Z 00000MPS 2700 BR NSC 02/02 Q1022 BECMG TL0130 3000', '上午8:00', '2.0°C', '1,022毫巴', '每小时0公里', '2.70公里', '未检测到云', '本地:', '08:00、2019年1月19日周六', '协调世界时:', '00:00、2019年1月19日周六', '来源:', 'USAF 每小时地面观测', '报告类型:', 'METAR 航空例行天气报告', '露点:', '2.0°C', '天气:', 'Mist', '上午9:00', '3°C', '1,023毫巴', '每小时0公里', '4.50公里', '无重要云', '本地:', '09:00、2019年1月19日周六', '协调世界时:', '01:00、2019年1月19日周六', '来源:', '周期文件', '趋势:', '无重要变化', '露点:', '3°C', '天气:', 'Mist', '原始:', 'ZUUU 190100Z 00000MPS 4500 BR NSC 03/03 Q1023 NOSIG', '上午9:00', '3.0°C', '1,023毫巴', '每小时0公里', '4.50公里', '未检测到云', '本地:', '09:00、2019年1月19日周六', '协调世界时:', '01:00、2019年1月19日周六', '来源:', 'USAF 每小时地面观测', '报告类型:', 'METAR 航空例行天气报告', '露点:', '3.0°C', '天气:', 'Mist', '上午10:00', '6°C', '1,023毫巴', '每小时3.60公里', '4.50公里', '无重要云', '本地:', '10:00、2019年1月19日周六', '协调世界时:', '02:00、2019年1月19日周六', '来源:', '周期文件', '趋势:', '无重要变化', '露点:', '5°C', '天气:', 'Mist', '原始:', 'ZUUU 190200Z VRB01MPS 4500 BR NSC 06/05 Q1023 NOSIG', '上午10:00', '6.0°C', '1,023毫巴', '每小时3.60公里', '4.50公里', '未检测到云', '本地:', '10:00、2019年1月19日周六', '协调世界时:', '02:00、2019年1月19日周六', '来源:', 'USAF 每小时地面观测', '报告类型:', 'METAR 航空例行天气报告', '露点:', '5.0°C', '天气:', 'Mist', '上午11:00', '9°C', '1,023毫巴', '每小时0公里', '8.00公里', '无重要云', '本地:', '11:00、2019年1月19日周六', '协调世界时:', '03:00、2019年1月19日周六', '来源:', '周期文件', '趋势:', '无重要变化', '露点:', '4°C', '原始:', 'ZUUU 190300Z 00000MPS 8000 NSC 09/04 Q1023 NOSIG', '上午11:00', '9.0°C', '1,023毫巴', '每小时0公里', '8.00公里', '未检测到云', '本地:', '11:00、2019年1月19日周六', '协调世界时:', '03:00、2019年1月19日周六', '来源:', 'USAF 每小时地面观测', '报告类型:', 'METAR 航空例行天气报告', '露点:', '4.0°C', '下午12:00', '11°C', '1,022毫巴', '每小时3.60公里', '≥ 10.00公里', '晴空万里', '本地:', '12:00、2019年1月19日周六', '协调世界时:', '04:00、2019年1月19日周六', '来源:', '周期文件', '趋势:', '无重要变化', '露点:', '3°C', '晴空万里:', '真', '原始:', 'ZUUU 190400Z VRB01MPS CAVOK 11/03 Q1022 NOSIG', '下午12:00', '11.0°C', '1,022毫巴', '每小时3.60公里', '-', '晴空万里', '本地:', '12:00、2019年1月19日周六', '协调世界时:', '04:00、2019年1月19日周六', '来源:', 'USAF 每小时地面观测', '报告类型:', 'METAR 航空例行天气报告', '露点:', '3.0°C', '晴空万里:', '真', '下午1:00', '13°C', '1,020毫巴', '每小时10.8公里, 南', '≥ 10.00公里', '晴空万里', '本地:', '13:00、2019年1月19日周六', '协调世界时:', '05:00、2019年1月19日周六', '来源:', '周期文件', '趋势:', '无重要变化', '露点:', '0°C', '晴空万里:', '真', '原始:', 'ZUUU 190500Z 17003MPS 110V280 CAVOK 13/M00 Q1020 NOSIG', '下午1:00', '13.0°C', '1,020毫巴', '每小时10.8公里, 南', '-', '晴空万里', '本地:', '13:00、2019年1月19日周六', '协调世界时:', '05:00、2019年1月19日周六', '来源:', 'USAF 每小时地面观测', '报告类型:', 'METAR 航空例行天气报告', '露点:', '0.0°C', '晴空万里:', '真', '下午2:00', '14°C', '1,018毫巴', '每小时3.60公里', '≥ 10.00公里', '晴空万里', '本地:', '14:00、2019年1月19日周六', '协调世界时:', '06:00、2019年1月19日周六', '来源:', '周期文件', '趋势:', '无重要变化', '露点:', '-2°C', '晴空万里:', '真', '原始:', 'ZUUU 190600Z VRB01MPS CAVOK 14/M02 Q1018 NOSIG', '下午2:00', '14.0°C', '1,018毫巴', '每小时3.60公里', '-', '晴空万里', '本地:', '14:00、2019年1月19日周六', '协调世界时:', '06:00、2019年1月19日周六', '来源:', 'USAF 每小时地面观测', '报告类型:', 'METAR 航空例行天气报告', '露点:', '-2.0°C', '晴空万里:', '真', '下午3:00', '14°C', '1,018毫巴', '每小时14.4公里, 东', '≥ 10.00公里', '晴空万里', '本地:', '15:00、2019年1月19日周六', '协调世界时:', '07:00、2019年1月19日周六', '来源:', '周期文件', '趋势:', '无重要变化', '露点:', '-3°C', '晴空万里:', '真', '原始:', 'ZUUU 190700Z 10004MPS 060V130 CAVOK 14/M03 Q1018 NOSIG', '下午3:00', '14.0°C', '1,018毫巴', '每小时14.4公里, 东', '-', '晴空万里', '本地:', '15:00、2019年1月19日周六', '协调世界时:', '07:00、2019年1月19日周六', '来源:', 'USAF 每小时地面观测', '报告类型:', 'METAR 航空例行天气报告', '露点:', '-3.0°C', '晴空万里:', '真', '下午4:00', '14°C', '1,017毫巴', '每小时7.20公里, 东北', '≥ 10.00公里', '晴空万里', '本地:', '16:00、2019年1月19日周六', '协调世界时:', '08:00、2019年1月19日周六', '来源:', '周期文件', '趋势:', '无重要变化', '露点:', '-3°C', '晴空万里:', '真', '原始:', 'ZUUU 190800Z 05002MPS 010V100 CAVOK 14/M03 Q1017 NOSIG', '下午4:00', '14.0°C', '1,017毫巴', '每小时7.20公里, 东北', '-', '晴空万里', '本地:', '16:00、2019年1月19日周六', '协调世界时:', '08:00、2019年1月19日周六', '来源:', 'USAF 每小时地面观测', '报告类型:', 'METAR 航空例行天气报告', '露点:', '-3.0°C', '晴空万里:', '真', '下午5:00', '14°C', '1,018毫巴', '每小时7.20公里, 东', '≥ 10.00公里', '晴空万里', '本地:', '17:00、2019年1月19日周六', '协调世界时:', '09:00、2019年1月19日周六', '来源:', '周期文件', '趋势:', '无重要变化', '露点:', '-2°C', '晴空万里:', '真', '原始:', 'ZUUU 190900Z 10002MPS 010V150 CAVOK 14/M02 Q1018 NOSIG', '下午5:00', '14.0°C', '1,018毫巴', '每小时7.20公里, 东', '-', '晴空万里', '本地:', '17:00、2019年1月19日周六', '协调世界时:', '09:00、2019年1月19日周六', '来源:', 'USAF 每小时地面观测', '报告类型:', 'METAR 航空例行天气报告', '露点:', '-2.0°C', '晴空万里:', '真', '下午6:00', '13°C', '1,019毫巴', '每小时3.60公里', '≥ 10.00公里', '晴空万里', '本地:', '18:00、2019年1月19日周六', '协调世界时:', '10:00、2019年1月19日周六', '来源:', '周期文件', '趋势:', '无重要变化', '露点:', '-2°C', '晴空万里:', '真', '原始:', 'ZUUU 191000Z VRB01MPS CAVOK 13/M02 Q1019 NOSIG', '下午6:00', '13.0°C', '1,019毫巴', '每小时3.60公里', '-', '晴空万里', '本地:', '18:00、2019年1月19日周六', '协调世界时:', '10:00、2019年1月19日周六', '来源:', 'USAF 每小时地面观测', '报告类型:', 'METAR 航空例行天气报告', '露点:', '-2.0°C', '晴空万里:', '真', '下午7:00', '12°C', '1,020毫巴', '每小时14.4公里, 东', '≥ 10.00公里', '晴空万里', '本地:', '19:00、2019年1月19日周六', '协调世界时:', '11:00、2019年1月19日周六', '来源:', '周期文件', '趋势:', '无重要变化', '露点:', '-2°C', '晴空万里:', '真', '原始:', 'ZUUU 191100Z 10004MPS 050V130 CAVOK 12/M02 Q1020 NOSIG', '下午7:00', '12.0°C', '1,020毫巴', '每小时14.4公里, 东', '-', '晴空万里', '本地:', '19:00、2019年1月19日周六', '协调世界时:', '11:00、2019年1月19日周六', '来源:', 'USAF 每小时地面观测', '报告类型:', 'METAR 航空例行天气报告', '露点:', '-2.0°C', '晴空万里:', '真', '下午8:00', '11°C', '1,022毫巴', '每小时10.8公里, 东', '≥ 10.00公里', '晴空万里', '本地:', '20:00、2019年1月19日周六', '协调世界时:', '12:00、2019年1月19日周六', '来源:', '周期文件', '趋势:', '无重要变化', '露点:', '-1°C', '晴空万里:', '真', '原始:', 'ZUUU 191200Z 08003MPS CAVOK 11/M01 Q1022 NOSIG', '下午8:00', '11.0°C', '1,022毫巴', '每小时10.8公里, 东', '-', '晴空万里', '本地:', '20:00、2019年1月19日周六', '协调世界时:', '12:00、2019年1月19日周六', '来源:', 'USAF 每小时地面观测', '报告类型:', 'METAR 航空例行天气报告', '露点:', '-1.0°C', '晴空万里:', '真', '下午9:00', '8°C', '1,023毫巴', '每小时7.20公里, 东北', '≥ 10.00公里', '晴空万里', '本地:', '21:00、2019年1月19日周六', '协调世界时:', '13:00、2019年1月19日周六', '来源:', '周期文件', '趋势:', '无重要变化', '露点:', '-2°C', '晴空万里:', '真', '原始:', 'ZUUU 191300Z 05002MPS 030V090 CAVOK 08/M02 Q1023 NOSIG', '下午9:00', '8.0°C', '1,023毫巴', '每小时7.20公里, 东北', '-', '晴空万里', '本地:', '21:00、2019年1月19日周六', '协调世界时:', '13:00、2019年1月19日周六', '来源:', 'USAF 每小时地面观测', '报告类型:', 'METAR 航空例行天气报告', '露点:', '-2.0°C', '晴空万里:', '真', '下午10:00', '9°C', '1,024毫巴', '每小时0公里', '≥ 10.00公里', '晴空万里', '本地:', '22:00、2019年1月19日周六', '协调世界时:', '14:00、2019年1月19日周六', '来源:', '周期文件', '趋势:', '无重要变化', '露点:', '0°C', '晴空万里:', '真', '原始:', 'ZUUU 191400Z 00000MPS CAVOK 09/00 Q1024 NOSIG', '下午10:00', '9.0°C', '1,024毫巴', '每小时0公里', '-', '晴空万里', '本地:', '22:00、2019年1月19日周六', '协调世界时:', '14:00、2019年1月19日周六', '来源:', 'USAF 每小时地面观测', '报告类型:', 'METAR 航空例行天气报告', '露点:', '0.0°C', '晴空万里:', '真', '下午11:00', '9°C', '1,025毫巴', '每小时3.60公里, 西北', '≥ 10.00公里', '晴空万里', '本地:', '23:00、2019年1月19日周六', '协调世界时:', '15:00、2019年1月19日周六', '来源:', '周期文件', '趋势:', '无重要变化', '露点:', '1°C', '晴空万里:', '真', '原始:', 'ZUUU 191500Z 32001MPS CAVOK 09/01 Q1025 NOSIG', '下午11:00', '9.0°C', '1,025毫巴', '每小时3.60公里, 西北', '-', '晴空万里', '本地:', '23:00、2019年1月19日周六', '协调世界时:', '15:00、2019年1月19日周六', '来源:', 'USAF 每小时地面观测', '报告类型:', 'METAR 航空例行天气报告', '露点:', '1.0°C', '晴空万里:', '真']