['Thunderstorm', 'TS、IWC17', 'Thunderstorm', 'TS、IWC17', 'Thunderstorm、Thunderstorm with Rain', 'TS、IWC17、TSRA', 'Thunderstorm with Light Rain、Thunderstorm with Rain', '-TSRA、TSRA、IWC95', 'Thunderstorm with Light Rain、Thunderstorm with Rain、Recent Showers of Rain', '-TSRA、TSRA、IWC95、RESHRA', 'Thunderstorm with Light Rain、Thunderstorm with Rain、Showers of Light Rain', '-TSRA、IWC95、-SHRA', 'Recent Thunderstorm、Showers of Light Rain', 'RETS、-SHRA、IWC80', 'Showers of Light Rain', '-SHRA、IWC80', 'Showers of Light Rain', '-SHRA、IWC80', 'Showers of Light Rain', '-SHRA、IWC80', 'Showers of Light Rain', '-SHRA、IWC80', 'Showers of Rain、Showers of Light Rain', 'SHRA、IWC81、-SHRA', 'Showers of Light Rain', '-SHRA、IWC80', 'Showers of Light Rain', '-SHRA、IWC80', 'Showers of Light Rain', '-SHRA、IWC80', 'Showers of Light Rain', '-SHRA、IWC80', 'Showers of Light Rain', '-SHRA、IWC80', 'Showers of Light Rain', '-SHRA、IWC80', 'Showers of Light Rain', '-SHRA、IWC80', '上午12:00', '27°C', '1,001毫巴', '每小时3.60公里', '6.00公里', '部分多云 (792米)', '本地:', '00:00、2019年7月29日周一', '协调世界时:', '16:00、2019年7月28日周日', '来源:', '周期文件', '趋势:', '无重要变化', '露点:', '25°C', '其他云层:', '大部分晴天 (792米)', '天气:', 'Thunderstorm', '原始:', 'ZUUU 281600Z VRB01MPS 6000 TS FEW026CB SCT026 27/25 Q1001 NOSIG', '上午12:00', '27.0°C', '1,001毫巴', '每小时3.60公里', '6.00公里', '部分多云 (792米)', '本地:', '00:00、2019年7月29日周一', '协调世界时:', '16:00、2019年7月28日周日', '来源:', 'USAF 每小时地面观测', '报告类型:', 'METAR 航空例行天气报告', '露点:', '25.0°C', '其他云层:', '大部分晴天 (792米)', '天气:', 'Thunderstorm', '上午1:00', '27°C', '1,000毫巴', '每小时10.8公里, 东北', '8.00公里', '部分多云 (792米)', '本地:', '01:00、2019年7月29日周一', '协调世界时:', '17:00、2019年7月28日周日', '来源:', '周期文件', '趋势:', '无重要变化', '露点:', '25°C', '其他云层:', '大部分晴天 (792米)', '天气:', 'Thunderstorm', '原始:', 'ZUUU 281700Z 04003MPS 360V060 8000 TS FEW026CB SCT026 27/25 Q1000 NOSIG', '上午1:00', '27.0°C', '1,000毫巴', '每小时10.8公里, 东北', '8.00公里', '部分多云 (792米)', '本地:', '01:00、2019年7月29日周一', '协调世界时:', '17:00、2019年7月28日周日', '来源:', 'USAF 每小时地面观测', '报告类型:', 'METAR 航空例行天气报告', '露点:', '25.0°C', '其他云层:', '大部分晴天 (792米)', '天气:', 'Thunderstorm', '上午2:00', '27°C', '1,001毫巴', '每小时25.2公里, 南', '8.00公里', '部分多云 (152米)', '本地:', '02:00、2019年7月29日周一', '协调世界时:', '18:00、2019年7月28日周日', '来源:', '周期文件', '趋势:', '变化为', '露点:', '25°C', '其他云层:', '大部分晴天 (792米)、部分多云 (792米)', '天气:', 'Thunderstorm、Thunderstorm with Rain', '原始:', 'ZUUU 281800Z 16007MPS 8000 TS SCT005 FEW026CB SCT026 27/25 Q1001 BECMG TL1840 TSRA', '上午2:00', '27.0°C', '1,001毫巴', '每小时25.2公里, 南', '8.00公里', '部分多云 (152米)', '本地:', '02:00、2019年7月29日周一', '协调世界时:', '18:00、2019年7月28日周日', '来源:', 'USAF 每小时地面观测', '报告类型:', 'METAR 航空例行天气报告', '露点:', '25.0°C', '其他云层:', '大部分晴天 (792米)、部分多云 (792米)', '天气:', 'Thunderstorm', '上午3:00', '25°C', '1,001毫巴', '每小时10.8公里, 南', '8.00公里', '部分多云 (792米)', '本地:', '03:00、2019年7月29日周一', '协调世界时:', '19:00、2019年7月28日周日', '来源:', '周期文件', '趋势:', '变化为', '露点:', '23°C', '其他云层:', '大部分晴天 (152米)、大部分晴天 (792米)', '天气:', 'Thunderstorm with Light Rain、Thunderstorm with Rain', '原始:', 'ZUUU 281900Z 17003MPS 140V220 8000 -TSRA FEW005 FEW026CB SCT026 25/23 Q1001 BECMG TL2010 TSRA', '上午3:00', '25.0°C', '1,001毫巴', '每小时10.8公里, 南', '8.00公里', '部分多云 (792米)', '本地:', '03:00、2019年7月29日周一', '协调世界时:', '19:00、2019年7月28日周日', '来源:', 'USAF 每小时地面观测', '报告类型:', 'METAR 航空例行天气报告', '露点:', '23.0°C', '其他云层:', '大部分晴天 (152米)、大部分晴天 (792米)', '天气:', 'Thunderstorm with Rain', '上午4:00', '24°C', '1,000毫巴', '每小时7.20公里, 西南', '10.00公里', '部分多云 (792米)', '本地:', '04:00、2019年7月29日周一', '协调世界时:', '20:00、2019年7月28日周日', '来源:', '周期文件', '趋势:', '变化为', '露点:', '23°C', '其他云层:', '大部分晴天 (152米)、大部分晴天 (792米)', '天气:', 'Thunderstorm with Light Rain、Recent Showers of Rain、Thunderstorm with Rain', '原始:', 'ZUUU 282000Z 22002MPS 200V270 9999 -TSRA FEW005 FEW026CB SCT026 24/23 Q1000 RESHRA BECMG TL2140 TSRA', '上午4:00', '24.0°C', '1,000毫巴', '每小时7.20公里, 西南', '10.00公里', '部分多云 (792米)', '本地:', '04:00、2019年7月29日周一', '协调世界时:', '20:00、2019年7月28日周日', '来源:', 'USAF 每小时地面观测', '报告类型:', 'METAR 航空例行天气报告', '露点:', '23.0°C', '其他云层:', '大部分晴天 (152米)、大部分晴天 (792米)', '天气:', 'Thunderstorm with Rain', '上午5:00', '24°C', '1,001毫巴', '每小时0公里', '10.00公里', '部分多云 (792米)', '本地:', '05:00、2019年7月29日周一', '协调世界时:', '21:00、2019年7月28日周日', '来源:', '周期文件', '趋势:', '变化为', '露点:', '22°C', '其他云层:', '大部分晴天 (183米)、大部分晴天 (792米)', '天气:', 'Thunderstorm with Light Rain、Showers of Light Rain', '原始:', 'ZUUU 282100Z 00000MPS 9999 -TSRA FEW006 FEW026CB SCT026 24/22 Q1001 BECMG TL2240 -SHRA', '上午5:00', '24.0°C', '1,001毫巴', '每小时0公里', '10.00公里', '部分多云 (792米)', '本地:', '05:00、2019年7月29日周一', '协调世界时:', '21:00、2019年7月28日周日', '来源:', 'USAF 每小时地面观测', '报告类型:', 'METAR 航空例行天气报告', '露点:', '22.0°C', '其他云层:', '大部分晴天 (183米)、大部分晴天 (792米)', '天气:', 'Thunderstorm with Rain', '上午6:00', '24°C', '1,001毫巴', '每小时10.8公里, 北', '10.00公里', '部分多云 (792米)', '本地:', '06:00、2019年7月29日周一', '协调世界时:', '22:00、2019年7月28日周日', '来源:', '周期文件', '趋势:', '无重要变化', '露点:', '22°C', '其他云层:', '大部分晴天 (183米)、大部分晴天 (792米)', '天气:', 'Showers of Light Rain、Recent Thunderstorm', '原始:', 'ZUUU 282200Z 01003MPS 330V060 9999 -SHRA FEW006 FEW026CB SCT026 24/22 Q1001 RETS NOSIG', '上午6:00', '24.0°C', '1,001毫巴', '每小时10.8公里, 北', '10.00公里', '部分多云 (792米)', '本地:', '06:00、2019年7月29日周一', '协调世界时:', '22:00、2019年7月28日周日', '来源:', 'USAF 每小时地面观测', '报告类型:', 'METAR 航空例行天气报告', '露点:', '22.0°C', '其他云层:', '大部分晴天 (183米)、大部分晴天 (792米)', '天气:', 'Showers of Light Rain', '上午7:00', '24°C', '1,003毫巴', '每小时14.4公里, 东', '10.00公里', '部分多云 (792米)', '本地:', '07:00、2019年7月29日周一', '协调世界时:', '23:00、2019年7月28日周日', '来源:', '周期文件', '趋势:', '无重要变化', '露点:', '22°C', '其他云层:', '大部分晴天 (274米)、大部分晴天 (792米)', '天气:', 'Showers of Light Rain', '原始:', 'ZUUU 282300Z 09004MPS 050V120 9999 -SHRA FEW009 FEW026CB SCT026 24/22 Q1003 NOSIG', '上午7:00', '24.0°C', '1,003毫巴', '每小时14.4公里, 东', '10.00公里', '部分多云 (792米)', '本地:', '07:00、2019年7月29日周一', '协调世界时:', '23:00、2019年7月28日周日', '来源:', 'USAF 每小时地面观测', '报告类型:', 'METAR 航空例行天气报告', '露点:', '22.0°C', '其他云层:', '大部分晴天 (274米)、大部分晴天 (792米)', '天气:', 'Showers of Light Rain', '上午8:00', '23°C', '1,003毫巴', '每小时18.0公里, 东', '10.00公里', '部分多云 (792米)', '本地:', '08:00、2019年7月29日周一', '协调世界时:', '00:00、2019年7月29日周一', '来源:', '周期文件', '趋势:', '无重要变化', '露点:', '21°C', '其他云层:', '大部分晴天 (274米)', '天气:', 'Showers of Light Rain', '原始:', 'ZUUU 290000Z 09005MPS 050V120 9999 -SHRA FEW009 SCT026 23/21 Q1003 NOSIG', '上午8:00', '23.0°C', '1,003毫巴', '每小时18.0公里, 东', '10.00公里', '部分多云 (792米)', '本地:', '08:00、2019年7月29日周一', '协调世界时:', '00:00、2019年7月29日周一', '来源:', 'USAF 每小时地面观测', '报告类型:', 'METAR 航空例行天气报告', '露点:', '21.0°C', '其他云层:', '大部分晴天 (274米)', '天气:', 'Showers of Light Rain', '上午9:00', '25°C', '1,003毫巴', '每小时10.8公里, 东', '10.00公里', '部分多云 (1,006米)', '本地:', '09:00、2019年7月29日周一', '协调世界时:', '01:00、2019年7月29日周一', '来源:', '周期文件', '趋势:', '无重要变化', '露点:', '20°C', '其他云层:', '大部分晴天 (274米)', '天气:', 'Showers of Light Rain', '原始:', 'ZUUU 290100Z 07003MPS 030V110 9999 -SHRA FEW009 SCT033 25/20 Q1003 NOSIG', '上午9:00', '25.0°C', '1,003毫巴', '每小时10.8公里, 东', '10.00公里', '部分多云 (1,006米)', '本地:', '09:00、2019年7月29日周一', '协调世界时:', '01:00、2019年7月29日周一', '来源:', 'USAF 每小时地面观测', '报告类型:', 'METAR 航空例行天气报告', '露点:', '20.0°C', '其他云层:', '大部分晴天 (274米)', '天气:', 'Showers of Light Rain', '上午10:00', '24°C', '1,005毫巴', '每小时10.8公里, 北', '10.00公里', '部分多云 (914米)', '本地:', '10:00、2019年7月29日周一', '协调世界时:', '02:00、2019年7月29日周一', '来源:', '周期文件', '趋势:', '无重要变化', '露点:', '21°C', '其他云层:', '大部分晴天 (274米)', '天气:', 'Showers of Light Rain', '原始:', 'ZUUU 290200Z 01003MPS 330V040 9999 -SHRA FEW009 SCT030 24/21 Q1005 NOSIG', '上午10:00', '24.0°C', '1,005毫巴', '每小时10.8公里, 北', '10.00公里', '部分多云 (914米)', '本地:', '10:00、2019年7月29日周一', '协调世界时:', '02:00、2019年7月29日周一', '来源:', 'USAF 每小时地面观测', '报告类型:', 'METAR 航空例行天气报告', '露点:', '21.0°C', '其他云层:', '大部分晴天 (274米)', '天气:', 'Showers of Light Rain', '上午11:00', '23°C', '1,006毫巴', '每小时10.8公里, 北', '7.00公里', '大部分多云 (914米)', '本地:', '11:00、2019年7月29日周一', '协调世界时:', '03:00、2019年7月29日周一', '来源:', '周期文件', '趋势:', '变化为', '露点:', '21°C', '其他云层:', '大部分晴天 (274米)、大部分晴天 (914米)', '天气:', 'Showers of Rain、Showers of Light Rain', '原始:', 'ZUUU 290300Z 36003MPS 320V040 7000 SHRA FEW009 FEW030TCU BKN030 23/21 Q1006 BECMG TL0330 -SHRA', '上午11:00', '23.0°C', '1,006毫巴', '每小时10.8公里, 北', '7.00公里', '大部分多云 (914米)', '本地:', '11:00、2019年7月29日周一', '协调世界时:', '03:00、2019年7月29日周一', '来源:', 'USAF 每小时地面观测', '报告类型:', 'METAR 航空例行天气报告', '露点:', '21.0°C', '其他云层:', '大部分晴天 (274米)、大部分晴天 (914米)', '天气:', 'Showers of Rain', '下午12:00', '24°C', '1,006毫巴', '每小时7.20公里, 北', '7.00公里', '部分多云 (914米)', '本地:', '12:00、2019年7月29日周一', '协调世界时:', '04:00、2019年7月29日周一', '来源:', '周期文件', '趋势:', '无重要变化', '露点:', '22°C', '其他云层:', '大部分晴天 (274米)、大部分晴天 (914米)', '天气:', 'Showers of Light Rain', '原始:', 'ZUUU 290400Z 01002MPS 330V030 7000 -SHRA FEW009 FEW030TCU SCT030 24/22 Q1006 NOSIG', '下午12:00', '24.0°C', '1,006毫巴', '每小时7.20公里, 北', '7.00公里', '部分多云 (914米)', '本地:', '12:00、2019年7月29日周一', '协调世界时:', '04:00、2019年7月29日周一', '来源:', 'USAF 每小时地面观测', '报告类型:', 'METAR 航空例行天气报告', '露点:', '22.0°C', '其他云层:', '大部分晴天 (274米)、大部分晴天 (914米)', '天气:', 'Showers of Light Rain', '下午1:00', '24°C', '1,006毫巴', '每小时3.60公里', '10.00公里', '大部分多云 (914米)', '本地:', '13:00、2019年7月29日周一', '协调世界时:', '05:00、2019年7月29日周一', '来源:', '周期文件', '趋势:', '无重要变化', '露点:', '22°C', '其他云层:', '大部分晴天 (274米)', '天气:', 'Showers of Light Rain', '原始:', 'ZUUU 290500Z VRB01MPS 9999 -SHRA FEW009 BKN030 24/22 Q1006 NOSIG', '下午1:00', '24.0°C', '1,006毫巴', '每小时3.60公里', '10.00公里', '大部分多云 (914米)', '本地:', '13:00、2019年7月29日周一', '协调世界时:', '05:00、2019年7月29日周一', '来源:', 'USAF 每小时地面观测', '报告类型:', 'METAR 航空例行天气报告', '露点:', '22.0°C', '其他云层:', '大部分晴天 (274米)', '天气:', 'Showers of Light Rain', '下午2:00', '24°C', '1,006毫巴', '每小时7.20公里, 北', '10.00公里', '大部分多云 (1,219米)', '本地:', '14:00、2019年7月29日周一', '协调世界时:', '06:00、2019年7月29日周一', '来源:', '周期文件', '趋势:', '无重要变化', '露点:', '23°C', '其他云层:', '大部分晴天 (274米)', '天气:', 'Showers of Light Rain', '原始:', 'ZUUU 290600Z 36002MPS 330V040 9999 -SHRA FEW009 BKN040 24/23 Q1006 NOSIG', '下午2:00', '24.0°C', '1,006毫巴', '每小时7.20公里, 北', '10.00公里', '大部分多云 (1,219米)', '本地:', '14:00、2019年7月29日周一', '协调世界时:', '06:00、2019年7月29日周一', '来源:', 'USAF 每小时地面观测', '报告类型:', 'METAR 航空例行天气报告', '露点:', '23.0°C', '其他云层:', '大部分晴天 (274米)', '天气:', 'Showers of Light Rain', '下午3:00', '24°C', '1,007毫巴', '每小时3.60公里', '10.00公里', '大部分多云 (914米)', '本地:', '15:00、2019年7月29日周一', '协调世界时:', '07:00、2019年7月29日周一', '来源:', '周期文件', '趋势:', '无重要变化', '露点:', '22°C', '其他云层:', '大部分晴天 (274米)、大部分晴天 (914米)', '天气:', 'Showers of Light Rain', '原始:', 'ZUUU 290700Z VRB01MPS 9999 -SHRA FEW009 FEW030TCU BKN030 24/22 Q1007 NOSIG', '下午3:00', '24.0°C', '1,007毫巴', '每小时3.60公里', '10.00公里', '大部分多云 (914米)', '本地:', '15:00、2019年7月29日周一', '协调世界时:', '07:00、2019年7月29日周一', '来源:', 'USAF 每小时地面观测', '报告类型:', 'METAR 航空例行天气报告', '露点:', '22.0°C', '其他云层:', '大部分晴天 (274米)、大部分晴天 (914米)', '天气:', 'Showers of Light Rain', '下午4:00', '24°C', '1,007毫巴', '每小时0公里', '10.00公里', '大部分多云 (1,219米)', '本地:', '16:00、2019年7月29日周一', '协调世界时:', '08:00、2019年7月29日周一', '来源:', '周期文件', '趋势:', '无重要变化', '露点:', '22°C', '其他云层:', '大部分晴天 (274米)、大部分晴天 (1,219米)', '天气:', 'Showers of Light Rain', '原始:', 'ZUUU 290800Z 00000MPS 9999 -SHRA FEW009 FEW040TCU BKN040 24/22 Q1007 NOSIG', '下午4:00', '24.0°C', '1,007毫巴', '每小时0公里', '10.00公里', '大部分多云 (1,219米)', '本地:', '16:00、2019年7月29日周一', '协调世界时:', '08:00、2019年7月29日周一', '来源:', 'USAF 每小时地面观测', '报告类型:', 'METAR 航空例行天气报告', '露点:', '22.0°C', '其他云层:', '大部分晴天 (274米)、大部分晴天 (1,219米)', '天气:', 'Showers of Light Rain', '下午5:00', '24°C', '1,007毫巴', '每小时3.60公里', '10.00公里', '大部分多云 (914米)', '本地:', '17:00、2019年7月29日周一', '协调世界时:', '09:00、2019年7月29日周一', '来源:', '周期文件', '趋势:', '无重要变化', '露点:', '22°C', '其他云层:', '大部分晴天 (152米)、部分多云 (274米)、大部分晴天 (914米)', '天气:', 'Showers of Light Rain', '原始:', 'ZUUU 290900Z VRB01MPS 9999 -SHRA FEW005 SCT009 FEW030TCU BKN030 24/22 Q1007 NOSIG', '下午5:00', '24.0°C', '1,007毫巴', '每小时3.60公里', '10.00公里', '大部分多云 (914米)', '本地:', '17:00、2019年7月29日周一', '协调世界时:', '09:00、2019年7月29日周一', '来源:', 'USAF 每小时地面观测', '报告类型:', 'METAR 航空例行天气报告', '露点:', '22.0°C', '其他云层:', '大部分晴天 (152米)、部分多云 (274米)、大部分晴天 (914米)', '天气:', 'Showers of Light Rain', '下午6:00', '24°C', '1,007毫巴', '每小时7.20公里, 西北', '10.00公里', '部分多云 (914米)', '本地:', '18:00、2019年7月29日周一', '协调世界时:', '10:00、2019年7月29日周一', '来源:', '周期文件', '趋势:', '无重要变化', '露点:', '22°C', '其他云层:', '大部分晴天 (274米)、大部分晴天 (914米)', '天气:', 'Showers of Light Rain', '原始:', 'ZUUU 291000Z 31002MPS 260V020 9999 -SHRA FEW009 FEW030TCU SCT030 24/22 Q1007 NOSIG', '下午6:00', '24.0°C', '1,007毫巴', '每小时7.20公里, 西北', '10.00公里', '部分多云 (914米)', '本地:', '18:00、2019年7月29日周一', '协调世界时:', '10:00、2019年7月29日周一', '来源:', 'USAF 每小时地面观测', '报告类型:', 'METAR 航空例行天气报告', '露点:', '22.0°C', '其他云层:', '大部分晴天 (274米)、大部分晴天 (914米)', '天气:', 'Showers of Light Rain', '下午7:00', '24°C', '1,007毫巴', '每小时10.8公里, 西', '10.00公里', '大部分多云 (914米)', '本地:', '19:00、2019年7月29日周一', '协调世界时:', '11:00、2019年7月29日周一', '来源:', '周期文件', '趋势:', '无重要变化', '露点:', '22°C', '其他云层:', '大部分晴天 (305米)、大部分晴天 (914米)', '原始:', 'ZUUU 291100Z 27003MPS 230V310 9999 FEW010 FEW030TCU BKN030 24/22 Q1007 NOSIG', '下午7:00', '24.0°C', '1,007毫巴', '每小时10.8公里, 西', '10.00公里', '大部分多云 (914米)', '本地:', '19:00、2019年7月29日周一', '协调世界时:', '11:00、2019年7月29日周一', '来源:', 'USAF 每小时地面观测', '报告类型:', 'METAR 航空例行天气报告', '露点:', '22.0°C', '其他云层:', '大部分晴天 (305米)、大部分晴天 (914米)', '下午8:00', '23°C', '1,007毫巴', '每小时7.20公里, 西', '10.00公里', '部分多云 (335米)', '本地:', '20:00、2019年7月29日周一', '协调世界时:', '12:00、2019年7月29日周一', '来源:', '周期文件', '趋势:', '无重要变化', '露点:', '21°C', '其他云层:', '大部分晴天 (1,006米)、部分多云 (1,006米)', '原始:', 'ZUUU 291200Z 27002MPS 220V320 9999 SCT011 FEW033TCU SCT033 23/21 Q1007 NOSIG', '下午8:00', '23.0°C', '1,007毫巴', '每小时7.20公里, 西', '10.00公里', '部分多云 (335米)', '本地:', '20:00、2019年7月29日周一', '协调世界时:', '12:00、2019年7月29日周一', '来源:', 'USAF 每小时地面观测', '报告类型:', 'METAR 航空例行天气报告', '露点:', '21.0°C', '其他云层:', '大部分晴天 (1,006米)、部分多云 (1,006米)', '下午9:00', '23°C', '1,007毫巴', '每小时7.20公里, 西南', '10.00公里', '大部分晴天 (335米)', '本地:', '21:00、2019年7月29日周一', '协调世界时:', '13:00、2019年7月29日周一', '来源:', '周期文件', '趋势:', '无重要变化', '露点:', '21°C', '其他云层:', '大部分晴天 (1,006米)', '原始:', 'ZUUU 291300Z 24002MPS 9999 FEW011 FEW033TCU 23/21 Q1007 NOSIG', '下午9:00', '23.0°C', '1,007毫巴', '每小时7.20公里, 西南', '10.00公里', '大部分晴天 (335米)', '本地:', '21:00、2019年7月29日周一', '协调世界时:', '13:00、2019年7月29日周一', '来源:', 'USAF 每小时地面观测', '报告类型:', 'METAR 航空例行天气报告', '露点:', '21.0°C', '其他云层:', '大部分晴天 (1,006米)', '下午10:00', '23°C', '1,008毫巴', '每小时7.20公里, 西南', '10.00公里', '部分多云 (1,219米)', '本地:', '22:00、2019年7月29日周一', '协调世界时:', '14:00、2019年7月29日周一', '来源:', '周期文件', '趋势:', '无重要变化', '露点:', '21°C', '原始:', 'ZUUU 291400Z 24002MPS 210V270 9999 SCT040 23/21 Q1008 NOSIG', '下午10:00', '23.0°C', '1,008毫巴', '每小时7.20公里, 西南', '10.00公里', '部分多云 (1,219米)', '本地:', '22:00、2019年7月29日周一', '协调世界时:', '14:00、2019年7月29日周一', '来源:', 'USAF 每小时地面观测', '报告类型:', 'METAR 航空例行天气报告', '露点:', '21.0°C', '下午11:00', '23°C', '1,008毫巴', '每小时7.20公里, 西南', '10.00公里', '部分多云 (1,524米)', '本地:', '23:00、2019年7月29日周一', '协调世界时:', '15:00、2019年7月29日周一', '来源:', '周期文件', '趋势:', '无重要变化', '露点:', '22°C', '原始:', 'ZUUU 291500Z 22002MPS 190V250 9999 SCT050 23/22 Q1008 NOSIG', '下午11:00', '23.0°C', '1,008毫巴', '每小时7.20公里, 西南', '10.00公里', '部分多云 (1,524米)', '本地:', '23:00、2019年7月29日周一', '协调世界时:', '15:00、2019年7月29日周一', '来源:', 'USAF 每小时地面观测', '报告类型:', 'METAR 航空例行天气报告', '露点:', '22.0°C']