['Mist', 'BR、IWC10', 'Mist', 'BR、IWC10', 'Mist', 'BR、IWC10', 'Mist', 'BR、IWC10', 'Mist', 'BR、IWC10', 'Mist', 'BR、IWC10', 'Mist', 'BR、IWC10', 'Mist', 'BR、IWC10', 'Haze', 'HZ、IWC05', 'Haze', 'HZ、IWC05', 'Light Rain', '-RA、IWC61', 'Light Rain', '-RA、IWC61', '上午12:00', '14°C', '1,016毫巴', '每小时7.20公里, 西南', '7.00公里', '无重要云', '本地:', '00:00、2019年11月16日周六', '协调世界时:', '16:00、2019年11月15日周五', '来源:', '周期文件', '趋势:', '无重要变化', '露点:', '11°C', '原始:', 'ZUUU 151600Z 21002MPS 7000 NSC 14/11 Q1016 NOSIG', '上午12:00', '14.0°C', '1,016毫巴', '每小时7.20公里, 西南', '7.00公里', '未检测到云', '本地:', '00:00、2019年11月16日周六', '协调世界时:', '16:00、2019年11月15日周五', '来源:', 'USAF 每小时地面观测', '报告类型:', 'METAR 航空例行天气报告', '露点:', '11.0°C', '上午1:00', '14°C', '1,016毫巴', '每小时3.60公里', '7.00公里', '大部分晴天 (1,524米)', '本地:', '01:00、2019年11月16日周六', '协调世界时:', '17:00、2019年11月15日周五', '来源:', '周期文件', '趋势:', '无重要变化', '露点:', '10°C', '原始:', 'ZUUU 151700Z VRB01MPS 7000 FEW050 14/10 Q1016 NOSIG', '上午1:00', '14.0°C', '1,016毫巴', '每小时3.60公里', '7.00公里', '大部分晴天 (1,524米)', '本地:', '01:00、2019年11月16日周六', '协调世界时:', '17:00、2019年11月15日周五', '来源:', 'USAF 每小时地面观测', '报告类型:', 'METAR 航空例行天气报告', '露点:', '10.0°C', '上午2:00', '14°C', '1,015毫巴', '每小时0公里', '7.00公里', '大部分晴天 (1,524米)', '本地:', '02:00、2019年11月16日周六', '协调世界时:', '18:00、2019年11月15日周五', '来源:', '周期文件', '趋势:', '无重要变化', '露点:', '11°C', '原始:', 'ZUUU 151800Z 00000MPS 7000 FEW050 14/11 Q1015 NOSIG', '上午2:00', '14.0°C', '1,015毫巴', '每小时0公里', '7.00公里', '大部分晴天 (1,524米)', '本地:', '02:00、2019年11月16日周六', '协调世界时:', '18:00、2019年11月15日周五', '来源:', 'USAF 每小时地面观测', '报告类型:', 'METAR 航空例行天气报告', '露点:', '11.0°C', '上午3:00', '14°C', '1,015毫巴', '每小时0公里', '6.00公里', '大部分晴天 (1,524米)', '本地:', '03:00、2019年11月16日周六', '协调世界时:', '19:00、2019年11月15日周五', '来源:', '周期文件', '趋势:', '无重要变化', '露点:', '10°C', '原始:', 'ZUUU 151900Z 00000MPS 6000 FEW050 14/10 Q1015 NOSIG', '上午3:00', '14.0°C', '1,015毫巴', '每小时0公里', '6.00公里', '大部分晴天 (1,524米)', '本地:', '03:00、2019年11月16日周六', '协调世界时:', '19:00、2019年11月15日周五', '来源:', 'USAF 每小时地面观测', '报告类型:', 'METAR 航空例行天气报告', '露点:', '10.0°C', '上午4:00', '14°C', '1,014毫巴', '每小时0公里', '5.00公里', '大部分晴天 (1,524米)', '本地:', '04:00、2019年11月16日周六', '协调世界时:', '20:00、2019年11月15日周五', '来源:', '周期文件', '趋势:', '无重要变化', '露点:', '11°C', '天气:', 'Mist', '原始:', 'ZUUU 152000Z 00000MPS 5000 BR FEW050 14/11 Q1014 NOSIG', '上午4:00', '14.0°C', '1,014毫巴', '每小时0公里', '5.00公里', '大部分晴天 (1,524米)', '本地:', '04:00、2019年11月16日周六', '协调世界时:', '20:00、2019年11月15日周五', '来源:', 'USAF 每小时地面观测', '报告类型:', 'METAR 航空例行天气报告', '露点:', '11.0°C', '天气:', 'Mist', '上午5:00', '14°C', '1,014毫巴', '每小时0公里', '5.00公里', '大部分晴天 (1,524米)', '本地:', '05:00、2019年11月16日周六', '协调世界时:', '21:00、2019年11月15日周五', '来源:', '周期文件', '趋势:', '无重要变化', '露点:', '11°C', '天气:', 'Mist', '原始:', 'ZUUU 152100Z 00000MPS 5000 BR FEW050 14/11 Q1014 NOSIG', '上午5:00', '14.0°C', '1,014毫巴', '每小时0公里', '5.00公里', '大部分晴天 (1,524米)', '本地:', '05:00、2019年11月16日周六', '协调世界时:', '21:00、2019年11月15日周五', '来源:', 'USAF 每小时地面观测', '报告类型:', 'METAR 航空例行天气报告', '露点:', '11.0°C', '天气:', 'Mist', '上午6:00', '13°C', '1,014毫巴', '每小时0公里', '5.00公里', '大部分晴天 (1,524米)', '本地:', '06:00、2019年11月16日周六', '协调世界时:', '22:00、2019年11月15日周五', '来源:', '周期文件', '趋势:', '无重要变化', '露点:', '11°C', '天气:', 'Mist', '原始:', 'ZUUU 152200Z 00000MPS 5000 BR FEW050 13/11 Q1014 NOSIG', '上午6:00', '13.0°C', '1,014毫巴', '每小时0公里', '5.00公里', '大部分晴天 (1,524米)', '本地:', '06:00、2019年11月16日周六', '协调世界时:', '22:00、2019年11月15日周五', '来源:', 'USAF 每小时地面观测', '报告类型:', 'METAR 航空例行天气报告', '露点:', '11.0°C', '天气:', 'Mist', '上午7:00', '13°C', '1,014毫巴', '每小时0公里', '5.00公里', '大部分晴天 (1,524米)', '本地:', '07:00、2019年11月16日周六', '协调世界时:', '23:00、2019年11月15日周五', '来源:', '周期文件', '趋势:', '无重要变化', '露点:', '11°C', '天气:', 'Mist', '原始:', 'ZUUU 152300Z 00000MPS 5000 BR FEW050 13/11 Q1014 NOSIG', '上午7:00', '13.0°C', '1,014毫巴', '每小时0公里', '5.00公里', '大部分晴天 (1,524米)', '本地:', '07:00、2019年11月16日周六', '协调世界时:', '23:00、2019年11月15日周五', '来源:', 'USAF 每小时地面观测', '报告类型:', 'METAR 航空例行天气报告', '露点:', '11.0°C', '天气:', 'Mist', '上午8:00', '13°C', '1,014毫巴', '每小时0公里', '4.50公里', '大部分晴天 (1,524米)', '本地:', '08:00、2019年11月16日周六', '协调世界时:', '00:00、2019年11月16日周六', '来源:', '周期文件', '趋势:', '无重要变化', '露点:', '11°C', '天气:', 'Mist', '原始:', 'ZUUU 160000Z 00000MPS 4500 BR FEW050 13/11 Q1014 NOSIG', '上午8:00', '13.0°C', '1,014毫巴', '每小时0公里', '4.50公里', '大部分晴天 (1,524米)', '本地:', '08:00、2019年11月16日周六', '协调世界时:', '00:00、2019年11月16日周六', '来源:', 'USAF 每小时地面观测', '报告类型:', 'METAR 航空例行天气报告', '露点:', '11.0°C', '天气:', 'Mist', '上午9:00', '14°C', '1,014毫巴', '每小时7.20公里, 西南', '4.50公里', '大部分晴天 (1,524米)', '本地:', '09:00、2019年11月16日周六', '协调世界时:', '01:00、2019年11月16日周六', '来源:', '周期文件', '趋势:', '无重要变化', '露点:', '12°C', '天气:', 'Mist', '原始:', 'ZUUU 160100Z 22002MPS 4500 BR FEW050 14/12 Q1014 NOSIG', '上午9:00', '14.0°C', '1,014毫巴', '每小时7.20公里, 西南', '4.50公里', '大部分晴天 (1,524米)', '本地:', '09:00、2019年11月16日周六', '协调世界时:', '01:00、2019年11月16日周六', '来源:', 'USAF 每小时地面观测', '报告类型:', 'METAR 航空例行天气报告', '露点:', '12.0°C', '天气:', 'Mist', '上午10:00', '14°C', '1,014毫巴', '每小时7.20公里, 西南', '4.00公里', '部分多云 (1,524米)', '本地:', '10:00、2019年11月16日周六', '协调世界时:', '02:00、2019年11月16日周六', '来源:', '周期文件', '趋势:', '无重要变化', '露点:', '12°C', '天气:', 'Mist', '原始:', 'ZUUU 160200Z 24002MPS 210V270 4000 BR SCT050 14/12 Q1014 NOSIG', '上午10:00', '14.0°C', '1,014毫巴', '每小时7.20公里, 西南', '4.00公里', '部分多云 (1,524米)', '本地:', '10:00、2019年11月16日周六', '协调世界时:', '02:00、2019年11月16日周六', '来源:', 'USAF 每小时地面观测', '报告类型:', 'METAR 航空例行天气报告', '露点:', '12.0°C', '天气:', 'Mist', '上午11:00', '15°C', '1,014毫巴', '每小时3.60公里', '4.50公里', '部分多云 (1,524米)', '本地:', '11:00、2019年11月16日周六', '协调世界时:', '03:00、2019年11月16日周六', '来源:', '周期文件', '趋势:', '无重要变化', '露点:', '11°C', '天气:', 'Mist', '原始:', 'ZUUU 160300Z VRB01MPS 4500 BR SCT050 15/11 Q1014 NOSIG', '上午11:00', '15.0°C', '1,014毫巴', '每小时3.60公里', '4.50公里', '部分多云 (1,524米)', '本地:', '11:00、2019年11月16日周六', '协调世界时:', '03:00、2019年11月16日周六', '来源:', 'USAF 每小时地面观测', '报告类型:', 'METAR 航空例行天气报告', '露点:', '11.0°C', '天气:', 'Mist', '下午12:00', '17°C', '1,012毫巴', '每小时3.60公里', '5.00公里', '部分多云 (1,524米)', '本地:', '12:00、2019年11月16日周六', '协调世界时:', '04:00、2019年11月16日周六', '来源:', '周期文件', '趋势:', '无重要变化', '露点:', '10°C', '天气:', 'Haze', '原始:', 'ZUUU 160400Z VRB01MPS 5000 HZ SCT050 17/10 Q1012 NOSIG', '下午12:00', '17.0°C', '1,012毫巴', '每小时3.60公里', '5.00公里', '部分多云 (1,524米)', '本地:', '12:00、2019年11月16日周六', '协调世界时:', '04:00、2019年11月16日周六', '来源:', 'USAF 每小时地面观测', '报告类型:', 'METAR 航空例行天气报告', '露点:', '10.0°C', '天气:', 'Haze', '下午1:00', '19°C', '1,011毫巴', '每小时0公里', '5.00公里', '部分多云 (1,524米)', '本地:', '13:00、2019年11月16日周六', '协调世界时:', '05:00、2019年11月16日周六', '来源:', '周期文件', '趋势:', '无重要变化', '露点:', '10°C', '天气:', 'Haze', '原始:', 'ZUUU 160500Z 00000MPS 5000 HZ SCT050 19/10 Q1011 NOSIG', '下午1:00', '19.0°C', '1,011毫巴', '每小时0公里', '5.00公里', '部分多云 (1,524米)', '本地:', '13:00、2019年11月16日周六', '协调世界时:', '05:00、2019年11月16日周六', '来源:', 'USAF 每小时地面观测', '报告类型:', 'METAR 航空例行天气报告', '露点:', '10.0°C', '天气:', 'Haze', '下午2:00', '18°C', '1,009毫巴', '每小时7.20公里', '8.00公里', '部分多云 (1,524米)', '本地:', '14:00、2019年11月16日周六', '协调世界时:', '06:00、2019年11月16日周六', '来源:', '周期文件', '趋势:', '无重要变化', '露点:', '8°C', '原始:', 'ZUUU 160600Z VRB02MPS 8000 SCT050 18/08 Q1009 NOSIG', '下午2:00', '18.0°C', '1,009毫巴', '每小时7.20公里', '8.00公里', '部分多云 (1,524米)', '本地:', '14:00、2019年11月16日周六', '协调世界时:', '06:00、2019年11月16日周六', '来源:', 'USAF 每小时地面观测', '报告类型:', 'METAR 航空例行天气报告', '露点:', '8.0°C', '下午3:00', '19°C', '1,008毫巴', '每小时3.60公里', '8.00公里', '部分多云 (1,524米)', '本地:', '15:00、2019年11月16日周六', '协调世界时:', '07:00、2019年11月16日周六', '来源:', '周期文件', '趋势:', '无重要变化', '露点:', '9°C', '原始:', 'ZUUU 160700Z VRB01MPS 8000 SCT050 19/09 Q1008 NOSIG', '下午3:00', '19.0°C', '1,008毫巴', '每小时3.60公里', '8.00公里', '部分多云 (1,524米)', '本地:', '15:00、2019年11月16日周六', '协调世界时:', '07:00、2019年11月16日周六', '来源:', 'USAF 每小时地面观测', '报告类型:', 'METAR 航空例行天气报告', '露点:', '9.0°C', '下午4:00', '19°C', '1,008毫巴', '每小时3.60公里', '8.00公里', '部分多云 (1,524米)', '本地:', '16:00、2019年11月16日周六', '协调世界时:', '08:00、2019年11月16日周六', '来源:', '周期文件', '趋势:', '无重要变化', '露点:', '9°C', '原始:', 'ZUUU 160800Z VRB01MPS 8000 SCT050 19/09 Q1008 NOSIG', '下午4:00', '19.0°C', '1,008毫巴', '每小时3.60公里', '8.00公里', '部分多云 (1,524米)', '本地:', '16:00、2019年11月16日周六', '协调世界时:', '08:00、2019年11月16日周六', '来源:', 'USAF 每小时地面观测', '报告类型:', 'METAR 航空例行天气报告', '露点:', '9.0°C', '下午5:00', '18°C', '1,008毫巴', '每小时3.60公里', '8.00公里', '部分多云 (1,524米)', '本地:', '17:00、2019年11月16日周六', '协调世界时:', '09:00、2019年11月16日周六', '来源:', '周期文件', '趋势:', '无重要变化', '露点:', '9°C', '原始:', 'ZUUU 160900Z VRB01MPS 8000 SCT050 18/09 Q1008 NOSIG', '下午5:00', '18.0°C', '1,008毫巴', '每小时3.60公里', '8.00公里', '部分多云 (1,524米)', '本地:', '17:00、2019年11月16日周六', '协调世界时:', '09:00、2019年11月16日周六', '来源:', 'USAF 每小时地面观测', '报告类型:', 'METAR 航空例行天气报告', '露点:', '9.0°C', '下午6:00', '18°C', '1,009毫巴', '每小时3.60公里', '8.00公里', '部分多云 (1,524米)', '本地:', '18:00、2019年11月16日周六', '协调世界时:', '10:00、2019年11月16日周六', '来源:', '周期文件', '趋势:', '无重要变化', '露点:', '10°C', '原始:', 'ZUUU 161000Z VRB01MPS 8000 SCT050 18/10 Q1009 NOSIG', '下午6:00', '18.0°C', '1,009毫巴', '每小时3.60公里', '8.00公里', '部分多云 (1,524米)', '本地:', '18:00、2019年11月16日周六', '协调世界时:', '10:00、2019年11月16日周六', '来源:', 'USAF 每小时地面观测', '报告类型:', 'METAR 航空例行天气报告', '露点:', '10.0°C', '下午7:00', '18°C', '1,011毫巴', '每小时14.4公里, 东', '8.00公里', '部分多云 (1,524米)', '本地:', '19:00、2019年11月16日周六', '协调世界时:', '11:00、2019年11月16日周六', '来源:', '周期文件', '趋势:', '无重要变化', '露点:', '9°C', '其他云层:', '大部分晴天 (1,006米)', '原始:', 'ZUUU 161100Z 09004MPS 010V130 8000 FEW033 SCT050 18/09 Q1011 NOSIG', '下午7:00', '18.0°C', '1,011毫巴', '每小时14.4公里, 东', '8.00公里', '部分多云 (1,524米)', '本地:', '19:00、2019年11月16日周六', '协调世界时:', '11:00、2019年11月16日周六', '来源:', 'USAF 每小时地面观测', '报告类型:', 'METAR 航空例行天气报告', '露点:', '9.0°C', '其他云层:', '大部分晴天 (1,006米)', '下午8:00', '17°C', '1,013毫巴', '每小时14.4公里, 东北', '8.00公里', '部分多云 (1,524米)', '本地:', '20:00、2019年11月16日周六', '协调世界时:', '12:00、2019年11月16日周六', '来源:', '周期文件', '趋势:', '无重要变化', '露点:', '10°C', '其他云层:', '大部分晴天 (1,006米)', '天气:', 'Light Rain', '原始:', 'ZUUU 161200Z 05004MPS 030V090 8000 -RA FEW033 SCT050 17/10 Q1013 NOSIG', '下午8:00', '17.0°C', '1,013毫巴', '每小时14.4公里, 东北', '8.00公里', '部分多云 (1,524米)', '本地:', '20:00、2019年11月16日周六', '协调世界时:', '12:00、2019年11月16日周六', '来源:', 'USAF 每小时地面观测', '报告类型:', 'METAR 航空例行天气报告', '露点:', '10.0°C', '其他云层:', '大部分晴天 (1,006米)', '天气:', 'Light Rain', '下午9:00', '16°C', '1,015毫巴', '每小时14.4公里, 东北', '8.00公里', '部分多云 (914米)', '本地:', '21:00、2019年11月16日周六', '协调世界时:', '13:00、2019年11月16日周六', '来源:', '周期文件', '趋势:', '无重要变化', '露点:', '10°C', '其他云层:', '部分多云 (1,219米)', '天气:', 'Light Rain', '原始:', 'ZUUU 161300Z 06004MPS 030V100 8000 -RA SCT030 SCT040 16/10 Q1015 NOSIG', '下午9:00', '16.0°C', '1,015毫巴', '每小时14.4公里, 东北', '8.00公里', '部分多云 (914米)', '本地:', '21:00、2019年11月16日周六', '协调世界时:', '13:00、2019年11月16日周六', '来源:', 'USAF 每小时地面观测', '报告类型:', 'METAR 航空例行天气报告', '露点:', '10.0°C', '其他云层:', '部分多云 (1,219米)', '天气:', 'Light Rain', '下午10:00', '16°C', '1,016毫巴', '每小时10.8公里, 东北', '8.00公里', '部分多云 (914米)', '本地:', '22:00、2019年11月16日周六', '协调世界时:', '14:00、2019年11月16日周六', '来源:', '周期文件', '趋势:', '无重要变化', '露点:', '9°C', '其他云层:', '部分多云 (1,219米)', '原始:', 'ZUUU 161400Z 06003MPS 010V090 8000 SCT030 SCT040 16/09 Q1016 NOSIG', '下午10:00', '16.0°C', '1,016毫巴', '每小时10.8公里, 东北', '8.00公里', '部分多云 (914米)', '本地:', '22:00、2019年11月16日周六', '协调世界时:', '14:00、2019年11月16日周六', '来源:', 'USAF 每小时地面观测', '报告类型:', 'METAR 航空例行天气报告', '露点:', '9.0°C', '其他云层:', '部分多云 (1,219米)', '下午11:00', '15°C', '1,016毫巴', '每小时3.60公里', '8.00公里', '部分多云 (1,524米)', '本地:', '23:00、2019年11月16日周六', '协调世界时:', '15:00、2019年11月16日周六', '来源:', '周期文件', '趋势:', '无重要变化', '露点:', '10°C', '原始:', 'ZUUU 161500Z VRB01MPS 8000 SCT050 15/10 Q1016 NOSIG', '下午11:00', '15.0°C', '1,016毫巴', '每小时3.60公里', '8.00公里', '部分多云 (1,524米)', '本地:', '23:00、2019年11月16日周六', '协调世界时:', '15:00、2019年11月16日周六', '来源:', 'USAF 每小时地面观测', '报告类型:', 'METAR 航空例行天气报告', '露点:', '10.0°C']