['Mist', 'BR、IWC10', 'Mist', 'BR、IWC10', 'Showers of Light Rain、Mist', '-SHRA、IWC80、BR、IWC10', 'Showers of Rain、Showers of Light Rain、Mist', 'SHRA、IWC81、-SHRA、BR、IWC10', 'Recent Showers of Rain、Showers of Light Rain、Mist', 'RESHRA、-SHRA、IWC80、BR、IWC10', 'Showers of Light Rain、Mist', '-SHRA、IWC80、BR、IWC10', 'Showers of Light Rain、Mist', '-SHRA、IWC80、BR、IWC10', 'Showers of Light Rain、Mist', '-SHRA、IWC80、BR、IWC10', 'Showers of Light Rain、Mist', '-SHRA、IWC80、BR、IWC10', 'Showers of Light Rain、Mist', '-SHRA、IWC80、BR、IWC10', 'Showers of Light Rain、Mist', '-SHRA、IWC80、BR、IWC10', 'Showers of Light Rain、Mist', '-SHRA、IWC80、BR、IWC10', 'Showers of Light Rain、Mist', '-SHRA、IWC80、BR、IWC10', 'Showers of Light Rain', '-SHRA、IWC80', 'Showers of Light Rain', '-SHRA、IWC80', 'Showers of Light Rain', '-SHRA、IWC80', '上午12:00', '24°C', '1,007毫巴', '每小时0公里', '5.00公里', '无重要云', '本地:', '00:00、2019年9月7日周六', '协调世界时:', '16:00、2019年9月6日周五', '来源:', '周期文件', '趋势:', '无重要变化', '露点:', '22°C', '天气:', 'Mist', '原始:', 'ZUUU 061600Z 00000MPS 5000 BR NSC 24/22 Q1007 NOSIG', '上午12:00', '24.0°C', '1,007毫巴', '每小时0公里', '5.00公里', '未检测到云', '本地:', '00:00、2019年9月7日周六', '协调世界时:', '16:00、2019年9月6日周五', '来源:', 'USAF 每小时地面观测', '报告类型:', 'METAR 航空例行天气报告', '露点:', '22.0°C', '天气:', 'Mist', '上午1:00', '23°C', '1,006毫巴', '每小时0公里', '5.00公里', '无重要云', '本地:', '01:00、2019年9月7日周六', '协调世界时:', '17:00、2019年9月6日周五', '来源:', '周期文件', '趋势:', '无重要变化', '露点:', '22°C', '天气:', 'Mist', '原始:', 'ZUUU 061700Z 00000MPS 5000 BR NSC 23/22 Q1006 NOSIG', '上午1:00', '23.0°C', '1,006毫巴', '每小时0公里', '5.00公里', '未检测到云', '本地:', '01:00、2019年9月7日周六', '协调世界时:', '17:00、2019年9月6日周五', '来源:', 'USAF 每小时地面观测', '报告类型:', 'METAR 航空例行天气报告', '露点:', '22.0°C', '天气:', 'Mist', '上午2:00', '23°C', '1,006毫巴', '每小时3.60公里, 西南', '5.00公里', '部分多云 (1,006米)', '本地:', '02:00、2019年9月7日周六', '协调世界时:', '18:00、2019年9月6日周五', '来源:', '周期文件', '趋势:', '无重要变化', '露点:', '22°C', '其他云层:', '大部分晴天 (1,006米)', '天气:', 'Showers of Light Rain、Mist', '原始:', 'ZUUU 061800Z 21001MPS 5000 -SHRA BR FEW033TCU SCT033 23/22 Q1006 NOSIG', '上午2:00', '23.0°C', '1,006毫巴', '每小时3.60公里, 西南', '5.00公里', '部分多云 (1,006米)', '本地:', '02:00、2019年9月7日周六', '协调世界时:', '18:00、2019年9月6日周五', '来源:', 'USAF 每小时地面观测', '报告类型:', 'METAR 航空例行天气报告', '露点:', '22.0°C', '其他云层:', '大部分晴天 (1,006米)', '天气:', 'Mist、Showers of Light Rain', '上午3:00', '23°C', '1,006毫巴', '每小时3.60公里, 西南', '2.50公里', '部分多云 (792米)', '本地:', '03:00、2019年9月7日周六', '协调世界时:', '19:00、2019年9月6日周五', '来源:', '周期文件', '趋势:', '变化为', '露点:', '22°C', '其他云层:', '大部分晴天 (244米)、大部分晴天 (792米)', '天气:', 'Showers of Rain、Mist、Showers of Light Rain', '原始:', 'ZUUU 061900Z 23001MPS 2500 SHRA BR FEW008 FEW026TCU SCT026 23/22 Q1006 BECMG TL2040 3000 -SHRA', '上午3:00', '23.0°C', '1,006毫巴', '每小时3.60公里, 西南', '2.50公里', '部分多云 (792米)', '本地:', '03:00、2019年9月7日周六', '协调世界时:', '19:00、2019年9月6日周五', '来源:', 'USAF 每小时地面观测', '报告类型:', 'METAR 航空例行天气报告', '露点:', '22.0°C', '其他云层:', '大部分晴天 (244米)、大部分晴天 (792米)', '天气:', 'Mist、Showers of Rain', '上午4:00', '23°C', '1,005毫巴', '每小时0公里', '3.50公里', '部分多云 (792米)', '本地:', '04:00、2019年9月7日周六', '协调世界时:', '20:00、2019年9月6日周五', '来源:', '周期文件', '趋势:', '无重要变化', '露点:', '22°C', '其他云层:', '大部分晴天 (244米)、大部分晴天 (792米)', '天气:', 'Showers of Light Rain、Mist、Recent Showers of Rain', '原始:', 'ZUUU 062000Z 00000MPS 3500 -SHRA BR FEW008 FEW026TCU SCT026 23/22 Q1005 RESHRA NOSIG', '上午4:00', '23.0°C', '1,005毫巴', '每小时0公里', '3.50公里', '部分多云 (792米)', '本地:', '04:00、2019年9月7日周六', '协调世界时:', '20:00、2019年9月6日周五', '来源:', 'USAF 每小时地面观测', '报告类型:', 'METAR 航空例行天气报告', '露点:', '22.0°C', '其他云层:', '大部分晴天 (244米)、大部分晴天 (792米)', '天气:', 'Mist、Showers of Light Rain', '上午5:00', '23°C', '1,005毫巴', '每小时0公里', '3.00公里', '大部分多云 (792米)', '本地:', '05:00、2019年9月7日周六', '协调世界时:', '21:00、2019年9月6日周五', '来源:', '周期文件', '趋势:', '变化为', '露点:', '22°C', '其他云层:', '大部分晴天 (244米)、大部分晴天 (792米)', '天气:', 'Showers of Light Rain、Mist、Mist', '原始:', 'ZUUU 062100Z 00000MPS 3000 -SHRA BR FEW008 FEW026TCU BKN026 23/22 Q1005 BECMG TL2230 2700 BR', '上午5:00', '23.0°C', '1,005毫巴', '每小时0公里', '3.00公里', '大部分多云 (792米)', '本地:', '05:00、2019年9月7日周六', '协调世界时:', '21:00、2019年9月6日周五', '来源:', 'USAF 每小时地面观测', '报告类型:', 'METAR 航空例行天气报告', '露点:', '22.0°C', '其他云层:', '大部分晴天 (244米)、大部分晴天 (792米)', '天气:', 'Mist、Showers of Light Rain', '上午6:00', '23°C', '1,005毫巴', '每小时0公里', '3.00公里', '大部分多云 (792米)', '本地:', '06:00、2019年9月7日周六', '协调世界时:', '22:00、2019年9月6日周五', '来源:', '周期文件', '趋势:', '变化为', '露点:', '22°C', '其他云层:', '大部分晴天 (183米)、大部分晴天 (792米)', '天气:', 'Showers of Light Rain、Mist、Mist', '原始:', 'ZUUU 062200Z 00000MPS 3000 -SHRA BR FEW006 FEW026TCU BKN026 23/22 Q1005 BECMG TL2240 2700 BR', '上午6:00', '23.0°C', '1,005毫巴', '每小时0公里', '3.00公里', '大部分多云 (792米)', '本地:', '06:00、2019年9月7日周六', '协调世界时:', '22:00、2019年9月6日周五', '来源:', 'USAF 每小时地面观测', '报告类型:', 'METAR 航空例行天气报告', '露点:', '22.0°C', '其他云层:', '大部分晴天 (183米)、大部分晴天 (792米)', '天气:', 'Mist、Showers of Light Rain', '上午7:00', '22°C', '1,006毫巴', '每小时3.60公里', '2.70公里', '大部分多云 (792米)', '本地:', '07:00、2019年9月7日周六', '协调世界时:', '23:00、2019年9月6日周五', '来源:', '周期文件', '趋势:', '变化为', '露点:', '21°C', '其他云层:', '大部分晴天 (183米)、大部分晴天 (792米)', '天气:', 'Showers of Light Rain、Mist', '原始:', 'ZUUU 062300Z VRB01MPS 2700 -SHRA BR FEW006 FEW026TCU BKN026 22/21 Q1006 BECMG TL0100 3000', '上午7:00', '22.0°C', '1,006毫巴', '每小时3.60公里', '2.70公里', '大部分多云 (792米)', '本地:', '07:00、2019年9月7日周六', '协调世界时:', '23:00、2019年9月6日周五', '来源:', 'USAF 每小时地面观测', '报告类型:', 'METAR 航空例行天气报告', '露点:', '21.0°C', '其他云层:', '大部分晴天 (183米)、大部分晴天 (792米)', '天气:', 'Mist、Showers of Light Rain', '上午8:00', '22°C', '1,006毫巴', '每小时0公里', '3.00公里', '大部分多云 (792米)', '本地:', '08:00、2019年9月7日周六', '协调世界时:', '00:00、2019年9月7日周六', '来源:', '周期文件', '趋势:', '无重要变化', '露点:', '21°C', '其他云层:', '大部分晴天 (183米)、大部分晴天 (792米)', '天气:', 'Showers of Light Rain、Mist', '原始:', 'ZUUU 070000Z 00000MPS 3000 -SHRA BR FEW006 FEW026TCU BKN026 22/21 Q1006 NOSIG', '上午8:00', '22.0°C', '1,006毫巴', '每小时0公里', '3.00公里', '大部分多云 (792米)', '本地:', '08:00、2019年9月7日周六', '协调世界时:', '00:00、2019年9月7日周六', '来源:', 'USAF 每小时地面观测', '报告类型:', 'METAR 航空例行天气报告', '露点:', '21.0°C', '其他云层:', '大部分晴天 (183米)、大部分晴天 (792米)', '天气:', 'Mist、Showers of Light Rain', '上午9:00', '23°C', '1,006毫巴', '每小时3.60公里', '3.50公里', '大部分多云 (792米)', '本地:', '09:00、2019年9月7日周六', '协调世界时:', '01:00、2019年9月7日周六', '来源:', '周期文件', '趋势:', '无重要变化', '露点:', '21°C', '其他云层:', '大部分晴天 (183米)、大部分晴天 (792米)', '天气:', 'Showers of Light Rain、Mist', '原始:', 'ZUUU 070100Z VRB01MPS 3500 -SHRA BR FEW006 FEW026TCU BKN026 23/21 Q1006 NOSIG', '上午9:00', '23.0°C', '1,006毫巴', '每小时3.60公里', '3.50公里', '大部分多云 (792米)', '本地:', '09:00、2019年9月7日周六', '协调世界时:', '01:00、2019年9月7日周六', '来源:', 'USAF 每小时地面观测', '报告类型:', 'METAR 航空例行天气报告', '露点:', '21.0°C', '其他云层:', '大部分晴天 (183米)、大部分晴天 (792米)', '天气:', 'Mist、Showers of Light Rain', '上午10:00', '23°C', '1,007毫巴', '每小时0公里', '3.50公里', '大部分多云 (701米)', '本地:', '10:00、2019年9月7日周六', '协调世界时:', '02:00、2019年9月7日周六', '来源:', '周期文件', '趋势:', '无重要变化', '露点:', '22°C', '其他云层:', '大部分晴天 (152米)、大部分晴天 (701米)', '天气:', 'Showers of Light Rain、Mist', '原始:', 'ZUUU 070200Z 00000MPS 3500 -SHRA BR FEW005 FEW023TCU BKN023 23/22 Q1007 NOSIG', '上午10:00', '23.0°C', '1,007毫巴', '每小时0公里', '3.50公里', '大部分多云 (701米)', '本地:', '10:00、2019年9月7日周六', '协调世界时:', '02:00、2019年9月7日周六', '来源:', 'USAF 每小时地面观测', '报告类型:', 'METAR 航空例行天气报告', '露点:', '22.0°C', '其他云层:', '大部分晴天 (152米)、大部分晴天 (701米)', '天气:', 'Mist、Showers of Light Rain', '上午11:00', '24°C', '1,007毫巴', '每小时10.8公里, 北', '3.50公里', '大部分多云 (701米)', '本地:', '11:00、2019年9月7日周六', '协调世界时:', '03:00、2019年9月7日周六', '来源:', '周期文件', '趋势:', '无重要变化', '露点:', '22°C', '其他云层:', '大部分晴天 (152米)、大部分晴天 (701米)', '天气:', 'Showers of Light Rain、Mist', '原始:', 'ZUUU 070300Z 02003MPS 3500 -SHRA BR FEW005 FEW023TCU BKN023 24/22 Q1007 NOSIG', '上午11:00', '24.0°C', '1,007毫巴', '每小时10.8公里, 北', '3.50公里', '大部分多云 (701米)', '本地:', '11:00、2019年9月7日周六', '协调世界时:', '03:00、2019年9月7日周六', '来源:', 'USAF 每小时地面观测', '报告类型:', 'METAR 航空例行天气报告', '露点:', '22.0°C', '其他云层:', '大部分晴天 (152米)、大部分晴天 (701米)', '天气:', 'Mist、Showers of Light Rain', '下午12:00', '25°C', '1,006毫巴', '每小时10.8公里, 东北', '5.00公里', '大部分多云 (792米)', '本地:', '12:00、2019年9月7日周六', '协调世界时:', '04:00、2019年9月7日周六', '来源:', '周期文件', '趋势:', '无重要变化', '露点:', '21°C', '其他云层:', '大部分晴天 (183米)、大部分晴天 (792米)', '天气:', 'Showers of Light Rain、Mist', '原始:', 'ZUUU 070400Z 05003MPS 360V080 5000 -SHRA BR FEW006 FEW026TCU BKN026 25/21 Q1006 NOSIG', '下午12:00', '25.0°C', '1,006毫巴', '每小时10.8公里, 东北', '5.00公里', '大部分多云 (792米)', '本地:', '12:00、2019年9月7日周六', '协调世界时:', '04:00、2019年9月7日周六', '来源:', 'USAF 每小时地面观测', '报告类型:', 'METAR 航空例行天气报告', '露点:', '21.0°C', '其他云层:', '大部分晴天 (183米)、大部分晴天 (792米)', '天气:', 'Mist、Showers of Light Rain', '下午1:00', '26°C', '1,006毫巴', '每小时7.20公里, 北', '10.00公里', '大部分多云 (792米)', '本地:', '13:00、2019年9月7日周六', '协调世界时:', '05:00、2019年9月7日周六', '来源:', '周期文件', '趋势:', '无重要变化', '露点:', '21°C', '其他云层:', '大部分晴天 (305米)', '原始:', 'ZUUU 070500Z 02002MPS 350V060 9999 FEW010 BKN026 26/21 Q1006 NOSIG', '下午1:00', '26.0°C', '1,006毫巴', '每小时7.20公里, 北', '10.00公里', '大部分多云 (792米)', '本地:', '13:00、2019年9月7日周六', '协调世界时:', '05:00、2019年9月7日周六', '来源:', 'USAF 每小时地面观测', '报告类型:', 'METAR 航空例行天气报告', '露点:', '21.0°C', '其他云层:', '大部分晴天 (305米)', '下午2:00', '26°C', '1,005毫巴', '每小时7.20公里, 北', '10.00公里', '大部分多云 (792米)', '本地:', '14:00、2019年9月7日周六', '协调世界时:', '06:00、2019年9月7日周六', '来源:', '周期文件', '趋势:', '无重要变化', '露点:', '21°C', '其他云层:', '大部分晴天 (305米)', '原始:', 'ZUUU 070600Z 02002MPS 350V050 9999 FEW010 BKN026 26/21 Q1005 NOSIG', '下午2:00', '26.0°C', '1,005毫巴', '每小时7.20公里, 北', '10.00公里', '大部分多云 (792米)', '本地:', '14:00、2019年9月7日周六', '协调世界时:', '06:00、2019年9月7日周六', '来源:', 'USAF 每小时地面观测', '报告类型:', 'METAR 航空例行天气报告', '露点:', '21.0°C', '其他云层:', '大部分晴天 (305米)', '下午3:00', '27°C', '1,005毫巴', '每小时7.20公里, 北', '10.00公里', '大部分多云 (792米)', '本地:', '15:00、2019年9月7日周六', '协调世界时:', '07:00、2019年9月7日周六', '来源:', '周期文件', '趋势:', '无重要变化', '露点:', '21°C', '其他云层:', '大部分晴天 (305米)', '原始:', 'ZUUU 070700Z 01002MPS 320V060 9999 FEW010 BKN026 27/21 Q1005 NOSIG', '下午3:00', '27.0°C', '1,005毫巴', '每小时7.20公里, 北', '10.00公里', '大部分多云 (792米)', '本地:', '15:00、2019年9月7日周六', '协调世界时:', '07:00、2019年9月7日周六', '来源:', 'USAF 每小时地面观测', '报告类型:', 'METAR 航空例行天气报告', '露点:', '21.0°C', '其他云层:', '大部分晴天 (305米)', '下午4:00', '26°C', '1,004毫巴', '每小时10.8公里, 北', '10.00公里', '大部分多云 (792米)', '本地:', '16:00、2019年9月7日周六', '协调世界时:', '08:00、2019年9月7日周六', '来源:', '周期文件', '趋势:', '无重要变化', '露点:', '21°C', '其他云层:', '大部分晴天 (305米)', '天气:', 'Showers of Light Rain', '原始:', 'ZUUU 070800Z 01003MPS 330V040 9999 -SHRA FEW010 BKN026 26/21 Q1004 NOSIG', '下午4:00', '26.0°C', '1,004毫巴', '每小时10.8公里, 北', '10.00公里', '大部分多云 (792米)', '本地:', '16:00、2019年9月7日周六', '协调世界时:', '08:00、2019年9月7日周六', '来源:', 'USAF 每小时地面观测', '报告类型:', 'METAR 航空例行天气报告', '露点:', '21.0°C', '其他云层:', '大部分晴天 (305米)', '天气:', 'Showers of Light Rain', '下午5:00', '26°C', '1,004毫巴', '每小时10.8公里, 东北', '10.00公里', '大部分多云 (792米)', '本地:', '17:00、2019年9月7日周六', '协调世界时:', '09:00、2019年9月7日周六', '来源:', '周期文件', '趋势:', '无重要变化', '露点:', '22°C', '其他云层:', '大部分晴天 (305米)', '原始:', 'ZUUU 070900Z 04003MPS 360V080 9999 FEW010 BKN026 26/22 Q1004 NOSIG', '下午5:00', '26.0°C', '1,004毫巴', '每小时10.8公里, 东北', '10.00公里', '大部分多云 (792米)', '本地:', '17:00、2019年9月7日周六', '协调世界时:', '09:00、2019年9月7日周六', '来源:', 'USAF 每小时地面观测', '报告类型:', 'METAR 航空例行天气报告', '露点:', '22.0°C', '其他云层:', '大部分晴天 (305米)', '下午6:00', '26°C', '1,005毫巴', '每小时10.8公里, 北', '10.00公里', '大部分多云 (792米)', '本地:', '18:00、2019年9月7日周六', '协调世界时:', '10:00、2019年9月7日周六', '来源:', '周期文件', '趋势:', '无重要变化', '露点:', '21°C', '其他云层:', '大部分晴天 (305米)', '原始:', 'ZUUU 071000Z 02003MPS 360V060 9999 FEW010 BKN026 26/21 Q1005 NOSIG', '下午6:00', '26.0°C', '1,005毫巴', '每小时10.8公里, 北', '10.00公里', '大部分多云 (792米)', '本地:', '18:00、2019年9月7日周六', '协调世界时:', '10:00、2019年9月7日周六', '来源:', 'USAF 每小时地面观测', '报告类型:', 'METAR 航空例行天气报告', '露点:', '21.0°C', '其他云层:', '大部分晴天 (305米)', '下午7:00', '25°C', '1,005毫巴', '每小时10.8公里, 北', '10.00公里', '大部分多云 (792米)', '本地:', '19:00、2019年9月7日周六', '协调世界时:', '11:00、2019年9月7日周六', '来源:', '周期文件', '趋势:', '无重要变化', '露点:', '21°C', '其他云层:', '大部分晴天 (305米)', '天气:', 'Showers of Light Rain', '原始:', 'ZUUU 071100Z 02003MPS 360V060 9999 -SHRA FEW010 BKN026 25/21 Q1005 NOSIG', '下午7:00', '25.0°C', '1,005毫巴', '每小时10.8公里, 北', '10.00公里', '大部分多云 (792米)', '本地:', '19:00、2019年9月7日周六', '协调世界时:', '11:00、2019年9月7日周六', '来源:', 'USAF 每小时地面观测', '报告类型:', 'METAR 航空例行天气报告', '露点:', '21.0°C', '其他云层:', '大部分晴天 (305米)', '天气:', 'Showers of Light Rain', '下午8:00', '25°C', '1,006毫巴', '每小时14.4公里, 北', '10.00公里', '大部分多云 (792米)', '本地:', '20:00、2019年9月7日周六', '协调世界时:', '12:00、2019年9月7日周六', '来源:', '周期文件', '趋势:', '无重要变化', '露点:', '21°C', '其他云层:', '大部分晴天 (305米)', '原始:', 'ZUUU 071200Z 02004MPS 9999 FEW010 BKN026 25/21 Q1006 NOSIG', '下午8:00', '25.0°C', '1,006毫巴', '每小时14.4公里, 北', '10.00公里', '大部分多云 (792米)', '本地:', '20:00、2019年9月7日周六', '协调世界时:', '12:00、2019年9月7日周六', '来源:', 'USAF 每小时地面观测', '报告类型:', 'METAR 航空例行天气报告', '露点:', '21.0°C', '其他云层:', '大部分晴天 (305米)', '下午9:00', '24°C', '1,007毫巴', '每小时7.20公里, 北', '10.00公里', '大部分多云 (792米)', '本地:', '21:00、2019年9月7日周六', '协调世界时:', '13:00、2019年9月7日周六', '来源:', '周期文件', '趋势:', '无重要变化', '露点:', '21°C', '其他云层:', '大部分晴天 (305米)', '天气:', 'Showers of Light Rain', '原始:', 'ZUUU 071300Z 01002MPS 320V040 9999 -SHRA FEW010 BKN026 24/21 Q1007 NOSIG', '下午9:00', '24.0°C', '1,007毫巴', '每小时7.20公里, 北', '10.00公里', '大部分多云 (792米)', '本地:', '21:00、2019年9月7日周六', '协调世界时:', '13:00、2019年9月7日周六', '来源:', 'USAF 每小时地面观测', '报告类型:', 'METAR 航空例行天气报告', '露点:', '21.0°C', '其他云层:', '大部分晴天 (305米)', '天气:', 'Showers of Light Rain', '下午10:00', '24°C', '1,007毫巴', '每小时7.20公里, 北', '8.00公里', '大部分多云 (792米)', '本地:', '22:00、2019年9月7日周六', '协调世界时:', '14:00、2019年9月7日周六', '来源:', '周期文件', '趋势:', '无重要变化', '露点:', '21°C', '其他云层:', '大部分晴天 (305米)', '原始:', 'ZUUU 071400Z 36002MPS 320V050 8000 FEW010 BKN026 24/21 Q1007 NOSIG', '下午10:00', '24.0°C', '1,007毫巴', '每小时7.20公里, 北', '8.00公里', '大部分多云 (792米)', '本地:', '22:00、2019年9月7日周六', '协调世界时:', '14:00、2019年9月7日周六', '来源:', 'USAF 每小时地面观测', '报告类型:', 'METAR 航空例行天气报告', '露点:', '21.0°C', '其他云层:', '大部分晴天 (305米)', '下午11:00', '24°C', '1,007毫巴', '每小时7.20公里, 北', '8.00公里', '大部分多云 (792米)', '本地:', '23:00、2019年9月7日周六', '协调世界时:', '15:00、2019年9月7日周六', '来源:', '周期文件', '趋势:', '无重要变化', '露点:', '21°C', '其他云层:', '大部分晴天 (305米)', '原始:', 'ZUUU 071500Z 36002MPS 320V030 8000 FEW010 BKN026 24/21 Q1007 NOSIG', '下午11:00', '24.0°C', '1,007毫巴', '每小时7.20公里, 北', '8.00公里', '大部分多云 (792米)', '本地:', '23:00、2019年9月7日周六', '协调世界时:', '15:00、2019年9月7日周六', '来源:', 'USAF 每小时地面观测', '报告类型:', 'METAR 航空例行天气报告', '露点:', '21.0°C', '其他云层:', '大部分晴天 (305米)']