['Showers of Light Rain、Mist', '-SHRA、IWC80、BR、IWC10', 'Showers of Light Rain、Mist', '-SHRA、IWC80、BR、IWC10', 'Showers of Light Rain、Mist', '-SHRA、IWC80、BR、IWC10', 'Showers of Light Rain、Mist', '-SHRA、IWC80、BR、IWC10', 'Showers of Light Rain、Mist', '-SHRA、IWC80、BR、IWC10', 'Showers of Light Rain、Mist', '-SHRA、IWC80、BR、IWC10', 'Showers of Light Rain、Mist', '-SHRA、IWC80、BR、IWC10', 'Showers of Light Rain、Mist', '-SHRA、IWC80、BR、IWC10', 'Mist', 'BR、IWC10', 'Mist', 'BR、IWC10', 'Mist', 'BR、IWC10', 'Mist', 'BR、IWC10', 'Showers of Light Rain、Mist', '-SHRA、IWC80、BR、IWC10', 'Showers of Light Rain、Mist', '-SHRA、IWC80、BR、IWC10', 'Mist', 'BR、IWC10', 'Mist', 'BR、IWC10', 'Showers of Light Rain、Mist', '-SHRA、IWC80、BR、IWC10', 'Mist', 'BR、IWC10', '上午12:00', '18°C', '1,016毫巴', '每小时7.20公里, 北', '4.00公里', '大部分多云 (792米)', '本地:', '00:00、2019年5月4日周六', '协调世界时:', '16:00、2019年5月3日周五', '来源:', '周期文件', '趋势:', '无重要变化', '露点:', '17°C', '其他云层:', '大部分晴天 (305米)、大部分晴天 (792米)', '天气:', 'Showers of Light Rain、Mist', '原始:', 'ZUUU 031600Z 01002MPS 330V040 4000 -SHRA BR FEW010 FEW026CB BKN026 18/17 Q1016 NOSIG', '上午12:00', '18.0°C', '1,016毫巴', '每小时7.20公里, 北', '4.00公里', '大部分多云 (792米)', '本地:', '00:00、2019年5月4日周六', '协调世界时:', '16:00、2019年5月3日周五', '来源:', 'USAF 每小时地面观测', '报告类型:', 'METAR 航空例行天气报告', '露点:', '17.0°C', '其他云层:', '大部分晴天 (305米)、大部分晴天 (792米)', '天气:', 'Mist、Showers of Light Rain', '上午1:00', '18°C', '1,015毫巴', '每小时3.60公里', '3.20公里', '大部分多云 (792米)', '本地:', '01:00、2019年5月4日周六', '协调世界时:', '17:00、2019年5月3日周五', '来源:', '周期文件', '趋势:', '无重要变化', '露点:', '17°C', '其他云层:', '大部分晴天 (122米)、部分多云 (213米)、大部分晴天 (792米)', '天气:', 'Showers of Light Rain、Mist', '原始:', 'ZUUU 031700Z VRB01MPS 3200 -SHRA BR FEW004 SCT007 FEW026CB BKN026 18/17 Q1015 NOSIG', '上午1:00', '18.0°C', '1,015毫巴', '每小时3.60公里', '3.20公里', '大部分多云 (792米)', '本地:', '01:00、2019年5月4日周六', '协调世界时:', '17:00、2019年5月3日周五', '来源:', 'USAF 每小时地面观测', '报告类型:', 'METAR 航空例行天气报告', '露点:', '17.0°C', '其他云层:', '大部分晴天 (122米)、部分多云 (213米)、大部分晴天 (792米)', '天气:', 'Mist、Showers of Light Rain', '上午2:00', '18°C', '1,015毫巴', '每小时7.20公里, 北', '2.80公里', '大部分多云 (610米)', '本地:', '02:00、2019年5月4日周六', '协调世界时:', '18:00、2019年5月3日周五', '来源:', '周期文件', '趋势:', '变化为', '露点:', '17°C', '其他云层:', '大部分晴天 (122米)、部分多云 (213米)、大部分晴天 (610米)', '天气:', 'Showers of Light Rain、Mist', '原始:', 'ZUUU 031800Z 36002MPS 310V030 2800 -SHRA BR FEW004 SCT007 FEW020CB BKN020 18/17 Q1015 BECMG TL1930 3500', '上午2:00', '18.0°C', '1,015毫巴', '每小时7.20公里, 北', '2.80公里', '大部分多云 (610米)', '本地:', '02:00、2019年5月4日周六', '协调世界时:', '18:00、2019年5月3日周五', '来源:', 'USAF 每小时地面观测', '报告类型:', 'METAR 航空例行天气报告', '露点:', '17.0°C', '其他云层:', '大部分晴天 (122米)、部分多云 (213米)、大部分晴天 (610米)', '天气:', 'Mist、Showers of Light Rain', '上午3:00', '17°C', '1,014毫巴', '每小时7.20公里, 北', '2.80公里', '大部分多云 (610米)', '本地:', '03:00、2019年5月4日周六', '协调世界时:', '19:00、2019年5月3日周五', '来源:', '周期文件', '趋势:', '变化为', '露点:', '17°C', '其他云层:', '大部分晴天 (122米)、部分多云 (213米)、大部分晴天 (610米)', '天气:', 'Showers of Light Rain、Mist', '原始:', 'ZUUU 031900Z 01002MPS 340V050 2800 -SHRA BR FEW004 SCT007 FEW020CB BKN020 17/17 Q1014 BECMG TL2030 3500', '上午3:00', '17.0°C', '1,014毫巴', '每小时7.20公里, 北', '2.80公里', '大部分多云 (610米)', '本地:', '03:00、2019年5月4日周六', '协调世界时:', '19:00、2019年5月3日周五', '来源:', 'USAF 每小时地面观测', '报告类型:', 'METAR 航空例行天气报告', '露点:', '17.0°C', '其他云层:', '大部分晴天 (122米)、部分多云 (213米)、大部分晴天 (610米)', '天气:', 'Mist、Showers of Light Rain', '上午4:00', '18°C', '1,014毫巴', '每小时7.20公里, 北', '3.30公里', '大部分多云 (610米)', '本地:', '04:00、2019年5月4日周六', '协调世界时:', '20:00、2019年5月3日周五', '来源:', '周期文件', '趋势:', '无重要变化', '露点:', '17°C', '其他云层:', '大部分晴天 (122米)、部分多云 (213米)', '天气:', 'Showers of Light Rain、Mist', '原始:', 'ZUUU 032000Z 01002MPS 330V050 3300 -SHRA BR FEW004 SCT007 BKN020 18/17 Q1014 NOSIG', '上午4:00', '18.0°C', '1,014毫巴', '每小时7.20公里, 北', '3.30公里', '大部分多云 (610米)', '本地:', '04:00、2019年5月4日周六', '协调世界时:', '20:00、2019年5月3日周五', '来源:', 'USAF 每小时地面观测', '报告类型:', 'METAR 航空例行天气报告', '露点:', '17.0°C', '其他云层:', '大部分晴天 (122米)、部分多云 (213米)', '天气:', 'Mist、Showers of Light Rain', '上午5:00', '18°C', '1,014毫巴', '每小时7.20公里, 北', '3.30公里', '大部分多云 (610米)', '本地:', '05:00、2019年5月4日周六', '协调世界时:', '21:00、2019年5月3日周五', '来源:', '周期文件', '趋势:', '无重要变化', '露点:', '17°C', '其他云层:', '大部分晴天 (122米)、部分多云 (213米)', '天气:', 'Showers of Light Rain、Mist', '原始:', 'ZUUU 032100Z 36002MPS 330V040 3300 -SHRA BR FEW004 SCT007 BKN020 18/17 Q1014 NOSIG', '上午5:00', '18.0°C', '1,014毫巴', '每小时7.20公里, 北', '3.30公里', '大部分多云 (610米)', '本地:', '05:00、2019年5月4日周六', '协调世界时:', '21:00、2019年5月3日周五', '来源:', 'USAF 每小时地面观测', '报告类型:', 'METAR 航空例行天气报告', '露点:', '17.0°C', '其他云层:', '大部分晴天 (122米)、部分多云 (213米)', '天气:', 'Mist、Showers of Light Rain', '上午6:00', '17°C', '1,014毫巴', '每小时0公里', '3.00公里', '大部分多云 (610米)', '本地:', '06:00、2019年5月4日周六', '协调世界时:', '22:00、2019年5月3日周五', '来源:', '周期文件', '趋势:', '变化为', '露点:', '17°C', '其他云层:', '大部分晴天 (122米)、部分多云 (213米)', '天气:', 'Showers of Light Rain、Mist、Mist', '原始:', 'ZUUU 032200Z 00000MPS 3000 -SHRA BR FEW004 SCT007 BKN020 17/17 Q1014 BECMG TL2230 2700 BR', '上午6:00', '17.0°C', '1,014毫巴', '每小时0公里', '3.00公里', '大部分多云 (610米)', '本地:', '06:00、2019年5月4日周六', '协调世界时:', '22:00、2019年5月3日周五', '来源:', 'USAF 每小时地面观测', '报告类型:', 'METAR 航空例行天气报告', '露点:', '17.0°C', '其他云层:', '大部分晴天 (122米)、部分多云 (213米)', '天气:', 'Mist、Showers of Light Rain', '上午7:00', '18°C', '1,014毫巴', '每小时0公里', '2.00公里', '部分多云 (213米)', '本地:', '07:00、2019年5月4日周六', '协调世界时:', '23:00、2019年5月3日周五', '来源:', '周期文件', '趋势:', '变化为', '露点:', '18°C', '其他云层:', '部分多云 (610米)', '天气:', 'Showers of Light Rain、Mist', '原始:', 'ZUUU 032300Z 00000MPS 2000 -SHRA BR SCT007 SCT020 18/18 Q1014 BECMG TL0000 3000', '上午7:00', '18.0°C', '1,014毫巴', '每小时0公里', '2.00公里', '部分多云 (213米)', '本地:', '07:00、2019年5月4日周六', '协调世界时:', '23:00、2019年5月3日周五', '来源:', 'USAF 每小时地面观测', '报告类型:', 'METAR 航空例行天气报告', '露点:', '18.0°C', '其他云层:', '部分多云 (610米)', '天气:', 'Mist、Showers of Light Rain', '上午8:00', '18°C', '1,015毫巴', '每小时3.60公里', '2.20公里', '部分多云 (792米)', '本地:', '08:00、2019年5月4日周六', '协调世界时:', '00:00、2019年5月4日周六', '来源:', '周期文件', '趋势:', '变化为', '露点:', '18°C', '其他云层:', '大部分晴天 (305米)', '天气:', 'Mist', '原始:', 'ZUUU 040000Z VRB01MPS 2200 BR FEW010 SCT026 18/18 Q1015 BECMG TL0100 3000', '上午8:00', '18.0°C', '1,015毫巴', '每小时3.60公里', '2.20公里', '部分多云 (792米)', '本地:', '08:00、2019年5月4日周六', '协调世界时:', '00:00、2019年5月4日周六', '来源:', 'USAF 每小时地面观测', '报告类型:', 'METAR 航空例行天气报告', '露点:', '18.0°C', '其他云层:', '大部分晴天 (305米)', '天气:', 'Mist', '上午9:00', '18°C', '1,015毫巴', '每小时0公里', '3.00公里', '部分多云 (792米)', '本地:', '09:00、2019年5月4日周六', '协调世界时:', '01:00、2019年5月4日周六', '来源:', '周期文件', '趋势:', '无重要变化', '露点:', '18°C', '天气:', 'Mist', '原始:', 'ZUUU 040100Z 00000MPS 3000 BR SCT026 18/18 Q1015 NOSIG', '上午9:00', '18.0°C', '1,015毫巴', '每小时0公里', '3.00公里', '部分多云 (792米)', '本地:', '09:00、2019年5月4日周六', '协调世界时:', '01:00、2019年5月4日周六', '来源:', 'USAF 每小时地面观测', '报告类型:', 'METAR 航空例行天气报告', '露点:', '18.0°C', '天气:', 'Mist', '上午10:00', '20°C', '1,014毫巴', '每小时3.60公里', '3.50公里', '部分多云 (792米)', '本地:', '10:00、2019年5月4日周六', '协调世界时:', '02:00、2019年5月4日周六', '来源:', '周期文件', '趋势:', '无重要变化', '露点:', '19°C', '其他云层:', '大部分晴天 (610米)', '天气:', 'Mist', '原始:', 'ZUUU 040200Z VRB01MPS 3500 BR FEW020 SCT026 20/19 Q1014 NOSIG', '上午10:00', '20.0°C', '1,014毫巴', '每小时3.60公里', '3.50公里', '部分多云 (792米)', '本地:', '10:00、2019年5月4日周六', '协调世界时:', '02:00、2019年5月4日周六', '来源:', 'USAF 每小时地面观测', '报告类型:', 'METAR 航空例行天气报告', '露点:', '19.0°C', '其他云层:', '大部分晴天 (610米)', '天气:', 'Mist', '上午11:00', '20°C', '1,015毫巴', '每小时0公里', '4.00公里', '部分多云 (792米)', '本地:', '11:00、2019年5月4日周六', '协调世界时:', '03:00、2019年5月4日周六', '来源:', '周期文件', '趋势:', '无重要变化', '露点:', '18°C', '其他云层:', '大部分晴天 (610米)', '天气:', 'Mist', '原始:', 'ZUUU 040300Z 00000MPS 4000 BR FEW020 SCT026 20/18 Q1015 NOSIG', '上午11:00', '20.0°C', '1,015毫巴', '每小时0公里', '4.00公里', '部分多云 (792米)', '本地:', '11:00、2019年5月4日周六', '协调世界时:', '03:00、2019年5月4日周六', '来源:', 'USAF 每小时地面观测', '报告类型:', 'METAR 航空例行天气报告', '露点:', '18.0°C', '其他云层:', '大部分晴天 (610米)', '天气:', 'Mist', '下午12:00', '21°C', '1,014毫巴', '每小时0公里', '6.00公里', '部分多云 (792米)', '本地:', '12:00、2019年5月4日周六', '协调世界时:', '04:00、2019年5月4日周六', '来源:', '周期文件', '趋势:', '无重要变化', '露点:', '18°C', '其他云层:', '大部分晴天 (610米)', '原始:', 'ZUUU 040400Z 00000MPS 6000 FEW020 SCT026 21/18 Q1014 NOSIG', '下午12:00', '21.0°C', '1,014毫巴', '每小时0公里', '6.00公里', '部分多云 (792米)', '本地:', '12:00、2019年5月4日周六', '协调世界时:', '04:00、2019年5月4日周六', '来源:', 'USAF 每小时地面观测', '报告类型:', 'METAR 航空例行天气报告', '露点:', '18.0°C', '其他云层:', '大部分晴天 (610米)', '下午1:00', '21°C', '1,013毫巴', '每小时7.20公里', '6.00公里', '部分多云 (792米)', '本地:', '13:00、2019年5月4日周六', '协调世界时:', '05:00、2019年5月4日周六', '来源:', '周期文件', '趋势:', '无重要变化', '露点:', '18°C', '原始:', 'ZUUU 040500Z VRB02MPS 6000 SCT026 21/18 Q1013 NOSIG', '下午1:00', '21.0°C', '1,013毫巴', '每小时7.20公里', '6.00公里', '部分多云 (792米)', '本地:', '13:00、2019年5月4日周六', '协调世界时:', '05:00、2019年5月4日周六', '来源:', 'USAF 每小时地面观测', '报告类型:', 'METAR 航空例行天气报告', '露点:', '18.0°C', '下午2:00', '23°C', '1,012毫巴', '每小时0公里', '7.00公里', '部分多云 (792米)', '本地:', '14:00、2019年5月4日周六', '协调世界时:', '06:00、2019年5月4日周六', '来源:', '周期文件', '趋势:', '无重要变化', '露点:', '18°C', '原始:', 'ZUUU 040600Z 00000MPS 7000 SCT026 23/18 Q1012 NOSIG', '下午2:00', '23.0°C', '1,012毫巴', '每小时0公里', '7.00公里', '部分多云 (792米)', '本地:', '14:00、2019年5月4日周六', '协调世界时:', '06:00、2019年5月4日周六', '来源:', 'USAF 每小时地面观测', '报告类型:', 'METAR 航空例行天气报告', '露点:', '18.0°C', '下午3:00', '22°C', '1,012毫巴', '每小时7.20公里, 西', '7.00公里', '部分多云 (792米)', '本地:', '15:00、2019年5月4日周六', '协调世界时:', '07:00、2019年5月4日周六', '来源:', '周期文件', '趋势:', '无重要变化', '露点:', '18°C', '其他云层:', '大部分晴天 (792米)', '原始:', 'ZUUU 040700Z 25002MPS 220V290 7000 FEW026TCU SCT026 22/18 Q1012 NOSIG', '下午3:00', '22.0°C', '1,012毫巴', '每小时7.20公里, 西', '7.00公里', '部分多云 (792米)', '本地:', '15:00、2019年5月4日周六', '协调世界时:', '07:00、2019年5月4日周六', '来源:', 'USAF 每小时地面观测', '报告类型:', 'METAR 航空例行天气报告', '露点:', '18.0°C', '其他云层:', '大部分晴天 (792米)', '下午4:00', '22°C', '1,011毫巴', '每小时0公里', '7.00公里', '部分多云 (1,219米)', '本地:', '16:00、2019年5月4日周六', '协调世界时:', '08:00、2019年5月4日周六', '来源:', '周期文件', '趋势:', '无重要变化', '露点:', '19°C', '原始:', 'ZUUU 040800Z 00000MPS 7000 SCT040 22/19 Q1011 NOSIG', '下午4:00', '22.0°C', '1,011毫巴', '每小时0公里', '7.00公里', '部分多云 (1,219米)', '本地:', '16:00、2019年5月4日周六', '协调世界时:', '08:00、2019年5月4日周六', '来源:', 'USAF 每小时地面观测', '报告类型:', 'METAR 航空例行天气报告', '露点:', '19.0°C', '下午5:00', '21°C', '1,011毫巴', '每小时7.20公里, 西南', '5.00公里', '部分多云 (1,006米)', '本地:', '17:00、2019年5月4日周六', '协调世界时:', '09:00、2019年5月4日周六', '来源:', '周期文件', '趋势:', '无重要变化', '露点:', '18°C', '其他云层:', '大部分晴天 (1,006米)', '天气:', 'Showers of Light Rain、Mist', '原始:', 'ZUUU 040900Z 21002MPS 5000 -SHRA BR FEW033TCU SCT033 21/18 Q1011 NOSIG', '下午5:00', '21.0°C', '1,011毫巴', '每小时7.20公里, 西南', '5.00公里', '部分多云 (1,006米)', '本地:', '17:00、2019年5月4日周六', '协调世界时:', '09:00、2019年5月4日周六', '来源:', 'USAF 每小时地面观测', '报告类型:', 'METAR 航空例行天气报告', '露点:', '18.0°C', '其他云层:', '大部分晴天 (1,006米)', '天气:', 'Mist、Showers of Light Rain', '下午6:00', '20°C', '1,011毫巴', '每小时10.8公里, 北', '5.00公里', '部分多云 (792米)', '本地:', '18:00、2019年5月4日周六', '协调世界时:', '10:00、2019年5月4日周六', '来源:', '周期文件', '趋势:', '无重要变化', '露点:', '18°C', '其他云层:', '大部分晴天 (792米)', '天气:', 'Showers of Light Rain、Mist', '原始:', 'ZUUU 041000Z 01003MPS 340V040 5000 -SHRA BR FEW026TCU SCT026 20/18 Q1011 NOSIG', '下午6:00', '20.0°C', '1,011毫巴', '每小时10.8公里, 北', '5.00公里', '部分多云 (792米)', '本地:', '18:00、2019年5月4日周六', '协调世界时:', '10:00、2019年5月4日周六', '来源:', 'USAF 每小时地面观测', '报告类型:', 'METAR 航空例行天气报告', '露点:', '18.0°C', '其他云层:', '大部分晴天 (792米)', '天气:', 'Mist、Showers of Light Rain', '下午7:00', '20°C', '1,011毫巴', '每小时10.8公里, 北', '5.00公里', '部分多云 (1,006米)', '本地:', '19:00、2019年5月4日周六', '协调世界时:', '11:00、2019年5月4日周六', '来源:', '周期文件', '趋势:', '无重要变化', '露点:', '18°C', '其他云层:', '大部分晴天 (1,006米)', '天气:', 'Mist', '原始:', 'ZUUU 041100Z 02003MPS 5000 BR FEW033TCU SCT033 20/18 Q1011 NOSIG', '下午7:00', '20.0°C', '1,011毫巴', '每小时10.8公里, 北', '5.00公里', '部分多云 (1,006米)', '本地:', '19:00、2019年5月4日周六', '协调世界时:', '11:00、2019年5月4日周六', '来源:', 'USAF 每小时地面观测', '报告类型:', 'METAR 航空例行天气报告', '露点:', '18.0°C', '其他云层:', '大部分晴天 (1,006米)', '天气:', 'Mist', '下午8:00', '19°C', '1,012毫巴', '每小时7.20公里, 北', '6.00公里', '部分多云 (1,219米)', '本地:', '20:00、2019年5月4日周六', '协调世界时:', '12:00、2019年5月4日周六', '来源:', '周期文件', '趋势:', '无重要变化', '露点:', '18°C', '原始:', 'ZUUU 041200Z 36002MPS 320V030 6000 SCT040 19/18 Q1012 NOSIG', '下午8:00', '19.0°C', '1,012毫巴', '每小时7.20公里, 北', '6.00公里', '部分多云 (1,219米)', '本地:', '20:00、2019年5月4日周六', '协调世界时:', '12:00、2019年5月4日周六', '来源:', 'USAF 每小时地面观测', '报告类型:', 'METAR 航空例行天气报告', '露点:', '18.0°C', '下午9:00', '19°C', '1,013毫巴', '每小时3.60公里', '5.00公里', '大部分多云 (1,219米)', '本地:', '21:00、2019年5月4日周六', '协调世界时:', '13:00、2019年5月4日周六', '来源:', '周期文件', '趋势:', '无重要变化', '露点:', '18°C', '其他云层:', '大部分晴天 (305米)', '天气:', 'Mist', '原始:', 'ZUUU 041300Z VRB01MPS 5000 BR FEW010 BKN040 19/18 Q1013 NOSIG', '下午9:00', '19.0°C', '1,013毫巴', '每小时3.60公里', '5.00公里', '大部分多云 (1,219米)', '本地:', '21:00、2019年5月4日周六', '协调世界时:', '13:00、2019年5月4日周六', '来源:', 'USAF 每小时地面观测', '报告类型:', 'METAR 航空例行天气报告', '露点:', '18.0°C', '其他云层:', '大部分晴天 (305米)', '天气:', 'Mist', '下午10:00', '19°C', '1,013毫巴', '每小时3.60公里', '5.00公里', '部分多云 (1,006米)', '本地:', '22:00、2019年5月4日周六', '协调世界时:', '14:00、2019年5月4日周六', '来源:', '周期文件', '趋势:', '无重要变化', '露点:', '18°C', '其他云层:', '大部分晴天 (305米)、大部分晴天 (1,006米)', '天气:', 'Showers of Light Rain、Mist', '原始:', 'ZUUU 041400Z VRB01MPS 5000 -SHRA BR FEW010 FEW033TCU SCT033 19/18 Q1013 NOSIG', '下午10:00', '19.0°C', '1,013毫巴', '每小时3.60公里', '5.00公里', '部分多云 (1,006米)', '本地:', '22:00、2019年5月4日周六', '协调世界时:', '14:00、2019年5月4日周六', '来源:', 'USAF 每小时地面观测', '报告类型:', 'METAR 航空例行天气报告', '露点:', '18.0°C', '其他云层:', '大部分晴天 (305米)、大部分晴天 (1,006米)', '天气:', 'Mist、Showers of Light Rain', '下午11:00', '19°C', '1,013毫巴', '每小时0公里', '5.00公里', '部分多云 (1,006米)', '本地:', '23:00、2019年5月4日周六', '协调世界时:', '15:00、2019年5月4日周六', '来源:', '周期文件', '趋势:', '无重要变化', '露点:', '18°C', '其他云层:', '大部分晴天 (1,006米)', '天气:', 'Mist', '原始:', 'ZUUU 041500Z 00000MPS 5000 BR FEW033TCU SCT033 19/18 Q1013 NOSIG', '下午11:00', '19.0°C', '1,013毫巴', '每小时0公里', '5.00公里', '部分多云 (1,006米)', '本地:', '23:00、2019年5月4日周六', '协调世界时:', '15:00、2019年5月4日周六', '来源:', 'USAF 每小时地面观测', '报告类型:', 'METAR 航空例行天气报告', '露点:', '18.0°C', '其他云层:', '大部分晴天 (1,006米)', '天气:', 'Mist']