['Thunderstorm', 'TS、IWC17', '上午12:00', '29°C', '1,007毫巴', '每小时3.60公里, 北', '≥ 10.00公里', '晴空万里', '本地:', '00:00、2019年8月26日周一', '协调世界时:', '16:00、2019年8月25日周日', '来源:', '周期文件', '趋势:', '无重要变化', '露点:', '23°C', '晴空万里:', '真', '原始:', 'ZUUU 251600Z 34001MPS CAVOK 29/23 Q1007 NOSIG', '上午12:00', '29.0°C', '1,007毫巴', '每小时3.60公里, 北', '9.90公里', '晴空万里', '本地:', '00:00、2019年8月26日周一', '协调世界时:', '16:00、2019年8月25日周日', '来源:', 'USAF 每小时地面观测', '报告类型:', 'METAR 航空例行天气报告', '露点:', '23.0°C', '晴空万里:', '真', '上午1:00', '28°C', '1,007毫巴', '每小时3.60公里, 西北', '≥ 10.00公里', '晴空万里', '本地:', '01:00、2019年8月26日周一', '协调世界时:', '17:00、2019年8月25日周日', '来源:', '周期文件', '趋势:', '无重要变化', '露点:', '23°C', '晴空万里:', '真', '原始:', 'ZUUU 251700Z 32001MPS CAVOK 28/23 Q1007 NOSIG', '上午1:00', '28.0°C', '1,007毫巴', '每小时3.60公里, 西北', '9.90公里', '晴空万里', '本地:', '01:00、2019年8月26日周一', '协调世界时:', '17:00、2019年8月25日周日', '来源:', 'USAF 每小时地面观测', '报告类型:', 'METAR 航空例行天气报告', '露点:', '23.0°C', '晴空万里:', '真', '上午2:00', '26°C', '1,006毫巴', '每小时0公里', '8.00公里', '无重要云', '本地:', '02:00、2019年8月26日周一', '协调世界时:', '18:00、2019年8月25日周日', '来源:', '周期文件', '趋势:', '无重要变化', '露点:', '24°C', '原始:', 'ZUUU 251800Z 00000MPS 8000 NSC 26/24 Q1006 NOSIG', '上午2:00', '26.0°C', '1,006毫巴', '每小时0公里', '8.00公里', '未检测到云', '本地:', '02:00、2019年8月26日周一', '协调世界时:', '18:00、2019年8月25日周日', '来源:', 'USAF 每小时地面观测', '报告类型:', 'METAR 航空例行天气报告', '露点:', '24.0°C', '上午3:00', '26°C', '1,006毫巴', '每小时3.60公里, 西南', '7.00公里', '无重要云', '本地:', '03:00、2019年8月26日周一', '协调世界时:', '19:00、2019年8月25日周日', '来源:', '周期文件', '趋势:', '无重要变化', '露点:', '24°C', '原始:', 'ZUUU 251900Z 24001MPS 7000 NSC 26/24 Q1006 NOSIG', '上午3:00', '26.0°C', '1,006毫巴', '每小时3.60公里, 西南', '7.00公里', '未检测到云', '本地:', '03:00、2019年8月26日周一', '协调世界时:', '19:00、2019年8月25日周日', '来源:', 'USAF 每小时地面观测', '报告类型:', 'METAR 航空例行天气报告', '露点:', '24.0°C', '上午4:00', '25°C', '1,006毫巴', '每小时7.20公里, 西南', '7.00公里', '无重要云', '本地:', '04:00、2019年8月26日周一', '协调世界时:', '20:00、2019年8月25日周日', '来源:', '周期文件', '趋势:', '无重要变化', '露点:', '23°C', '原始:', 'ZUUU 252000Z 22002MPS 7000 NSC 25/23 Q1006 NOSIG', '上午4:00', '25.0°C', '1,006毫巴', '每小时7.20公里, 西南', '7.00公里', '未检测到云', '本地:', '04:00、2019年8月26日周一', '协调世界时:', '20:00、2019年8月25日周日', '来源:', 'USAF 每小时地面观测', '报告类型:', 'METAR 航空例行天气报告', '露点:', '23.0°C', '上午5:00', '26°C', '1,006毫巴', '每小时0公里', '7.00公里', '无重要云', '本地:', '05:00、2019年8月26日周一', '协调世界时:', '21:00、2019年8月25日周日', '来源:', '周期文件', '趋势:', '无重要变化', '露点:', '23°C', '原始:', 'ZUUU 252100Z 00000MPS 7000 NSC 26/23 Q1006 NOSIG', '上午5:00', '26.0°C', '1,006毫巴', '每小时0公里', '7.00公里', '未检测到云', '本地:', '05:00、2019年8月26日周一', '协调世界时:', '21:00、2019年8月25日周日', '来源:', 'USAF 每小时地面观测', '报告类型:', 'METAR 航空例行天气报告', '露点:', '23.0°C', '上午6:00', '25°C', '1,005毫巴', '每小时0公里', '7.00公里', '无重要云', '本地:', '06:00、2019年8月26日周一', '协调世界时:', '22:00、2019年8月25日周日', '来源:', '周期文件', '趋势:', '无重要变化', '露点:', '23°C', '原始:', 'ZUUU 252200Z 00000MPS 7000 NSC 25/23 Q1005 NOSIG', '上午6:00', '25.0°C', '1,005毫巴', '每小时0公里', '7.00公里', '未检测到云', '本地:', '06:00、2019年8月26日周一', '协调世界时:', '22:00、2019年8月25日周日', '来源:', 'USAF 每小时地面观测', '报告类型:', 'METAR 航空例行天气报告', '露点:', '23.0°C', '上午7:00', '25°C', '1,006毫巴', '每小时7.20公里, 西南', '7.00公里', '无重要云', '本地:', '07:00、2019年8月26日周一', '协调世界时:', '23:00、2019年8月25日周日', '来源:', '周期文件', '趋势:', '无重要变化', '露点:', '23°C', '原始:', 'ZUUU 252300Z 22002MPS 7000 NSC 25/23 Q1006 NOSIG', '上午7:00', '25.0°C', '1,006毫巴', '每小时7.20公里, 西南', '7.00公里', '未检测到云', '本地:', '07:00、2019年8月26日周一', '协调世界时:', '23:00、2019年8月25日周日', '来源:', 'USAF 每小时地面观测', '报告类型:', 'METAR 航空例行天气报告', '露点:', '23.0°C', '上午8:00', '28°C', '1,006毫巴', '每小时0公里', '8.00公里', '无重要云', '本地:', '08:00、2019年8月26日周一', '协调世界时:', '00:00、2019年8月26日周一', '来源:', '周期文件', '趋势:', '无重要变化', '露点:', '24°C', '原始:', 'ZUUU 260000Z 00000MPS 8000 NSC 28/24 Q1006 NOSIG', '上午8:00', '28.0°C', '1,006毫巴', '每小时0公里', '8.00公里', '未检测到云', '本地:', '08:00、2019年8月26日周一', '协调世界时:', '00:00、2019年8月26日周一', '来源:', 'USAF 每小时地面观测', '报告类型:', 'METAR 航空例行天气报告', '露点:', '24.0°C', '上午9:00', '31°C', '1,006毫巴', '每小时0公里', '8.00公里', '无重要云', '本地:', '09:00、2019年8月26日周一', '协调世界时:', '01:00、2019年8月26日周一', '来源:', '周期文件', '趋势:', '无重要变化', '露点:', '21°C', '原始:', 'ZUUU 260100Z 00000MPS 8000 NSC 31/21 Q1006 NOSIG', '上午9:00', '31.0°C', '1,006毫巴', '每小时0公里', '8.00公里', '未检测到云', '本地:', '09:00、2019年8月26日周一', '协调世界时:', '01:00、2019年8月26日周一', '来源:', 'USAF 每小时地面观测', '报告类型:', 'METAR 航空例行天气报告', '露点:', '21.0°C', '上午10:00', '31°C', '1,006毫巴', '每小时3.60公里', '≥ 10.00公里', '晴空万里', '本地:', '10:00、2019年8月26日周一', '协调世界时:', '02:00、2019年8月26日周一', '来源:', '周期文件', '趋势:', '无重要变化', '露点:', '23°C', '晴空万里:', '真', '原始:', 'ZUUU 260200Z VRB01MPS CAVOK 31/23 Q1006 NOSIG', '上午10:00', '31.0°C', '1,006毫巴', '每小时3.60公里', '9.90公里', '晴空万里', '本地:', '10:00、2019年8月26日周一', '协调世界时:', '02:00、2019年8月26日周一', '来源:', 'USAF 每小时地面观测', '报告类型:', 'METAR 航空例行天气报告', '露点:', '23.0°C', '晴空万里:', '真', '上午11:00', '33°C', '1,006毫巴', '每小时3.60公里', '≥ 10.00公里', '晴空万里', '本地:', '11:00、2019年8月26日周一', '协调世界时:', '03:00、2019年8月26日周一', '来源:', '周期文件', '趋势:', '无重要变化', '露点:', '22°C', '晴空万里:', '真', '原始:', 'ZUUU 260300Z VRB01MPS CAVOK 33/22 Q1006 NOSIG', '上午11:00', '33.0°C', '1,006毫巴', '每小时3.60公里', '9.90公里', '晴空万里', '本地:', '11:00、2019年8月26日周一', '协调世界时:', '03:00、2019年8月26日周一', '来源:', 'USAF 每小时地面观测', '报告类型:', 'METAR 航空例行天气报告', '露点:', '22.0°C', '晴空万里:', '真', '下午12:00', '33°C', '1,006毫巴', '每小时3.60公里', '≥ 10.00公里', '晴空万里', '本地:', '12:00、2019年8月26日周一', '协调世界时:', '04:00、2019年8月26日周一', '来源:', '周期文件', '趋势:', '无重要变化', '露点:', '22°C', '晴空万里:', '真', '原始:', 'ZUUU 260400Z VRB01MPS CAVOK 33/22 Q1006 NOSIG', '下午12:00', '33.0°C', '1,006毫巴', '每小时3.60公里', '9.90公里', '晴空万里', '本地:', '12:00、2019年8月26日周一', '协调世界时:', '04:00、2019年8月26日周一', '来源:', 'USAF 每小时地面观测', '报告类型:', 'METAR 航空例行天气报告', '露点:', '22.0°C', '晴空万里:', '真', '下午1:00', '33°C', '1,005毫巴', '每小时7.20公里, 西', '≥ 10.00公里', '晴空万里', '本地:', '13:00、2019年8月26日周一', '协调世界时:', '05:00、2019年8月26日周一', '来源:', '周期文件', '趋势:', '无重要变化', '露点:', '22°C', '晴空万里:', '真', '原始:', 'ZUUU 260500Z 29002MPS 190V340 CAVOK 33/22 Q1005 NOSIG', '下午1:00', '33.0°C', '1,005毫巴', '每小时7.20公里, 西', '9.90公里', '晴空万里', '本地:', '13:00、2019年8月26日周一', '协调世界时:', '05:00、2019年8月26日周一', '来源:', 'USAF 每小时地面观测', '报告类型:', 'METAR 航空例行天气报告', '露点:', '22.0°C', '晴空万里:', '真', '下午2:00', '32°C', '1,004毫巴', '每小时10.8公里, 西北', '≥ 10.00公里', '晴空万里', '本地:', '14:00、2019年8月26日周一', '协调世界时:', '06:00、2019年8月26日周一', '来源:', '周期文件', '趋势:', '无重要变化', '露点:', '23°C', '晴空万里:', '真', '原始:', 'ZUUU 260600Z 30003MPS 270V350 CAVOK 32/23 Q1004 NOSIG', '下午2:00', '32.0°C', '1,004毫巴', '每小时10.8公里, 西北', '9.90公里', '晴空万里', '本地:', '14:00、2019年8月26日周一', '协调世界时:', '06:00、2019年8月26日周一', '来源:', 'USAF 每小时地面观测', '报告类型:', 'METAR 航空例行天气报告', '露点:', '23.0°C', '晴空万里:', '真', '下午3:00', '32°C', '1,004毫巴', '每小时10.8公里, 西', '≥ 10.00公里', '晴空万里', '本地:', '15:00、2019年8月26日周一', '协调世界时:', '07:00、2019年8月26日周一', '来源:', '周期文件', '趋势:', '无重要变化', '露点:', '21°C', '晴空万里:', '真', '原始:', 'ZUUU 260700Z 29003MPS 260V320 CAVOK 32/21 Q1004 NOSIG', '下午3:00', '32.0°C', '1,004毫巴', '每小时10.8公里, 西', '9.90公里', '晴空万里', '本地:', '15:00、2019年8月26日周一', '协调世界时:', '07:00、2019年8月26日周一', '来源:', 'USAF 每小时地面观测', '报告类型:', 'METAR 航空例行天气报告', '露点:', '21.0°C', '晴空万里:', '真', '下午4:00', '33°C', '1,004毫巴', '每小时10.8公里, 西北', '≥ 10.00公里', '晴空万里', '本地:', '16:00、2019年8月26日周一', '协调世界时:', '08:00、2019年8月26日周一', '来源:', '周期文件', '趋势:', '无重要变化', '露点:', '22°C', '晴空万里:', '真', '原始:', 'ZUUU 260800Z 30003MPS 240V360 CAVOK 33/22 Q1004 NOSIG', '下午4:00', '33.0°C', '1,004毫巴', '每小时10.8公里, 西北', '9.90公里', '晴空万里', '本地:', '16:00、2019年8月26日周一', '协调世界时:', '08:00、2019年8月26日周一', '来源:', 'USAF 每小时地面观测', '报告类型:', 'METAR 航空例行天气报告', '露点:', '22.0°C', '晴空万里:', '真', '下午5:00', '33°C', '1,003毫巴', '每小时10.8公里, 西北', '≥ 10.00公里', '晴空万里', '本地:', '17:00、2019年8月26日周一', '协调世界时:', '09:00、2019年8月26日周一', '来源:', '周期文件', '趋势:', '无重要变化', '露点:', '22°C', '晴空万里:', '真', '原始:', 'ZUUU 260900Z 31003MPS 240V010 CAVOK 33/22 Q1003 NOSIG', '下午5:00', '33.0°C', '1,003毫巴', '每小时10.8公里, 西北', '9.90公里', '晴空万里', '本地:', '17:00、2019年8月26日周一', '协调世界时:', '09:00、2019年8月26日周一', '来源:', 'USAF 每小时地面观测', '报告类型:', 'METAR 航空例行天气报告', '露点:', '22.0°C', '晴空万里:', '真', '下午6:00', '33°C', '1,004毫巴', '每小时7.20公里, 北', '≥ 10.00公里', '晴空万里', '本地:', '18:00、2019年8月26日周一', '协调世界时:', '10:00、2019年8月26日周一', '来源:', '周期文件', '趋势:', '无重要变化', '露点:', '22°C', '晴空万里:', '真', '原始:', 'ZUUU 261000Z 34002MPS 280V040 CAVOK 33/22 Q1004 NOSIG', '下午6:00', '33.0°C', '1,004毫巴', '每小时7.20公里, 北', '9.90公里', '晴空万里', '本地:', '18:00、2019年8月26日周一', '协调世界时:', '10:00、2019年8月26日周一', '来源:', 'USAF 每小时地面观测', '报告类型:', 'METAR 航空例行天气报告', '露点:', '22.0°C', '晴空万里:', '真', '下午7:00', '32°C', '1,004毫巴', '每小时3.60公里', '≥ 10.00公里', '晴空万里', '本地:', '19:00、2019年8月26日周一', '协调世界时:', '11:00、2019年8月26日周一', '来源:', '周期文件', '趋势:', '无重要变化', '露点:', '23°C', '晴空万里:', '真', '原始:', 'ZUUU 261100Z VRB01MPS CAVOK 32/23 Q1004 NOSIG', '下午7:00', '32.0°C', '1,004毫巴', '每小时3.60公里', '9.90公里', '晴空万里', '本地:', '19:00、2019年8月26日周一', '协调世界时:', '11:00、2019年8月26日周一', '来源:', 'USAF 每小时地面观测', '报告类型:', 'METAR 航空例行天气报告', '露点:', '23.0°C', '晴空万里:', '真', '下午8:00', '32°C', '1,005毫巴', '每小时7.20公里, 北', '≥ 10.00公里', '晴空万里', '本地:', '20:00、2019年8月26日周一', '协调世界时:', '12:00、2019年8月26日周一', '来源:', '周期文件', '趋势:', '无重要变化', '露点:', '23°C', '晴空万里:', '真', '原始:', 'ZUUU 261200Z 01002MPS 330V040 CAVOK 32/23 Q1005 NOSIG', '下午8:00', '32.0°C', '1,005毫巴', '每小时7.20公里, 北', '9.90公里', '晴空万里', '本地:', '20:00、2019年8月26日周一', '协调世界时:', '12:00、2019年8月26日周一', '来源:', 'USAF 每小时地面观测', '报告类型:', 'METAR 航空例行天气报告', '露点:', '23.0°C', '晴空万里:', '真', '下午9:00', '32°C', '1,006毫巴', '每小时3.60公里', '≥ 10.00公里', '晴空万里', '本地:', '21:00、2019年8月26日周一', '协调世界时:', '13:00、2019年8月26日周一', '来源:', '周期文件', '趋势:', '无重要变化', '露点:', '23°C', '晴空万里:', '真', '原始:', 'ZUUU 261300Z VRB01MPS CAVOK 32/23 Q1006 NOSIG', '下午9:00', '32.0°C', '1,006毫巴', '每小时3.60公里', '9.90公里', '晴空万里', '本地:', '21:00、2019年8月26日周一', '协调世界时:', '13:00、2019年8月26日周一', '来源:', 'USAF 每小时地面观测', '报告类型:', 'METAR 航空例行天气报告', '露点:', '23.0°C', '晴空万里:', '真', '下午10:00', '32°C', '1,007毫巴', '每小时7.20公里, 北', '8.00公里', '部分多云 (1,219米)', '本地:', '22:00、2019年8月26日周一', '协调世界时:', '14:00、2019年8月26日周一', '来源:', '周期文件', '趋势:', '无重要变化', '露点:', '23°C', '其他云层:', '大部分晴天 (1,219米)', '原始:', 'ZUUU 261400Z 36002MPS 330V030 8000 FEW040CB SCT040 32/23 Q1007 NOSIG', '下午10:00', '32.0°C', '1,007毫巴', '每小时7.20公里, 北', '8.00公里', '部分多云 (1,219米)', '本地:', '22:00、2019年8月26日周一', '协调世界时:', '14:00、2019年8月26日周一', '来源:', 'USAF 每小时地面观测', '报告类型:', 'METAR 航空例行天气报告', '露点:', '23.0°C', '其他云层:', '大部分晴天 (1,219米)', '下午11:00', '29°C', '1,007毫巴', '每小时21.6公里, 东北', '10.00公里', '大部分晴天 (1,219米)', '本地:', '23:00、2019年8月26日周一', '协调世界时:', '15:00、2019年8月26日周一', '来源:', '周期文件', '趋势:', '变化为', '露点:', '20°C', '天气:', 'Thunderstorm', '原始:', 'ZUUU 261500Z 03006MPS 340V060 9999 TS FEW040 FEW040CB 29/20 Q1007 BECMG TL1550 NSW', '下午11:00', '29.0°C', '1,007毫巴', '每小时21.6公里, 东北', '10.00公里', '大部分晴天 (1,219米)', '本地:', '23:00、2019年8月26日周一', '协调世界时:', '15:00、2019年8月26日周一', '来源:', 'USAF 每小时地面观测', '报告类型:', 'METAR 航空例行天气报告', '露点:', '20.0°C', '天气:', 'Thunderstorm']