['Showers of Light Rain', '-SHRA、IWC80', 'Recent Showers of Rain、Showers of Light Rain', 'RESHRA、-SHRA、IWC80', '上午12:00', '26°C', '1,004毫巴', '每小时3.60公里', '≥ 10.00公里', '晴空万里', '本地:', '00:00、2019年7月14日周日', '协调世界时:', '16:00、2019年7月13日周六', '来源:', '周期文件', '趋势:', '无重要变化', '露点:', '20°C', '晴空万里:', '真', '原始:', 'ZUUU 131600Z VRB01MPS CAVOK 26/20 Q1004 NOSIG', '上午12:00', '26.0°C', '1,004毫巴', '每小时3.60公里', '9.90公里', '晴空万里', '本地:', '00:00、2019年7月14日周日', '协调世界时:', '16:00、2019年7月13日周六', '来源:', 'USAF 每小时地面观测', '报告类型:', 'METAR 航空例行天气报告', '露点:', '20.0°C', '晴空万里:', '真', '上午1:00', '25°C', '1,004毫巴', '每小时3.60公里', '≥ 10.00公里', '晴空万里', '本地:', '01:00、2019年7月14日周日', '协调世界时:', '17:00、2019年7月13日周六', '来源:', '周期文件', '趋势:', '无重要变化', '露点:', '21°C', '晴空万里:', '真', '原始:', 'ZUUU 131700Z VRB01MPS CAVOK 25/21 Q1004 NOSIG', '上午1:00', '25.0°C', '1,004毫巴', '每小时3.60公里', '9.90公里', '晴空万里', '本地:', '01:00、2019年7月14日周日', '协调世界时:', '17:00、2019年7月13日周六', '来源:', 'USAF 每小时地面观测', '报告类型:', 'METAR 航空例行天气报告', '露点:', '21.0°C', '晴空万里:', '真', '上午2:00', '24°C', '1,003毫巴', '每小时0公里', '≥ 10.00公里', '晴空万里', '本地:', '02:00、2019年7月14日周日', '协调世界时:', '18:00、2019年7月13日周六', '来源:', '周期文件', '趋势:', '无重要变化', '露点:', '21°C', '晴空万里:', '真', '原始:', 'ZUUU 131800Z 00000MPS CAVOK 24/21 Q1003 NOSIG', '上午2:00', '24.0°C', '1,003毫巴', '每小时0公里', '9.90公里', '晴空万里', '本地:', '02:00、2019年7月14日周日', '协调世界时:', '18:00、2019年7月13日周六', '来源:', 'USAF 每小时地面观测', '报告类型:', 'METAR 航空例行天气报告', '露点:', '21.0°C', '晴空万里:', '真', '上午3:00', '24°C', '1,003毫巴', '每小时0公里', '≥ 10.00公里', '晴空万里', '本地:', '03:00、2019年7月14日周日', '协调世界时:', '19:00、2019年7月13日周六', '来源:', '周期文件', '趋势:', '无重要变化', '露点:', '21°C', '晴空万里:', '真', '原始:', 'ZUUU 131900Z 00000MPS CAVOK 24/21 Q1003 NOSIG', '上午3:00', '24.0°C', '1,003毫巴', '每小时0公里', '9.90公里', '晴空万里', '本地:', '03:00、2019年7月14日周日', '协调世界时:', '19:00、2019年7月13日周六', '来源:', 'USAF 每小时地面观测', '报告类型:', 'METAR 航空例行天气报告', '露点:', '21.0°C', '晴空万里:', '真', '上午4:00', '23°C', '1,003毫巴', '每小时0公里', '≥ 10.00公里', '晴空万里', '本地:', '04:00、2019年7月14日周日', '协调世界时:', '20:00、2019年7月13日周六', '来源:', '周期文件', '趋势:', '无重要变化', '露点:', '21°C', '晴空万里:', '真', '原始:', 'ZUUU 132000Z 00000MPS CAVOK 23/21 Q1003 NOSIG', '上午4:00', '23.0°C', '1,003毫巴', '每小时0公里', '9.90公里', '晴空万里', '本地:', '04:00、2019年7月14日周日', '协调世界时:', '20:00、2019年7月13日周六', '来源:', 'USAF 每小时地面观测', '报告类型:', 'METAR 航空例行天气报告', '露点:', '21.0°C', '晴空万里:', '真', '上午5:00', '23°C', '1,003毫巴', '每小时0公里', '≥ 10.00公里', '晴空万里', '本地:', '05:00、2019年7月14日周日', '协调世界时:', '21:00、2019年7月13日周六', '来源:', '周期文件', '趋势:', '无重要变化', '露点:', '21°C', '晴空万里:', '真', '原始:', 'ZUUU 132100Z 00000MPS CAVOK 23/21 Q1003 NOSIG', '上午5:00', '23.0°C', '1,003毫巴', '每小时0公里', '9.90公里', '晴空万里', '本地:', '05:00、2019年7月14日周日', '协调世界时:', '21:00、2019年7月13日周六', '来源:', 'USAF 每小时地面观测', '报告类型:', 'METAR 航空例行天气报告', '露点:', '21.0°C', '晴空万里:', '真', '上午6:00', '22°C', '1,003毫巴', '每小时0公里', '≥ 10.00公里', '晴空万里', '本地:', '06:00、2019年7月14日周日', '协调世界时:', '22:00、2019年7月13日周六', '来源:', '周期文件', '趋势:', '无重要变化', '露点:', '20°C', '晴空万里:', '真', '原始:', 'ZUUU 132200Z 00000MPS CAVOK 22/20 Q1003 NOSIG', '上午6:00', '22.0°C', '1,003毫巴', '每小时0公里', '9.90公里', '晴空万里', '本地:', '06:00、2019年7月14日周日', '协调世界时:', '22:00、2019年7月13日周六', '来源:', 'USAF 每小时地面观测', '报告类型:', 'METAR 航空例行天气报告', '露点:', '20.0°C', '晴空万里:', '真', '上午7:00', '23°C', '1,003毫巴', '每小时0公里', '≥ 10.00公里', '晴空万里', '本地:', '07:00、2019年7月14日周日', '协调世界时:', '23:00、2019年7月13日周六', '来源:', '周期文件', '趋势:', '无重要变化', '露点:', '21°C', '晴空万里:', '真', '原始:', 'ZUUU 132300Z 00000MPS CAVOK 23/21 Q1003 NOSIG', '上午7:00', '23.0°C', '1,003毫巴', '每小时0公里', '9.90公里', '晴空万里', '本地:', '07:00、2019年7月14日周日', '协调世界时:', '23:00、2019年7月13日周六', '来源:', 'USAF 每小时地面观测', '报告类型:', 'METAR 航空例行天气报告', '露点:', '21.0°C', '晴空万里:', '真', '上午8:00', '26°C', '1,004毫巴', '每小时0公里', '≥ 10.00公里', '晴空万里', '本地:', '08:00、2019年7月14日周日', '协调世界时:', '00:00、2019年7月14日周日', '来源:', '周期文件', '趋势:', '无重要变化', '露点:', '21°C', '晴空万里:', '真', '原始:', 'ZUUU 140000Z 00000MPS CAVOK 26/21 Q1004 NOSIG', '上午8:00', '26.0°C', '1,004毫巴', '每小时0公里', '9.90公里', '晴空万里', '本地:', '08:00、2019年7月14日周日', '协调世界时:', '00:00、2019年7月14日周日', '来源:', 'USAF 每小时地面观测', '报告类型:', 'METAR 航空例行天气报告', '露点:', '21.0°C', '晴空万里:', '真', '上午9:00', '27°C', '1,004毫巴', '每小时0公里', '≥ 10.00公里', '晴空万里', '本地:', '09:00、2019年7月14日周日', '协调世界时:', '01:00、2019年7月14日周日', '来源:', '周期文件', '趋势:', '无重要变化', '露点:', '21°C', '晴空万里:', '真', '原始:', 'ZUUU 140100Z 00000MPS CAVOK 27/21 Q1004 NOSIG', '上午9:00', '27.0°C', '1,004毫巴', '每小时0公里', '9.90公里', '晴空万里', '本地:', '09:00、2019年7月14日周日', '协调世界时:', '01:00、2019年7月14日周日', '来源:', 'USAF 每小时地面观测', '报告类型:', 'METAR 航空例行天气报告', '露点:', '21.0°C', '晴空万里:', '真', '上午10:00', '28°C', '1,004毫巴', '每小时7.20公里, 西南', '10.00公里', '大部分晴天 (701米)', '本地:', '10:00、2019年7月14日周日', '协调世界时:', '02:00、2019年7月14日周日', '来源:', '周期文件', '趋势:', '无重要变化', '露点:', '21°C', '原始:', 'ZUUU 140200Z 22002MPS 190V270 9999 FEW023 FEW023TCU 28/21 Q1004 NOSIG', '上午10:00', '28.0°C', '1,004毫巴', '每小时7.20公里, 西南', '10.00公里', '大部分晴天 (701米)', '本地:', '10:00、2019年7月14日周日', '协调世界时:', '02:00、2019年7月14日周日', '来源:', 'USAF 每小时地面观测', '报告类型:', 'METAR 航空例行天气报告', '露点:', '21.0°C', '上午11:00', '29°C', '1,004毫巴', '每小时7.20公里, 西南', '10.00公里', '大部分晴天 (914米)', '本地:', '11:00、2019年7月14日周日', '协调世界时:', '03:00、2019年7月14日周日', '来源:', '周期文件', '趋势:', '无重要变化', '露点:', '21°C', '原始:', 'ZUUU 140300Z 22002MPS 150V260 9999 FEW030TCU FEW030 29/21 Q1004 NOSIG', '上午11:00', '29.0°C', '1,004毫巴', '每小时7.20公里, 西南', '10.00公里', '大部分晴天 (914米)', '本地:', '11:00、2019年7月14日周日', '协调世界时:', '03:00、2019年7月14日周日', '来源:', 'USAF 每小时地面观测', '报告类型:', 'METAR 航空例行天气报告', '露点:', '21.0°C', '下午12:00', '30°C', '1,004毫巴', '每小时7.20公里, 西南', '10.00公里', '大部分晴天 (914米)', '本地:', '12:00、2019年7月14日周日', '协调世界时:', '04:00、2019年7月14日周日', '来源:', '周期文件', '趋势:', '无重要变化', '露点:', '20°C', '原始:', 'ZUUU 140400Z 23002MPS 190V330 9999 FEW030 FEW030TCU 30/20 Q1004 NOSIG', '下午12:00', '30.0°C', '1,004毫巴', '每小时7.20公里, 西南', '10.00公里', '大部分晴天 (914米)', '本地:', '12:00、2019年7月14日周日', '协调世界时:', '04:00、2019年7月14日周日', '来源:', 'USAF 每小时地面观测', '报告类型:', 'METAR 航空例行天气报告', '露点:', '20.0°C', '下午1:00', '30°C', '1,004毫巴', '每小时7.20公里, 西', '10.00公里', '大部分晴天 (914米)', '本地:', '13:00、2019年7月14日周日', '协调世界时:', '05:00、2019年7月14日周日', '来源:', '周期文件', '趋势:', '无重要变化', '露点:', '20°C', '原始:', 'ZUUU 140500Z 25002MPS 190V310 9999 FEW030 FEW030TCU 30/20 Q1004 NOSIG', '下午1:00', '30.0°C', '1,004毫巴', '每小时7.20公里, 西', '10.00公里', '大部分晴天 (914米)', '本地:', '13:00、2019年7月14日周日', '协调世界时:', '05:00、2019年7月14日周日', '来源:', 'USAF 每小时地面观测', '报告类型:', 'METAR 航空例行天气报告', '露点:', '20.0°C', '下午2:00', '31°C', '1,003毫巴', '每小时3.60公里', '10.00公里', '大部分晴天 (914米)', '本地:', '14:00、2019年7月14日周日', '协调世界时:', '06:00、2019年7月14日周日', '来源:', '周期文件', '趋势:', '无重要变化', '露点:', '20°C', '原始:', 'ZUUU 140600Z VRB01MPS 9999 FEW030 FEW030TCU 31/20 Q1003 NOSIG', '下午2:00', '31.0°C', '1,003毫巴', '每小时3.60公里', '10.00公里', '大部分晴天 (914米)', '本地:', '14:00、2019年7月14日周日', '协调世界时:', '06:00、2019年7月14日周日', '来源:', 'USAF 每小时地面观测', '报告类型:', 'METAR 航空例行天气报告', '露点:', '20.0°C', '下午3:00', '31°C', '1,002毫巴', '每小时3.60公里', '10.00公里', '大部分晴天 (914米)', '本地:', '15:00、2019年7月14日周日', '协调世界时:', '07:00、2019年7月14日周日', '来源:', '周期文件', '趋势:', '无重要变化', '露点:', '19°C', '原始:', 'ZUUU 140700Z VRB01MPS 9999 FEW030 FEW030TCU 31/19 Q1002 NOSIG', '下午3:00', '31.0°C', '1,002毫巴', '每小时3.60公里', '10.00公里', '大部分晴天 (914米)', '本地:', '15:00、2019年7月14日周日', '协调世界时:', '07:00、2019年7月14日周日', '来源:', 'USAF 每小时地面观测', '报告类型:', 'METAR 航空例行天气报告', '露点:', '19.0°C', '下午4:00', '31°C', '1,002毫巴', '每小时3.60公里', '10.00公里', '大部分晴天 (914米)', '本地:', '16:00、2019年7月14日周日', '协调世界时:', '08:00、2019年7月14日周日', '来源:', '周期文件', '趋势:', '无重要变化', '露点:', '18°C', '原始:', 'ZUUU 140800Z VRB01MPS 9999 FEW030 FEW030TCU 31/18 Q1002 NOSIG', '下午4:00', '31.0°C', '1,002毫巴', '每小时3.60公里', '10.00公里', '大部分晴天 (914米)', '本地:', '16:00、2019年7月14日周日', '协调世界时:', '08:00、2019年7月14日周日', '来源:', 'USAF 每小时地面观测', '报告类型:', 'METAR 航空例行天气报告', '露点:', '18.0°C', '下午5:00', '31°C', '1,001毫巴', '每小时3.60公里', '10.00公里', '大部分晴天 (914米)', '本地:', '17:00、2019年7月14日周日', '协调世界时:', '09:00、2019年7月14日周日', '来源:', '周期文件', '趋势:', '无重要变化', '露点:', '19°C', '原始:', 'ZUUU 140900Z VRB01MPS 9999 FEW030 FEW030TCU 31/19 Q1001 NOSIG', '下午5:00', '31.0°C', '1,001毫巴', '每小时3.60公里', '10.00公里', '大部分晴天 (914米)', '本地:', '17:00、2019年7月14日周日', '协调世界时:', '09:00、2019年7月14日周日', '来源:', 'USAF 每小时地面观测', '报告类型:', 'METAR 航空例行天气报告', '露点:', '19.0°C', '下午6:00', '30°C', '1,001毫巴', '每小时7.20公里, 西', '10.00公里', '部分多云 (1,524米)', '本地:', '18:00、2019年7月14日周日', '协调世界时:', '10:00、2019年7月14日周日', '来源:', '周期文件', '趋势:', '无重要变化', '露点:', '20°C', '其他云层:', '大部分晴天 (701米)', '天气:', 'Showers of Light Rain', '原始:', 'ZUUU 141000Z 27002MPS 240V310 9999 -SHRA FEW023 FEW023CB SCT050 30/20 Q1001 NOSIG', '下午6:00', '30.0°C', '1,001毫巴', '每小时7.20公里, 西', '10.00公里', '部分多云 (1,524米)', '本地:', '18:00、2019年7月14日周日', '协调世界时:', '10:00、2019年7月14日周日', '来源:', 'USAF 每小时地面观测', '报告类型:', 'METAR 航空例行天气报告', '露点:', '20.0°C', '其他云层:', '大部分晴天 (701米)', '天气:', 'Showers of Light Rain', '下午7:00', '25°C', '1,002毫巴', '每小时14.4公里, 北', '10.00公里', '部分多云 (1,524米)', '本地:', '19:00、2019年7月14日周日', '协调世界时:', '11:00、2019年7月14日周日', '来源:', '周期文件', '趋势:', '无重要变化', '露点:', '21°C', '其他云层:', '大部分晴天 (701米)', '天气:', 'Showers of Light Rain、Recent Showers of Rain', '原始:', 'ZUUU 141100Z 35004MPS 320V030 9999 -SHRA FEW023 FEW023CB SCT050 25/21 Q1002 RESHRA NOSIG', '下午7:00', '25.0°C', '1,002毫巴', '每小时14.4公里, 北', '10.00公里', '部分多云 (1,524米)', '本地:', '19:00、2019年7月14日周日', '协调世界时:', '11:00、2019年7月14日周日', '来源:', 'USAF 每小时地面观测', '报告类型:', 'METAR 航空例行天气报告', '露点:', '21.0°C', '其他云层:', '大部分晴天 (701米)', '天气:', 'Showers of Light Rain', '下午8:00', '25°C', '1,002毫巴', '每小时10.8公里, 北', '10.00公里', '部分多云 (1,524米)', '本地:', '20:00、2019年7月14日周日', '协调世界时:', '12:00、2019年7月14日周日', '来源:', '周期文件', '趋势:', '无重要变化', '露点:', '20°C', '其他云层:', '大部分晴天 (701米)', '原始:', 'ZUUU 141200Z 36003MPS 320V030 9999 FEW023 FEW023CB SCT050 25/20 Q1002 NOSIG', '下午8:00', '25.0°C', '1,002毫巴', '每小时10.8公里, 北', '10.00公里', '部分多云 (1,524米)', '本地:', '20:00、2019年7月14日周日', '协调世界时:', '12:00、2019年7月14日周日', '来源:', 'USAF 每小时地面观测', '报告类型:', 'METAR 航空例行天气报告', '露点:', '20.0°C', '其他云层:', '大部分晴天 (701米)', '下午9:00', '26°C', '1,003毫巴', '每小时7.20公里, 北', '10.00公里', '部分多云 (1,524米)', '本地:', '21:00、2019年7月14日周日', '协调世界时:', '13:00、2019年7月14日周日', '来源:', '周期文件', '趋势:', '无重要变化', '露点:', '22°C', '其他云层:', '大部分晴天 (701米)', '原始:', 'ZUUU 141300Z 02002MPS 9999 FEW023 FEW023CB SCT050 26/22 Q1003 NOSIG', '下午9:00', '26.0°C', '1,003毫巴', '每小时7.20公里, 北', '10.00公里', '部分多云 (1,524米)', '本地:', '21:00、2019年7月14日周日', '协调世界时:', '13:00、2019年7月14日周日', '来源:', 'USAF 每小时地面观测', '报告类型:', 'METAR 航空例行天气报告', '露点:', '22.0°C', '其他云层:', '大部分晴天 (701米)', '下午10:00', '26°C', '1,003毫巴', '每小时0公里', '10.00公里', '部分多云 (1,524米)', '本地:', '22:00、2019年7月14日周日', '协调世界时:', '14:00、2019年7月14日周日', '来源:', '周期文件', '趋势:', '无重要变化', '露点:', '21°C', '其他云层:', '大部分晴天 (914米)', '原始:', 'ZUUU 141400Z 00000MPS 9999 FEW030 SCT050 26/21 Q1003 NOSIG', '下午10:00', '26.0°C', '1,003毫巴', '每小时0公里', '10.00公里', '部分多云 (1,524米)', '本地:', '22:00、2019年7月14日周日', '协调世界时:', '14:00、2019年7月14日周日', '来源:', 'USAF 每小时地面观测', '报告类型:', 'METAR 航空例行天气报告', '露点:', '21.0°C', '其他云层:', '大部分晴天 (914米)', '下午11:00', '26°C', '1,004毫巴', '每小时0公里', '10.00公里', '大部分晴天 (1,524米)', '本地:', '23:00、2019年7月14日周日', '协调世界时:', '15:00、2019年7月14日周日', '来源:', '周期文件', '趋势:', '无重要变化', '露点:', '22°C', '原始:', 'ZUUU 141500Z 00000MPS 9999 FEW050 26/22 Q1004 NOSIG', '下午11:00', '26.0°C', '1,004毫巴', '每小时0公里', '10.00公里', '大部分晴天 (1,524米)', '本地:', '23:00、2019年7月14日周日', '协调世界时:', '15:00、2019年7月14日周日', '来源:', 'USAF 每小时地面观测', '报告类型:', 'METAR 航空例行天气报告', '露点:', '22.0°C']