['Mist', 'BR、IWC10', 'Mist', 'BR、IWC10', 'Mist', 'BR、IWC10', 'Mist', 'BR、IWC10', 'Mist', 'BR、IWC10', 'Mist', 'BR、IWC10', 'Mist', 'BR、IWC10', 'Showers of Light Rain、Mist', '-SHRA、IWC80、BR、IWC10', 'Showers of Light Rain、Mist', '-SHRA、IWC80、BR、IWC10', 'Showers of Light Rain、Mist', '-SHRA、IWC80、BR、IWC10', 'Showers of Light Rain、Mist', '-SHRA、IWC80、BR、IWC10', '上午12:00', '21°C', '1,011毫巴', '每小时0公里', '6.00公里', '部分多云 (610米)', '本地:', '00:00、2019年9月5日周四', '协调世界时:', '16:00、2019年9月4日周三', '来源:', '周期文件', '趋势:', '无重要变化', '露点:', '20°C', '其他云层:', '大部分晴天 (213米)', '原始:', 'ZUUU 041600Z 00000MPS 6000 FEW007 SCT020 21/20 Q1011 NOSIG', '上午12:00', '21.0°C', '1,011毫巴', '每小时0公里', '6.00公里', '部分多云 (610米)', '本地:', '00:00、2019年9月5日周四', '协调世界时:', '16:00、2019年9月4日周三', '来源:', 'USAF 每小时地面观测', '报告类型:', 'METAR 航空例行天气报告', '露点:', '20.0°C', '其他云层:', '大部分晴天 (213米)', '上午1:00', '21°C', '1,011毫巴', '每小时0公里', '6.00公里', '部分多云 (792米)', '本地:', '01:00、2019年9月5日周四', '协调世界时:', '17:00、2019年9月4日周三', '来源:', '周期文件', '趋势:', '无重要变化', '露点:', '20°C', '其他云层:', '大部分晴天 (213米)', '原始:', 'ZUUU 041700Z 00000MPS 6000 FEW007 SCT026 21/20 Q1011 NOSIG', '上午1:00', '21.0°C', '1,011毫巴', '每小时0公里', '6.00公里', '部分多云 (792米)', '本地:', '01:00、2019年9月5日周四', '协调世界时:', '17:00、2019年9月4日周三', '来源:', 'USAF 每小时地面观测', '报告类型:', 'METAR 航空例行天气报告', '露点:', '20.0°C', '其他云层:', '大部分晴天 (213米)', '上午2:00', '21°C', '1,010毫巴', '每小时3.60公里', '5.00公里', '部分多云 (792米)', '本地:', '02:00、2019年9月5日周四', '协调世界时:', '18:00、2019年9月4日周三', '来源:', '周期文件', '趋势:', '无重要变化', '露点:', '20°C', '其他云层:', '大部分晴天 (213米)', '天气:', 'Mist', '原始:', 'ZUUU 041800Z VRB01MPS 5000 BR FEW007 SCT026 21/20 Q1010 NOSIG', '上午2:00', '21.0°C', '1,010毫巴', '每小时3.60公里', '5.00公里', '部分多云 (792米)', '本地:', '02:00、2019年9月5日周四', '协调世界时:', '18:00、2019年9月4日周三', '来源:', 'USAF 每小时地面观测', '报告类型:', 'METAR 航空例行天气报告', '露点:', '20.0°C', '其他云层:', '大部分晴天 (213米)', '天气:', 'Mist', '上午3:00', '21°C', '1,010毫巴', '每小时3.60公里', '5.00公里', '部分多云 (792米)', '本地:', '03:00、2019年9月5日周四', '协调世界时:', '19:00、2019年9月4日周三', '来源:', '周期文件', '趋势:', '无重要变化', '露点:', '20°C', '其他云层:', '大部分晴天 (213米)', '天气:', 'Mist', '原始:', 'ZUUU 041900Z VRB01MPS 5000 BR FEW007 SCT026 21/20 Q1010 NOSIG', '上午3:00', '21.0°C', '1,010毫巴', '每小时3.60公里', '5.00公里', '部分多云 (792米)', '本地:', '03:00、2019年9月5日周四', '协调世界时:', '19:00、2019年9月4日周三', '来源:', 'USAF 每小时地面观测', '报告类型:', 'METAR 航空例行天气报告', '露点:', '20.0°C', '其他云层:', '大部分晴天 (213米)', '天气:', 'Mist', '上午4:00', '21°C', '1,010毫巴', '每小时0公里', '5.00公里', '部分多云 (1,219米)', '本地:', '04:00、2019年9月5日周四', '协调世界时:', '20:00、2019年9月4日周三', '来源:', '周期文件', '趋势:', '无重要变化', '露点:', '20°C', '天气:', 'Mist', '原始:', 'ZUUU 042000Z 00000MPS 5000 BR SCT040 21/20 Q1010 NOSIG', '上午4:00', '21.0°C', '1,010毫巴', '每小时0公里', '5.00公里', '部分多云 (1,219米)', '本地:', '04:00、2019年9月5日周四', '协调世界时:', '20:00、2019年9月4日周三', '来源:', 'USAF 每小时地面观测', '报告类型:', 'METAR 航空例行天气报告', '露点:', '20.0°C', '天气:', 'Mist', '上午5:00', '21°C', '1,010毫巴', '每小时0公里', '5.00公里', '部分多云 (1,219米)', '本地:', '05:00、2019年9月5日周四', '协调世界时:', '21:00、2019年9月4日周三', '来源:', '周期文件', '趋势:', '无重要变化', '露点:', '20°C', '天气:', 'Mist', '原始:', 'ZUUU 042100Z 00000MPS 5000 BR SCT040 21/20 Q1010 NOSIG', '上午5:00', '21.0°C', '1,010毫巴', '每小时0公里', '5.00公里', '部分多云 (1,219米)', '本地:', '05:00、2019年9月5日周四', '协调世界时:', '21:00、2019年9月4日周三', '来源:', 'USAF 每小时地面观测', '报告类型:', 'METAR 航空例行天气报告', '露点:', '20.0°C', '天气:', 'Mist', '上午6:00', '21°C', '1,010毫巴', '每小时3.60公里', '5.00公里', '部分多云 (1,219米)', '本地:', '06:00、2019年9月5日周四', '协调世界时:', '22:00、2019年9月4日周三', '来源:', '周期文件', '趋势:', '无重要变化', '露点:', '20°C', '天气:', 'Mist', '原始:', 'ZUUU 042200Z VRB01MPS 5000 BR SCT040 21/20 Q1010 NOSIG', '上午6:00', '21.0°C', '1,010毫巴', '每小时3.60公里', '5.00公里', '部分多云 (1,219米)', '本地:', '06:00、2019年9月5日周四', '协调世界时:', '22:00、2019年9月4日周三', '来源:', 'USAF 每小时地面观测', '报告类型:', 'METAR 航空例行天气报告', '露点:', '20.0°C', '天气:', 'Mist', '上午7:00', '21°C', '1,010毫巴', '每小时0公里', '3.50公里', '部分多云 (1,219米)', '本地:', '07:00、2019年9月5日周四', '协调世界时:', '23:00、2019年9月4日周三', '来源:', '周期文件', '趋势:', '无重要变化', '露点:', '20°C', '天气:', 'Mist', '原始:', 'ZUUU 042300Z 00000MPS 3500 BR SCT040 21/20 Q1010 NOSIG', '上午7:00', '21.0°C', '1,010毫巴', '每小时0公里', '3.50公里', '部分多云 (1,219米)', '本地:', '07:00、2019年9月5日周四', '协调世界时:', '23:00、2019年9月4日周三', '来源:', 'USAF 每小时地面观测', '报告类型:', 'METAR 航空例行天气报告', '露点:', '20.0°C', '天气:', 'Mist', '上午8:00', '22°C', '1,011毫巴', '每小时3.60公里', '4.00公里', '部分多云 (1,219米)', '本地:', '08:00、2019年9月5日周四', '协调世界时:', '00:00、2019年9月5日周四', '来源:', '周期文件', '趋势:', '无重要变化', '露点:', '20°C', '天气:', 'Mist', '原始:', 'ZUUU 050000Z VRB01MPS 4000 BR SCT040 22/20 Q1011 NOSIG', '上午8:00', '22.0°C', '1,011毫巴', '每小时3.60公里', '4.00公里', '部分多云 (1,219米)', '本地:', '08:00、2019年9月5日周四', '协调世界时:', '00:00、2019年9月5日周四', '来源:', 'USAF 每小时地面观测', '报告类型:', 'METAR 航空例行天气报告', '露点:', '20.0°C', '天气:', 'Mist', '上午9:00', '22°C', '1,011毫巴', '每小时0公里', '4.00公里', '部分多云 (1,219米)', '本地:', '09:00、2019年9月5日周四', '协调世界时:', '01:00、2019年9月5日周四', '来源:', '周期文件', '趋势:', '无重要变化', '露点:', '20°C', '其他云层:', '大部分晴天 (366米)', '天气:', 'Showers of Light Rain、Mist', '原始:', 'ZUUU 050100Z 00000MPS 4000 -SHRA BR FEW012 SCT040 22/20 Q1011 NOSIG', '上午9:00', '22.0°C', '1,011毫巴', '每小时0公里', '4.00公里', '部分多云 (1,219米)', '本地:', '09:00、2019年9月5日周四', '协调世界时:', '01:00、2019年9月5日周四', '来源:', 'USAF 每小时地面观测', '报告类型:', 'METAR 航空例行天气报告', '露点:', '20.0°C', '其他云层:', '大部分晴天 (366米)', '天气:', 'Mist、Showers of Light Rain', '上午10:00', '22°C', '1,011毫巴', '每小时7.20公里, 东', '4.50公里', '部分多云 (1,219米)', '本地:', '10:00、2019年9月5日周四', '协调世界时:', '02:00、2019年9月5日周四', '来源:', '周期文件', '趋势:', '无重要变化', '露点:', '19°C', '其他云层:', '大部分晴天 (366米)', '天气:', 'Showers of Light Rain、Mist', '原始:', 'ZUUU 050200Z 08002MPS 020V130 4500 -SHRA BR FEW012 SCT040 22/19 Q1011 NOSIG', '上午10:00', '22.0°C', '1,011毫巴', '每小时7.20公里, 东', '4.50公里', '部分多云 (1,219米)', '本地:', '10:00、2019年9月5日周四', '协调世界时:', '02:00、2019年9月5日周四', '来源:', 'USAF 每小时地面观测', '报告类型:', 'METAR 航空例行天气报告', '露点:', '19.0°C', '其他云层:', '大部分晴天 (366米)', '天气:', 'Mist、Showers of Light Rain', '上午11:00', '22°C', '1,011毫巴', '每小时10.8公里, 东', '4.50公里', '部分多云 (1,219米)', '本地:', '11:00、2019年9月5日周四', '协调世界时:', '03:00、2019年9月5日周四', '来源:', '周期文件', '趋势:', '无重要变化', '露点:', '20°C', '其他云层:', '大部分晴天 (366米)', '天气:', 'Showers of Light Rain、Mist', '原始:', 'ZUUU 050300Z 08003MPS 040V130 4500 -SHRA BR FEW012 SCT040 22/20 Q1011 NOSIG', '上午11:00', '22.0°C', '1,011毫巴', '每小时10.8公里, 东', '4.50公里', '部分多云 (1,219米)', '本地:', '11:00、2019年9月5日周四', '协调世界时:', '03:00、2019年9月5日周四', '来源:', 'USAF 每小时地面观测', '报告类型:', 'METAR 航空例行天气报告', '露点:', '20.0°C', '其他云层:', '大部分晴天 (366米)', '天气:', 'Mist、Showers of Light Rain', '下午12:00', '23°C', '1,010毫巴', '每小时7.20公里, 东', '4.50公里', '部分多云 (1,219米)', '本地:', '12:00、2019年9月5日周四', '协调世界时:', '04:00、2019年9月5日周四', '来源:', '周期文件', '趋势:', '无重要变化', '露点:', '20°C', '其他云层:', '大部分晴天 (366米)', '天气:', 'Showers of Light Rain、Mist', '原始:', 'ZUUU 050400Z 07002MPS 360V140 4500 -SHRA BR FEW012 SCT040 23/20 Q1010 NOSIG', '下午12:00', '23.0°C', '1,010毫巴', '每小时7.20公里, 东', '4.50公里', '部分多云 (1,219米)', '本地:', '12:00、2019年9月5日周四', '协调世界时:', '04:00、2019年9月5日周四', '来源:', 'USAF 每小时地面观测', '报告类型:', 'METAR 航空例行天气报告', '露点:', '20.0°C', '其他云层:', '大部分晴天 (366米)', '天气:', 'Mist、Showers of Light Rain', '下午1:00', '24°C', '1,010毫巴', '每小时10.8公里, 东北', '8.00公里', '部分多云 (1,219米)', '本地:', '13:00、2019年9月5日周四', '协调世界时:', '05:00、2019年9月5日周四', '来源:', '周期文件', '趋势:', '无重要变化', '露点:', '20°C', '其他云层:', '大部分晴天 (396米)', '原始:', 'ZUUU 050500Z 04003MPS 340V080 8000 FEW013 SCT040 24/20 Q1010 NOSIG', '下午1:00', '24.0°C', '1,010毫巴', '每小时10.8公里, 东北', '8.00公里', '部分多云 (1,219米)', '本地:', '13:00、2019年9月5日周四', '协调世界时:', '05:00、2019年9月5日周四', '来源:', 'USAF 每小时地面观测', '报告类型:', 'METAR 航空例行天气报告', '露点:', '20.0°C', '其他云层:', '大部分晴天 (396米)', '下午2:00', '25°C', '1,009毫巴', '每小时14.4公里, 东', '10.00公里', '部分多云 (1,219米)', '本地:', '14:00、2019年9月5日周四', '协调世界时:', '06:00、2019年9月5日周四', '来源:', '周期文件', '趋势:', '无重要变化', '露点:', '20°C', '其他云层:', '大部分晴天 (396米)', '原始:', 'ZUUU 050600Z 09004MPS 060V130 9999 FEW013 SCT040 25/20 Q1009 NOSIG', '下午2:00', '25.0°C', '1,009毫巴', '每小时14.4公里, 东', '10.00公里', '部分多云 (1,219米)', '本地:', '14:00、2019年9月5日周四', '协调世界时:', '06:00、2019年9月5日周四', '来源:', 'USAF 每小时地面观测', '报告类型:', 'METAR 航空例行天气报告', '露点:', '20.0°C', '其他云层:', '大部分晴天 (396米)', '下午3:00', '25°C', '1,008毫巴', '每小时7.20公里', '10.00公里', '部分多云 (701米)', '本地:', '15:00、2019年9月5日周四', '协调世界时:', '07:00、2019年9月5日周四', '来源:', '周期文件', '趋势:', '无重要变化', '露点:', '19°C', '原始:', 'ZUUU 050700Z VRB02MPS 9999 SCT023 25/19 Q1008 NOSIG', '下午3:00', '25.0°C', '1,008毫巴', '每小时7.20公里', '10.00公里', '部分多云 (701米)', '本地:', '15:00、2019年9月5日周四', '协调世界时:', '07:00、2019年9月5日周四', '来源:', 'USAF 每小时地面观测', '报告类型:', 'METAR 航空例行天气报告', '露点:', '19.0°C', '下午4:00', '26°C', '1,007毫巴', '每小时7.20公里', '10.00公里', '部分多云 (1,219米)', '本地:', '16:00、2019年9月5日周四', '协调世界时:', '08:00、2019年9月5日周四', '来源:', '周期文件', '趋势:', '无重要变化', '露点:', '20°C', '其他云层:', '大部分晴天 (701米)', '原始:', 'ZUUU 050800Z VRB02MPS 9999 FEW023 SCT040 26/20 Q1007 NOSIG', '下午4:00', '26.0°C', '1,007毫巴', '每小时7.20公里', '10.00公里', '部分多云 (1,219米)', '本地:', '16:00、2019年9月5日周四', '协调世界时:', '08:00、2019年9月5日周四', '来源:', 'USAF 每小时地面观测', '报告类型:', 'METAR 航空例行天气报告', '露点:', '20.0°C', '其他云层:', '大部分晴天 (701米)', '下午5:00', '26°C', '1,007毫巴', '每小时7.20公里, 东', '10.00公里', '部分多云 (1,219米)', '本地:', '17:00、2019年9月5日周四', '协调世界时:', '09:00、2019年9月5日周四', '来源:', '周期文件', '趋势:', '无重要变化', '露点:', '19°C', '其他云层:', '大部分晴天 (701米)', '原始:', 'ZUUU 050900Z 11002MPS 030V180 9999 FEW023 SCT040 26/19 Q1007 NOSIG', '下午5:00', '26.0°C', '1,007毫巴', '每小时7.20公里, 东', '10.00公里', '部分多云 (1,219米)', '本地:', '17:00、2019年9月5日周四', '协调世界时:', '09:00、2019年9月5日周四', '来源:', 'USAF 每小时地面观测', '报告类型:', 'METAR 航空例行天气报告', '露点:', '19.0°C', '其他云层:', '大部分晴天 (701米)', '下午6:00', '26°C', '1,007毫巴', '每小时7.20公里, 东南', '10.00公里', '部分多云 (1,219米)', '本地:', '18:00、2019年9月5日周四', '协调世界时:', '10:00、2019年9月5日周四', '来源:', '周期文件', '趋势:', '无重要变化', '露点:', '20°C', '原始:', 'ZUUU 051000Z 12002MPS 050V160 9999 SCT040 26/20 Q1007 NOSIG', '下午6:00', '26.0°C', '1,007毫巴', '每小时7.20公里, 东南', '10.00公里', '部分多云 (1,219米)', '本地:', '18:00、2019年9月5日周四', '协调世界时:', '10:00、2019年9月5日周四', '来源:', 'USAF 每小时地面观测', '报告类型:', 'METAR 航空例行天气报告', '露点:', '20.0°C', '下午7:00', '25°C', '1,007毫巴', '每小时10.8公里, 东南', '10.00公里', '部分多云 (1,219米)', '本地:', '19:00、2019年9月5日周四', '协调世界时:', '11:00、2019年9月5日周四', '来源:', '周期文件', '趋势:', '无重要变化', '露点:', '20°C', '原始:', 'ZUUU 051100Z 13003MPS 060V150 9999 SCT040 25/20 Q1007 NOSIG', '下午7:00', '25.0°C', '1,007毫巴', '每小时10.8公里, 东南', '10.00公里', '部分多云 (1,219米)', '本地:', '19:00、2019年9月5日周四', '协调世界时:', '11:00、2019年9月5日周四', '来源:', 'USAF 每小时地面观测', '报告类型:', 'METAR 航空例行天气报告', '露点:', '20.0°C', '下午8:00', '25°C', '1,008毫巴', '每小时7.20公里, 东', '10.00公里', '部分多云 (1,219米)', '本地:', '20:00、2019年9月5日周四', '协调世界时:', '12:00、2019年9月5日周四', '来源:', '周期文件', '趋势:', '无重要变化', '露点:', '20°C', '原始:', 'ZUUU 051200Z 10002MPS 060V130 9999 SCT040 25/20 Q1008 NOSIG', '下午8:00', '25.0°C', '1,008毫巴', '每小时7.20公里, 东', '10.00公里', '部分多云 (1,219米)', '本地:', '20:00、2019年9月5日周四', '协调世界时:', '12:00、2019年9月5日周四', '来源:', 'USAF 每小时地面观测', '报告类型:', 'METAR 航空例行天气报告', '露点:', '20.0°C', '下午9:00', '24°C', '1,009毫巴', '每小时0公里', '10.00公里', '部分多云 (1,219米)', '本地:', '21:00、2019年9月5日周四', '协调世界时:', '13:00、2019年9月5日周四', '来源:', '周期文件', '趋势:', '无重要变化', '露点:', '21°C', '原始:', 'ZUUU 051300Z 00000MPS 9999 SCT040 24/21 Q1009 NOSIG', '下午9:00', '24.0°C', '1,009毫巴', '每小时0公里', '10.00公里', '部分多云 (1,219米)', '本地:', '21:00、2019年9月5日周四', '协调世界时:', '13:00、2019年9月5日周四', '来源:', 'USAF 每小时地面观测', '报告类型:', 'METAR 航空例行天气报告', '露点:', '21.0°C', '下午10:00', '23°C', '1,009毫巴', '每小时0公里', '10.00公里', '部分多云 (1,219米)', '本地:', '22:00、2019年9月5日周四', '协调世界时:', '14:00、2019年9月5日周四', '来源:', '周期文件', '趋势:', '无重要变化', '露点:', '21°C', '其他云层:', '大部分晴天 (701米)', '原始:', 'ZUUU 051400Z 00000MPS 9999 FEW023 SCT040 23/21 Q1009 NOSIG', '下午10:00', '23.0°C', '1,009毫巴', '每小时0公里', '10.00公里', '部分多云 (1,219米)', '本地:', '22:00、2019年9月5日周四', '协调世界时:', '14:00、2019年9月5日周四', '来源:', 'USAF 每小时地面观测', '报告类型:', 'METAR 航空例行天气报告', '露点:', '21.0°C', '其他云层:', '大部分晴天 (701米)', '下午11:00', '22°C', '1,009毫巴', '每小时0公里', '8.00公里', '部分多云 (1,524米)', '本地:', '23:00、2019年9月5日周四', '协调世界时:', '15:00、2019年9月5日周四', '来源:', '周期文件', '趋势:', '无重要变化', '露点:', '20°C', '原始:', 'ZUUU 051500Z 00000MPS 8000 SCT050 22/20 Q1009 NOSIG', '下午11:00', '22.0°C', '1,009毫巴', '每小时0公里', '8.00公里', '部分多云 (1,524米)', '本地:', '23:00、2019年9月5日周四', '协调世界时:', '15:00、2019年9月5日周四', '来源:', 'USAF 每小时地面观测', '报告类型:', 'METAR 航空例行天气报告', '露点:', '20.0°C']