['Mist', 'BR、IWC10', 'Mist', 'BR、IWC10', 'Mist', 'BR、IWC10', 'Mist', 'BR、IWC10', 'Mist', 'BR、IWC10', 'Mist', 'BR、IWC10', 'Mist', 'BR、IWC10', 'Showers of Light Rain、Mist', '-SHRA、IWC80、BR、IWC10', 'Mist', 'BR、IWC10', 'Mist', 'BR、IWC10', 'Mist', 'BR、IWC10', 'Haze', 'HZ、IWC05', 'Haze', 'HZ、IWC05', 'Haze', 'HZ、IWC05', 'Haze', 'HZ、IWC05', 'Haze', 'HZ、IWC05', 'Haze', 'HZ、IWC05', 'Haze', 'HZ、IWC05', 'Haze', 'HZ、IWC05', 'Haze', 'HZ、IWC05', 'Haze', 'HZ、IWC05', 'Haze', 'HZ、IWC05', 'Mist', 'BR、IWC10', 'Mist', 'BR、IWC10', '上午12:00', '24°C', '1,006毫巴', '每小时0公里', '5.00公里', '无重要云', '本地:', '00:00、2019年4月19日周五', '协调世界时:', '16:00、2019年4月18日周四', '来源:', '周期文件', '趋势:', '无重要变化', '露点:', '18°C', '天气:', 'Mist', '原始:', 'ZUUU 181600Z 00000MPS 5000 BR NSC 24/18 Q1006 NOSIG', '上午12:00', '24.0°C', '1,006毫巴', '每小时0公里', '5.00公里', '未检测到云', '本地:', '00:00、2019年4月19日周五', '协调世界时:', '16:00、2019年4月18日周四', '来源:', 'USAF 每小时地面观测', '报告类型:', 'METAR 航空例行天气报告', '露点:', '18.0°C', '天气:', 'Mist', '上午1:00', '23°C', '1,005毫巴', '每小时0公里', '5.00公里', '无重要云', '本地:', '01:00、2019年4月19日周五', '协调世界时:', '17:00、2019年4月18日周四', '来源:', '周期文件', '趋势:', '无重要变化', '露点:', '18°C', '天气:', 'Mist', '原始:', 'ZUUU 181700Z 00000MPS 5000 BR NSC 23/18 Q1005 NOSIG', '上午1:00', '23.0°C', '1,005毫巴', '每小时0公里', '5.00公里', '未检测到云', '本地:', '01:00、2019年4月19日周五', '协调世界时:', '17:00、2019年4月18日周四', '来源:', 'USAF 每小时地面观测', '报告类型:', 'METAR 航空例行天气报告', '露点:', '18.0°C', '天气:', 'Mist', '上午2:00', '22°C', '1,005毫巴', '每小时0公里', '5.00公里', '无重要云', '本地:', '02:00、2019年4月19日周五', '协调世界时:', '18:00、2019年4月18日周四', '来源:', '周期文件', '趋势:', '无重要变化', '露点:', '18°C', '天气:', 'Mist', '原始:', 'ZUUU 181800Z 00000MPS 5000 BR NSC 22/18 Q1005 NOSIG', '上午2:00', '22.0°C', '1,005毫巴', '每小时0公里', '5.00公里', '未检测到云', '本地:', '02:00、2019年4月19日周五', '协调世界时:', '18:00、2019年4月18日周四', '来源:', 'USAF 每小时地面观测', '报告类型:', 'METAR 航空例行天气报告', '露点:', '18.0°C', '天气:', 'Mist', '上午3:00', '22°C', '1,004毫巴', '每小时0公里', '5.00公里', '无重要云', '本地:', '03:00、2019年4月19日周五', '协调世界时:', '19:00、2019年4月18日周四', '来源:', '周期文件', '趋势:', '无重要变化', '露点:', '18°C', '天气:', 'Mist', '原始:', 'ZUUU 181900Z 00000MPS 5000 BR NSC 22/18 Q1004 NOSIG', '上午3:00', '22.0°C', '1,004毫巴', '每小时0公里', '5.00公里', '未检测到云', '本地:', '03:00、2019年4月19日周五', '协调世界时:', '19:00、2019年4月18日周四', '来源:', 'USAF 每小时地面观测', '报告类型:', 'METAR 航空例行天气报告', '露点:', '18.0°C', '天气:', 'Mist', '上午4:00', '22°C', '1,004毫巴', '每小时0公里', '4.50公里', '无重要云', '本地:', '04:00、2019年4月19日周五', '协调世界时:', '20:00、2019年4月18日周四', '来源:', '周期文件', '趋势:', '无重要变化', '露点:', '18°C', '天气:', 'Mist', '原始:', 'ZUUU 182000Z 00000MPS 4500 BR NSC 22/18 Q1004 NOSIG', '上午4:00', '22.0°C', '1,004毫巴', '每小时0公里', '4.50公里', '未检测到云', '本地:', '04:00、2019年4月19日周五', '协调世界时:', '20:00、2019年4月18日周四', '来源:', 'USAF 每小时地面观测', '报告类型:', 'METAR 航空例行天气报告', '露点:', '18.0°C', '天气:', 'Mist', '上午5:00', '22°C', '1,004毫巴', '每小时0公里', '4.50公里', '无重要云', '本地:', '05:00、2019年4月19日周五', '协调世界时:', '21:00、2019年4月18日周四', '来源:', '周期文件', '趋势:', '无重要变化', '露点:', '18°C', '天气:', 'Mist', '原始:', 'ZUUU 182100Z 00000MPS 4500 BR NSC 22/18 Q1004 NOSIG', '上午5:00', '22.0°C', '1,004毫巴', '每小时0公里', '4.50公里', '未检测到云', '本地:', '05:00、2019年4月19日周五', '协调世界时:', '21:00、2019年4月18日周四', '来源:', 'USAF 每小时地面观测', '报告类型:', 'METAR 航空例行天气报告', '露点:', '18.0°C', '天气:', 'Mist', '上午6:00', '21°C', '1,004毫巴', '每小时0公里', '4.50公里', '无重要云', '本地:', '06:00、2019年4月19日周五', '协调世界时:', '22:00、2019年4月18日周四', '来源:', '周期文件', '趋势:', '无重要变化', '露点:', '18°C', '天气:', 'Mist', '原始:', 'ZUUU 182200Z 00000MPS 4500 BR NSC 21/18 Q1004 NOSIG', '上午6:00', '21.0°C', '1,004毫巴', '每小时0公里', '4.50公里', '未检测到云', '本地:', '06:00、2019年4月19日周五', '协调世界时:', '22:00、2019年4月18日周四', '来源:', 'USAF 每小时地面观测', '报告类型:', 'METAR 航空例行天气报告', '露点:', '18.0°C', '天气:', 'Mist', '上午7:00', '21°C', '1,005毫巴', '每小时0公里', '4.00公里', '部分多云 (1,524米)', '本地:', '07:00、2019年4月19日周五', '协调世界时:', '23:00、2019年4月18日周四', '来源:', '周期文件', '趋势:', '无重要变化', '露点:', '18°C', '其他云层:', '大部分晴天 (1,006米)', '天气:', 'Showers of Light Rain、Mist', '原始:', 'ZUUU 182300Z 00000MPS 4000 -SHRA BR FEW033 SCT050 21/18 Q1005 NOSIG', '上午7:00', '21.0°C', '1,005毫巴', '每小时0公里', '4.00公里', '部分多云 (1,524米)', '本地:', '07:00、2019年4月19日周五', '协调世界时:', '23:00、2019年4月18日周四', '来源:', 'USAF 每小时地面观测', '报告类型:', 'METAR 航空例行天气报告', '露点:', '18.0°C', '其他云层:', '大部分晴天 (1,006米)', '天气:', 'Mist、Showers of Light Rain', '上午8:00', '21°C', '1,005毫巴', '每小时3.60公里', '4.00公里', '无重要云', '本地:', '08:00、2019年4月19日周五', '协调世界时:', '00:00、2019年4月19日周五', '来源:', '周期文件', '趋势:', '无重要变化', '露点:', '19°C', '天气:', 'Mist', '原始:', 'ZUUU 190000Z VRB01MPS 4000 BR NSC 21/19 Q1005 NOSIG', '上午8:00', '21.0°C', '1,005毫巴', '每小时3.60公里', '4.00公里', '未检测到云', '本地:', '08:00、2019年4月19日周五', '协调世界时:', '00:00、2019年4月19日周五', '来源:', 'USAF 每小时地面观测', '报告类型:', 'METAR 航空例行天气报告', '露点:', '19.0°C', '天气:', 'Mist', '上午9:00', '22°C', '1,006毫巴', '每小时0公里', '3.50公里', '无重要云', '本地:', '09:00、2019年4月19日周五', '协调世界时:', '01:00、2019年4月19日周五', '来源:', '周期文件', '趋势:', '无重要变化', '露点:', '19°C', '天气:', 'Mist', '原始:', 'ZUUU 190100Z 00000MPS 3500 BR NSC 22/19 Q1006 NOSIG', '上午9:00', '22.0°C', '1,006毫巴', '每小时0公里', '3.50公里', '未检测到云', '本地:', '09:00、2019年4月19日周五', '协调世界时:', '01:00、2019年4月19日周五', '来源:', 'USAF 每小时地面观测', '报告类型:', 'METAR 航空例行天气报告', '露点:', '19.0°C', '天气:', 'Mist', '上午10:00', '23°C', '1,006毫巴', '每小时0公里', '4.00公里', '无重要云', '本地:', '10:00、2019年4月19日周五', '协调世界时:', '02:00、2019年4月19日周五', '来源:', '周期文件', '趋势:', '无重要变化', '露点:', '19°C', '天气:', 'Mist', '原始:', 'ZUUU 190200Z 00000MPS 4000 BR NSC 23/19 Q1006 NOSIG', '上午10:00', '23.0°C', '1,006毫巴', '每小时0公里', '4.00公里', '未检测到云', '本地:', '10:00、2019年4月19日周五', '协调世界时:', '02:00、2019年4月19日周五', '来源:', 'USAF 每小时地面观测', '报告类型:', 'METAR 航空例行天气报告', '露点:', '19.0°C', '天气:', 'Mist', '上午11:00', '25°C', '1,006毫巴', '每小时3.60公里', '4.00公里', '无重要云', '本地:', '11:00、2019年4月19日周五', '协调世界时:', '03:00、2019年4月19日周五', '来源:', '周期文件', '趋势:', '无重要变化', '露点:', '19°C', '天气:', 'Haze', '原始:', 'ZUUU 190300Z VRB01MPS 4000 HZ NSC 25/19 Q1006 NOSIG', '上午11:00', '25.0°C', '1,006毫巴', '每小时3.60公里', '4.00公里', '未检测到云', '本地:', '11:00、2019年4月19日周五', '协调世界时:', '03:00、2019年4月19日周五', '来源:', 'USAF 每小时地面观测', '报告类型:', 'METAR 航空例行天气报告', '露点:', '19.0°C', '天气:', 'Haze', '下午12:00', '27°C', '1,006毫巴', '每小时7.20公里, 东南', '4.50公里', '无重要云', '本地:', '12:00、2019年4月19日周五', '协调世界时:', '04:00、2019年4月19日周五', '来源:', '周期文件', '趋势:', '无重要变化', '露点:', '18°C', '天气:', 'Haze', '原始:', 'ZUUU 190400Z 12002MPS 050V170 4500 HZ NSC 27/18 Q1006 NOSIG', '下午12:00', '27.0°C', '1,006毫巴', '每小时7.20公里, 东南', '4.50公里', '未检测到云', '本地:', '12:00、2019年4月19日周五', '协调世界时:', '04:00、2019年4月19日周五', '来源:', 'USAF 每小时地面观测', '报告类型:', 'METAR 航空例行天气报告', '露点:', '18.0°C', '天气:', 'Haze', '下午1:00', '27°C', '1,005毫巴', '每小时7.20公里', '4.50公里', '无重要云', '本地:', '13:00、2019年4月19日周五', '协调世界时:', '05:00、2019年4月19日周五', '来源:', '周期文件', '趋势:', '无重要变化', '露点:', '18°C', '天气:', 'Haze', '原始:', 'ZUUU 190500Z VRB02MPS 4500 HZ NSC 27/18 Q1005 NOSIG', '下午1:00', '27.0°C', '1,005毫巴', '每小时7.20公里', '4.50公里', '未检测到云', '本地:', '13:00、2019年4月19日周五', '协调世界时:', '05:00、2019年4月19日周五', '来源:', 'USAF 每小时地面观测', '报告类型:', 'METAR 航空例行天气报告', '露点:', '18.0°C', '天气:', 'Haze', '下午2:00', '28°C', '1,004毫巴', '每小时0公里', '4.50公里', '无重要云', '本地:', '14:00、2019年4月19日周五', '协调世界时:', '06:00、2019年4月19日周五', '来源:', '周期文件', '趋势:', '无重要变化', '露点:', '18°C', '天气:', 'Haze', '原始:', 'ZUUU 190600Z 00000MPS 4500 HZ NSC 28/18 Q1004 NOSIG', '下午2:00', '28.0°C', '1,004毫巴', '每小时0公里', '4.50公里', '未检测到云', '本地:', '14:00、2019年4月19日周五', '协调世界时:', '06:00、2019年4月19日周五', '来源:', 'USAF 每小时地面观测', '报告类型:', 'METAR 航空例行天气报告', '露点:', '18.0°C', '天气:', 'Haze', '下午3:00', '28°C', '1,003毫巴', '每小时0公里', '4.50公里', '无重要云', '本地:', '15:00、2019年4月19日周五', '协调世界时:', '07:00、2019年4月19日周五', '来源:', '周期文件', '趋势:', '无重要变化', '露点:', '18°C', '天气:', 'Haze', '原始:', 'ZUUU 190700Z 00000MPS 4500 HZ NSC 28/18 Q1003 NOSIG', '下午3:00', '28.0°C', '1,003毫巴', '每小时0公里', '4.50公里', '未检测到云', '本地:', '15:00、2019年4月19日周五', '协调世界时:', '07:00、2019年4月19日周五', '来源:', 'USAF 每小时地面观测', '报告类型:', 'METAR 航空例行天气报告', '露点:', '18.0°C', '天气:', 'Haze', '下午4:00', '28°C', '1,002毫巴', '每小时0公里', '4.50公里', '无重要云', '本地:', '16:00、2019年4月19日周五', '协调世界时:', '08:00、2019年4月19日周五', '来源:', '周期文件', '趋势:', '无重要变化', '露点:', '17°C', '天气:', 'Haze', '原始:', 'ZUUU 190800Z 00000MPS 4500 HZ NSC 28/17 Q1002 NOSIG', '下午4:00', '28.0°C', '1,002毫巴', '每小时0公里', '4.50公里', '未检测到云', '本地:', '16:00、2019年4月19日周五', '协调世界时:', '08:00、2019年4月19日周五', '来源:', 'USAF 每小时地面观测', '报告类型:', 'METAR 航空例行天气报告', '露点:', '17.0°C', '天气:', 'Haze', '下午5:00', '28°C', '1,002毫巴', '每小时0公里', '5.00公里', '无重要云', '本地:', '17:00、2019年4月19日周五', '协调世界时:', '09:00、2019年4月19日周五', '来源:', '周期文件', '趋势:', '无重要变化', '露点:', '18°C', '天气:', 'Haze', '原始:', 'ZUUU 190900Z 00000MPS 5000 HZ NSC 28/18 Q1002 NOSIG', '下午5:00', '28.0°C', '1,002毫巴', '每小时0公里', '5.00公里', '未检测到云', '本地:', '17:00、2019年4月19日周五', '协调世界时:', '09:00、2019年4月19日周五', '来源:', 'USAF 每小时地面观测', '报告类型:', 'METAR 航空例行天气报告', '露点:', '18.0°C', '天气:', 'Haze', '下午6:00', '28°C', '1,002毫巴', '每小时3.60公里', '5.00公里', '无重要云', '本地:', '18:00、2019年4月19日周五', '协调世界时:', '10:00、2019年4月19日周五', '来源:', '周期文件', '趋势:', '无重要变化', '露点:', '17°C', '天气:', 'Haze', '原始:', 'ZUUU 191000Z VRB01MPS 5000 HZ NSC 28/17 Q1002 NOSIG', '下午6:00', '28.0°C', '1,002毫巴', '每小时3.60公里', '5.00公里', '未检测到云', '本地:', '18:00、2019年4月19日周五', '协调世界时:', '10:00、2019年4月19日周五', '来源:', 'USAF 每小时地面观测', '报告类型:', 'METAR 航空例行天气报告', '露点:', '17.0°C', '天气:', 'Haze', '下午7:00', '26°C', '1,002毫巴', '每小时0公里', '5.00公里', '无重要云', '本地:', '19:00、2019年4月19日周五', '协调世界时:', '11:00、2019年4月19日周五', '来源:', '周期文件', '趋势:', '无重要变化', '露点:', '19°C', '天气:', 'Haze', '原始:', 'ZUUU 191100Z 00000MPS 5000 HZ NSC 26/19 Q1002 NOSIG', '下午7:00', '26.0°C', '1,002毫巴', '每小时0公里', '5.00公里', '未检测到云', '本地:', '19:00、2019年4月19日周五', '协调世界时:', '11:00、2019年4月19日周五', '来源:', 'USAF 每小时地面观测', '报告类型:', 'METAR 航空例行天气报告', '露点:', '19.0°C', '天气:', 'Haze', '下午8:00', '27°C', '1,003毫巴', '每小时10.8公里, 东', '5.00公里', '无重要云', '本地:', '20:00、2019年4月19日周五', '协调世界时:', '12:00、2019年4月19日周五', '来源:', '周期文件', '趋势:', '无重要变化', '露点:', '18°C', '天气:', 'Haze', '原始:', 'ZUUU 191200Z 11003MPS 050V130 5000 HZ NSC 27/18 Q1003 NOSIG', '下午8:00', '27.0°C', '1,003毫巴', '每小时10.8公里, 东', '5.00公里', '未检测到云', '本地:', '20:00、2019年4月19日周五', '协调世界时:', '12:00、2019年4月19日周五', '来源:', 'USAF 每小时地面观测', '报告类型:', 'METAR 航空例行天气报告', '露点:', '18.0°C', '天气:', 'Haze', '下午9:00', '26°C', '1,004毫巴', '每小时10.8公里, 东南', '5.00公里', '无重要云', '本地:', '21:00、2019年4月19日周五', '协调世界时:', '13:00、2019年4月19日周五', '来源:', '周期文件', '趋势:', '无重要变化', '露点:', '19°C', '天气:', 'Haze', '原始:', 'ZUUU 191300Z 13003MPS 050V160 5000 HZ NSC 26/19 Q1004 NOSIG', '下午9:00', '26.0°C', '1,004毫巴', '每小时10.8公里, 东南', '5.00公里', '未检测到云', '本地:', '21:00、2019年4月19日周五', '协调世界时:', '13:00、2019年4月19日周五', '来源:', 'USAF 每小时地面观测', '报告类型:', 'METAR 航空例行天气报告', '露点:', '19.0°C', '天气:', 'Haze', '下午10:00', '25°C', '1,005毫巴', '每小时7.20公里, 东南', '5.00公里', '无重要云', '本地:', '22:00、2019年4月19日周五', '协调世界时:', '14:00、2019年4月19日周五', '来源:', '周期文件', '趋势:', '无重要变化', '露点:', '19°C', '天气:', 'Mist', '原始:', 'ZUUU 191400Z 14002MPS 080V180 5000 BR NSC 25/19 Q1005 NOSIG', '下午10:00', '25.0°C', '1,005毫巴', '每小时7.20公里, 东南', '5.00公里', '未检测到云', '本地:', '22:00、2019年4月19日周五', '协调世界时:', '14:00、2019年4月19日周五', '来源:', 'USAF 每小时地面观测', '报告类型:', 'METAR 航空例行天气报告', '露点:', '19.0°C', '天气:', 'Mist', '下午11:00', '25°C', '1,005毫巴', '每小时3.60公里', '5.00公里', '无重要云', '本地:', '23:00、2019年4月19日周五', '协调世界时:', '15:00、2019年4月19日周五', '来源:', '周期文件', '趋势:', '无重要变化', '露点:', '19°C', '天气:', 'Mist', '原始:', 'ZUUU 191500Z VRB01MPS 5000 BR NSC 25/19 Q1005 NOSIG', '下午11:00', '25.0°C', '1,005毫巴', '每小时3.60公里', '5.00公里', '未检测到云', '本地:', '23:00、2019年4月19日周五', '协调世界时:', '15:00、2019年4月19日周五', '来源:', 'USAF 每小时地面观测', '报告类型:', 'METAR 航空例行天气报告', '露点:', '19.0°C', '天气:', 'Mist']