['Mist', 'BR、IWC10', 'Mist', 'BR、IWC10', 'Mist', 'BR、IWC10', 'Mist', 'BR、IWC10', 'Mist', 'BR、IWC10', 'Mist', 'BR、IWC10', 'Mist、Patches of Fog', 'BR、IWC10、BCFG、IWC11', 'Mist、Patches of Fog', 'BR、IWC10、BCFG、IWC11', 'Mist、Patches of Fog', 'BR、IWC10、BCFG、IWC11', 'Mist、Patches of Fog', 'BR、IWC10、BCFG、IWC11', 'Mist、Patches of Fog', 'BR、IWC10、BCFG、IWC11', 'Haze', 'HZ、IWC05', 'Haze', 'HZ、IWC05', 'Light Rain', '-RA、IWC61', '上午12:00', '15°C', '1,016毫巴', '每小时3.60公里', '6.00公里', '部分多云 (1,524米)', '本地:', '00:00、2019年11月17日周日', '协调世界时:', '16:00、2019年11月16日周六', '来源:', '周期文件', '趋势:', '无重要变化', '露点:', '11°C', '原始:', 'ZUUU 161600Z VRB01MPS 6000 SCT050 15/11 Q1016 NOSIG', '上午12:00', '15.0°C', '1,016毫巴', '每小时3.60公里', '6.00公里', '部分多云 (1,524米)', '本地:', '00:00、2019年11月17日周日', '协调世界时:', '16:00、2019年11月16日周六', '来源:', 'USAF 每小时地面观测', '报告类型:', 'METAR 航空例行天气报告', '露点:', '11.0°C', '上午1:00', '14°C', '1,016毫巴', '每小时10.8公里, 西', '4.50公里', '无重要云', '本地:', '01:00、2019年11月17日周日', '协调世界时:', '17:00、2019年11月16日周六', '来源:', '周期文件', '趋势:', '无重要变化', '露点:', '12°C', '天气:', 'Mist', '原始:', 'ZUUU 161700Z 26003MPS 230V290 4500 BR NSC 14/12 Q1016 NOSIG', '上午1:00', '14.0°C', '1,016毫巴', '每小时10.8公里, 西', '4.50公里', '未检测到云', '本地:', '01:00、2019年11月17日周日', '协调世界时:', '17:00、2019年11月16日周六', '来源:', 'USAF 每小时地面观测', '报告类型:', 'METAR 航空例行天气报告', '露点:', '12.0°C', '天气:', 'Mist', '上午2:00', '13°C', '1,015毫巴', '每小时10.8公里, 西', '3.50公里', '无重要云', '本地:', '02:00、2019年11月17日周日', '协调世界时:', '18:00、2019年11月16日周六', '来源:', '周期文件', '趋势:', '无重要变化', '露点:', '12°C', '天气:', 'Mist', '原始:', 'ZUUU 161800Z 25003MPS 220V280 3500 BR NSC 13/12 Q1015 NOSIG', '上午2:00', '13.0°C', '1,015毫巴', '每小时10.8公里, 西', '3.50公里', '未检测到云', '本地:', '02:00、2019年11月17日周日', '协调世界时:', '18:00、2019年11月16日周六', '来源:', 'USAF 每小时地面观测', '报告类型:', 'METAR 航空例行天气报告', '露点:', '12.0°C', '天气:', 'Mist', '上午3:00', '12°C', '1,015毫巴', '每小时3.60公里, 南', '2.70公里', '无重要云', '本地:', '03:00、2019年11月17日周日', '协调世界时:', '19:00、2019年11月16日周六', '来源:', '周期文件', '趋势:', '无重要变化', '露点:', '11°C', '天气:', 'Mist', '原始:', 'ZUUU 161900Z 19001MPS 2700 BR NSC 12/11 Q1015 NOSIG', '上午3:00', '12.0°C', '1,015毫巴', '每小时3.60公里, 南', '2.70公里', '未检测到云', '本地:', '03:00、2019年11月17日周日', '协调世界时:', '19:00、2019年11月16日周六', '来源:', 'USAF 每小时地面观测', '报告类型:', 'METAR 航空例行天气报告', '露点:', '11.0°C', '天气:', 'Mist', '上午4:00', '11°C', '1,014毫巴', '每小时0公里', '1.70公里', '无重要云', '本地:', '04:00、2019年11月17日周日', '协调世界时:', '20:00、2019年11月16日周六', '来源:', '周期文件', '趋势:', '变化为', '露点:', '11°C', '天气:', 'Mist、Mist', '原始:', 'ZUUU 162000Z 00000MPS 1700 BR NSC 11/11 Q1014 BECMG TL2120 1400 BR', '上午4:00', '11.0°C', '1,014毫巴', '每小时0公里', '1.70公里', '未检测到云', '本地:', '04:00、2019年11月17日周日', '协调世界时:', '20:00、2019年11月16日周六', '来源:', 'USAF 每小时地面观测', '报告类型:', 'METAR 航空例行天气报告', '露点:', '11.0°C', '天气:', 'Mist', '上午5:00', '11°C', '1,014毫巴', '每小时0公里', '1.60公里', '无重要云', '本地:', '05:00、2019年11月17日周日', '协调世界时:', '21:00、2019年11月16日周六', '来源:', '周期文件', '趋势:', '变化为', '露点:', '11°C', '天气:', 'Mist、Mist', '原始:', 'ZUUU 162100Z 00000MPS 1600 BR NSC 11/11 Q1014 BECMG TL2240 1400 BR', '上午5:00', '11.0°C', '1,014毫巴', '每小时0公里', '1.60公里', '未检测到云', '本地:', '05:00、2019年11月17日周日', '协调世界时:', '21:00、2019年11月16日周六', '来源:', 'USAF 每小时地面观测', '报告类型:', 'METAR 航空例行天气报告', '露点:', '11.0°C', '天气:', 'Mist', '上午6:00', '11°C', '1,014毫巴', '每小时0公里', '1.60公里', '无重要云', '本地:', '06:00、2019年11月17日周日', '协调世界时:', '22:00、2019年11月16日周六', '来源:', '周期文件', '趋势:', '变化为', '露点:', '10°C', '天气:', 'Mist、Mist', '原始:', 'ZUUU 162200Z 00000MPS 1600 BR NSC 11/10 Q1014 BECMG TL2320 1400 BR', '上午6:00', '11.0°C', '1,014毫巴', '每小时0公里', '1.60公里', '未检测到云', '本地:', '06:00、2019年11月17日周日', '协调世界时:', '22:00、2019年11月16日周六', '来源:', 'USAF 每小时地面观测', '报告类型:', 'METAR 航空例行天气报告', '露点:', '10.0°C', '天气:', 'Mist', '上午7:00', '11°C', '1,014毫巴', '每小时0公里', '1.30公里', '无重要云', '本地:', '07:00、2019年11月17日周日', '协调世界时:', '23:00、2019年11月16日周六', '来源:', '周期文件', '趋势:', '变化为', '露点:', '11°C', '天气:', 'Patches of Fog、Mist', '原始:', 'ZUUU 162300Z 00000MPS 1300 R02L/P2000N R02R/1000U BCFG BR NSC 11/11 Q1014 BECMG TL0100 1600', '上午7:00', '11.0°C', '1,014毫巴', '每小时0公里', '1.30公里', '未检测到云', '本地:', '07:00、2019年11月17日周日', '协调世界时:', '23:00、2019年11月16日周六', '来源:', 'USAF 每小时地面观测', '报告类型:', 'METAR 航空例行天气报告', '露点:', '11.0°C', '天气:', 'Mist、Patches of Fog', '上午8:00', '11°C', '1,015毫巴', '每小时0公里', '1.10公里', '大部分晴天 (91米)', '本地:', '08:00、2019年11月17日周日', '协调世界时:', '00:00、2019年11月17日周日', '来源:', '周期文件', '趋势:', '变化为', '露点:', '10°C', '天气:', 'Patches of Fog、Mist', '原始:', 'ZUUU 170000Z 00000MPS 1100 R02L/1200U R02R/0700D BCFG BR FEW003 11/10 Q1015 BECMG TL0140 1600', '上午8:00', '11.0°C', '1,015毫巴', '每小时0公里', '1.10公里', '大部分晴天 (91米)', '本地:', '08:00、2019年11月17日周日', '协调世界时:', '00:00、2019年11月17日周日', '来源:', 'USAF 每小时地面观测', '报告类型:', 'METAR 航空例行天气报告', '露点:', '10.0°C', '天气:', 'Mist、Patches of Fog', '上午9:00', '12°C', '1,016毫巴', '每小时7.20公里, 北', '1.60公里', '无重要云', '本地:', '09:00、2019年11月17日周日', '协调世界时:', '01:00、2019年11月17日周日', '来源:', '周期文件', '趋势:', '变化为', '露点:', '11°C', '天气:', 'Patches of Fog、Mist', '原始:', 'ZUUU 170100Z 35002MPS 320V030 1600 R02L/1100N R02R/0800U BCFG BR NSC 12/11 Q1016 BECMG TL0240 3000', '上午9:00', '12.0°C', '1,016毫巴', '每小时7.20公里, 北', '1.60公里', '未检测到云', '本地:', '09:00、2019年11月17日周日', '协调世界时:', '01:00、2019年11月17日周日', '来源:', 'USAF 每小时地面观测', '报告类型:', 'METAR 航空例行天气报告', '露点:', '11.0°C', '天气:', 'Mist、Patches of Fog', '上午10:00', '14°C', '1,016毫巴', '每小时0公里', '1.70公里', '无重要云', '本地:', '10:00、2019年11月17日周日', '协调世界时:', '02:00、2019年11月17日周日', '来源:', '周期文件', '趋势:', '变化为', '露点:', '13°C', '天气:', 'Patches of Fog、Mist', '原始:', 'ZUUU 170200Z 00000MPS 1700 R02L/1300U R02R/1400U BCFG BR NSC 14/13 Q1016 BECMG TL0240 3500', '上午10:00', '14.0°C', '1,016毫巴', '每小时0公里', '1.70公里', '未检测到云', '本地:', '10:00、2019年11月17日周日', '协调世界时:', '02:00、2019年11月17日周日', '来源:', 'USAF 每小时地面观测', '报告类型:', 'METAR 航空例行天气报告', '露点:', '13.0°C', '天气:', 'Mist、Patches of Fog', '上午11:00', '16°C', '1,017毫巴', '每小时3.60公里', '2.00公里', '无重要云', '本地:', '11:00、2019年11月17日周日', '协调世界时:', '03:00、2019年11月17日周日', '来源:', '周期文件', '趋势:', '变化为', '露点:', '13°C', '天气:', 'Patches of Fog、Mist', '原始:', 'ZUUU 170300Z VRB01MPS 2000 BCFG BR NSC 16/13 Q1017 BECMG TL0400 3500', '上午11:00', '16.0°C', '1,017毫巴', '每小时3.60公里', '2.00公里', '未检测到云', '本地:', '11:00、2019年11月17日周日', '协调世界时:', '03:00、2019年11月17日周日', '来源:', 'USAF 每小时地面观测', '报告类型:', 'METAR 航空例行天气报告', '露点:', '13.0°C', '天气:', 'Mist、Patches of Fog', '下午12:00', '18°C', '1,017毫巴', '每小时7.20公里', '3.00公里', '无重要云', '本地:', '12:00、2019年11月17日周日', '协调世界时:', '04:00、2019年11月17日周日', '来源:', '周期文件', '趋势:', '无重要变化', '露点:', '12°C', '天气:', 'Haze', '原始:', 'ZUUU 170400Z VRB02MPS 3000 HZ NSC 18/12 Q1017 NOSIG', '下午12:00', '18.0°C', '1,017毫巴', '每小时7.20公里', '3.00公里', '未检测到云', '本地:', '12:00、2019年11月17日周日', '协调世界时:', '04:00、2019年11月17日周日', '来源:', 'USAF 每小时地面观测', '报告类型:', 'METAR 航空例行天气报告', '露点:', '12.0°C', '天气:', 'Haze', '下午1:00', '19°C', '1,017毫巴', '每小时7.20公里, 东北', '5.00公里', '无重要云', '本地:', '13:00、2019年11月17日周日', '协调世界时:', '05:00、2019年11月17日周日', '来源:', '周期文件', '趋势:', '无重要变化', '露点:', '11°C', '天气:', 'Haze', '原始:', 'ZUUU 170500Z 03002MPS 340V080 5000 HZ NSC 19/11 Q1017 NOSIG', '下午1:00', '19.0°C', '1,017毫巴', '每小时7.20公里, 东北', '5.00公里', '未检测到云', '本地:', '13:00、2019年11月17日周日', '协调世界时:', '05:00、2019年11月17日周日', '来源:', 'USAF 每小时地面观测', '报告类型:', 'METAR 航空例行天气报告', '露点:', '11.0°C', '天气:', 'Haze', '下午2:00', '18°C', '1,017毫巴', '每小时25.2公里, 东北', '≥ 10.00公里', '晴空万里', '本地:', '14:00、2019年11月17日周日', '协调世界时:', '06:00、2019年11月17日周日', '来源:', '周期文件', '趋势:', '无重要变化', '露点:', '7°C', '晴空万里:', '真', '原始:', 'ZUUU 170600Z 06007MPS 040V110 CAVOK 18/07 Q1017 NOSIG', '下午2:00', '18.0°C', '1,017毫巴', '每小时25.2公里, 东北', '9.90公里', '晴空万里', '本地:', '14:00、2019年11月17日周日', '协调世界时:', '06:00、2019年11月17日周日', '来源:', 'USAF 每小时地面观测', '报告类型:', 'METAR 航空例行天气报告', '露点:', '7.0°C', '晴空万里:', '真', '下午3:00', '17°C', '1,018毫巴', '每小时25.2公里, 东北', '10.00公里', '部分多云 (1,524米)', '本地:', '15:00、2019年11月17日周日', '协调世界时:', '07:00、2019年11月17日周日', '来源:', '周期文件', '趋势:', '无重要变化', '露点:', '7°C', '原始:', 'ZUUU 170700Z 06007MPS 030V090 9999 SCT050 17/07 Q1018 NOSIG', '下午3:00', '17.0°C', '1,018毫巴', '每小时25.2公里, 东北', '10.00公里', '部分多云 (1,524米)', '本地:', '15:00、2019年11月17日周日', '协调世界时:', '07:00、2019年11月17日周日', '来源:', 'USAF 每小时地面观测', '报告类型:', 'METAR 航空例行天气报告', '露点:', '7.0°C', '下午4:00', '17°C', '1,019毫巴', '每小时25.2公里, 东北', '10.00公里', '部分多云 (1,524米)', '本地:', '16:00、2019年11月17日周日', '协调世界时:', '08:00、2019年11月17日周日', '来源:', '周期文件', '趋势:', '无重要变化', '露点:', '6°C', '原始:', 'ZUUU 170800Z 06007MPS 030V090 9999 SCT050 17/06 Q1019 NOSIG', '下午4:00', '17.0°C', '1,019毫巴', '每小时25.2公里, 东北', '10.00公里', '部分多云 (1,524米)', '本地:', '16:00、2019年11月17日周日', '协调世界时:', '08:00、2019年11月17日周日', '来源:', 'USAF 每小时地面观测', '报告类型:', 'METAR 航空例行天气报告', '露点:', '6.0°C', '下午5:00', '17°C', '1,021毫巴', '每小时18.0公里, 东', '10.00公里', '部分多云 (1,524米)', '本地:', '17:00、2019年11月17日周日', '协调世界时:', '09:00、2019年11月17日周日', '来源:', '周期文件', '趋势:', '无重要变化', '露点:', '5°C', '原始:', 'ZUUU 170900Z 07005MPS 020V100 9999 SCT050 17/05 Q1021 NOSIG', '下午5:00', '17.0°C', '1,021毫巴', '每小时18.0公里, 东', '10.00公里', '部分多云 (1,524米)', '本地:', '17:00、2019年11月17日周日', '协调世界时:', '09:00、2019年11月17日周日', '来源:', 'USAF 每小时地面观测', '报告类型:', 'METAR 航空例行天气报告', '露点:', '5.0°C', '下午6:00', '17°C', '1,022毫巴', '每小时21.6公里, 东', '10.00公里', '部分多云 (1,524米)', '本地:', '18:00、2019年11月17日周日', '协调世界时:', '10:00、2019年11月17日周日', '来源:', '周期文件', '趋势:', '无重要变化', '露点:', '1°C', '原始:', 'ZUUU 171000Z 08006MPS 040V100 9999 SCT050 17/01 Q1022 NOSIG', '下午6:00', '17.0°C', '1,022毫巴', '每小时21.6公里, 东', '10.00公里', '部分多云 (1,524米)', '本地:', '18:00、2019年11月17日周日', '协调世界时:', '10:00、2019年11月17日周日', '来源:', 'USAF 每小时地面观测', '报告类型:', 'METAR 航空例行天气报告', '露点:', '1.0°C', '下午7:00', '16°C', '1,024毫巴', '每小时18.0公里, 东北', '10.00公里', '部分多云 (1,524米)', '本地:', '19:00、2019年11月17日周日', '协调世界时:', '11:00、2019年11月17日周日', '来源:', '周期文件', '趋势:', '无重要变化', '露点:', '-1°C', '原始:', 'ZUUU 171100Z 05005MPS 9999 SCT050 16/M01 Q1024 NOSIG', '下午7:00', '16.0°C', '1,024毫巴', '每小时18.0公里, 东北', '10.00公里', '部分多云 (1,524米)', '本地:', '19:00、2019年11月17日周日', '协调世界时:', '11:00、2019年11月17日周日', '来源:', 'USAF 每小时地面观测', '报告类型:', 'METAR 航空例行天气报告', '露点:', '-1.0°C', '下午8:00', '15°C', '1,026毫巴', '每小时10.8公里, 东北', '10.00公里', '部分多云 (1,524米)', '本地:', '20:00、2019年11月17日周日', '协调世界时:', '12:00、2019年11月17日周日', '来源:', '周期文件', '趋势:', '无重要变化', '露点:', '-1°C', '天气:', 'Light Rain', '原始:', 'ZUUU 171200Z 03003MPS 360V060 9999 -RA SCT050 15/M01 Q1026 NOSIG', '下午8:00', '15.0°C', '1,026毫巴', '每小时10.8公里, 东北', '10.00公里', '部分多云 (1,524米)', '本地:', '20:00、2019年11月17日周日', '协调世界时:', '12:00、2019年11月17日周日', '来源:', 'USAF 每小时地面观测', '报告类型:', 'METAR 航空例行天气报告', '露点:', '-1.0°C', '天气:', 'Light Rain', '下午9:00', '15°C', '1,027毫巴', '每小时18.0公里, 东北', '10.00公里', '部分多云 (1,311米)', '本地:', '21:00、2019年11月17日周日', '协调世界时:', '13:00、2019年11月17日周日', '来源:', '周期文件', '趋势:', '无重要变化', '露点:', '-2°C', '原始:', 'ZUUU 171300Z 04005MPS 9999 SCT043 15/M02 Q1027 NOSIG', '下午9:00', '15.0°C', '1,027毫巴', '每小时18.0公里, 东北', '10.00公里', '部分多云 (1,311米)', '本地:', '21:00、2019年11月17日周日', '协调世界时:', '13:00、2019年11月17日周日', '来源:', 'USAF 每小时地面观测', '报告类型:', 'METAR 航空例行天气报告', '露点:', '-2.0°C', '下午10:00', '14°C', '1,028毫巴', '每小时14.4公里, 北', '10.00公里', '部分多云 (1,311米)', '本地:', '22:00、2019年11月17日周日', '协调世界时:', '14:00、2019年11月17日周日', '来源:', '周期文件', '趋势:', '无重要变化', '露点:', '0°C', '原始:', 'ZUUU 171400Z 02004MPS 9999 SCT043 14/M00 Q1028 NOSIG', '下午10:00', '14.0°C', '1,028毫巴', '每小时14.4公里, 北', '10.00公里', '部分多云 (1,311米)', '本地:', '22:00、2019年11月17日周日', '协调世界时:', '14:00、2019年11月17日周日', '来源:', 'USAF 每小时地面观测', '报告类型:', 'METAR 航空例行天气报告', '露点:', '0.0°C', '下午11:00', '15°C', '1,029毫巴', '每小时21.6公里, 东北', '10.00公里', '大部分多云 (1,311米)', '本地:', '23:00、2019年11月17日周日', '协调世界时:', '15:00、2019年11月17日周日', '来源:', '周期文件', '趋势:', '无重要变化', '露点:', '-4°C', '原始:', 'ZUUU 171500Z 05006MPS 9999 BKN043 15/M04 Q1029 NOSIG', '下午11:00', '15.0°C', '1,029毫巴', '每小时21.6公里, 东北', '10.00公里', '大部分多云 (1,311米)', '本地:', '23:00、2019年11月17日周日', '协调世界时:', '15:00、2019年11月17日周日', '来源:', 'USAF 每小时地面观测', '报告类型:', 'METAR 航空例行天气报告', '露点:', '-4.0°C']