['Mist', 'BR', 'Mist', 'BR', 'Mist', 'BR', 'Mist', 'BR', 'Mist', 'BR', 'Mist', 'BR', 'Mist', 'BR', 'Mist', 'BR', 'Mist', 'BR、IWC10', 'Mist', 'BR、IWC10', 'Mist', 'BR、IWC10', 'Mist', 'BR、IWC10', 'Showers of Light Rain', '-SHRA、IWC80', '上午12:00', '4°C', '1,036毫巴', '每小时0公里', '4.50公里', '部分多云 (792米)', '本地:', '00:00、2019年1月1日周二', '协调世界时:', '16:00、2018年12月31日周一', '来源:', '周期文件', '趋势:', '无重要变化', '露点:', '2°C', '天气:', 'Mist', '原始:', 'ZUUU 311600Z 00000MPS 4500 BR SCT026 04/02 Q1036 NOSIG', '上午1:00', '3°C', '1,035毫巴', '每小时3.60公里', '4.50公里', '部分多云 (792米)', '本地:', '01:00、2019年1月1日周二', '协调世界时:', '17:00、2018年12月31日周一', '来源:', '周期文件', '趋势:', '无重要变化', '露点:', '2°C', '天气:', 'Mist', '原始:', 'ZUUU 311700Z VRB01MPS 4500 BR SCT026 03/02 Q1035 NOSIG', '上午2:00', '3°C', '1,035毫巴', '每小时0公里', '4.50公里', '部分多云 (1,219米)', '本地:', '02:00、2019年1月1日周二', '协调世界时:', '18:00、2018年12月31日周一', '来源:', '周期文件', '趋势:', '无重要变化', '露点:', '3°C', '天气:', 'Mist', '原始:', 'ZUUU 311800Z 00000MPS 4500 BR SCT040 03/03 Q1035 NOSIG', '上午3:00', '3°C', '1,035毫巴', '每小时0公里', '4.50公里', '部分多云 (1,219米)', '本地:', '03:00、2019年1月1日周二', '协调世界时:', '19:00、2018年12月31日周一', '来源:', '周期文件', '趋势:', '无重要变化', '露点:', '3°C', '天气:', 'Mist', '原始:', 'ZUUU 311900Z 00000MPS 4500 BR SCT040 03/03 Q1035 NOSIG', '上午4:00', '3°C', '1,034毫巴', '每小时0公里', '4.50公里', '部分多云 (1,219米)', '本地:', '04:00、2019年1月1日周二', '协调世界时:', '20:00、2018年12月31日周一', '来源:', '周期文件', '趋势:', '无重要变化', '露点:', '2°C', '天气:', 'Mist', '原始:', 'ZUUU 312000Z 00000MPS 4500 BR SCT040 03/02 Q1034 NOSIG', '上午5:00', '3°C', '1,034毫巴', '每小时0公里', '4.50公里', '部分多云 (1,219米)', '本地:', '05:00、2019年1月1日周二', '协调世界时:', '21:00、2018年12月31日周一', '来源:', '周期文件', '趋势:', '无重要变化', '露点:', '2°C', '天气:', 'Mist', '原始:', 'ZUUU 312100Z 00000MPS 4500 BR SCT040 03/02 Q1034 NOSIG', '上午6:00', '3°C', '1,033毫巴', '每小时0公里', '4.50公里', '部分多云 (1,219米)', '本地:', '06:00、2019年1月1日周二', '协调世界时:', '22:00、2018年12月31日周一', '来源:', '周期文件', '趋势:', '无重要变化', '露点:', '2°C', '天气:', 'Mist', '原始:', 'ZUUU 312200Z 00000MPS 4500 BR SCT040 03/02 Q1033 NOSIG', '上午7:00', '3°C', '1,033毫巴', '每小时0公里', '4.00公里', '部分多云 (1,219米)', '本地:', '07:00、2019年1月1日周二', '协调世界时:', '23:00、2018年12月31日周一', '来源:', '周期文件', '趋势:', '无重要变化', '露点:', '3°C', '其他云层:', '大部分晴天 (701米)', '天气:', 'Mist', '原始:', 'ZUUU 312300Z 00000MPS 4000 BR FEW023 SCT040 03/03 Q1033 NOSIG', '上午8:00', '3°C', '1,034毫巴', '每小时3.60公里, 西南', '3.50公里', '部分多云 (1,219米)', '本地:', '08:00、2019年1月1日周二', '协调世界时:', '00:00、2019年1月1日周二', '来源:', '周期文件', '趋势:', '无重要变化', '露点:', '3°C', '其他云层:', '大部分晴天 (792米)', '天气:', 'Mist', '原始:', 'ZUUU 010000Z 24001MPS 3500 BR FEW026 SCT040 03/03 Q1034 NOSIG', '上午8:00', '3.0°C', '1,034毫巴', '每小时3.60公里, 西南', '3.50公里', '部分多云 (1,219米)', '本地:', '08:00、2019年1月1日周二', '协调世界时:', '00:00、2019年1月1日周二', '来源:', 'USAF 每小时地面观测', '报告类型:', 'METAR 航空例行天气报告', '露点:', '3.0°C', '其他云层:', '大部分晴天 (792米)', '天气:', 'Mist', '上午9:00', '3°C', '1,035毫巴', '每小时0公里', '2.50公里', '部分多云 (1,524米)', '本地:', '09:00、2019年1月1日周二', '协调世界时:', '01:00、2019年1月1日周二', '来源:', '周期文件', '趋势:', '无重要变化', '露点:', '3°C', '其他云层:', '大部分晴天 (792米)', '天气:', 'Mist', '原始:', 'ZUUU 010100Z 00000MPS 2500 BR FEW026 SCT050 03/03 Q1035 NOSIG', '上午9:00', '3.0°C', '1,035毫巴', '每小时0公里', '2.50公里', '部分多云 (1,524米)', '本地:', '09:00、2019年1月1日周二', '协调世界时:', '01:00、2019年1月1日周二', '来源:', 'USAF 每小时地面观测', '报告类型:', 'METAR 航空例行天气报告', '露点:', '3.0°C', '其他云层:', '大部分晴天 (792米)', '天气:', 'Mist', '上午10:00', '4°C', '1,035毫巴', '每小时0公里', '2.70公里', '部分多云 (1,219米)', '本地:', '10:00、2019年1月1日周二', '协调世界时:', '02:00、2019年1月1日周二', '来源:', '周期文件', '趋势:', '变化为', '露点:', '3°C', '其他云层:', '大部分晴天 (792米)', '天气:', 'Mist', '原始:', 'ZUUU 010200Z 00000MPS 2700 BR FEW026 SCT040 04/03 Q1035 BECMG TL0300 3000', '上午10:00', '4.0°C', '1,035毫巴', '每小时0公里', '2.70公里', '部分多云 (1,219米)', '本地:', '10:00、2019年1月1日周二', '协调世界时:', '02:00、2019年1月1日周二', '来源:', 'USAF 每小时地面观测', '报告类型:', 'METAR 航空例行天气报告', '露点:', '3.0°C', '其他云层:', '大部分晴天 (792米)', '天气:', 'Mist', '上午11:00', '5°C', '1,035毫巴', '每小时0公里', '5.00公里', '大部分晴天 (610米)', '本地:', '11:00、2019年1月1日周二', '协调世界时:', '03:00、2019年1月1日周二', '来源:', '周期文件', '趋势:', '无重要变化', '露点:', '3°C', '天气:', 'Mist', '原始:', 'ZUUU 010300Z 00000MPS 5000 BR FEW020 05/03 Q1035 NOSIG', '上午11:00', '5.0°C', '1,035毫巴', '每小时0公里', '5.00公里', '大部分晴天 (610米)', '本地:', '11:00、2019年1月1日周二', '协调世界时:', '03:00、2019年1月1日周二', '来源:', 'USAF 每小时地面观测', '报告类型:', 'METAR 航空例行天气报告', '露点:', '3.0°C', '天气:', 'Mist', '下午12:00', '6°C', '1,034毫巴', '每小时0公里', '8.00公里', '部分多云 (792米)', '本地:', '12:00、2019年1月1日周二', '协调世界时:', '04:00、2019年1月1日周二', '来源:', '周期文件', '趋势:', '无重要变化', '露点:', '2°C', '其他云层:', '大部分晴天 (488米)', '原始:', 'ZUUU 010400Z 00000MPS 8000 FEW016 SCT026 06/02 Q1034 NOSIG', '下午12:00', '6.0°C', '1,034毫巴', '每小时0公里', '8.00公里', '部分多云 (792米)', '本地:', '12:00、2019年1月1日周二', '协调世界时:', '04:00、2019年1月1日周二', '来源:', 'USAF 每小时地面观测', '报告类型:', 'METAR 航空例行天气报告', '露点:', '2.0°C', '其他云层:', '大部分晴天 (488米)', '下午1:00', '7°C', '1,032毫巴', '每小时3.60公里', '8.00公里', '部分多云 (792米)', '本地:', '13:00、2019年1月1日周二', '协调世界时:', '05:00、2019年1月1日周二', '来源:', '周期文件', '趋势:', '无重要变化', '露点:', '1°C', '其他云层:', '部分多云 (1,006米)', '原始:', 'ZUUU 010500Z VRB01MPS 8000 SCT026 SCT033 07/01 Q1032 NOSIG', '下午1:00', '7.0°C', '1,032毫巴', '每小时3.60公里', '8.00公里', '部分多云 (792米)', '本地:', '13:00、2019年1月1日周二', '协调世界时:', '05:00、2019年1月1日周二', '来源:', 'USAF 每小时地面观测', '报告类型:', 'METAR 航空例行天气报告', '露点:', '1.0°C', '其他云层:', '部分多云 (1,006米)', '下午2:00', '6°C', '1,030毫巴', '每小时3.60公里', '10.00公里', '部分多云 (792米)', '本地:', '14:00、2019年1月1日周二', '协调世界时:', '06:00、2019年1月1日周二', '来源:', '周期文件', '趋势:', '无重要变化', '露点:', '1°C', '其他云层:', '部分多云 (1,219米)', '天气:', 'Showers of Light Rain', '原始:', 'ZUUU 010600Z VRB01MPS 9999 -SHRA SCT026 SCT040 06/01 Q1030 NOSIG', '下午2:00', '6.0°C', '1,030毫巴', '每小时3.60公里', '10.00公里', '部分多云 (792米)', '本地:', '14:00、2019年1月1日周二', '协调世界时:', '06:00、2019年1月1日周二', '来源:', 'USAF 每小时地面观测', '报告类型:', 'METAR 航空例行天气报告', '露点:', '1.0°C', '其他云层:', '部分多云 (1,219米)', '天气:', 'Showers of Light Rain', '下午3:00', '6°C', '1,030毫巴', '每小时0公里', '10.00公里', '大部分多云 (1,219米)', '本地:', '15:00、2019年1月1日周二', '协调世界时:', '07:00、2019年1月1日周二', '来源:', '周期文件', '趋势:', '无重要变化', '露点:', '1°C', '其他云层:', '大部分晴天 (792米)', '原始:', 'ZUUU 010700Z 00000MPS 9999 FEW026 BKN040 06/01 Q1030 NOSIG', '下午3:00', '6.0°C', '1,030毫巴', '每小时0公里', '10.00公里', '大部分多云 (1,219米)', '本地:', '15:00、2019年1月1日周二', '协调世界时:', '07:00、2019年1月1日周二', '来源:', 'USAF 每小时地面观测', '报告类型:', 'METAR 航空例行天气报告', '露点:', '1.0°C', '其他云层:', '大部分晴天 (792米)', '下午4:00', '6°C', '1,030毫巴', '每小时3.60公里', '8.00公里', '大部分多云 (1,219米)', '本地:', '16:00、2019年1月1日周二', '协调世界时:', '08:00、2019年1月1日周二', '来源:', '周期文件', '趋势:', '无重要变化', '露点:', '1°C', '其他云层:', '大部分晴天 (792米)', '原始:', 'ZUUU 010800Z VRB01MPS 8000 FEW026 BKN040 06/01 Q1030 NOSIG', '下午4:00', '6.0°C', '1,030毫巴', '每小时3.60公里', '8.00公里', '大部分多云 (1,219米)', '本地:', '16:00、2019年1月1日周二', '协调世界时:', '08:00、2019年1月1日周二', '来源:', 'USAF 每小时地面观测', '报告类型:', 'METAR 航空例行天气报告', '露点:', '1.0°C', '其他云层:', '大部分晴天 (792米)', '下午5:00', '6°C', '1,031毫巴', '每小时3.60公里', '8.00公里', '大部分多云 (1,219米)', '本地:', '17:00、2019年1月1日周二', '协调世界时:', '09:00、2019年1月1日周二', '来源:', '周期文件', '趋势:', '无重要变化', '露点:', '1°C', '原始:', 'ZUUU 010900Z VRB01MPS 8000 BKN040 06/01 Q1031 NOSIG', '下午5:00', '6.0°C', '1,031毫巴', '每小时3.60公里', '8.00公里', '大部分多云 (1,219米)', '本地:', '17:00、2019年1月1日周二', '协调世界时:', '09:00、2019年1月1日周二', '来源:', 'USAF 每小时地面观测', '报告类型:', 'METAR 航空例行天气报告', '露点:', '1.0°C', '下午6:00', '6°C', '1,032毫巴', '每小时0公里', '7.00公里', '部分多云 (1,524米)', '本地:', '18:00、2019年1月1日周二', '协调世界时:', '10:00、2019年1月1日周二', '来源:', '周期文件', '趋势:', '无重要变化', '露点:', '0°C', '原始:', 'ZUUU 011000Z 00000MPS 7000 SCT050 06/00 Q1032 NOSIG', '下午6:00', '6.0°C', '1,032毫巴', '每小时0公里', '7.00公里', '部分多云 (1,524米)', '本地:', '18:00、2019年1月1日周二', '协调世界时:', '10:00、2019年1月1日周二', '来源:', 'USAF 每小时地面观测', '报告类型:', 'METAR 航空例行天气报告', '露点:', '0.0°C', '下午7:00', '5°C', '1,033毫巴', '每小时3.60公里', '8.00公里', '部分多云 (1,524米)', '本地:', '19:00、2019年1月1日周二', '协调世界时:', '11:00、2019年1月1日周二', '来源:', '周期文件', '趋势:', '无重要变化', '露点:', '2°C', '原始:', 'ZUUU 011100Z VRB01MPS 8000 SCT050 05/02 Q1033 NOSIG', '下午7:00', '5.0°C', '1,033毫巴', '每小时3.60公里', '8.00公里', '部分多云 (1,524米)', '本地:', '19:00、2019年1月1日周二', '协调世界时:', '11:00、2019年1月1日周二', '来源:', 'USAF 每小时地面观测', '报告类型:', 'METAR 航空例行天气报告', '露点:', '2.0°C', '下午8:00', '5°C', '1,033毫巴', '每小时3.60公里', '10.00公里', '部分多云 (1,524米)', '本地:', '20:00、2019年1月1日周二', '协调世界时:', '12:00、2019年1月1日周二', '来源:', '周期文件', '趋势:', '无重要变化', '露点:', '2°C', '原始:', 'ZUUU 011200Z VRB01MPS 9999 SCT050 05/02 Q1033 NOSIG', '下午8:00', '5.0°C', '1,033毫巴', '每小时3.60公里', '10.00公里', '部分多云 (1,524米)', '本地:', '20:00、2019年1月1日周二', '协调世界时:', '12:00、2019年1月1日周二', '来源:', 'USAF 每小时地面观测', '报告类型:', 'METAR 航空例行天气报告', '露点:', '2.0°C', '下午9:00', '5°C', '1,033毫巴', '每小时0公里', '10.00公里', '部分多云 (1,524米)', '本地:', '21:00、2019年1月1日周二', '协调世界时:', '13:00、2019年1月1日周二', '来源:', '周期文件', '趋势:', '无重要变化', '露点:', '2°C', '原始:', 'ZUUU 011300Z 00000MPS 9999 SCT050 05/02 Q1033 NOSIG', '下午9:00', '5.0°C', '1,033毫巴', '每小时0公里', '10.00公里', '部分多云 (1,524米)', '本地:', '21:00、2019年1月1日周二', '协调世界时:', '13:00、2019年1月1日周二', '来源:', 'USAF 每小时地面观测', '报告类型:', 'METAR 航空例行天气报告', '露点:', '2.0°C', '下午10:00', '5°C', '1,034毫巴', '每小时3.60公里', '10.00公里', '部分多云 (1,524米)', '本地:', '22:00、2019年1月1日周二', '协调世界时:', '14:00、2019年1月1日周二', '来源:', '周期文件', '趋势:', '无重要变化', '露点:', '2°C', '原始:', 'ZUUU 011400Z VRB01MPS 9999 SCT050 05/02 Q1034 NOSIG', '下午10:00', '5.0°C', '1,034毫巴', '每小时3.60公里', '10.00公里', '部分多云 (1,524米)', '本地:', '22:00、2019年1月1日周二', '协调世界时:', '14:00、2019年1月1日周二', '来源:', 'USAF 每小时地面观测', '报告类型:', 'METAR 航空例行天气报告', '露点:', '2.0°C', '下午11:00', '5°C', '1,034毫巴', '每小时3.60公里', '10.00公里', '部分多云 (1,524米)', '本地:', '23:00、2019年1月1日周二', '协调世界时:', '15:00、2019年1月1日周二', '来源:', '周期文件', '趋势:', '无重要变化', '露点:', '2°C', '原始:', 'ZUUU 011500Z VRB01MPS 9999 SCT050 05/02 Q1034 NOSIG', '下午11:00', '5.0°C', '1,034毫巴', '每小时3.60公里', '10.00公里', '部分多云 (1,524米)', '本地:', '23:00、2019年1月1日周二', '协调世界时:', '15:00、2019年1月1日周二', '来源:', 'USAF 每小时地面观测', '报告类型:', 'METAR 航空例行天气报告', '露点:', '2.0°C']