['Mist', 'BR、IWC10', 'Mist', 'BR、IWC10', 'Mist', 'BR、IWC10', 'Mist', 'BR、IWC10', 'Mist', 'BR、IWC10', 'Mist', 'BR、IWC10', 'Mist', 'BR、IWC10', 'Mist', 'BR、IWC10', 'Mist', 'BR、IWC10', 'Mist', 'BR、IWC10', 'Mist', 'BR、IWC10', 'Mist', 'BR、IWC10', 'Haze', 'HZ、IWC05', 'Haze', 'HZ、IWC05', 'Haze', 'HZ、IWC05', 'Haze', 'HZ、IWC05', 'Haze', 'HZ、IWC05', 'Haze', 'HZ、IWC05', 'Haze', 'HZ、IWC05', 'Haze', 'HZ、IWC05', 'Haze', 'HZ、IWC05', 'Haze', 'HZ、IWC05', 'Mist', 'BR、IWC10', '上午12:00', '21°C', '1,007毫巴', '每小时3.60公里', '5.00公里', '大部分晴天 (1,524米)', '本地:', '00:00、2019年4月18日周四', '协调世界时:', '16:00、2019年4月17日周三', '来源:', '周期文件', '趋势:', '无重要变化', '露点:', '16°C', '天气:', 'Mist', '原始:', 'ZUUU 171600Z VRB01MPS 5000 BR FEW050 21/16 Q1007 NOSIG', '上午12:00', '21.0°C', '1,007毫巴', '每小时3.60公里', '5.00公里', '大部分晴天 (1,524米)', '本地:', '00:00、2019年4月18日周四', '协调世界时:', '16:00、2019年4月17日周三', '来源:', 'USAF 每小时地面观测', '报告类型:', 'METAR 航空例行天气报告', '露点:', '16.0°C', '天气:', 'Mist', '上午1:00', '20°C', '1,006毫巴', '每小时3.60公里, 北', '5.00公里', '大部分晴天 (1,524米)', '本地:', '01:00、2019年4月18日周四', '协调世界时:', '17:00、2019年4月17日周三', '来源:', '周期文件', '趋势:', '无重要变化', '露点:', '16°C', '天气:', 'Mist', '原始:', 'ZUUU 171700Z 35001MPS 5000 BR FEW050 20/16 Q1006 NOSIG', '上午1:00', '20.0°C', '1,006毫巴', '每小时3.60公里, 北', '5.00公里', '大部分晴天 (1,524米)', '本地:', '01:00、2019年4月18日周四', '协调世界时:', '17:00、2019年4月17日周三', '来源:', 'USAF 每小时地面观测', '报告类型:', 'METAR 航空例行天气报告', '露点:', '16.0°C', '天气:', 'Mist', '上午2:00', '19°C', '1,006毫巴', '每小时0公里', '5.00公里', '大部分晴天 (1,524米)', '本地:', '02:00、2019年4月18日周四', '协调世界时:', '18:00、2019年4月17日周三', '来源:', '周期文件', '趋势:', '无重要变化', '露点:', '17°C', '天气:', 'Mist', '原始:', 'ZUUU 171800Z 00000MPS 5000 BR FEW050 19/17 Q1006 NOSIG', '上午2:00', '19.0°C', '1,006毫巴', '每小时0公里', '5.00公里', '大部分晴天 (1,524米)', '本地:', '02:00、2019年4月18日周四', '协调世界时:', '18:00、2019年4月17日周三', '来源:', 'USAF 每小时地面观测', '报告类型:', 'METAR 航空例行天气报告', '露点:', '17.0°C', '天气:', 'Mist', '上午3:00', '20°C', '1,005毫巴', '每小时0公里', '5.00公里', '大部分晴天 (1,524米)', '本地:', '03:00、2019年4月18日周四', '协调世界时:', '19:00、2019年4月17日周三', '来源:', '周期文件', '趋势:', '无重要变化', '露点:', '17°C', '天气:', 'Mist', '原始:', 'ZUUU 171900Z 00000MPS 5000 BR FEW050 20/17 Q1005 NOSIG', '上午3:00', '20.0°C', '1,005毫巴', '每小时0公里', '5.00公里', '大部分晴天 (1,524米)', '本地:', '03:00、2019年4月18日周四', '协调世界时:', '19:00、2019年4月17日周三', '来源:', 'USAF 每小时地面观测', '报告类型:', 'METAR 航空例行天气报告', '露点:', '17.0°C', '天气:', 'Mist', '上午4:00', '19°C', '1,005毫巴', '每小时0公里', '5.00公里', '大部分晴天 (1,311米)', '本地:', '04:00、2019年4月18日周四', '协调世界时:', '20:00、2019年4月17日周三', '来源:', '周期文件', '趋势:', '无重要变化', '露点:', '17°C', '天气:', 'Mist', '原始:', 'ZUUU 172000Z 00000MPS 5000 BR FEW043 19/17 Q1005 NOSIG', '上午4:00', '19.0°C', '1,005毫巴', '每小时0公里', '5.00公里', '大部分晴天 (1,311米)', '本地:', '04:00、2019年4月18日周四', '协调世界时:', '20:00、2019年4月17日周三', '来源:', 'USAF 每小时地面观测', '报告类型:', 'METAR 航空例行天气报告', '露点:', '17.0°C', '天气:', 'Mist', '上午5:00', '19°C', '1,005毫巴', '每小时0公里', '4.50公里', '大部分晴天 (1,311米)', '本地:', '05:00、2019年4月18日周四', '协调世界时:', '21:00、2019年4月17日周三', '来源:', '周期文件', '趋势:', '无重要变化', '露点:', '17°C', '天气:', 'Mist', '原始:', 'ZUUU 172100Z 00000MPS 4500 BR FEW043 19/17 Q1005 NOSIG', '上午5:00', '19.0°C', '1,005毫巴', '每小时0公里', '4.50公里', '大部分晴天 (1,311米)', '本地:', '05:00、2019年4月18日周四', '协调世界时:', '21:00、2019年4月17日周三', '来源:', 'USAF 每小时地面观测', '报告类型:', 'METAR 航空例行天气报告', '露点:', '17.0°C', '天气:', 'Mist', '上午6:00', '19°C', '1,005毫巴', '每小时0公里', '4.50公里', '大部分晴天 (1,311米)', '本地:', '06:00、2019年4月18日周四', '协调世界时:', '22:00、2019年4月17日周三', '来源:', '周期文件', '趋势:', '无重要变化', '露点:', '17°C', '天气:', 'Mist', '原始:', 'ZUUU 172200Z 00000MPS 4500 BR FEW043 19/17 Q1005 NOSIG', '上午6:00', '19.0°C', '1,005毫巴', '每小时0公里', '4.50公里', '大部分晴天 (1,311米)', '本地:', '06:00、2019年4月18日周四', '协调世界时:', '22:00、2019年4月17日周三', '来源:', 'USAF 每小时地面观测', '报告类型:', 'METAR 航空例行天气报告', '露点:', '17.0°C', '天气:', 'Mist', '上午7:00', '19°C', '1,005毫巴', '每小时0公里', '2.70公里', '大部分晴天 (1,311米)', '本地:', '07:00、2019年4月18日周四', '协调世界时:', '23:00、2019年4月17日周三', '来源:', '周期文件', '趋势:', '变化为', '露点:', '17°C', '天气:', 'Mist', '原始:', 'ZUUU 172300Z 00000MPS 2700 BR FEW043 19/17 Q1005 BECMG TL0100 3500', '上午7:00', '19.0°C', '1,005毫巴', '每小时0公里', '2.70公里', '大部分晴天 (1,311米)', '本地:', '07:00、2019年4月18日周四', '协调世界时:', '23:00、2019年4月17日周三', '来源:', 'USAF 每小时地面观测', '报告类型:', 'METAR 航空例行天气报告', '露点:', '17.0°C', '天气:', 'Mist', '上午8:00', '19°C', '1,006毫巴', '每小时0公里', '2.70公里', '大部分晴天 (1,311米)', '本地:', '08:00、2019年4月18日周四', '协调世界时:', '00:00、2019年4月18日周四', '来源:', '周期文件', '趋势:', '变化为', '露点:', '18°C', '天气:', 'Mist', '原始:', 'ZUUU 180000Z 00000MPS 2700 BR FEW043 19/18 Q1006 BECMG TL0100 3500', '上午8:00', '19.0°C', '1,006毫巴', '每小时0公里', '2.70公里', '大部分晴天 (1,311米)', '本地:', '08:00、2019年4月18日周四', '协调世界时:', '00:00、2019年4月18日周四', '来源:', 'USAF 每小时地面观测', '报告类型:', 'METAR 航空例行天气报告', '露点:', '18.0°C', '天气:', 'Mist', '上午9:00', '20°C', '1,006毫巴', '每小时0公里', '3.00公里', '部分多云 (1,524米)', '本地:', '09:00、2019年4月18日周四', '协调世界时:', '01:00、2019年4月18日周四', '来源:', '周期文件', '趋势:', '无重要变化', '露点:', '17°C', '天气:', 'Mist', '原始:', 'ZUUU 180100Z 00000MPS 3000 BR SCT050 20/17 Q1006 NOSIG', '上午9:00', '20.0°C', '1,006毫巴', '每小时0公里', '3.00公里', '部分多云 (1,524米)', '本地:', '09:00、2019年4月18日周四', '协调世界时:', '01:00、2019年4月18日周四', '来源:', 'USAF 每小时地面观测', '报告类型:', 'METAR 航空例行天气报告', '露点:', '17.0°C', '天气:', 'Mist', '上午10:00', '21°C', '1,007毫巴', '每小时3.60公里', '3.20公里', '部分多云 (1,524米)', '本地:', '10:00、2019年4月18日周四', '协调世界时:', '02:00、2019年4月18日周四', '来源:', '周期文件', '趋势:', '无重要变化', '露点:', '17°C', '天气:', 'Mist', '原始:', 'ZUUU 180200Z VRB01MPS 3200 BR SCT050 21/17 Q1007 NOSIG', '上午10:00', '21.0°C', '1,007毫巴', '每小时3.60公里', '3.20公里', '部分多云 (1,524米)', '本地:', '10:00、2019年4月18日周四', '协调世界时:', '02:00、2019年4月18日周四', '来源:', 'USAF 每小时地面观测', '报告类型:', 'METAR 航空例行天气报告', '露点:', '17.0°C', '天气:', 'Mist', '上午11:00', '22°C', '1,007毫巴', '每小时0公里', '3.50公里', '部分多云 (1,524米)', '本地:', '11:00、2019年4月18日周四', '协调世界时:', '03:00、2019年4月18日周四', '来源:', '周期文件', '趋势:', '无重要变化', '露点:', '17°C', '天气:', 'Mist', '原始:', 'ZUUU 180300Z 00000MPS 3500 BR SCT050 22/17 Q1007 NOSIG', '上午11:00', '22.0°C', '1,007毫巴', '每小时0公里', '3.50公里', '部分多云 (1,524米)', '本地:', '11:00、2019年4月18日周四', '协调世界时:', '03:00、2019年4月18日周四', '来源:', 'USAF 每小时地面观测', '报告类型:', 'METAR 航空例行天气报告', '露点:', '17.0°C', '天气:', 'Mist', '下午12:00', '24°C', '1,006毫巴', '每小时3.60公里', '4.00公里', '大部分晴天 (1,524米)', '本地:', '12:00、2019年4月18日周四', '协调世界时:', '04:00、2019年4月18日周四', '来源:', '周期文件', '趋势:', '无重要变化', '露点:', '17°C', '天气:', 'Haze', '原始:', 'ZUUU 180400Z VRB01MPS 4000 HZ FEW050 24/17 Q1006 NOSIG', '下午12:00', '24.0°C', '1,006毫巴', '每小时3.60公里', '4.00公里', '大部分晴天 (1,524米)', '本地:', '12:00、2019年4月18日周四', '协调世界时:', '04:00、2019年4月18日周四', '来源:', 'USAF 每小时地面观测', '报告类型:', 'METAR 航空例行天气报告', '露点:', '17.0°C', '天气:', 'Haze', '下午1:00', '25°C', '1,005毫巴', '每小时3.60公里', '5.00公里', '大部分晴天 (1,524米)', '本地:', '13:00、2019年4月18日周四', '协调世界时:', '05:00、2019年4月18日周四', '来源:', '周期文件', '趋势:', '无重要变化', '露点:', '17°C', '天气:', 'Haze', '原始:', 'ZUUU 180500Z VRB01MPS 5000 HZ FEW050 25/17 Q1005 NOSIG', '下午1:00', '25.0°C', '1,005毫巴', '每小时3.60公里', '5.00公里', '大部分晴天 (1,524米)', '本地:', '13:00、2019年4月18日周四', '协调世界时:', '05:00、2019年4月18日周四', '来源:', 'USAF 每小时地面观测', '报告类型:', 'METAR 航空例行天气报告', '露点:', '17.0°C', '天气:', 'Haze', '下午2:00', '26°C', '1,004毫巴', '每小时7.20公里, 东', '5.00公里', '大部分晴天 (1,524米)', '本地:', '14:00、2019年4月18日周四', '协调世界时:', '06:00、2019年4月18日周四', '来源:', '周期文件', '趋势:', '无重要变化', '露点:', '16°C', '天气:', 'Haze', '原始:', 'ZUUU 180600Z 09002MPS 340V150 5000 HZ FEW050 26/16 Q1004 NOSIG', '下午2:00', '26.0°C', '1,004毫巴', '每小时7.20公里, 东', '5.00公里', '大部分晴天 (1,524米)', '本地:', '14:00、2019年4月18日周四', '协调世界时:', '06:00、2019年4月18日周四', '来源:', 'USAF 每小时地面观测', '报告类型:', 'METAR 航空例行天气报告', '露点:', '16.0°C', '天气:', 'Haze', '下午3:00', '27°C', '1,003毫巴', '每小时7.20公里, 东', '5.00公里', '部分多云 (1,524米)', '本地:', '15:00、2019年4月18日周四', '协调世界时:', '07:00、2019年4月18日周四', '来源:', '周期文件', '趋势:', '无重要变化', '露点:', '16°C', '天气:', 'Haze', '原始:', 'ZUUU 180700Z 08002MPS 010V140 5000 HZ SCT050 27/16 Q1003 NOSIG', '下午3:00', '27.0°C', '1,003毫巴', '每小时7.20公里, 东', '5.00公里', '部分多云 (1,524米)', '本地:', '15:00、2019年4月18日周四', '协调世界时:', '07:00、2019年4月18日周四', '来源:', 'USAF 每小时地面观测', '报告类型:', 'METAR 航空例行天气报告', '露点:', '16.0°C', '天气:', 'Haze', '下午4:00', '27°C', '1,003毫巴', '每小时3.60公里', '5.00公里', '部分多云 (1,524米)', '本地:', '16:00、2019年4月18日周四', '协调世界时:', '08:00、2019年4月18日周四', '来源:', '周期文件', '趋势:', '无重要变化', '露点:', '17°C', '其他云层:', '大部分晴天 (914米)', '天气:', 'Haze', '原始:', 'ZUUU 180800Z VRB01MPS 5000 HZ FEW030 SCT050 27/17 Q1003 NOSIG', '下午4:00', '27.0°C', '1,003毫巴', '每小时3.60公里', '5.00公里', '部分多云 (1,524米)', '本地:', '16:00、2019年4月18日周四', '协调世界时:', '08:00、2019年4月18日周四', '来源:', 'USAF 每小时地面观测', '报告类型:', 'METAR 航空例行天气报告', '露点:', '17.0°C', '其他云层:', '大部分晴天 (914米)', '天气:', 'Haze', '下午5:00', '27°C', '1,002毫巴', '每小时3.60公里', '5.00公里', '大部分晴天 (1,524米)', '本地:', '17:00、2019年4月18日周四', '协调世界时:', '09:00、2019年4月18日周四', '来源:', '周期文件', '趋势:', '无重要变化', '露点:', '16°C', '天气:', 'Haze', '原始:', 'ZUUU 180900Z VRB01MPS 5000 HZ FEW050 27/16 Q1002 NOSIG', '下午5:00', '27.0°C', '1,002毫巴', '每小时3.60公里', '5.00公里', '大部分晴天 (1,524米)', '本地:', '17:00、2019年4月18日周四', '协调世界时:', '09:00、2019年4月18日周四', '来源:', 'USAF 每小时地面观测', '报告类型:', 'METAR 航空例行天气报告', '露点:', '16.0°C', '天气:', 'Haze', '下午6:00', '26°C', '1,003毫巴', '每小时3.60公里, 西南', '6.00公里', '大部分晴天 (1,524米)', '本地:', '18:00、2019年4月18日周四', '协调世界时:', '10:00、2019年4月18日周四', '来源:', '周期文件', '趋势:', '无重要变化', '露点:', '17°C', '原始:', 'ZUUU 181000Z 22001MPS 6000 FEW050 26/17 Q1003 NOSIG', '下午6:00', '26.0°C', '1,003毫巴', '每小时3.60公里, 西南', '6.00公里', '大部分晴天 (1,524米)', '本地:', '18:00、2019年4月18日周四', '协调世界时:', '10:00、2019年4月18日周四', '来源:', 'USAF 每小时地面观测', '报告类型:', 'METAR 航空例行天气报告', '露点:', '17.0°C', '下午7:00', '26°C', '1,003毫巴', '每小时0公里', '5.00公里', '大部分晴天 (1,524米)', '本地:', '19:00、2019年4月18日周四', '协调世界时:', '11:00、2019年4月18日周四', '来源:', '周期文件', '趋势:', '无重要变化', '露点:', '17°C', '天气:', 'Haze', '原始:', 'ZUUU 181100Z 00000MPS 5000 HZ FEW050 26/17 Q1003 NOSIG', '下午7:00', '26.0°C', '1,003毫巴', '每小时0公里', '5.00公里', '大部分晴天 (1,524米)', '本地:', '19:00、2019年4月18日周四', '协调世界时:', '11:00、2019年4月18日周四', '来源:', 'USAF 每小时地面观测', '报告类型:', 'METAR 航空例行天气报告', '露点:', '17.0°C', '天气:', 'Haze', '下午8:00', '25°C', '1,004毫巴', '每小时0公里', '5.00公里', '大部分晴天 (1,524米)', '本地:', '20:00、2019年4月18日周四', '协调世界时:', '12:00、2019年4月18日周四', '来源:', '周期文件', '趋势:', '无重要变化', '露点:', '18°C', '天气:', 'Haze', '原始:', 'ZUUU 181200Z 00000MPS 5000 HZ FEW050 25/18 Q1004 NOSIG', '下午8:00', '25.0°C', '1,004毫巴', '每小时0公里', '5.00公里', '大部分晴天 (1,524米)', '本地:', '20:00、2019年4月18日周四', '协调世界时:', '12:00、2019年4月18日周四', '来源:', 'USAF 每小时地面观测', '报告类型:', 'METAR 航空例行天气报告', '露点:', '18.0°C', '天气:', 'Haze', '下午9:00', '24°C', '1,005毫巴', '每小时3.60公里', '5.00公里', '部分多云 (1,524米)', '本地:', '21:00、2019年4月18日周四', '协调世界时:', '13:00、2019年4月18日周四', '来源:', '周期文件', '趋势:', '无重要变化', '露点:', '18°C', '天气:', 'Haze', '原始:', 'ZUUU 181300Z VRB01MPS 5000 HZ SCT050 24/18 Q1005 NOSIG', '下午9:00', '24.0°C', '1,005毫巴', '每小时3.60公里', '5.00公里', '部分多云 (1,524米)', '本地:', '21:00、2019年4月18日周四', '协调世界时:', '13:00、2019年4月18日周四', '来源:', 'USAF 每小时地面观测', '报告类型:', 'METAR 航空例行天气报告', '露点:', '18.0°C', '天气:', 'Haze', '下午10:00', '24°C', '1,006毫巴', '每小时0公里', '5.00公里', '无重要云', '本地:', '22:00、2019年4月18日周四', '协调世界时:', '14:00、2019年4月18日周四', '来源:', '周期文件', '趋势:', '无重要变化', '露点:', '18°C', '天气:', 'Haze', '原始:', 'ZUUU 181400Z 00000MPS 5000 HZ NSC 24/18 Q1006 NOSIG', '下午10:00', '24.0°C', '1,006毫巴', '每小时0公里', '5.00公里', '未检测到云', '本地:', '22:00、2019年4月18日周四', '协调世界时:', '14:00、2019年4月18日周四', '来源:', 'USAF 每小时地面观测', '报告类型:', 'METAR 航空例行天气报告', '露点:', '18.0°C', '天气:', 'Haze', '下午11:00', '24°C', '1,006毫巴', '每小时3.60公里', '5.00公里', '无重要云', '本地:', '23:00、2019年4月18日周四', '协调世界时:', '15:00、2019年4月18日周四', '来源:', '周期文件', '趋势:', '无重要变化', '露点:', '18°C', '天气:', 'Mist', '原始:', 'ZUUU 181500Z VRB01MPS 5000 BR NSC 24/18 Q1006 NOSIG', '下午11:00', '24.0°C', '1,006毫巴', '每小时3.60公里', '5.00公里', '未检测到云', '本地:', '23:00、2019年4月18日周四', '协调世界时:', '15:00、2019年4月18日周四', '来源:', 'USAF 每小时地面观测', '报告类型:', 'METAR 航空例行天气报告', '露点:', '18.0°C', '天气:', 'Mist']