['Showers of Light Rain', '-SHRA、IWC80', 'Showers of Light Rain', '-SHRA、IWC80', 'Showers of Light Rain', '-SHRA、IWC80', '上午12:00', '26°C', '1,008毫巴', '每小时0公里', '10.00公里', '部分多云 (792米)', '本地:', '00:00、2019年6月8日周六', '协调世界时:', '16:00、2019年6月7日周五', '来源:', '周期文件', '趋势:', '无重要变化', '露点:', '23°C', '其他云层:', '大部分晴天 (792米)', '原始:', 'ZUUU 071600Z 00000MPS 9999 FEW026TCU SCT026 26/23 Q1008 NOSIG', '上午12:00', '26.0°C', '1,008毫巴', '每小时0公里', '10.00公里', '部分多云 (792米)', '本地:', '00:00、2019年6月8日周六', '协调世界时:', '16:00、2019年6月7日周五', '来源:', 'USAF 每小时地面观测', '报告类型:', 'METAR 航空例行天气报告', '露点:', '23.0°C', '其他云层:', '大部分晴天 (792米)', '上午1:00', '26°C', '1,007毫巴', '每小时10.8公里, 西', '10.00公里', '部分多云 (792米)', '本地:', '01:00、2019年6月8日周六', '协调世界时:', '17:00、2019年6月7日周五', '来源:', '周期文件', '趋势:', '无重要变化', '露点:', '21°C', '其他云层:', '大部分晴天 (792米)', '原始:', 'ZUUU 071700Z 28003MPS 240V330 9999 FEW026TCU SCT026 26/21 Q1007 NOSIG', '上午1:00', '26.0°C', '1,007毫巴', '每小时10.8公里, 西', '10.00公里', '部分多云 (792米)', '本地:', '01:00、2019年6月8日周六', '协调世界时:', '17:00、2019年6月7日周五', '来源:', 'USAF 每小时地面观测', '报告类型:', 'METAR 航空例行天气报告', '露点:', '21.0°C', '其他云层:', '大部分晴天 (792米)', '上午2:00', '26°C', '1,007毫巴', '每小时7.20公里, 西北', '10.00公里', '部分多云 (792米)', '本地:', '02:00、2019年6月8日周六', '协调世界时:', '18:00、2019年6月7日周五', '来源:', '周期文件', '趋势:', '无重要变化', '露点:', '21°C', '其他云层:', '大部分晴天 (792米)', '原始:', 'ZUUU 071800Z 30002MPS 250V350 9999 FEW026TCU SCT026 26/21 Q1007 NOSIG', '上午2:00', '26.0°C', '1,007毫巴', '每小时7.20公里, 西北', '10.00公里', '部分多云 (792米)', '本地:', '02:00、2019年6月8日周六', '协调世界时:', '18:00、2019年6月7日周五', '来源:', 'USAF 每小时地面观测', '报告类型:', 'METAR 航空例行天气报告', '露点:', '21.0°C', '其他云层:', '大部分晴天 (792米)', '上午3:00', '25°C', '1,006毫巴', '每小时3.60公里', '10.00公里', '大部分晴天 (1,219米)', '本地:', '03:00、2019年6月8日周六', '协调世界时:', '19:00、2019年6月7日周五', '来源:', '周期文件', '趋势:', '无重要变化', '露点:', '21°C', '原始:', 'ZUUU 071900Z VRB01MPS 9999 FEW040 25/21 Q1006 NOSIG', '上午3:00', '25.0°C', '1,006毫巴', '每小时3.60公里', '10.00公里', '大部分晴天 (1,219米)', '本地:', '03:00、2019年6月8日周六', '协调世界时:', '19:00、2019年6月7日周五', '来源:', 'USAF 每小时地面观测', '报告类型:', 'METAR 航空例行天气报告', '露点:', '21.0°C', '上午4:00', '25°C', '1,006毫巴', '每小时3.60公里', '≥ 10.00公里', '晴空万里', '本地:', '04:00、2019年6月8日周六', '协调世界时:', '20:00、2019年6月7日周五', '来源:', '周期文件', '趋势:', '无重要变化', '露点:', '20°C', '晴空万里:', '真', '原始:', 'ZUUU 072000Z VRB01MPS CAVOK 25/20 Q1006 NOSIG', '上午4:00', '25.0°C', '1,006毫巴', '每小时3.60公里', '-', '晴空万里', '本地:', '04:00、2019年6月8日周六', '协调世界时:', '20:00、2019年6月7日周五', '来源:', 'USAF 每小时地面观测', '报告类型:', 'METAR 航空例行天气报告', '露点:', '20.0°C', '晴空万里:', '真', '上午5:00', '24°C', '1,006毫巴', '每小时0公里', '≥ 10.00公里', '晴空万里', '本地:', '05:00、2019年6月8日周六', '协调世界时:', '21:00、2019年6月7日周五', '来源:', '周期文件', '趋势:', '无重要变化', '露点:', '21°C', '晴空万里:', '真', '原始:', 'ZUUU 072100Z 00000MPS CAVOK 24/21 Q1006 NOSIG', '上午5:00', '24.0°C', '1,006毫巴', '每小时0公里', '-', '晴空万里', '本地:', '05:00、2019年6月8日周六', '协调世界时:', '21:00、2019年6月7日周五', '来源:', 'USAF 每小时地面观测', '报告类型:', 'METAR 航空例行天气报告', '露点:', '21.0°C', '晴空万里:', '真', '上午6:00', '24°C', '1,007毫巴', '每小时3.60公里', '10.00公里', '大部分晴天 (396米)', '本地:', '06:00、2019年6月8日周六', '协调世界时:', '22:00、2019年6月7日周五', '来源:', '周期文件', '趋势:', '无重要变化', '露点:', '22°C', '天气:', 'Showers of Light Rain', '原始:', 'ZUUU 072200Z VRB01MPS 9999 -SHRA FEW013 24/22 Q1007 NOSIG', '上午6:00', '24.0°C', '1,007毫巴', '每小时3.60公里', '10.00公里', '大部分晴天 (396米)', '本地:', '06:00、2019年6月8日周六', '协调世界时:', '22:00、2019年6月7日周五', '来源:', 'USAF 每小时地面观测', '报告类型:', 'METAR 航空例行天气报告', '露点:', '22.0°C', '天气:', 'Showers of Light Rain', '上午7:00', '24°C', '1,007毫巴', '每小时7.20公里, 北', '10.00公里', '大部分多云 (1,219米)', '本地:', '07:00、2019年6月8日周六', '协调世界时:', '23:00、2019年6月7日周五', '来源:', '周期文件', '趋势:', '无重要变化', '露点:', '22°C', '原始:', 'ZUUU 072300Z 36002MPS 9999 BKN040 24/22 Q1007 NOSIG', '上午7:00', '24.0°C', '1,007毫巴', '每小时7.20公里, 北', '10.00公里', '大部分多云 (1,219米)', '本地:', '07:00、2019年6月8日周六', '协调世界时:', '23:00、2019年6月7日周五', '来源:', 'USAF 每小时地面观测', '报告类型:', 'METAR 航空例行天气报告', '露点:', '22.0°C', '上午8:00', '24°C', '1,008毫巴', '每小时7.20公里, 北', '10.00公里', '大部分多云 (1,219米)', '本地:', '08:00、2019年6月8日周六', '协调世界时:', '00:00、2019年6月8日周六', '来源:', '周期文件', '趋势:', '无重要变化', '露点:', '21°C', '原始:', 'ZUUU 080000Z 01002MPS 330V030 9999 BKN040 24/21 Q1008 NOSIG', '上午8:00', '24.0°C', '1,008毫巴', '每小时7.20公里, 北', '10.00公里', '大部分多云 (1,219米)', '本地:', '08:00、2019年6月8日周六', '协调世界时:', '00:00、2019年6月8日周六', '来源:', 'USAF 每小时地面观测', '报告类型:', 'METAR 航空例行天气报告', '露点:', '21.0°C', '上午9:00', '25°C', '1,008毫巴', '每小时3.60公里', '10.00公里', '大部分多云 (1,311米)', '本地:', '09:00、2019年6月8日周六', '协调世界时:', '01:00、2019年6月8日周六', '来源:', '周期文件', '趋势:', '无重要变化', '露点:', '22°C', '原始:', 'ZUUU 080100Z VRB01MPS 9999 BKN043 25/22 Q1008 NOSIG', '上午9:00', '25.0°C', '1,008毫巴', '每小时3.60公里', '10.00公里', '大部分多云 (1,311米)', '本地:', '09:00、2019年6月8日周六', '协调世界时:', '01:00、2019年6月8日周六', '来源:', 'USAF 每小时地面观测', '报告类型:', 'METAR 航空例行天气报告', '露点:', '22.0°C', '上午10:00', '25°C', '1,008毫巴', '每小时10.8公里, 西', '10.00公里', '大部分多云 (1,524米)', '本地:', '10:00、2019年6月8日周六', '协调世界时:', '02:00、2019年6月8日周六', '来源:', '周期文件', '趋势:', '无重要变化', '露点:', '22°C', '原始:', 'ZUUU 080200Z 26003MPS 230V290 9999 BKN050 25/22 Q1008 NOSIG', '上午10:00', '25.0°C', '1,008毫巴', '每小时10.8公里, 西', '10.00公里', '大部分多云 (1,524米)', '本地:', '10:00、2019年6月8日周六', '协调世界时:', '02:00、2019年6月8日周六', '来源:', 'USAF 每小时地面观测', '报告类型:', 'METAR 航空例行天气报告', '露点:', '22.0°C', '上午11:00', '25°C', '1,008毫巴', '每小时3.60公里', '10.00公里', '大部分多云 (1,524米)', '本地:', '11:00、2019年6月8日周六', '协调世界时:', '03:00、2019年6月8日周六', '来源:', '周期文件', '趋势:', '无重要变化', '露点:', '21°C', '原始:', 'ZUUU 080300Z VRB01MPS 9999 BKN050 25/21 Q1008 NOSIG', '上午11:00', '25.0°C', '1,008毫巴', '每小时3.60公里', '10.00公里', '大部分多云 (1,524米)', '本地:', '11:00、2019年6月8日周六', '协调世界时:', '03:00、2019年6月8日周六', '来源:', 'USAF 每小时地面观测', '报告类型:', 'METAR 航空例行天气报告', '露点:', '21.0°C', '下午12:00', '25°C', '1,008毫巴', '每小时7.20公里, 西南', '10.00公里', '部分多云 (1,219米)', '本地:', '12:00、2019年6月8日周六', '协调世界时:', '04:00、2019年6月8日周六', '来源:', '周期文件', '趋势:', '无重要变化', '露点:', '22°C', '其他云层:', '大部分晴天 (1,219米)', '原始:', 'ZUUU 080400Z 24002MPS 9999 FEW040TCU SCT040 25/22 Q1008 NOSIG', '下午12:00', '25.0°C', '1,008毫巴', '每小时7.20公里, 西南', '10.00公里', '部分多云 (1,219米)', '本地:', '12:00、2019年6月8日周六', '协调世界时:', '04:00、2019年6月8日周六', '来源:', 'USAF 每小时地面观测', '报告类型:', 'METAR 航空例行天气报告', '露点:', '22.0°C', '其他云层:', '大部分晴天 (1,219米)', '下午1:00', '25°C', '1,007毫巴', '每小时10.8公里, 西', '10.00公里', '部分多云 (1,219米)', '本地:', '13:00、2019年6月8日周六', '协调世界时:', '05:00、2019年6月8日周六', '来源:', '周期文件', '趋势:', '无重要变化', '露点:', '21°C', '其他云层:', '大部分晴天 (1,219米)', '天气:', 'Showers of Light Rain', '原始:', 'ZUUU 080500Z 26003MPS 240V300 9999 -SHRA FEW040TCU SCT040 25/21 Q1007 NOSIG', '下午1:00', '25.0°C', '1,007毫巴', '每小时10.8公里, 西', '10.00公里', '部分多云 (1,219米)', '本地:', '13:00、2019年6月8日周六', '协调世界时:', '05:00、2019年6月8日周六', '来源:', 'USAF 每小时地面观测', '报告类型:', 'METAR 航空例行天气报告', '露点:', '21.0°C', '其他云层:', '大部分晴天 (1,219米)', '天气:', 'Showers of Light Rain', '下午2:00', '26°C', '1,007毫巴', '每小时7.20公里, 西', '10.00公里', '部分多云 (1,219米)', '本地:', '14:00、2019年6月8日周六', '协调世界时:', '06:00、2019年6月8日周六', '来源:', '周期文件', '趋势:', '无重要变化', '露点:', '21°C', '其他云层:', '大部分晴天 (1,219米)', '原始:', 'ZUUU 080600Z 26002MPS 220V310 9999 FEW040TCU SCT040 26/21 Q1007 NOSIG', '下午2:00', '26.0°C', '1,007毫巴', '每小时7.20公里, 西', '10.00公里', '部分多云 (1,219米)', '本地:', '14:00、2019年6月8日周六', '协调世界时:', '06:00、2019年6月8日周六', '来源:', 'USAF 每小时地面观测', '报告类型:', 'METAR 航空例行天气报告', '露点:', '21.0°C', '其他云层:', '大部分晴天 (1,219米)', '下午3:00', '26°C', '1,006毫巴', '每小时0公里', '10.00公里', '部分多云 (1,524米)', '本地:', '15:00、2019年6月8日周六', '协调世界时:', '07:00、2019年6月8日周六', '来源:', '周期文件', '趋势:', '无重要变化', '露点:', '22°C', '原始:', 'ZUUU 080700Z 00000MPS 9999 SCT050 26/22 Q1006 NOSIG', '下午3:00', '26.0°C', '1,006毫巴', '每小时0公里', '10.00公里', '部分多云 (1,524米)', '本地:', '15:00、2019年6月8日周六', '协调世界时:', '07:00、2019年6月8日周六', '来源:', 'USAF 每小时地面观测', '报告类型:', 'METAR 航空例行天气报告', '露点:', '22.0°C', '下午4:00', '27°C', '1,006毫巴', '每小时0公里', '10.00公里', '部分多云 (1,524米)', '本地:', '16:00、2019年6月8日周六', '协调世界时:', '08:00、2019年6月8日周六', '来源:', '周期文件', '趋势:', '无重要变化', '露点:', '21°C', '原始:', 'ZUUU 080800Z 00000MPS 9999 SCT050 27/21 Q1006 NOSIG', '下午4:00', '27.0°C', '1,006毫巴', '每小时0公里', '10.00公里', '部分多云 (1,524米)', '本地:', '16:00、2019年6月8日周六', '协调世界时:', '08:00、2019年6月8日周六', '来源:', 'USAF 每小时地面观测', '报告类型:', 'METAR 航空例行天气报告', '露点:', '21.0°C', '下午5:00', '27°C', '1,005毫巴', '每小时7.20公里, 西', '10.00公里', '部分多云 (1,524米)', '本地:', '17:00、2019年6月8日周六', '协调世界时:', '09:00、2019年6月8日周六', '来源:', '周期文件', '趋势:', '无重要变化', '露点:', '21°C', '原始:', 'ZUUU 080900Z 29002MPS 230V350 9999 SCT050 27/21 Q1005 NOSIG', '下午5:00', '27.0°C', '1,005毫巴', '每小时7.20公里, 西', '10.00公里', '部分多云 (1,524米)', '本地:', '17:00、2019年6月8日周六', '协调世界时:', '09:00、2019年6月8日周六', '来源:', 'USAF 每小时地面观测', '报告类型:', 'METAR 航空例行天气报告', '露点:', '21.0°C', '下午6:00', '27°C', '1,005毫巴', '每小时3.60公里', '10.00公里', '部分多云 (1,524米)', '本地:', '18:00、2019年6月8日周六', '协调世界时:', '10:00、2019年6月8日周六', '来源:', '周期文件', '趋势:', '无重要变化', '露点:', '21°C', '原始:', 'ZUUU 081000Z VRB01MPS 9999 SCT050 27/21 Q1005 NOSIG', '下午6:00', '27.0°C', '1,005毫巴', '每小时3.60公里', '10.00公里', '部分多云 (1,524米)', '本地:', '18:00、2019年6月8日周六', '协调世界时:', '10:00、2019年6月8日周六', '来源:', 'USAF 每小时地面观测', '报告类型:', 'METAR 航空例行天气报告', '露点:', '21.0°C', '下午7:00', '27°C', '1,005毫巴', '每小时0公里', '10.00公里', '部分多云 (1,524米)', '本地:', '19:00、2019年6月8日周六', '协调世界时:', '11:00、2019年6月8日周六', '来源:', '周期文件', '趋势:', '无重要变化', '露点:', '21°C', '原始:', 'ZUUU 081100Z 00000MPS 9999 SCT050 27/21 Q1005 NOSIG', '下午7:00', '27.0°C', '1,005毫巴', '每小时0公里', '10.00公里', '部分多云 (1,524米)', '本地:', '19:00、2019年6月8日周六', '协调世界时:', '11:00、2019年6月8日周六', '来源:', 'USAF 每小时地面观测', '报告类型:', 'METAR 航空例行天气报告', '露点:', '21.0°C', '下午8:00', '26°C', '1,005毫巴', '每小时0公里', '10.00公里', '部分多云 (1,524米)', '本地:', '20:00、2019年6月8日周六', '协调世界时:', '12:00、2019年6月8日周六', '来源:', '周期文件', '趋势:', '无重要变化', '露点:', '22°C', '原始:', 'ZUUU 081200Z 00000MPS 9999 SCT050 26/22 Q1005 NOSIG', '下午8:00', '26.0°C', '1,005毫巴', '每小时0公里', '10.00公里', '部分多云 (1,524米)', '本地:', '20:00、2019年6月8日周六', '协调世界时:', '12:00、2019年6月8日周六', '来源:', 'USAF 每小时地面观测', '报告类型:', 'METAR 航空例行天气报告', '露点:', '22.0°C', '下午9:00', '26°C', '1,006毫巴', '每小时3.60公里, 西', '10.00公里', '部分多云 (1,524米)', '本地:', '21:00、2019年6月8日周六', '协调世界时:', '13:00、2019年6月8日周六', '来源:', '周期文件', '趋势:', '无重要变化', '露点:', '22°C', '原始:', 'ZUUU 081300Z 26001MPS 9999 SCT050 26/22 Q1006 NOSIG', '下午9:00', '26.0°C', '1,006毫巴', '每小时3.60公里, 西', '10.00公里', '部分多云 (1,524米)', '本地:', '21:00、2019年6月8日周六', '协调世界时:', '13:00、2019年6月8日周六', '来源:', 'USAF 每小时地面观测', '报告类型:', 'METAR 航空例行天气报告', '露点:', '22.0°C', '下午10:00', '25°C', '1,007毫巴', '每小时7.20公里, 西', '10.00公里', '部分多云 (1,524米)', '本地:', '22:00、2019年6月8日周六', '协调世界时:', '14:00、2019年6月8日周六', '来源:', '周期文件', '趋势:', '无重要变化', '露点:', '22°C', '其他云层:', '大部分晴天 (914米)', '原始:', 'ZUUU 081400Z 26002MPS 9999 FEW030 SCT050 25/22 Q1007 NOSIG', '下午10:00', '25.0°C', '1,007毫巴', '每小时7.20公里, 西', '10.00公里', '部分多云 (1,524米)', '本地:', '22:00、2019年6月8日周六', '协调世界时:', '14:00、2019年6月8日周六', '来源:', 'USAF 每小时地面观测', '报告类型:', 'METAR 航空例行天气报告', '露点:', '22.0°C', '其他云层:', '大部分晴天 (914米)', '下午11:00', '25°C', '1,007毫巴', '每小时7.20公里, 西', '6.00公里', '部分多云 (1,219米)', '本地:', '23:00、2019年6月8日周六', '协调世界时:', '15:00、2019年6月8日周六', '来源:', '周期文件', '趋势:', '无重要变化', '露点:', '23°C', '其他云层:', '大部分晴天 (701米)', '天气:', 'Showers of Light Rain', '原始:', 'ZUUU 081500Z 28002MPS 230V330 6000 -SHRA FEW023 SCT040 25/23 Q1007 NOSIG', '下午11:00', '25.0°C', '1,007毫巴', '每小时7.20公里, 西', '6.00公里', '部分多云 (1,219米)', '本地:', '23:00、2019年6月8日周六', '协调世界时:', '15:00、2019年6月8日周六', '来源:', 'USAF 每小时地面观测', '报告类型:', 'METAR 航空例行天气报告', '露点:', '23.0°C', '其他云层:', '大部分晴天 (701米)', '天气:', 'Showers of Light Rain']