['Light Rain', '-RA、IWC61', 'Light Rain、Mist', '-RA、IWC61、BR、IWC10', 'Light Rain', '-RA、IWC61', 'Light Rain', '-RA、IWC61', 'Light Rain、Mist', '-RA、IWC61、BR、IWC10', 'Light Rain', '-RA、IWC61', 'Light Rain、Mist', '-RA、IWC61、BR、IWC10', 'Light Rain、Mist', '-RA、IWC61、BR、IWC10', 'Light Rain', '-RA、IWC61', 'Showers of Light Rain', '-SHRA、IWC80', 'Showers of Light Rain', '-SHRA、IWC80', 'Showers of Light Rain', '-SHRA、IWC80', 'Showers of Light Rain', '-SHRA、IWC80', 'Showers of Light Rain', '-SHRA、IWC80', '上午12:00', '16°C', '1,018毫巴', '每小时7.20公里, 北', '6.00公里', '大部分多云 (610米)', '本地:', '00:00、2019年5月29日周三', '协调世界时:', '16:00、2019年5月28日周二', '来源:', '周期文件', '趋势:', '无重要变化', '露点:', '15°C', '其他云层:', '大部分晴天 (305米)', '天气:', 'Light Rain', '原始:', 'ZUUU 281600Z 36002MPS 6000 -RA FEW010 BKN020 16/15 Q1018 NOSIG', '上午12:00', '16.0°C', '1,018毫巴', '每小时7.20公里, 北', '6.00公里', '大部分多云 (610米)', '本地:', '00:00、2019年5月29日周三', '协调世界时:', '16:00、2019年5月28日周二', '来源:', 'USAF 每小时地面观测', '报告类型:', 'METAR 航空例行天气报告', '露点:', '15.0°C', '其他云层:', '大部分晴天 (305米)', '天气:', 'Light Rain', '上午1:00', '16°C', '1,018毫巴', '每小时0公里', '5.00公里', '大部分多云 (610米)', '本地:', '01:00、2019年5月29日周三', '协调世界时:', '17:00、2019年5月28日周二', '来源:', '周期文件', '趋势:', '无重要变化', '露点:', '15°C', '其他云层:', '部分多云 (305米)', '天气:', 'Light Rain、Mist', '原始:', 'ZUUU 281700Z 00000MPS 5000 -RA BR SCT010 BKN020 16/15 Q1018 NOSIG', '上午1:00', '16.0°C', '1,018毫巴', '每小时0公里', '5.00公里', '大部分多云 (610米)', '本地:', '01:00、2019年5月29日周三', '协调世界时:', '17:00、2019年5月28日周二', '来源:', 'USAF 每小时地面观测', '报告类型:', 'METAR 航空例行天气报告', '露点:', '15.0°C', '其他云层:', '部分多云 (305米)', '天气:', 'Mist、Light Rain', '上午2:00', '16°C', '1,017毫巴', '每小时7.20公里, 北', '6.00公里', '部分多云 (610米)', '本地:', '02:00、2019年5月29日周三', '协调世界时:', '18:00、2019年5月28日周二', '来源:', '周期文件', '趋势:', '无重要变化', '露点:', '15°C', '其他云层:', '大部分晴天 (244米)', '天气:', 'Light Rain', '原始:', 'ZUUU 281800Z 36002MPS 320V040 6000 -RA FEW008 SCT020 16/15 Q1017 NOSIG', '上午2:00', '16.0°C', '1,017毫巴', '每小时7.20公里, 北', '6.00公里', '部分多云 (610米)', '本地:', '02:00、2019年5月29日周三', '协调世界时:', '18:00、2019年5月28日周二', '来源:', 'USAF 每小时地面观测', '报告类型:', 'METAR 航空例行天气报告', '露点:', '15.0°C', '其他云层:', '大部分晴天 (244米)', '天气:', 'Light Rain', '上午3:00', '16°C', '1,016毫巴', '每小时3.60公里, 北', '6.00公里', '部分多云 (274米)', '本地:', '03:00、2019年5月29日周三', '协调世界时:', '19:00、2019年5月28日周二', '来源:', '周期文件', '趋势:', '无重要变化', '露点:', '15°C', '其他云层:', '部分多云 (610米)', '天气:', 'Light Rain', '原始:', 'ZUUU 281900Z 36001MPS 6000 -RA SCT009 SCT020 16/15 Q1016 NOSIG', '上午3:00', '16.0°C', '1,016毫巴', '每小时3.60公里, 北', '6.00公里', '部分多云 (274米)', '本地:', '03:00、2019年5月29日周三', '协调世界时:', '19:00、2019年5月28日周二', '来源:', 'USAF 每小时地面观测', '报告类型:', 'METAR 航空例行天气报告', '露点:', '15.0°C', '其他云层:', '部分多云 (610米)', '天气:', 'Light Rain', '上午4:00', '16°C', '1,015毫巴', '每小时3.60公里', '7.00公里', '部分多云 (335米)', '本地:', '04:00、2019年5月29日周三', '协调世界时:', '20:00、2019年5月28日周二', '来源:', '周期文件', '趋势:', '无重要变化', '露点:', '15°C', '其他云层:', '部分多云 (1,006米)', '原始:', 'ZUUU 282000Z VRB01MPS 7000 SCT011 SCT033 16/15 Q1015 NOSIG', '上午4:00', '16.0°C', '1,015毫巴', '每小时3.60公里', '7.00公里', '部分多云 (335米)', '本地:', '04:00、2019年5月29日周三', '协调世界时:', '20:00、2019年5月28日周二', '来源:', 'USAF 每小时地面观测', '报告类型:', 'METAR 航空例行天气报告', '露点:', '15.0°C', '其他云层:', '部分多云 (1,006米)', '上午5:00', '16°C', '1,015毫巴', '每小时3.60公里, 北', '5.00公里', '大部分多云 (610米)', '本地:', '05:00、2019年5月29日周三', '协调世界时:', '21:00、2019年5月28日周二', '来源:', '周期文件', '趋势:', '无重要变化', '露点:', '15°C', '其他云层:', '大部分晴天 (183米)、部分多云 (305米)', '天气:', 'Light Rain、Mist', '原始:', 'ZUUU 282100Z 35001MPS 5000 -RA BR FEW006 SCT010 BKN020 16/15 Q1015 NOSIG', '上午5:00', '16.0°C', '1,015毫巴', '每小时3.60公里, 北', '5.00公里', '大部分多云 (610米)', '本地:', '05:00、2019年5月29日周三', '协调世界时:', '21:00、2019年5月28日周二', '来源:', 'USAF 每小时地面观测', '报告类型:', 'METAR 航空例行天气报告', '露点:', '15.0°C', '其他云层:', '大部分晴天 (183米)、部分多云 (305米)', '天气:', 'Mist、Light Rain', '上午6:00', '16°C', '1,015毫巴', '每小时3.60公里', '6.00公里', '大部分多云 (610米)', '本地:', '06:00、2019年5月29日周三', '协调世界时:', '22:00、2019年5月28日周二', '来源:', '周期文件', '趋势:', '无重要变化', '露点:', '15°C', '其他云层:', '部分多云 (274米)', '天气:', 'Light Rain', '原始:', 'ZUUU 282200Z VRB01MPS 6000 -RA SCT009 BKN020 16/15 Q1015 NOSIG', '上午6:00', '16.0°C', '1,015毫巴', '每小时3.60公里', '6.00公里', '大部分多云 (610米)', '本地:', '06:00、2019年5月29日周三', '协调世界时:', '22:00、2019年5月28日周二', '来源:', 'USAF 每小时地面观测', '报告类型:', 'METAR 航空例行天气报告', '露点:', '15.0°C', '其他云层:', '部分多云 (274米)', '天气:', 'Light Rain', '上午7:00', '16°C', '1,015毫巴', '每小时3.60公里', '2.70公里', '大部分多云 (610米)', '本地:', '07:00、2019年5月29日周三', '协调世界时:', '23:00、2019年5月28日周二', '来源:', '周期文件', '趋势:', '无重要变化', '露点:', '15°C', '其他云层:', '大部分晴天 (122米)、部分多云 (244米)', '天气:', 'Light Rain、Mist', '原始:', 'ZUUU 282300Z VRB01MPS 2700 -RA BR FEW004 SCT008 BKN020 16/15 Q1015 NOSIG', '上午7:00', '16.0°C', '1,015毫巴', '每小时3.60公里', '2.70公里', '大部分多云 (610米)', '本地:', '07:00、2019年5月29日周三', '协调世界时:', '23:00、2019年5月28日周二', '来源:', 'USAF 每小时地面观测', '报告类型:', 'METAR 航空例行天气报告', '露点:', '15.0°C', '其他云层:', '大部分晴天 (122米)、部分多云 (244米)', '天气:', 'Mist、Light Rain', '上午8:00', '16°C', '1,015毫巴', '每小时3.60公里', '4.00公里', '大部分多云 (610米)', '本地:', '08:00、2019年5月29日周三', '协调世界时:', '00:00、2019年5月29日周三', '来源:', '周期文件', '趋势:', '无重要变化', '露点:', '16°C', '其他云层:', '大部分晴天 (122米)、部分多云 (244米)', '天气:', 'Light Rain、Mist', '原始:', 'ZUUU 290000Z VRB01MPS 4000 -RA BR FEW004 SCT008 BKN020 16/16 Q1015 NOSIG', '上午8:00', '16.0°C', '1,015毫巴', '每小时3.60公里', '4.00公里', '大部分多云 (610米)', '本地:', '08:00、2019年5月29日周三', '协调世界时:', '00:00、2019年5月29日周三', '来源:', 'USAF 每小时地面观测', '报告类型:', 'METAR 航空例行天气报告', '露点:', '16.0°C', '其他云层:', '大部分晴天 (122米)、部分多云 (244米)', '天气:', 'Mist、Light Rain', '上午9:00', '16°C', '1,015毫巴', '每小时10.8公里, 北', '10.00公里', '大部分多云 (610米)', '本地:', '09:00、2019年5月29日周三', '协调世界时:', '01:00、2019年5月29日周三', '来源:', '周期文件', '趋势:', '无重要变化', '露点:', '16°C', '其他云层:', '大部分晴天 (91米)、部分多云 (244米)', '天气:', 'Light Rain', '原始:', 'ZUUU 290100Z 02003MPS 330V040 9999 -RA FEW003 SCT008 BKN020 16/16 Q1015 NOSIG', '上午9:00', '16.0°C', '1,015毫巴', '每小时10.8公里, 北', '10.00公里', '大部分多云 (610米)', '本地:', '09:00、2019年5月29日周三', '协调世界时:', '01:00、2019年5月29日周三', '来源:', 'USAF 每小时地面观测', '报告类型:', 'METAR 航空例行天气报告', '露点:', '16.0°C', '其他云层:', '大部分晴天 (91米)、部分多云 (244米)', '天气:', 'Light Rain', '上午10:00', '16°C', '1,015毫巴', '每小时7.20公里, 北', '10.00公里', '大部分多云 (792米)', '本地:', '10:00、2019年5月29日周三', '协调世界时:', '02:00、2019年5月29日周三', '来源:', '周期文件', '趋势:', '无重要变化', '露点:', '15°C', '其他云层:', '部分多云 (244米)', '原始:', 'ZUUU 290200Z 01002MPS 330V040 9999 SCT008 BKN026 16/15 Q1015 NOSIG', '上午10:00', '16.0°C', '1,015毫巴', '每小时7.20公里, 北', '10.00公里', '大部分多云 (792米)', '本地:', '10:00、2019年5月29日周三', '协调世界时:', '02:00、2019年5月29日周三', '来源:', 'USAF 每小时地面观测', '报告类型:', 'METAR 航空例行天气报告', '露点:', '15.0°C', '其他云层:', '部分多云 (244米)', '上午11:00', '17°C', '1,015毫巴', '每小时14.4公里, 东北', '10.00公里', '大部分多云 (792米)', '本地:', '11:00、2019年5月29日周三', '协调世界时:', '03:00、2019年5月29日周三', '来源:', '周期文件', '趋势:', '无重要变化', '露点:', '15°C', '其他云层:', '大部分晴天 (122米)、部分多云 (274米)', '原始:', 'ZUUU 290300Z 03004MPS 9999 FEW004 SCT009 BKN026 17/15 Q1015 NOSIG', '上午11:00', '17.0°C', '1,015毫巴', '每小时14.4公里, 东北', '10.00公里', '大部分多云 (792米)', '本地:', '11:00、2019年5月29日周三', '协调世界时:', '03:00、2019年5月29日周三', '来源:', 'USAF 每小时地面观测', '报告类型:', 'METAR 航空例行天气报告', '露点:', '15.0°C', '其他云层:', '大部分晴天 (122米)、部分多云 (274米)', '下午12:00', '18°C', '1,014毫巴', '每小时7.20公里, 东北', '10.00公里', '大部分多云 (792米)', '本地:', '12:00、2019年5月29日周三', '协调世界时:', '04:00、2019年5月29日周三', '来源:', '周期文件', '趋势:', '无重要变化', '露点:', '15°C', '其他云层:', '部分多云 (335米)', '原始:', 'ZUUU 290400Z 06002MPS 010V100 9999 SCT011 BKN026 18/15 Q1014 NOSIG', '下午12:00', '18.0°C', '1,014毫巴', '每小时7.20公里, 东北', '10.00公里', '大部分多云 (792米)', '本地:', '12:00、2019年5月29日周三', '协调世界时:', '04:00、2019年5月29日周三', '来源:', 'USAF 每小时地面观测', '报告类型:', 'METAR 航空例行天气报告', '露点:', '15.0°C', '其他云层:', '部分多云 (335米)', '下午1:00', '18°C', '1,013毫巴', '每小时10.8公里, 东北', '10.00公里', '部分多云 (792米)', '本地:', '13:00、2019年5月29日周三', '协调世界时:', '05:00、2019年5月29日周三', '来源:', '周期文件', '趋势:', '无重要变化', '露点:', '15°C', '其他云层:', '大部分晴天 (335米)', '原始:', 'ZUUU 290500Z 04003MPS 9999 FEW011 SCT026 18/15 Q1013 NOSIG', '下午1:00', '18.0°C', '1,013毫巴', '每小时10.8公里, 东北', '10.00公里', '部分多云 (792米)', '本地:', '13:00、2019年5月29日周三', '协调世界时:', '05:00、2019年5月29日周三', '来源:', 'USAF 每小时地面观测', '报告类型:', 'METAR 航空例行天气报告', '露点:', '15.0°C', '其他云层:', '大部分晴天 (335米)', '下午2:00', '18°C', '1,013毫巴', '每小时10.8公里, 北', '10.00公里', '部分多云 (792米)', '本地:', '14:00、2019年5月29日周三', '协调世界时:', '06:00、2019年5月29日周三', '来源:', '周期文件', '趋势:', '无重要变化', '露点:', '15°C', '其他云层:', '大部分晴天 (335米)', '原始:', 'ZUUU 290600Z 36003MPS 320V040 9999 FEW011 SCT026 18/15 Q1013 NOSIG', '下午2:00', '18.0°C', '1,013毫巴', '每小时10.8公里, 北', '10.00公里', '部分多云 (792米)', '本地:', '14:00、2019年5月29日周三', '协调世界时:', '06:00、2019年5月29日周三', '来源:', 'USAF 每小时地面观测', '报告类型:', 'METAR 航空例行天气报告', '露点:', '15.0°C', '其他云层:', '大部分晴天 (335米)', '下午3:00', '18°C', '1,013毫巴', '每小时10.8公里, 北', '10.00公里', '部分多云 (792米)', '本地:', '15:00、2019年5月29日周三', '协调世界时:', '07:00、2019年5月29日周三', '来源:', '周期文件', '趋势:', '无重要变化', '露点:', '15°C', '其他云层:', '大部分晴天 (335米)', '原始:', 'ZUUU 290700Z 01003MPS 340V040 9999 FEW011 SCT026 18/15 Q1013 NOSIG', '下午3:00', '18.0°C', '1,013毫巴', '每小时10.8公里, 北', '10.00公里', '部分多云 (792米)', '本地:', '15:00、2019年5月29日周三', '协调世界时:', '07:00、2019年5月29日周三', '来源:', 'USAF 每小时地面观测', '报告类型:', 'METAR 航空例行天气报告', '露点:', '15.0°C', '其他云层:', '大部分晴天 (335米)', '下午4:00', '18°C', '1,012毫巴', '每小时7.20公里, 北', '10.00公里', '部分多云 (792米)', '本地:', '16:00、2019年5月29日周三', '协调世界时:', '08:00、2019年5月29日周三', '来源:', '周期文件', '趋势:', '无重要变化', '露点:', '15°C', '其他云层:', '大部分晴天 (335米)', '原始:', 'ZUUU 290800Z 01002MPS 320V040 9999 FEW011 SCT026 18/15 Q1012 NOSIG', '下午4:00', '18.0°C', '1,012毫巴', '每小时7.20公里, 北', '10.00公里', '部分多云 (792米)', '本地:', '16:00、2019年5月29日周三', '协调世界时:', '08:00、2019年5月29日周三', '来源:', 'USAF 每小时地面观测', '报告类型:', 'METAR 航空例行天气报告', '露点:', '15.0°C', '其他云层:', '大部分晴天 (335米)', '下午5:00', '18°C', '1,012毫巴', '每小时14.4公里, 东北', '10.00公里', '部分多云 (792米)', '本地:', '17:00、2019年5月29日周三', '协调世界时:', '09:00、2019年5月29日周三', '来源:', '周期文件', '趋势:', '无重要变化', '露点:', '16°C', '其他云层:', '大部分晴天 (335米)', '天气:', 'Showers of Light Rain', '原始:', 'ZUUU 290900Z 06004MPS 010V090 9999 -SHRA FEW011 SCT026 18/16 Q1012 NOSIG', '下午5:00', '18.0°C', '1,012毫巴', '每小时14.4公里, 东北', '10.00公里', '部分多云 (792米)', '本地:', '17:00、2019年5月29日周三', '协调世界时:', '09:00、2019年5月29日周三', '来源:', 'USAF 每小时地面观测', '报告类型:', 'METAR 航空例行天气报告', '露点:', '16.0°C', '其他云层:', '大部分晴天 (335米)', '天气:', 'Showers of Light Rain', '下午6:00', '18°C', '1,012毫巴', '每小时10.8公里, 北', '10.00公里', '部分多云 (792米)', '本地:', '18:00、2019年5月29日周三', '协调世界时:', '10:00、2019年5月29日周三', '来源:', '周期文件', '趋势:', '无重要变化', '露点:', '16°C', '其他云层:', '大部分晴天 (335米)', '原始:', 'ZUUU 291000Z 02003MPS 9999 FEW011 SCT026 18/16 Q1012 NOSIG', '下午6:00', '18.0°C', '1,012毫巴', '每小时10.8公里, 北', '10.00公里', '部分多云 (792米)', '本地:', '18:00、2019年5月29日周三', '协调世界时:', '10:00、2019年5月29日周三', '来源:', 'USAF 每小时地面观测', '报告类型:', 'METAR 航空例行天气报告', '露点:', '16.0°C', '其他云层:', '大部分晴天 (335米)', '下午7:00', '17°C', '1,012毫巴', '每小时18.0公里, 东北', '8.00公里', '部分多云 (792米)', '本地:', '19:00、2019年5月29日周三', '协调世界时:', '11:00、2019年5月29日周三', '来源:', '周期文件', '趋势:', '无重要变化', '露点:', '15°C', '其他云层:', '大部分晴天 (274米)', '天气:', 'Showers of Light Rain', '原始:', 'ZUUU 291100Z 03005MPS 8000 -SHRA FEW009 SCT026 17/15 Q1012 NOSIG', '下午7:00', '17.0°C', '1,012毫巴', '每小时18.0公里, 东北', '8.00公里', '部分多云 (792米)', '本地:', '19:00、2019年5月29日周三', '协调世界时:', '11:00、2019年5月29日周三', '来源:', 'USAF 每小时地面观测', '报告类型:', 'METAR 航空例行天气报告', '露点:', '15.0°C', '其他云层:', '大部分晴天 (274米)', '天气:', 'Showers of Light Rain', '下午8:00', '17°C', '1,014毫巴', '每小时10.8公里, 北', '8.00公里', '部分多云 (792米)', '本地:', '20:00、2019年5月29日周三', '协调世界时:', '12:00、2019年5月29日周三', '来源:', '周期文件', '趋势:', '无重要变化', '露点:', '16°C', '其他云层:', '大部分晴天 (335米)', '原始:', 'ZUUU 291200Z 02003MPS 8000 FEW011 SCT026 17/16 Q1014 NOSIG', '下午8:00', '17.0°C', '1,014毫巴', '每小时10.8公里, 北', '8.00公里', '部分多云 (792米)', '本地:', '20:00、2019年5月29日周三', '协调世界时:', '12:00、2019年5月29日周三', '来源:', 'USAF 每小时地面观测', '报告类型:', 'METAR 航空例行天气报告', '露点:', '16.0°C', '其他云层:', '大部分晴天 (335米)', '下午9:00', '17°C', '1,014毫巴', '每小时10.8公里, 北', '10.00公里', '部分多云 (792米)', '本地:', '21:00、2019年5月29日周三', '协调世界时:', '13:00、2019年5月29日周三', '来源:', '周期文件', '趋势:', '无重要变化', '露点:', '16°C', '其他云层:', '大部分晴天 (335米)', '天气:', 'Showers of Light Rain', '原始:', 'ZUUU 291300Z 02003MPS 340V040 9999 -SHRA FEW011 SCT026 17/16 Q1014 NOSIG', '下午9:00', '17.0°C', '1,014毫巴', '每小时10.8公里, 北', '10.00公里', '部分多云 (792米)', '本地:', '21:00、2019年5月29日周三', '协调世界时:', '13:00、2019年5月29日周三', '来源:', 'USAF 每小时地面观测', '报告类型:', 'METAR 航空例行天气报告', '露点:', '16.0°C', '其他云层:', '大部分晴天 (335米)', '天气:', 'Showers of Light Rain', '下午10:00', '17°C', '1,016毫巴', '每小时7.20公里, 北', '8.00公里', '部分多云 (792米)', '本地:', '22:00、2019年5月29日周三', '协调世界时:', '14:00、2019年5月29日周三', '来源:', '周期文件', '趋势:', '无重要变化', '露点:', '16°C', '其他云层:', '大部分晴天 (335米)', '天气:', 'Showers of Light Rain', '原始:', 'ZUUU 291400Z 36002MPS 320V030 8000 -SHRA FEW011 SCT026 17/16 Q1016 NOSIG', '下午10:00', '17.0°C', '1,016毫巴', '每小时7.20公里, 北', '8.00公里', '部分多云 (792米)', '本地:', '22:00、2019年5月29日周三', '协调世界时:', '14:00、2019年5月29日周三', '来源:', 'USAF 每小时地面观测', '报告类型:', 'METAR 航空例行天气报告', '露点:', '16.0°C', '其他云层:', '大部分晴天 (335米)', '天气:', 'Showers of Light Rain', '下午11:00', '17°C', '1,016毫巴', '每小时3.60公里', '8.00公里', '部分多云 (792米)', '本地:', '23:00、2019年5月29日周三', '协调世界时:', '15:00、2019年5月29日周三', '来源:', '周期文件', '趋势:', '无重要变化', '露点:', '16°C', '其他云层:', '大部分晴天 (335米)', '天气:', 'Showers of Light Rain', '原始:', 'ZUUU 291500Z VRB01MPS 8000 -SHRA FEW011 SCT026 17/16 Q1016 NOSIG', '下午11:00', '17.0°C', '1,016毫巴', '每小时3.60公里', '8.00公里', '部分多云 (792米)', '本地:', '23:00、2019年5月29日周三', '协调世界时:', '15:00、2019年5月29日周三', '来源:', 'USAF 每小时地面观测', '报告类型:', 'METAR 航空例行天气报告', '露点:', '16.0°C', '其他云层:', '大部分晴天 (335米)', '天气:', 'Showers of Light Rain']