['Showers of Light Rain、Mist', '-SHRA、IWC80、BR、IWC10', 'Showers of Light Rain、Mist', '-SHRA、IWC80、BR、IWC10', 'Showers of Light Rain、Mist', '-SHRA、IWC80、BR、IWC10', 'Showers of Light Rain、Mist', '-SHRA、IWC80、BR、IWC10', 'Mist', 'BR、IWC10', 'Mist', 'BR、IWC10', 'Mist', 'BR、IWC10', 'Mist', 'BR、IWC10', 'Mist', 'BR、IWC10', 'Mist', 'BR、IWC10', 'Mist', 'BR、IWC10', '上午12:00', '16°C', '1,014毫巴', '每小时3.60公里', '4.50公里', '部分多云 (792米)', '本地:', '00:00、2019年10月22日周二', '协调世界时:', '16:00、2019年10月21日周一', '来源:', '周期文件', '趋势:', '无重要变化', '露点:', '15°C', '其他云层:', '大部分晴天 (213米)、大部分晴天 (792米)', '天气:', 'Showers of Light Rain、Mist', '原始:', 'ZUUU 211600Z VRB01MPS 4500 -SHRA BR FEW007 FEW026TCU SCT026 16/15 Q1014 NOSIG', '上午12:00', '16.0°C', '1,014毫巴', '每小时3.60公里', '4.50公里', '部分多云 (792米)', '本地:', '00:00、2019年10月22日周二', '协调世界时:', '16:00、2019年10月21日周一', '来源:', 'USAF 每小时地面观测', '报告类型:', 'METAR 航空例行天气报告', '露点:', '15.0°C', '其他云层:', '大部分晴天 (213米)、大部分晴天 (792米)', '天气:', 'Mist、Showers of Light Rain', '上午1:00', '16°C', '1,014毫巴', '每小时7.20公里, 西北', '5.00公里', '部分多云 (792米)', '本地:', '01:00、2019年10月22日周二', '协调世界时:', '17:00、2019年10月21日周一', '来源:', '周期文件', '趋势:', '无重要变化', '露点:', '15°C', '其他云层:', '大部分晴天 (213米)、大部分晴天 (792米)', '天气:', 'Showers of Light Rain、Mist', '原始:', 'ZUUU 211700Z 31002MPS 270V360 5000 -SHRA BR FEW007 FEW026TCU SCT026 16/15 Q1014 NOSIG', '上午1:00', '16.0°C', '1,014毫巴', '每小时7.20公里, 西北', '5.00公里', '部分多云 (792米)', '本地:', '01:00、2019年10月22日周二', '协调世界时:', '17:00、2019年10月21日周一', '来源:', 'USAF 每小时地面观测', '报告类型:', 'METAR 航空例行天气报告', '露点:', '15.0°C', '其他云层:', '大部分晴天 (213米)、大部分晴天 (792米)', '天气:', 'Mist、Showers of Light Rain', '上午2:00', '16°C', '1,013毫巴', '每小时3.60公里', '5.00公里', '部分多云 (792米)', '本地:', '02:00、2019年10月22日周二', '协调世界时:', '18:00、2019年10月21日周一', '来源:', '周期文件', '趋势:', '无重要变化', '露点:', '15°C', '其他云层:', '大部分晴天 (213米)', '天气:', 'Showers of Light Rain、Mist', '原始:', 'ZUUU 211800Z VRB01MPS 5000 -SHRA BR FEW007 SCT026 16/15 Q1013 NOSIG', '上午2:00', '16.0°C', '1,013毫巴', '每小时3.60公里', '5.00公里', '部分多云 (792米)', '本地:', '02:00、2019年10月22日周二', '协调世界时:', '18:00、2019年10月21日周一', '来源:', 'USAF 每小时地面观测', '报告类型:', 'METAR 航空例行天气报告', '露点:', '15.0°C', '其他云层:', '大部分晴天 (213米)', '天气:', 'Mist、Showers of Light Rain', '上午3:00', '16°C', '1,013毫巴', '每小时3.60公里', '5.00公里', '部分多云 (792米)', '本地:', '03:00、2019年10月22日周二', '协调世界时:', '19:00、2019年10月21日周一', '来源:', '周期文件', '趋势:', '无重要变化', '露点:', '15°C', '其他云层:', '大部分晴天 (213米)', '天气:', 'Showers of Light Rain、Mist', '原始:', 'ZUUU 211900Z VRB01MPS 5000 -SHRA BR FEW007 SCT026 16/15 Q1013 NOSIG', '上午3:00', '16.0°C', '1,013毫巴', '每小时3.60公里', '5.00公里', '部分多云 (792米)', '本地:', '03:00、2019年10月22日周二', '协调世界时:', '19:00、2019年10月21日周一', '来源:', 'USAF 每小时地面观测', '报告类型:', 'METAR 航空例行天气报告', '露点:', '15.0°C', '其他云层:', '大部分晴天 (213米)', '天气:', 'Mist、Showers of Light Rain', '上午4:00', '16°C', '1,012毫巴', '每小时3.60公里', '4.00公里', '部分多云 (792米)', '本地:', '04:00、2019年10月22日周二', '协调世界时:', '20:00、2019年10月21日周一', '来源:', '周期文件', '趋势:', '无重要变化', '露点:', '15°C', '其他云层:', '大部分晴天 (213米)', '天气:', 'Mist', '原始:', 'ZUUU 212000Z VRB01MPS 4000 BR FEW007 SCT026 16/15 Q1012 NOSIG', '上午4:00', '16.0°C', '1,012毫巴', '每小时3.60公里', '4.00公里', '部分多云 (792米)', '本地:', '04:00、2019年10月22日周二', '协调世界时:', '20:00、2019年10月21日周一', '来源:', 'USAF 每小时地面观测', '报告类型:', 'METAR 航空例行天气报告', '露点:', '15.0°C', '其他云层:', '大部分晴天 (213米)', '天气:', 'Mist', '上午5:00', '16°C', '1,012毫巴', '每小时0公里', '4.00公里', '大部分晴天 (213米)', '本地:', '05:00、2019年10月22日周二', '协调世界时:', '21:00、2019年10月21日周一', '来源:', '周期文件', '趋势:', '无重要变化', '露点:', '15°C', '天气:', 'Mist', '原始:', 'ZUUU 212100Z 00000MPS 4000 BR FEW007 16/15 Q1012 NOSIG', '上午5:00', '16.0°C', '1,012毫巴', '每小时0公里', '4.00公里', '大部分晴天 (213米)', '本地:', '05:00、2019年10月22日周二', '协调世界时:', '21:00、2019年10月21日周一', '来源:', 'USAF 每小时地面观测', '报告类型:', 'METAR 航空例行天气报告', '露点:', '15.0°C', '天气:', 'Mist', '上午6:00', '16°C', '1,012毫巴', '每小时0公里', '4.00公里', '大部分晴天 (213米)', '本地:', '06:00、2019年10月22日周二', '协调世界时:', '22:00、2019年10月21日周一', '来源:', '周期文件', '趋势:', '无重要变化', '露点:', '15°C', '天气:', 'Mist', '原始:', 'ZUUU 212200Z 00000MPS 4000 BR FEW007 16/15 Q1012 NOSIG', '上午6:00', '16.0°C', '1,012毫巴', '每小时0公里', '4.00公里', '大部分晴天 (213米)', '本地:', '06:00、2019年10月22日周二', '协调世界时:', '22:00、2019年10月21日周一', '来源:', 'USAF 每小时地面观测', '报告类型:', 'METAR 航空例行天气报告', '露点:', '15.0°C', '天气:', 'Mist', '上午7:00', '16°C', '1,013毫巴', '每小时7.20公里, 西南', '3.50公里', '大部分晴天 (183米)', '本地:', '07:00、2019年10月22日周二', '协调世界时:', '23:00、2019年10月21日周一', '来源:', '周期文件', '趋势:', '无重要变化', '露点:', '15°C', '天气:', 'Mist', '原始:', 'ZUUU 212300Z 22002MPS 3500 BR FEW006 16/15 Q1013 NOSIG', '上午7:00', '16.0°C', '1,013毫巴', '每小时7.20公里, 西南', '3.50公里', '大部分晴天 (183米)', '本地:', '07:00、2019年10月22日周二', '协调世界时:', '23:00、2019年10月21日周一', '来源:', 'USAF 每小时地面观测', '报告类型:', 'METAR 航空例行天气报告', '露点:', '15.0°C', '天气:', 'Mist', '上午8:00', '16°C', '1,013毫巴', '每小时7.20公里, 西南', '2.70公里', '大部分晴天 (1,524米)', '本地:', '08:00、2019年10月22日周二', '协调世界时:', '00:00、2019年10月22日周二', '来源:', '周期文件', '趋势:', '变化为', '露点:', '15°C', '天气:', 'Mist', '原始:', 'ZUUU 220000Z 21002MPS 180V240 2700 BR FEW050 16/15 Q1013 BECMG TL0100 3000', '上午8:00', '16.0°C', '1,013毫巴', '每小时7.20公里, 西南', '2.70公里', '大部分晴天 (1,524米)', '本地:', '08:00、2019年10月22日周二', '协调世界时:', '00:00、2019年10月22日周二', '来源:', 'USAF 每小时地面观测', '报告类型:', 'METAR 航空例行天气报告', '露点:', '15.0°C', '天气:', 'Mist', '上午9:00', '16°C', '1,014毫巴', '每小时3.60公里', '4.00公里', '部分多云 (1,524米)', '本地:', '09:00、2019年10月22日周二', '协调世界时:', '01:00、2019年10月22日周二', '来源:', '周期文件', '趋势:', '无重要变化', '露点:', '15°C', '其他云层:', '大部分晴天 (183米)', '天气:', 'Mist', '原始:', 'ZUUU 220100Z VRB01MPS 4000 BR FEW006 SCT050 16/15 Q1014 NOSIG', '上午9:00', '16.0°C', '1,014毫巴', '每小时3.60公里', '4.00公里', '部分多云 (1,524米)', '本地:', '09:00、2019年10月22日周二', '协调世界时:', '01:00、2019年10月22日周二', '来源:', 'USAF 每小时地面观测', '报告类型:', 'METAR 航空例行天气报告', '露点:', '15.0°C', '其他云层:', '大部分晴天 (183米)', '天气:', 'Mist', '上午10:00', '18°C', '1,015毫巴', '每小时0公里', '5.00公里', '部分多云 (1,524米)', '本地:', '10:00、2019年10月22日周二', '协调世界时:', '02:00、2019年10月22日周二', '来源:', '周期文件', '趋势:', '无重要变化', '露点:', '16°C', '其他云层:', '大部分晴天 (183米)', '天气:', 'Mist', '原始:', 'ZUUU 220200Z 00000MPS 5000 BR FEW006 SCT050 18/16 Q1015 NOSIG', '上午10:00', '18.0°C', '1,015毫巴', '每小时0公里', '5.00公里', '部分多云 (1,524米)', '本地:', '10:00、2019年10月22日周二', '协调世界时:', '02:00、2019年10月22日周二', '来源:', 'USAF 每小时地面观测', '报告类型:', 'METAR 航空例行天气报告', '露点:', '16.0°C', '其他云层:', '大部分晴天 (183米)', '天气:', 'Mist', '上午11:00', '19°C', '1,015毫巴', '每小时3.60公里', '8.00公里', '大部分晴天 (792米)', '本地:', '11:00、2019年10月22日周二', '协调世界时:', '03:00、2019年10月22日周二', '来源:', '周期文件', '趋势:', '无重要变化', '露点:', '16°C', '原始:', 'ZUUU 220300Z VRB01MPS 8000 FEW026 19/16 Q1015 NOSIG', '上午11:00', '19.0°C', '1,015毫巴', '每小时3.60公里', '8.00公里', '大部分晴天 (792米)', '本地:', '11:00、2019年10月22日周二', '协调世界时:', '03:00、2019年10月22日周二', '来源:', 'USAF 每小时地面观测', '报告类型:', 'METAR 航空例行天气报告', '露点:', '16.0°C', '下午12:00', '20°C', '1,014毫巴', '每小时3.60公里', '10.00公里', '大部分晴天 (792米)', '本地:', '12:00、2019年10月22日周二', '协调世界时:', '04:00、2019年10月22日周二', '来源:', '周期文件', '趋势:', '无重要变化', '露点:', '14°C', '原始:', 'ZUUU 220400Z VRB01MPS 9999 FEW026 20/14 Q1014 NOSIG', '下午12:00', '20.0°C', '1,014毫巴', '每小时3.60公里', '10.00公里', '大部分晴天 (792米)', '本地:', '12:00、2019年10月22日周二', '协调世界时:', '04:00、2019年10月22日周二', '来源:', 'USAF 每小时地面观测', '报告类型:', 'METAR 航空例行天气报告', '露点:', '14.0°C', '下午1:00', '21°C', '1,013毫巴', '每小时7.20公里, 东北', '10.00公里', '大部分晴天 (792米)', '本地:', '13:00、2019年10月22日周二', '协调世界时:', '05:00、2019年10月22日周二', '来源:', '周期文件', '趋势:', '无重要变化', '露点:', '14°C', '原始:', 'ZUUU 220500Z 03002MPS 310V100 9999 FEW026 21/14 Q1013 NOSIG', '下午1:00', '21.0°C', '1,013毫巴', '每小时7.20公里, 东北', '10.00公里', '大部分晴天 (792米)', '本地:', '13:00、2019年10月22日周二', '协调世界时:', '05:00、2019年10月22日周二', '来源:', 'USAF 每小时地面观测', '报告类型:', 'METAR 航空例行天气报告', '露点:', '14.0°C', '下午2:00', '21°C', '1,013毫巴', '每小时7.20公里, 北', '10.00公里', '大部分晴天 (792米)', '本地:', '14:00、2019年10月22日周二', '协调世界时:', '06:00、2019年10月22日周二', '来源:', '周期文件', '趋势:', '无重要变化', '露点:', '13°C', '原始:', 'ZUUU 220600Z 34002MPS 230V040 9999 FEW026 21/13 Q1013 NOSIG', '下午2:00', '21.0°C', '1,013毫巴', '每小时7.20公里, 北', '10.00公里', '大部分晴天 (792米)', '本地:', '14:00、2019年10月22日周二', '协调世界时:', '06:00、2019年10月22日周二', '来源:', 'USAF 每小时地面观测', '报告类型:', 'METAR 航空例行天气报告', '露点:', '13.0°C', '下午3:00', '22°C', '1,012毫巴', '每小时10.8公里, 东北', '10.00公里', '大部分晴天 (792米)', '本地:', '15:00、2019年10月22日周二', '协调世界时:', '07:00、2019年10月22日周二', '来源:', '周期文件', '趋势:', '无重要变化', '露点:', '12°C', '原始:', 'ZUUU 220700Z 03003MPS 340V060 9999 FEW026 22/12 Q1012 NOSIG', '下午3:00', '22.0°C', '1,012毫巴', '每小时10.8公里, 东北', '10.00公里', '大部分晴天 (792米)', '本地:', '15:00、2019年10月22日周二', '协调世界时:', '07:00、2019年10月22日周二', '来源:', 'USAF 每小时地面观测', '报告类型:', 'METAR 航空例行天气报告', '露点:', '12.0°C', '下午4:00', '22°C', '1,011毫巴', '每小时7.20公里, 北', '10.00公里', '大部分晴天 (1,006米)', '本地:', '16:00、2019年10月22日周二', '协调世界时:', '08:00、2019年10月22日周二', '来源:', '周期文件', '趋势:', '无重要变化', '露点:', '13°C', '原始:', 'ZUUU 220800Z 01002MPS 320V090 9999 FEW033 22/13 Q1011 NOSIG', '下午4:00', '22.0°C', '1,011毫巴', '每小时7.20公里, 北', '10.00公里', '大部分晴天 (1,006米)', '本地:', '16:00、2019年10月22日周二', '协调世界时:', '08:00、2019年10月22日周二', '来源:', 'USAF 每小时地面观测', '报告类型:', 'METAR 航空例行天气报告', '露点:', '13.0°C', '下午5:00', '22°C', '1,012毫巴', '每小时3.60公里', '10.00公里', '大部分晴天 (1,006米)', '本地:', '17:00、2019年10月22日周二', '协调世界时:', '09:00、2019年10月22日周二', '来源:', '周期文件', '趋势:', '无重要变化', '露点:', '13°C', '原始:', 'ZUUU 220900Z VRB01MPS 9999 FEW033 22/13 Q1012 NOSIG', '下午5:00', '22.0°C', '1,012毫巴', '每小时3.60公里', '10.00公里', '大部分晴天 (1,006米)', '本地:', '17:00、2019年10月22日周二', '协调世界时:', '09:00、2019年10月22日周二', '来源:', 'USAF 每小时地面观测', '报告类型:', 'METAR 航空例行天气报告', '露点:', '13.0°C', '下午6:00', '20°C', '1,012毫巴', '每小时7.20公里, 南', '≥ 10.00公里', '晴空万里', '本地:', '18:00、2019年10月22日周二', '协调世界时:', '10:00、2019年10月22日周二', '来源:', '周期文件', '趋势:', '无重要变化', '露点:', '14°C', '晴空万里:', '真', '原始:', 'ZUUU 221000Z 20002MPS CAVOK 20/14 Q1012 NOSIG', '下午6:00', '20.0°C', '1,012毫巴', '每小时7.20公里, 南', '9.90公里', '晴空万里', '本地:', '18:00、2019年10月22日周二', '协调世界时:', '10:00、2019年10月22日周二', '来源:', 'USAF 每小时地面观测', '报告类型:', 'METAR 航空例行天气报告', '露点:', '14.0°C', '晴空万里:', '真', '下午7:00', '19°C', '1,013毫巴', '每小时3.60公里, 西南', '10.00公里', '大部分晴天 (1,524米)', '本地:', '19:00、2019年10月22日周二', '协调世界时:', '11:00、2019年10月22日周二', '来源:', '周期文件', '趋势:', '无重要变化', '露点:', '16°C', '原始:', 'ZUUU 221100Z 22001MPS 9999 FEW050 19/16 Q1013 NOSIG', '下午7:00', '19.0°C', '1,013毫巴', '每小时3.60公里, 西南', '10.00公里', '大部分晴天 (1,524米)', '本地:', '19:00、2019年10月22日周二', '协调世界时:', '11:00、2019年10月22日周二', '来源:', 'USAF 每小时地面观测', '报告类型:', 'METAR 航空例行天气报告', '露点:', '16.0°C', '下午8:00', '18°C', '1,014毫巴', '每小时3.60公里, 西南', '10.00公里', '大部分晴天 (1,524米)', '本地:', '20:00、2019年10月22日周二', '协调世界时:', '12:00、2019年10月22日周二', '来源:', '周期文件', '趋势:', '无重要变化', '露点:', '16°C', '原始:', 'ZUUU 221200Z 22001MPS 9999 FEW050 18/16 Q1014 NOSIG', '下午8:00', '18.0°C', '1,014毫巴', '每小时3.60公里, 西南', '10.00公里', '大部分晴天 (1,524米)', '本地:', '20:00、2019年10月22日周二', '协调世界时:', '12:00、2019年10月22日周二', '来源:', 'USAF 每小时地面观测', '报告类型:', 'METAR 航空例行天气报告', '露点:', '16.0°C', '下午9:00', '17°C', '1,015毫巴', '每小时0公里', '≥ 10.00公里', '晴空万里', '本地:', '21:00、2019年10月22日周二', '协调世界时:', '13:00、2019年10月22日周二', '来源:', '周期文件', '趋势:', '无重要变化', '露点:', '16°C', '晴空万里:', '真', '原始:', 'ZUUU 221300Z 00000MPS CAVOK 17/16 Q1015 NOSIG', '下午9:00', '17.0°C', '1,015毫巴', '每小时0公里', '9.90公里', '晴空万里', '本地:', '21:00、2019年10月22日周二', '协调世界时:', '13:00、2019年10月22日周二', '来源:', 'USAF 每小时地面观测', '报告类型:', 'METAR 航空例行天气报告', '露点:', '16.0°C', '晴空万里:', '真', '下午10:00', '19°C', '1,016毫巴', '每小时3.60公里', '8.00公里', '大部分晴天 (1,524米)', '本地:', '22:00、2019年10月22日周二', '协调世界时:', '14:00、2019年10月22日周二', '来源:', '周期文件', '趋势:', '无重要变化', '露点:', '15°C', '原始:', 'ZUUU 221400Z VRB01MPS 8000 FEW050 19/15 Q1016 NOSIG', '下午10:00', '19.0°C', '1,016毫巴', '每小时3.60公里', '8.00公里', '大部分晴天 (1,524米)', '本地:', '22:00、2019年10月22日周二', '协调世界时:', '14:00、2019年10月22日周二', '来源:', 'USAF 每小时地面观测', '报告类型:', 'METAR 航空例行天气报告', '露点:', '15.0°C', '下午11:00', '19°C', '1,016毫巴', '每小时7.20公里, 南', '8.00公里', '大部分晴天 (1,524米)', '本地:', '23:00、2019年10月22日周二', '协调世界时:', '15:00、2019年10月22日周二', '来源:', '周期文件', '趋势:', '无重要变化', '露点:', '15°C', '原始:', 'ZUUU 221500Z 17002MPS 120V250 8000 FEW050 19/15 Q1016 NOSIG', '下午11:00', '19.0°C', '1,016毫巴', '每小时7.20公里, 南', '8.00公里', '大部分晴天 (1,524米)', '本地:', '23:00、2019年10月22日周二', '协调世界时:', '15:00、2019年10月22日周二', '来源:', 'USAF 每小时地面观测', '报告类型:', 'METAR 航空例行天气报告', '露点:', '15.0°C']