['Showers of Light Rain', '-SHRA、IWC80', 'Showers of Light Rain', '-SHRA', 'Showers of Light Rain', '-SHRA', 'Showers of Light Rain', '-SHRA、IWC80', 'Showers of Light Rain', '-SHRA、IWC80', 'Showers of Light Rain', '-SHRA、IWC80', 'Showers of Light Rain', '-SHRA、IWC80', 'Showers of Light Rain', '-SHRA、IWC80', 'Showers of Light Rain', '-SHRA、IWC80', 'Showers of Light Rain', '-SHRA、IWC80', 'Showers of Light Rain', '-SHRA、IWC80', 'Showers of Light Rain', '-SHRA、IWC80', 'Showers of Light Rain', '-SHRA、IWC80', 'Showers of Light Rain', '-SHRA、IWC80', 'Showers of Light Rain', '-SHRA、IWC80', '上午12:00', '22°C', '1,015毫巴', '每小时7.20公里, 南', '10.00公里', '大部分多云 (1,006米)', '本地:', '00:00、2019年8月31日周六', '协调世界时:', '16:00、2019年8月30日周五', '来源:', '周期文件', '趋势:', '无重要变化', '露点:', '16°C', '其他云层:', '大部分晴天 (1,006米)', '天气:', 'Showers of Light Rain', '原始:', 'ZUUU 301600Z 18002MPS 140V220 9999 -SHRA FEW033TCU BKN033 22/16 Q1015 NOSIG', '上午12:00', '22.0°C', '1,015毫巴', '每小时7.20公里, 南', '10.00公里', '大部分多云 (1,006米)', '本地:', '00:00、2019年8月31日周六', '协调世界时:', '16:00、2019年8月30日周五', '来源:', 'USAF 每小时地面观测', '报告类型:', 'METAR 航空例行天气报告', '露点:', '16.0°C', '其他云层:', '大部分晴天 (1,006米)', '天气:', 'Showers of Light Rain', '上午1:00', '22°C', '1,015毫巴', '每小时10.8公里, 西', '10.00公里', '部分多云 (1,524米)', '本地:', '01:00、2019年8月31日周六', '协调世界时:', '17:00、2019年8月30日周五', '来源:', '周期文件', '趋势:', '无重要变化', '露点:', '17°C', '原始:', 'ZUUU 301700Z 25003MPS 220V280 9999 SCT050 22/17 Q1015 NOSIG', '上午1:00', '22.0°C', '1,015毫巴', '每小时10.8公里, 西', '10.00公里', '部分多云 (1,524米)', '本地:', '01:00、2019年8月31日周六', '协调世界时:', '17:00、2019年8月30日周五', '来源:', 'USAF 每小时地面观测', '报告类型:', 'METAR 航空例行天气报告', '露点:', '17.0°C', '上午2:00', '22°C', '1,015毫巴', '每小时10.8公里, 西', '10.00公里', '部分多云 (1,524米)', '本地:', '02:00、2019年8月31日周六', '协调世界时:', '18:00、2019年8月30日周五', '来源:', '周期文件', '趋势:', '无重要变化', '露点:', '18°C', '原始:', 'ZUUU 301800Z 25003MPS 210V280 9999 SCT050 22/18 Q1015 NOSIG', '上午2:00', '22.0°C', '1,015毫巴', '每小时10.8公里, 西', '10.00公里', '部分多云 (1,524米)', '本地:', '02:00、2019年8月31日周六', '协调世界时:', '18:00、2019年8月30日周五', '来源:', 'USAF 每小时地面观测', '报告类型:', 'METAR 航空例行天气报告', '露点:', '18.0°C', '上午3:00', '22°C', '1,015毫巴', '每小时7.20公里, 西', '10.00公里', '部分多云 (1,524米)', '本地:', '03:00、2019年8月31日周六', '协调世界时:', '19:00、2019年8月30日周五', '来源:', '周期文件', '趋势:', '无重要变化', '露点:', '17°C', '原始:', 'ZUUU 301900Z 25002MPS 210V270 9999 SCT050 22/17 Q1015 NOSIG', '上午3:00', '22.0°C', '1,015毫巴', '每小时7.20公里, 西', '10.00公里', '部分多云 (1,524米)', '本地:', '03:00、2019年8月31日周六', '协调世界时:', '19:00、2019年8月30日周五', '来源:', 'USAF 每小时地面观测', '报告类型:', 'METAR 航空例行天气报告', '露点:', '17.0°C', '上午4:00', '21°C', '1,014毫巴', '每小时0公里', '10.00公里', '部分多云 (1,219米)', '本地:', '04:00、2019年8月31日周六', '协调世界时:', '20:00、2019年8月30日周五', '来源:', '周期文件', '趋势:', '无重要变化', '露点:', '18°C', '其他云层:', '大部分晴天 (1,219米)', '天气:', 'Showers of Light Rain', '原始:', 'ZUUU 302000Z 00000MPS 9999 -SHRA FEW040CB SCT040 21/18 Q1014 NOSIG', '上午5:00', '21°C', '1,014毫巴', '每小时0公里', '10.00公里', '部分多云 (1,219米)', '本地:', '05:00、2019年8月31日周六', '协调世界时:', '21:00、2019年8月30日周五', '来源:', '周期文件', '趋势:', '无重要变化', '露点:', '18°C', '其他云层:', '大部分晴天 (1,219米)', '天气:', 'Showers of Light Rain', '原始:', 'ZUUU 302100Z 00000MPS 9999 -SHRA FEW040CB SCT040 21/18 Q1014 NOSIG', '上午6:00', '20°C', '1,014毫巴', '每小时0公里', '10.00公里', '部分多云 (1,219米)', '本地:', '06:00、2019年8月31日周六', '协调世界时:', '22:00、2019年8月30日周五', '来源:', '周期文件', '趋势:', '无重要变化', '露点:', '18°C', '其他云层:', '大部分晴天 (1,219米)', '天气:', 'Showers of Light Rain', '原始:', 'ZUUU 302200Z 00000MPS 9999 -SHRA FEW040CB SCT040 20/18 Q1014 NOSIG', '上午6:00', '20.0°C', '1,014毫巴', '每小时0公里', '10.00公里', '部分多云 (1,219米)', '本地:', '06:00、2019年8月31日周六', '协调世界时:', '22:00、2019年8月30日周五', '来源:', 'USAF 每小时地面观测', '报告类型:', 'METAR 航空例行天气报告', '露点:', '18.0°C', '其他云层:', '大部分晴天 (1,219米)', '天气:', 'Showers of Light Rain', '上午7:00', '20°C', '1,015毫巴', '每小时10.8公里, 西南', '10.00公里', '部分多云 (792米)', '本地:', '07:00、2019年8月31日周六', '协调世界时:', '23:00、2019年8月30日周五', '来源:', '周期文件', '趋势:', '无重要变化', '露点:', '18°C', '其他云层:', '部分多云 (1,219米)', '天气:', 'Showers of Light Rain', '原始:', 'ZUUU 302300Z 22003MPS 9999 -SHRA SCT026 SCT040 20/18 Q1015 NOSIG', '上午7:00', '20.0°C', '1,015毫巴', '每小时10.8公里, 西南', '10.00公里', '部分多云 (792米)', '本地:', '07:00、2019年8月31日周六', '协调世界时:', '23:00、2019年8月30日周五', '来源:', 'USAF 每小时地面观测', '报告类型:', 'METAR 航空例行天气报告', '露点:', '18.0°C', '其他云层:', '部分多云 (1,219米)', '天气:', 'Showers of Light Rain', '上午8:00', '20°C', '1,015毫巴', '每小时3.60公里, 西南', '10.00公里', '大部分多云 (1,219米)', '本地:', '08:00、2019年8月31日周六', '协调世界时:', '00:00、2019年8月31日周六', '来源:', '周期文件', '趋势:', '无重要变化', '露点:', '18°C', '天气:', 'Showers of Light Rain', '原始:', 'ZUUU 310000Z 22001MPS 9999 -SHRA BKN040 20/18 Q1015 NOSIG', '上午8:00', '20.0°C', '1,015毫巴', '每小时3.60公里, 西南', '10.00公里', '大部分多云 (1,219米)', '本地:', '08:00、2019年8月31日周六', '协调世界时:', '00:00、2019年8月31日周六', '来源:', 'USAF 每小时地面观测', '报告类型:', 'METAR 航空例行天气报告', '露点:', '18.0°C', '天气:', 'Showers of Light Rain', '上午9:00', '20°C', '1,016毫巴', '每小时3.60公里', '10.00公里', '大部分多云 (1,219米)', '本地:', '09:00、2019年8月31日周六', '协调世界时:', '01:00、2019年8月31日周六', '来源:', '周期文件', '趋势:', '无重要变化', '露点:', '18°C', '天气:', 'Showers of Light Rain', '原始:', 'ZUUU 310100Z VRB01MPS 9999 -SHRA BKN040 20/18 Q1016 NOSIG', '上午9:00', '20.0°C', '1,016毫巴', '每小时3.60公里', '10.00公里', '大部分多云 (1,219米)', '本地:', '09:00、2019年8月31日周六', '协调世界时:', '01:00、2019年8月31日周六', '来源:', 'USAF 每小时地面观测', '报告类型:', 'METAR 航空例行天气报告', '露点:', '18.0°C', '天气:', 'Showers of Light Rain', '上午10:00', '20°C', '1,017毫巴', '每小时0公里', '10.00公里', '部分多云 (1,219米)', '本地:', '10:00、2019年8月31日周六', '协调世界时:', '02:00、2019年8月31日周六', '来源:', '周期文件', '趋势:', '无重要变化', '露点:', '17°C', '天气:', 'Showers of Light Rain', '原始:', 'ZUUU 310200Z 00000MPS 9999 -SHRA SCT040 20/17 Q1017 NOSIG', '上午10:00', '20.0°C', '1,017毫巴', '每小时0公里', '10.00公里', '部分多云 (1,219米)', '本地:', '10:00、2019年8月31日周六', '协调世界时:', '02:00、2019年8月31日周六', '来源:', 'USAF 每小时地面观测', '报告类型:', 'METAR 航空例行天气报告', '露点:', '17.0°C', '天气:', 'Showers of Light Rain', '上午11:00', '20°C', '1,017毫巴', '每小时0公里', '10.00公里', '部分多云 (1,524米)', '本地:', '11:00、2019年8月31日周六', '协调世界时:', '03:00、2019年8月31日周六', '来源:', '周期文件', '趋势:', '无重要变化', '露点:', '18°C', '其他云层:', '大部分晴天 (1,006米)', '天气:', 'Showers of Light Rain', '原始:', 'ZUUU 310300Z 00000MPS 9999 -SHRA FEW033 SCT050 20/18 Q1017 NOSIG', '上午11:00', '20.0°C', '1,017毫巴', '每小时0公里', '10.00公里', '部分多云 (1,524米)', '本地:', '11:00、2019年8月31日周六', '协调世界时:', '03:00、2019年8月31日周六', '来源:', 'USAF 每小时地面观测', '报告类型:', 'METAR 航空例行天气报告', '露点:', '18.0°C', '其他云层:', '大部分晴天 (1,006米)', '天气:', 'Showers of Light Rain', '下午12:00', '20°C', '1,017毫巴', '每小时0公里', '10.00公里', '部分多云 (1,524米)', '本地:', '12:00、2019年8月31日周六', '协调世界时:', '04:00、2019年8月31日周六', '来源:', '周期文件', '趋势:', '无重要变化', '露点:', '18°C', '其他云层:', '大部分晴天 (1,006米)', '天气:', 'Showers of Light Rain', '原始:', 'ZUUU 310400Z 00000MPS 9999 -SHRA FEW033 SCT050 20/18 Q1017 NOSIG', '下午12:00', '20.0°C', '1,017毫巴', '每小时0公里', '10.00公里', '部分多云 (1,524米)', '本地:', '12:00、2019年8月31日周六', '协调世界时:', '04:00、2019年8月31日周六', '来源:', 'USAF 每小时地面观测', '报告类型:', 'METAR 航空例行天气报告', '露点:', '18.0°C', '其他云层:', '大部分晴天 (1,006米)', '天气:', 'Showers of Light Rain', '下午1:00', '21°C', '1,016毫巴', '每小时0公里', '10.00公里', '部分多云 (1,524米)', '本地:', '13:00、2019年8月31日周六', '协调世界时:', '05:00、2019年8月31日周六', '来源:', '周期文件', '趋势:', '无重要变化', '露点:', '18°C', '其他云层:', '大部分晴天 (1,006米)', '天气:', 'Showers of Light Rain', '原始:', 'ZUUU 310500Z 00000MPS 9999 -SHRA FEW033 SCT050 21/18 Q1016 NOSIG', '下午1:00', '21.0°C', '1,016毫巴', '每小时0公里', '10.00公里', '部分多云 (1,524米)', '本地:', '13:00、2019年8月31日周六', '协调世界时:', '05:00、2019年8月31日周六', '来源:', 'USAF 每小时地面观测', '报告类型:', 'METAR 航空例行天气报告', '露点:', '18.0°C', '其他云层:', '大部分晴天 (1,006米)', '天气:', 'Showers of Light Rain', '下午2:00', '21°C', '1,016毫巴', '每小时7.20公里', '10.00公里', '部分多云 (1,524米)', '本地:', '14:00、2019年8月31日周六', '协调世界时:', '06:00、2019年8月31日周六', '来源:', '周期文件', '趋势:', '无重要变化', '露点:', '19°C', '其他云层:', '大部分晴天 (1,006米)', '天气:', 'Showers of Light Rain', '原始:', 'ZUUU 310600Z VRB02MPS 9999 -SHRA FEW033 SCT050 21/19 Q1016 NOSIG', '下午2:00', '21.0°C', '1,016毫巴', '每小时7.20公里', '10.00公里', '部分多云 (1,524米)', '本地:', '14:00、2019年8月31日周六', '协调世界时:', '06:00、2019年8月31日周六', '来源:', 'USAF 每小时地面观测', '报告类型:', 'METAR 航空例行天气报告', '露点:', '19.0°C', '其他云层:', '大部分晴天 (1,006米)', '天气:', 'Showers of Light Rain', '下午3:00', '21°C', '1,015毫巴', '每小时7.20公里, 西南', '10.00公里', '部分多云 (1,524米)', '本地:', '15:00、2019年8月31日周六', '协调世界时:', '07:00、2019年8月31日周六', '来源:', '周期文件', '趋势:', '无重要变化', '露点:', '19°C', '其他云层:', '大部分晴天 (701米)', '天气:', 'Showers of Light Rain', '原始:', 'ZUUU 310700Z 22002MPS 180V260 9999 -SHRA FEW023TCU SCT050 21/19 Q1015 NOSIG', '下午3:00', '21.0°C', '1,015毫巴', '每小时7.20公里, 西南', '10.00公里', '部分多云 (1,524米)', '本地:', '15:00、2019年8月31日周六', '协调世界时:', '07:00、2019年8月31日周六', '来源:', 'USAF 每小时地面观测', '报告类型:', 'METAR 航空例行天气报告', '露点:', '19.0°C', '其他云层:', '大部分晴天 (701米)', '天气:', 'Showers of Light Rain', '下午4:00', '22°C', '1,015毫巴', '每小时0公里', '10.00公里', '部分多云 (1,524米)', '本地:', '16:00、2019年8月31日周六', '协调世界时:', '08:00、2019年8月31日周六', '来源:', '周期文件', '趋势:', '无重要变化', '露点:', '17°C', '其他云层:', '大部分晴天 (701米)', '原始:', 'ZUUU 310800Z 00000MPS 9999 FEW023 SCT050 22/17 Q1015 NOSIG', '下午4:00', '22.0°C', '1,015毫巴', '每小时0公里', '10.00公里', '部分多云 (1,524米)', '本地:', '16:00、2019年8月31日周六', '协调世界时:', '08:00、2019年8月31日周六', '来源:', 'USAF 每小时地面观测', '报告类型:', 'METAR 航空例行天气报告', '露点:', '17.0°C', '其他云层:', '大部分晴天 (701米)', '下午5:00', '23°C', '1,014毫巴', '每小时0公里', '10.00公里', '部分多云 (1,524米)', '本地:', '17:00、2019年8月31日周六', '协调世界时:', '09:00、2019年8月31日周六', '来源:', '周期文件', '趋势:', '无重要变化', '露点:', '18°C', '原始:', 'ZUUU 310900Z 00000MPS 9999 SCT050 23/18 Q1014 NOSIG', '下午5:00', '23.0°C', '1,014毫巴', '每小时0公里', '10.00公里', '部分多云 (1,524米)', '本地:', '17:00、2019年8月31日周六', '协调世界时:', '09:00、2019年8月31日周六', '来源:', 'USAF 每小时地面观测', '报告类型:', 'METAR 航空例行天气报告', '露点:', '18.0°C', '下午6:00', '22°C', '1,014毫巴', '每小时0公里', '≥ 10.00公里', '晴空万里', '本地:', '18:00、2019年8月31日周六', '协调世界时:', '10:00、2019年8月31日周六', '来源:', '周期文件', '趋势:', '无重要变化', '露点:', '18°C', '晴空万里:', '真', '原始:', 'ZUUU 311000Z 00000MPS CAVOK 22/18 Q1014 NOSIG', '下午6:00', '22.0°C', '1,014毫巴', '每小时0公里', '9.90公里', '晴空万里', '本地:', '18:00、2019年8月31日周六', '协调世界时:', '10:00、2019年8月31日周六', '来源:', 'USAF 每小时地面观测', '报告类型:', 'METAR 航空例行天气报告', '露点:', '18.0°C', '晴空万里:', '真', '下午7:00', '22°C', '1,015毫巴', '每小时3.60公里', '10.00公里', '大部分晴天 (792米)', '本地:', '19:00、2019年8月31日周六', '协调世界时:', '11:00、2019年8月31日周六', '来源:', '周期文件', '趋势:', '无重要变化', '露点:', '19°C', '原始:', 'ZUUU 311100Z VRB01MPS 9999 FEW026 22/19 Q1015 NOSIG', '下午7:00', '22.0°C', '1,015毫巴', '每小时3.60公里', '10.00公里', '大部分晴天 (792米)', '本地:', '19:00、2019年8月31日周六', '协调世界时:', '11:00、2019年8月31日周六', '来源:', 'USAF 每小时地面观测', '报告类型:', 'METAR 航空例行天气报告', '露点:', '19.0°C', '下午8:00', '22°C', '1,015毫巴', '每小时0公里', '10.00公里', '部分多云 (1,524米)', '本地:', '20:00、2019年8月31日周六', '协调世界时:', '12:00、2019年8月31日周六', '来源:', '周期文件', '趋势:', '无重要变化', '露点:', '18°C', '原始:', 'ZUUU 311200Z 00000MPS 9999 SCT050 22/18 Q1015 NOSIG', '下午8:00', '22.0°C', '1,015毫巴', '每小时0公里', '10.00公里', '部分多云 (1,524米)', '本地:', '20:00、2019年8月31日周六', '协调世界时:', '12:00、2019年8月31日周六', '来源:', 'USAF 每小时地面观测', '报告类型:', 'METAR 航空例行天气报告', '露点:', '18.0°C', '下午9:00', '22°C', '1,015毫巴', '每小时3.60公里', '10.00公里', '部分多云 (1,524米)', '本地:', '21:00、2019年8月31日周六', '协调世界时:', '13:00、2019年8月31日周六', '来源:', '周期文件', '趋势:', '无重要变化', '露点:', '19°C', '原始:', 'ZUUU 311300Z VRB01MPS 9999 SCT050 22/19 Q1015 NOSIG', '下午9:00', '22.0°C', '1,015毫巴', '每小时3.60公里', '10.00公里', '部分多云 (1,524米)', '本地:', '21:00、2019年8月31日周六', '协调世界时:', '13:00、2019年8月31日周六', '来源:', 'USAF 每小时地面观测', '报告类型:', 'METAR 航空例行天气报告', '露点:', '19.0°C', '下午10:00', '21°C', '1,016毫巴', '每小时7.20公里, 西南', '8.00公里', '部分多云 (1,219米)', '本地:', '22:00、2019年8月31日周六', '协调世界时:', '14:00、2019年8月31日周六', '来源:', '周期文件', '趋势:', '无重要变化', '露点:', '20°C', '天气:', 'Showers of Light Rain', '原始:', 'ZUUU 311400Z 21002MPS 8000 -SHRA SCT040 21/20 Q1016 NOSIG', '下午10:00', '21.0°C', '1,016毫巴', '每小时7.20公里, 西南', '8.00公里', '部分多云 (1,219米)', '本地:', '22:00、2019年8月31日周六', '协调世界时:', '14:00、2019年8月31日周六', '来源:', 'USAF 每小时地面观测', '报告类型:', 'METAR 航空例行天气报告', '露点:', '20.0°C', '天气:', 'Showers of Light Rain', '下午11:00', '22°C', '1,016毫巴', '每小时3.60公里, 西', '7.00公里', '部分多云 (1,006米)', '本地:', '23:00、2019年8月31日周六', '协调世界时:', '15:00、2019年8月31日周六', '来源:', '周期文件', '趋势:', '无重要变化', '露点:', '19°C', '其他云层:', '大部分晴天 (335米)', '天气:', 'Showers of Light Rain', '原始:', 'ZUUU 311500Z 26001MPS 7000 -SHRA FEW011 SCT033 22/19 Q1016 NOSIG', '下午11:00', '22.0°C', '1,016毫巴', '每小时3.60公里, 西', '7.00公里', '部分多云 (1,006米)', '本地:', '23:00、2019年8月31日周六', '协调世界时:', '15:00、2019年8月31日周六', '来源:', 'USAF 每小时地面观测', '报告类型:', 'METAR 航空例行天气报告', '露点:', '19.0°C', '其他云层:', '大部分晴天 (335米)', '天气:', 'Showers of Light Rain']