['Mist', 'BR、IWC10', 'Mist', 'BR、IWC10', 'Mist', 'BR、IWC10', 'Mist', 'BR、IWC10', 'Mist', 'BR、IWC10', 'Mist', 'BR、IWC10', 'Mist', 'BR、IWC10', 'Mist', 'BR、IWC10', 'Mist', 'BR、IWC10', 'Mist', 'BR、IWC10', 'Mist', 'BR、IWC10', 'Mist', 'BR、IWC10', 'Mist', 'BR、IWC10', 'Mist', 'BR、IWC10', 'Haze', 'HZ、IWC05', 'Mist', 'BR、IWC10', 'Haze、Mist', 'HZ、IWC05、BR', 'Haze', 'HZ、IWC05', 'Mist', 'BR、IWC10', 'Mist', 'BR、IWC10', 'Mist', 'BR、IWC10', 'Mist', 'BR、IWC10', 'Mist', 'BR、IWC10', 'Mist', 'BR、IWC10', '上午12:00', '11°C', '1,022毫巴', '每小时0公里', '3.00公里', '部分多云 (1,219米)', '本地:', '00:00、2019年12月14日周六', '协调世界时:', '16:00、2019年12月13日周五', '来源:', '周期文件', '趋势:', '无重要变化', '露点:', '9°C', '天气:', 'Mist', '原始:', 'ZUUU 131600Z 00000MPS 3000 BR SCT040 11/09 Q1022 NOSIG', '上午12:00', '11.0°C', '1,022毫巴', '每小时0公里', '3.00公里', '部分多云 (1,219米)', '本地:', '00:00、2019年12月14日周六', '协调世界时:', '16:00、2019年12月13日周五', '来源:', 'USAF 每小时地面观测', '报告类型:', 'METAR 航空例行天气报告', '露点:', '9.0°C', '天气:', 'Mist', '上午1:00', '10°C', '1,021毫巴', '每小时0公里', '3.00公里', '部分多云 (1,219米)', '本地:', '01:00、2019年12月14日周六', '协调世界时:', '17:00、2019年12月13日周五', '来源:', '周期文件', '趋势:', '无重要变化', '露点:', '9°C', '天气:', 'Mist', '原始:', 'ZUUU 131700Z 00000MPS 3000 BR SCT040 10/09 Q1021 NOSIG', '上午1:00', '10.0°C', '1,021毫巴', '每小时0公里', '3.00公里', '部分多云 (1,219米)', '本地:', '01:00、2019年12月14日周六', '协调世界时:', '17:00、2019年12月13日周五', '来源:', 'USAF 每小时地面观测', '报告类型:', 'METAR 航空例行天气报告', '露点:', '9.0°C', '天气:', 'Mist', '上午2:00', '10°C', '1,021毫巴', '每小时0公里', '3.00公里', '部分多云 (1,219米)', '本地:', '02:00、2019年12月14日周六', '协调世界时:', '18:00、2019年12月13日周五', '来源:', '周期文件', '趋势:', '无重要变化', '露点:', '10°C', '天气:', 'Mist', '原始:', 'ZUUU 131800Z 00000MPS 3000 BR SCT040 10/10 Q1021 NOSIG', '上午2:00', '10.0°C', '1,021毫巴', '每小时0公里', '3.00公里', '部分多云 (1,219米)', '本地:', '02:00、2019年12月14日周六', '协调世界时:', '18:00、2019年12月13日周五', '来源:', 'USAF 每小时地面观测', '报告类型:', 'METAR 航空例行天气报告', '露点:', '10.0°C', '天气:', 'Mist', '上午3:00', '10°C', '1,021毫巴', '每小时0公里', '2.50公里', '部分多云 (1,219米)', '本地:', '03:00、2019年12月14日周六', '协调世界时:', '19:00、2019年12月13日周五', '来源:', '周期文件', '趋势:', '无重要变化', '露点:', '10°C', '天气:', 'Mist', '原始:', 'ZUUU 131900Z 00000MPS 2500 BR SCT040 10/10 Q1021 NOSIG', '上午3:00', '10.0°C', '1,021毫巴', '每小时0公里', '2.50公里', '部分多云 (1,219米)', '本地:', '03:00、2019年12月14日周六', '协调世界时:', '19:00、2019年12月13日周五', '来源:', 'USAF 每小时地面观测', '报告类型:', 'METAR 航空例行天气报告', '露点:', '10.0°C', '天气:', 'Mist', '上午4:00', '10°C', '1,021毫巴', '每小时0公里', '2.50公里', '部分多云 (1,219米)', '本地:', '04:00、2019年12月14日周六', '协调世界时:', '20:00、2019年12月13日周五', '来源:', '周期文件', '趋势:', '无重要变化', '露点:', '9°C', '天气:', 'Mist', '原始:', 'ZUUU 132000Z 00000MPS 2500 BR SCT040 10/09 Q1021 NOSIG', '上午4:00', '10.0°C', '1,021毫巴', '每小时0公里', '2.50公里', '部分多云 (1,219米)', '本地:', '04:00、2019年12月14日周六', '协调世界时:', '20:00、2019年12月13日周五', '来源:', 'USAF 每小时地面观测', '报告类型:', 'METAR 航空例行天气报告', '露点:', '9.0°C', '天气:', 'Mist', '上午5:00', '10°C', '1,021毫巴', '每小时0公里', '2.50公里', '部分多云 (1,219米)', '本地:', '05:00、2019年12月14日周六', '协调世界时:', '21:00、2019年12月13日周五', '来源:', '周期文件', '趋势:', '无重要变化', '露点:', '9°C', '天气:', 'Mist', '原始:', 'ZUUU 132100Z 00000MPS 2500 BR SCT040 10/09 Q1021 NOSIG', '上午5:00', '10.0°C', '1,021毫巴', '每小时0公里', '2.50公里', '部分多云 (1,219米)', '本地:', '05:00、2019年12月14日周六', '协调世界时:', '21:00、2019年12月13日周五', '来源:', 'USAF 每小时地面观测', '报告类型:', 'METAR 航空例行天气报告', '露点:', '9.0°C', '天气:', 'Mist', '上午6:00', '10°C', '1,021毫巴', '每小时0公里', '2.50公里', '部分多云 (1,219米)', '本地:', '06:00、2019年12月14日周六', '协调世界时:', '22:00、2019年12月13日周五', '来源:', '周期文件', '趋势:', '无重要变化', '露点:', '9°C', '天气:', 'Mist', '原始:', 'ZUUU 132200Z 00000MPS 2500 BR SCT040 10/09 Q1021 NOSIG', '上午6:00', '10.0°C', '1,021毫巴', '每小时0公里', '2.50公里', '部分多云 (1,219米)', '本地:', '06:00、2019年12月14日周六', '协调世界时:', '22:00、2019年12月13日周五', '来源:', 'USAF 每小时地面观测', '报告类型:', 'METAR 航空例行天气报告', '露点:', '9.0°C', '天气:', 'Mist', '上午7:00', '10°C', '1,021毫巴', '每小时0公里', '2.20公里', '部分多云 (1,219米)', '本地:', '07:00、2019年12月14日周六', '协调世界时:', '23:00、2019年12月13日周五', '来源:', '周期文件', '趋势:', '无重要变化', '露点:', '9°C', '其他云层:', '大部分晴天 (701米)', '天气:', 'Mist', '原始:', 'ZUUU 132300Z 00000MPS 2200 BR FEW023 SCT040 10/09 Q1021 NOSIG', '上午7:00', '10.0°C', '1,021毫巴', '每小时0公里', '2.20公里', '部分多云 (1,219米)', '本地:', '07:00、2019年12月14日周六', '协调世界时:', '23:00、2019年12月13日周五', '来源:', 'USAF 每小时地面观测', '报告类型:', 'METAR 航空例行天气报告', '露点:', '9.0°C', '其他云层:', '大部分晴天 (701米)', '天气:', 'Mist', '上午8:00', '10°C', '1,021毫巴', '每小时0公里', '1.70公里', '部分多云 (1,219米)', '本地:', '08:00、2019年12月14日周六', '协调世界时:', '00:00、2019年12月14日周六', '来源:', '周期文件', '趋势:', '无重要变化', '露点:', '10°C', '天气:', 'Mist', '原始:', 'ZUUU 140000Z 00000MPS 1700 BR SCT040 10/10 Q1021 NOSIG', '上午8:00', '10.0°C', '1,021毫巴', '每小时0公里', '1.70公里', '部分多云 (1,219米)', '本地:', '08:00、2019年12月14日周六', '协调世界时:', '00:00、2019年12月14日周六', '来源:', 'USAF 每小时地面观测', '报告类型:', 'METAR 航空例行天气报告', '露点:', '10.0°C', '天气:', 'Mist', '上午9:00', '10°C', '1,022毫巴', '每小时10.8公里, 西南', '1.70公里', '部分多云 (1,524米)', '本地:', '09:00、2019年12月14日周六', '协调世界时:', '01:00、2019年12月14日周六', '来源:', '周期文件', '趋势:', '变化为', '露点:', '10°C', '天气:', 'Mist', '原始:', 'ZUUU 140100Z 22003MPS 1700 R02L/1300U R02R/1200N BR SCT050 10/10 Q1022 BECMG TL0250 3500', '上午9:00', '10.0°C', '1,022毫巴', '每小时10.8公里, 西南', '1.70公里', '部分多云 (1,524米)', '本地:', '09:00、2019年12月14日周六', '协调世界时:', '01:00、2019年12月14日周六', '来源:', 'USAF 每小时地面观测', '报告类型:', 'METAR 航空例行天气报告', '露点:', '10.0°C', '天气:', 'Mist', '上午10:00', '12°C', '1,022毫巴', '每小时0公里', '1.80公里', '部分多云 (1,524米)', '本地:', '10:00、2019年12月14日周六', '协调世界时:', '02:00、2019年12月14日周六', '来源:', '周期文件', '趋势:', '无重要变化', '露点:', '9°C', '天气:', 'Mist', '原始:', 'ZUUU 140200Z 00000MPS 1800 R02L/1900N R02R/1300N BR SCT050 12/09 Q1022 NOSIG', '上午10:00', '12.0°C', '1,022毫巴', '每小时0公里', '1.80公里', '部分多云 (1,524米)', '本地:', '10:00、2019年12月14日周六', '协调世界时:', '02:00、2019年12月14日周六', '来源:', 'USAF 每小时地面观测', '报告类型:', 'METAR 航空例行天气报告', '露点:', '9.0°C', '天气:', 'Mist', '上午11:00', '13°C', '1,022毫巴', '每小时0公里', '2.00公里', '部分多云 (1,524米)', '本地:', '11:00、2019年12月14日周六', '协调世界时:', '03:00、2019年12月14日周六', '来源:', '周期文件', '趋势:', '无重要变化', '露点:', '9°C', '天气:', 'Mist', '原始:', 'ZUUU 140300Z 00000MPS 2000 BR SCT050 13/09 Q1022 NOSIG', '上午11:00', '13.0°C', '1,022毫巴', '每小时0公里', '2.00公里', '部分多云 (1,524米)', '本地:', '11:00、2019年12月14日周六', '协调世界时:', '03:00、2019年12月14日周六', '来源:', 'USAF 每小时地面观测', '报告类型:', 'METAR 航空例行天气报告', '露点:', '9.0°C', '天气:', 'Mist', '下午12:00', '13°C', '1,020毫巴', '每小时0公里', '2.60公里', '部分多云 (1,219米)', '本地:', '12:00、2019年12月14日周六', '协调世界时:', '04:00、2019年12月14日周六', '来源:', '周期文件', '趋势:', '无重要变化', '露点:', '9°C', '天气:', 'Mist', '原始:', 'ZUUU 140400Z 00000MPS 2600 BR SCT040 13/09 Q1020 NOSIG', '下午12:00', '13.0°C', '1,020毫巴', '每小时0公里', '2.60公里', '部分多云 (1,219米)', '本地:', '12:00、2019年12月14日周六', '协调世界时:', '04:00、2019年12月14日周六', '来源:', 'USAF 每小时地面观测', '报告类型:', 'METAR 航空例行天气报告', '露点:', '9.0°C', '天气:', 'Mist', '下午1:00', '13°C', '1,019毫巴', '每小时3.60公里', '3.00公里', '部分多云 (1,219米)', '本地:', '13:00、2019年12月14日周六', '协调世界时:', '05:00、2019年12月14日周六', '来源:', '周期文件', '趋势:', '无重要变化', '露点:', '8°C', '天气:', 'Mist', '原始:', 'ZUUU 140500Z VRB01MPS 3000 BR SCT040 13/08 Q1019 NOSIG', '下午1:00', '13.0°C', '1,019毫巴', '每小时3.60公里', '3.00公里', '部分多云 (1,219米)', '本地:', '13:00、2019年12月14日周六', '协调世界时:', '05:00、2019年12月14日周六', '来源:', 'USAF 每小时地面观测', '报告类型:', 'METAR 航空例行天气报告', '露点:', '8.0°C', '天气:', 'Mist', '下午2:00', '14°C', '1,017毫巴', '每小时0公里', '3.30公里', '部分多云 (1,524米)', '本地:', '14:00、2019年12月14日周六', '协调世界时:', '06:00、2019年12月14日周六', '来源:', '周期文件', '趋势:', '无重要变化', '露点:', '7°C', '天气:', 'Haze', '原始:', 'ZUUU 140600Z 00000MPS 3300 HZ SCT050 14/07 Q1017 NOSIG', '下午2:00', '14.0°C', '1,017毫巴', '每小时0公里', '3.30公里', '部分多云 (1,524米)', '本地:', '14:00、2019年12月14日周六', '协调世界时:', '06:00、2019年12月14日周六', '来源:', 'USAF 每小时地面观测', '报告类型:', 'METAR 航空例行天气报告', '露点:', '7.0°C', '天气:', 'Haze', '下午3:00', '13°C', '1,016毫巴', '每小时7.20公里, 北', '3.30公里', '部分多云 (1,524米)', '本地:', '15:00、2019年12月14日周六', '协调世界时:', '07:00、2019年12月14日周六', '来源:', '周期文件', '趋势:', '无重要变化', '露点:', '8°C', '天气:', 'Mist', '原始:', 'ZUUU 140700Z 01002MPS 330V040 3300 BR SCT050 13/08 Q1016 NOSIG', '下午3:00', '13.0°C', '1,016毫巴', '每小时7.20公里, 北', '3.30公里', '部分多云 (1,524米)', '本地:', '15:00、2019年12月14日周六', '协调世界时:', '07:00、2019年12月14日周六', '来源:', 'USAF 每小时地面观测', '报告类型:', 'METAR 航空例行天气报告', '露点:', '8.0°C', '天气:', 'Mist', '下午4:00', '14°C', '1,016毫巴', '每小时7.20公里, 北', '3.00公里', '大部分晴天 (1,524米)', '本地:', '16:00、2019年12月14日周六', '协调世界时:', '08:00、2019年12月14日周六', '来源:', '周期文件', '趋势:', '变化为', '露点:', '8°C', '天气:', 'Haze、Mist', '原始:', 'ZUUU 140800Z 02002MPS 330V050 3000 HZ FEW050 14/08 Q1016 BECMG TL0940 2700 BR', '下午4:00', '14.0°C', '1,016毫巴', '每小时7.20公里, 北', '3.00公里', '大部分晴天 (1,524米)', '本地:', '16:00、2019年12月14日周六', '协调世界时:', '08:00、2019年12月14日周六', '来源:', 'USAF 每小时地面观测', '报告类型:', 'METAR 航空例行天气报告', '露点:', '8.0°C', '天气:', 'Haze', '下午5:00', '13°C', '1,015毫巴', '每小时7.20公里, 北', '3.30公里', '无重要云', '本地:', '17:00、2019年12月14日周六', '协调世界时:', '09:00、2019年12月14日周六', '来源:', '周期文件', '趋势:', '无重要变化', '露点:', '7°C', '天气:', 'Haze', '原始:', 'ZUUU 140900Z 36002MPS 320V030 3300 HZ NSC 13/07 Q1015 NOSIG', '下午5:00', '13.0°C', '1,015毫巴', '每小时7.20公里, 北', '3.30公里', '未检测到云', '本地:', '17:00、2019年12月14日周六', '协调世界时:', '09:00、2019年12月14日周六', '来源:', 'USAF 每小时地面观测', '报告类型:', 'METAR 航空例行天气报告', '露点:', '7.0°C', '天气:', 'Haze', '下午6:00', '12°C', '1,015毫巴', '每小时3.60公里', '3.30公里', '无重要云', '本地:', '18:00、2019年12月14日周六', '协调世界时:', '10:00、2019年12月14日周六', '来源:', '周期文件', '趋势:', '无重要变化', '露点:', '7°C', '天气:', 'Mist', '原始:', 'ZUUU 141000Z VRB01MPS 3300 BR NSC 12/07 Q1015 NOSIG', '下午6:00', '12.0°C', '1,015毫巴', '每小时3.60公里', '3.30公里', '未检测到云', '本地:', '18:00、2019年12月14日周六', '协调世界时:', '10:00、2019年12月14日周六', '来源:', 'USAF 每小时地面观测', '报告类型:', 'METAR 航空例行天气报告', '露点:', '7.0°C', '天气:', 'Mist', '下午7:00', '11°C', '1,016毫巴', '每小时3.60公里, 北', '4.00公里', '无重要云', '本地:', '19:00、2019年12月14日周六', '协调世界时:', '11:00、2019年12月14日周六', '来源:', '周期文件', '趋势:', '无重要变化', '露点:', '8°C', '天气:', 'Mist', '原始:', 'ZUUU 141100Z 35001MPS 4000 BR NSC 11/08 Q1016 NOSIG', '下午7:00', '11.0°C', '1,016毫巴', '每小时3.60公里, 北', '4.00公里', '未检测到云', '本地:', '19:00、2019年12月14日周六', '协调世界时:', '11:00、2019年12月14日周六', '来源:', 'USAF 每小时地面观测', '报告类型:', 'METAR 航空例行天气报告', '露点:', '8.0°C', '天气:', 'Mist', '下午8:00', '11°C', '1,016毫巴', '每小时7.20公里, 北', '4.00公里', '无重要云', '本地:', '20:00、2019年12月14日周六', '协调世界时:', '12:00、2019年12月14日周六', '来源:', '周期文件', '趋势:', '无重要变化', '露点:', '8°C', '天气:', 'Mist', '原始:', 'ZUUU 141200Z 01002MPS 330V030 4000 BR NSC 11/08 Q1016 NOSIG', '下午8:00', '11.0°C', '1,016毫巴', '每小时7.20公里, 北', '4.00公里', '未检测到云', '本地:', '20:00、2019年12月14日周六', '协调世界时:', '12:00、2019年12月14日周六', '来源:', 'USAF 每小时地面观测', '报告类型:', 'METAR 航空例行天气报告', '露点:', '8.0°C', '天气:', 'Mist', '下午9:00', '10°C', '1,016毫巴', '每小时3.60公里', '4.00公里', '无重要云', '本地:', '21:00、2019年12月14日周六', '协调世界时:', '13:00、2019年12月14日周六', '来源:', '周期文件', '趋势:', '无重要变化', '露点:', '8°C', '天气:', 'Mist', '原始:', 'ZUUU 141300Z VRB01MPS 4000 BR NSC 10/08 Q1016 NOSIG', '下午9:00', '10.0°C', '1,016毫巴', '每小时3.60公里', '4.00公里', '未检测到云', '本地:', '21:00、2019年12月14日周六', '协调世界时:', '13:00、2019年12月14日周六', '来源:', 'USAF 每小时地面观测', '报告类型:', 'METAR 航空例行天气报告', '露点:', '8.0°C', '天气:', 'Mist', '下午10:00', '11°C', '1,016毫巴', '每小时3.60公里', '4.00公里', '无重要云', '本地:', '22:00、2019年12月14日周六', '协调世界时:', '14:00、2019年12月14日周六', '来源:', '周期文件', '趋势:', '无重要变化', '露点:', '8°C', '天气:', 'Mist', '原始:', 'ZUUU 141400Z VRB01MPS 4000 BR NSC 11/08 Q1016 NOSIG', '下午10:00', '11.0°C', '1,016毫巴', '每小时3.60公里', '4.00公里', '未检测到云', '本地:', '22:00、2019年12月14日周六', '协调世界时:', '14:00、2019年12月14日周六', '来源:', 'USAF 每小时地面观测', '报告类型:', 'METAR 航空例行天气报告', '露点:', '8.0°C', '天气:', 'Mist', '下午11:00', '11°C', '1,015毫巴', '每小时3.60公里, 北', '4.00公里', '无重要云', '本地:', '23:00、2019年12月14日周六', '协调世界时:', '15:00、2019年12月14日周六', '来源:', '周期文件', '趋势:', '无重要变化', '露点:', '8°C', '天气:', 'Mist', '原始:', 'ZUUU 141500Z 35001MPS 4000 BR NSC 11/08 Q1015 NOSIG', '下午11:00', '11.0°C', '1,015毫巴', '每小时3.60公里, 北', '4.00公里', '未检测到云', '本地:', '23:00、2019年12月14日周六', '协调世界时:', '15:00、2019年12月14日周六', '来源:', 'USAF 每小时地面观测', '报告类型:', 'METAR 航空例行天气报告', '露点:', '8.0°C', '天气:', 'Mist']