['Thunderstorm with Rain、Showers of Light Rain、Mist', 'TSRA、IWC95、-SHRA、BR、IWC10', 'Recent Thunderstorm with Rain、Showers of Light Rain', 'RETSRA、-SHRA、IWC80', 'Thunderstorm with Rain、Showers of Light Rain、Mist', 'TSRA、IWC95、-SHRA、BR、IWC10', 'Recent Thunderstorm with Rain、Showers of Light Rain', 'RETSRA、-SHRA、IWC80', 'Showers of Light Rain', '-SHRA、IWC80', 'Showers of Light Rain', '-SHRA、IWC80', 'Showers of Light Rain', '-SHRA、IWC80', 'Mist', 'BR、IWC10', 'Recent Showers of Rain、Showers of Light Rain', 'RESHRA、-SHRA、IWC80', '上午12:00', '25°C', '1,006毫巴', '每小时0公里', '4.00公里', '部分多云 (1,219米)', '本地:', '00:00、2019年8月3日周六', '协调世界时:', '16:00、2019年8月2日周五', '来源:', '周期文件', '趋势:', '变化为', '露点:', '22°C', '其他云层:', '大部分晴天 (305米)', '天气:', 'Thunderstorm with Rain、Mist、Showers of Light Rain', '原始:', 'ZUUU 021600Z 00000MPS 4000 TSRA BR FEW010 SCT040 SCT040CB 25/22 Q1006 BECMG TL1700 -SHRA', '上午12:00', '25.0°C', '1,006毫巴', '每小时0公里', '4.00公里', '部分多云 (1,219米)', '本地:', '00:00、2019年8月3日周六', '协调世界时:', '16:00、2019年8月2日周五', '来源:', 'USAF 每小时地面观测', '报告类型:', 'METAR 航空例行天气报告', '露点:', '22.0°C', '其他云层:', '大部分晴天 (305米)', '天气:', 'Mist、Thunderstorm with Rain', '上午1:00', '23°C', '1,006毫巴', '每小时25.2公里, 北', '7.00公里', '部分多云 (1,006米)', '本地:', '01:00、2019年8月3日周六', '协调世界时:', '17:00、2019年8月2日周五', '来源:', '周期文件', '趋势:', '无重要变化', '露点:', '22°C', '其他云层:', '大部分晴天 (244米)、大部分晴天 (1,006米)', '天气:', 'Showers of Light Rain、Recent Thunderstorm with Rain', '原始:', 'ZUUU 021700Z 02007MPS 7000 -SHRA FEW008 FEW033CB SCT033 23/22 Q1006 RETSRA NOSIG', '上午1:00', '23.0°C', '1,006毫巴', '每小时25.2公里, 北', '7.00公里', '部分多云 (1,006米)', '本地:', '01:00、2019年8月3日周六', '协调世界时:', '17:00、2019年8月2日周五', '来源:', 'USAF 每小时地面观测', '报告类型:', 'METAR 航空例行天气报告', '露点:', '22.0°C', '其他云层:', '大部分晴天 (244米)、大部分晴天 (1,006米)', '天气:', 'Showers of Light Rain', '上午2:00', '23°C', '1,006毫巴', '每小时3.60公里', '5.00公里', '部分多云 (914米)', '本地:', '02:00、2019年8月3日周六', '协调世界时:', '18:00、2019年8月2日周五', '来源:', '周期文件', '趋势:', '变化为', '露点:', '22°C', '其他云层:', '大部分晴天 (244米)', '天气:', 'Thunderstorm with Rain、Mist、Showers of Light Rain', '原始:', 'ZUUU 021800Z VRB01MPS 5000 TSRA BR FEW008 SCT030CB SCT030 23/22 Q1006 BECMG TL1830 -SHRA', '上午2:00', '23.0°C', '1,006毫巴', '每小时3.60公里', '5.00公里', '部分多云 (914米)', '本地:', '02:00、2019年8月3日周六', '协调世界时:', '18:00、2019年8月2日周五', '来源:', 'USAF 每小时地面观测', '报告类型:', 'METAR 航空例行天气报告', '露点:', '22.0°C', '其他云层:', '大部分晴天 (244米)', '天气:', 'Mist、Thunderstorm with Rain', '上午3:00', '23°C', '1,005毫巴', '每小时18.0公里, 东北', '6.00公里', '部分多云 (914米)', '本地:', '03:00、2019年8月3日周六', '协调世界时:', '19:00、2019年8月2日周五', '来源:', '周期文件', '趋势:', '无重要变化', '露点:', '22°C', '其他云层:', '大部分晴天 (244米)', '天气:', 'Showers of Light Rain、Recent Thunderstorm with Rain', '原始:', 'ZUUU 021900Z 05005MPS 020V090 6000 -SHRA FEW008 SCT030CB SCT030 23/22 Q1005 RETSRA NOSIG', '上午3:00', '23.0°C', '1,005毫巴', '每小时18.0公里, 东北', '6.00公里', '部分多云 (914米)', '本地:', '03:00、2019年8月3日周六', '协调世界时:', '19:00、2019年8月2日周五', '来源:', 'USAF 每小时地面观测', '报告类型:', 'METAR 航空例行天气报告', '露点:', '22.0°C', '其他云层:', '大部分晴天 (244米)', '天气:', 'Showers of Light Rain', '上午4:00', '24°C', '1,005毫巴', '每小时10.8公里, 东南', '8.00公里', '大部分多云 (1,006米)', '本地:', '04:00、2019年8月3日周六', '协调世界时:', '20:00、2019年8月2日周五', '来源:', '周期文件', '趋势:', '无重要变化', '露点:', '22°C', '其他云层:', '大部分晴天 (244米)、大部分晴天 (1,006米)', '天气:', 'Showers of Light Rain', '原始:', 'ZUUU 022000Z 14003MPS 080V150 8000 -SHRA FEW008 FEW033CB BKN033 24/22 Q1005 NOSIG', '上午4:00', '24.0°C', '1,005毫巴', '每小时10.8公里, 东南', '8.00公里', '大部分多云 (1,006米)', '本地:', '04:00、2019年8月3日周六', '协调世界时:', '20:00、2019年8月2日周五', '来源:', 'USAF 每小时地面观测', '报告类型:', 'METAR 航空例行天气报告', '露点:', '22.0°C', '其他云层:', '大部分晴天 (244米)、大部分晴天 (1,006米)', '天气:', 'Showers of Light Rain', '上午5:00', '23°C', '1,005毫巴', '每小时10.8公里, 东', '8.00公里', '大部分多云 (1,219米)', '本地:', '05:00、2019年8月3日周六', '协调世界时:', '21:00、2019年8月2日周五', '来源:', '周期文件', '趋势:', '无重要变化', '露点:', '22°C', '其他云层:', '大部分晴天 (305米)、大部分晴天 (1,219米)', '天气:', 'Showers of Light Rain', '原始:', 'ZUUU 022100Z 10003MPS 050V140 8000 -SHRA FEW010 FEW040CB BKN040 23/22 Q1005 NOSIG', '上午5:00', '23.0°C', '1,005毫巴', '每小时10.8公里, 东', '8.00公里', '大部分多云 (1,219米)', '本地:', '05:00、2019年8月3日周六', '协调世界时:', '21:00、2019年8月2日周五', '来源:', 'USAF 每小时地面观测', '报告类型:', 'METAR 航空例行天气报告', '露点:', '22.0°C', '其他云层:', '大部分晴天 (305米)、大部分晴天 (1,219米)', '天气:', 'Showers of Light Rain', '上午6:00', '23°C', '1,004毫巴', '每小时3.60公里', '8.00公里', '部分多云 (1,219米)', '本地:', '06:00、2019年8月3日周六', '协调世界时:', '22:00、2019年8月2日周五', '来源:', '周期文件', '趋势:', '无重要变化', '露点:', '22°C', '其他云层:', '大部分晴天 (305米)、大部分晴天 (1,219米)', '天气:', 'Showers of Light Rain', '原始:', 'ZUUU 022200Z VRB01MPS 8000 -SHRA FEW010 FEW040CB SCT040 23/22 Q1004 NOSIG', '上午6:00', '23.0°C', '1,004毫巴', '每小时3.60公里', '8.00公里', '部分多云 (1,219米)', '本地:', '06:00、2019年8月3日周六', '协调世界时:', '22:00、2019年8月2日周五', '来源:', 'USAF 每小时地面观测', '报告类型:', 'METAR 航空例行天气报告', '露点:', '22.0°C', '其他云层:', '大部分晴天 (305米)、大部分晴天 (1,219米)', '天气:', 'Showers of Light Rain', '上午7:00', '24°C', '1,005毫巴', '每小时0公里', '5.00公里', '部分多云 (305米)', '本地:', '07:00、2019年8月3日周六', '协调世界时:', '23:00、2019年8月2日周五', '来源:', '周期文件', '趋势:', '无重要变化', '露点:', '22°C', '其他云层:', '部分多云 (792米)', '天气:', 'Mist', '原始:', 'ZUUU 022300Z 00000MPS 5000 BR SCT010 SCT026 24/22 Q1005 NOSIG', '上午7:00', '24.0°C', '1,005毫巴', '每小时0公里', '5.00公里', '部分多云 (305米)', '本地:', '07:00、2019年8月3日周六', '协调世界时:', '23:00、2019年8月2日周五', '来源:', 'USAF 每小时地面观测', '报告类型:', 'METAR 航空例行天气报告', '露点:', '22.0°C', '其他云层:', '部分多云 (792米)', '天气:', 'Mist', '上午8:00', '24°C', '1,005毫巴', '每小时3.60公里, 北', '8.00公里', '大部分晴天 (792米)', '本地:', '08:00、2019年8月3日周六', '协调世界时:', '00:00、2019年8月3日周六', '来源:', '周期文件', '趋势:', '无重要变化', '露点:', '22°C', '原始:', 'ZUUU 030000Z 01001MPS 8000 FEW026 24/22 Q1005 NOSIG', '上午8:00', '24.0°C', '1,005毫巴', '每小时3.60公里, 北', '8.00公里', '大部分晴天 (792米)', '本地:', '08:00、2019年8月3日周六', '协调世界时:', '00:00、2019年8月3日周六', '来源:', 'USAF 每小时地面观测', '报告类型:', 'METAR 航空例行天气报告', '露点:', '22.0°C', '上午9:00', '25°C', '1,006毫巴', '每小时7.20公里, 东', '≥ 10.00公里', '晴空万里', '本地:', '09:00、2019年8月3日周六', '协调世界时:', '01:00、2019年8月3日周六', '来源:', '周期文件', '趋势:', '无重要变化', '露点:', '22°C', '晴空万里:', '真', '原始:', 'ZUUU 030100Z 09002MPS 040V130 CAVOK 25/22 Q1006 NOSIG', '上午9:00', '25.0°C', '1,006毫巴', '每小时7.20公里, 东', '9.90公里', '晴空万里', '本地:', '09:00、2019年8月3日周六', '协调世界时:', '01:00、2019年8月3日周六', '来源:', 'USAF 每小时地面观测', '报告类型:', 'METAR 航空例行天气报告', '露点:', '22.0°C', '晴空万里:', '真', '上午10:00', '26°C', '1,006毫巴', '每小时3.60公里', '10.00公里', '大部分晴天 (792米)', '本地:', '10:00、2019年8月3日周六', '协调世界时:', '02:00、2019年8月3日周六', '来源:', '周期文件', '趋势:', '无重要变化', '露点:', '22°C', '原始:', 'ZUUU 030200Z VRB01MPS 9999 FEW026 26/22 Q1006 NOSIG', '上午10:00', '26.0°C', '1,006毫巴', '每小时3.60公里', '10.00公里', '大部分晴天 (792米)', '本地:', '10:00、2019年8月3日周六', '协调世界时:', '02:00、2019年8月3日周六', '来源:', 'USAF 每小时地面观测', '报告类型:', 'METAR 航空例行天气报告', '露点:', '22.0°C', '上午11:00', '28°C', '1,006毫巴', '每小时10.8公里, 北', '10.00公里', '大部分晴天 (792米)', '本地:', '11:00、2019年8月3日周六', '协调世界时:', '03:00、2019年8月3日周六', '来源:', '周期文件', '趋势:', '无重要变化', '露点:', '22°C', '原始:', 'ZUUU 030300Z 02003MPS 350V060 9999 FEW026TCU FEW026 28/22 Q1006 NOSIG', '上午11:00', '28.0°C', '1,006毫巴', '每小时10.8公里, 北', '10.00公里', '大部分晴天 (792米)', '本地:', '11:00、2019年8月3日周六', '协调世界时:', '03:00、2019年8月3日周六', '来源:', 'USAF 每小时地面观测', '报告类型:', 'METAR 航空例行天气报告', '露点:', '22.0°C', '下午12:00', '29°C', '1,006毫巴', '每小时14.4公里, 东北', '10.00公里', '部分多云 (792米)', '本地:', '12:00、2019年8月3日周六', '协调世界时:', '04:00、2019年8月3日周六', '来源:', '周期文件', '趋势:', '无重要变化', '露点:', '21°C', '其他云层:', '大部分晴天 (792米)', '原始:', 'ZUUU 030400Z 03004MPS 350V070 9999 FEW026TCU SCT026 29/21 Q1006 NOSIG', '下午12:00', '29.0°C', '1,006毫巴', '每小时14.4公里, 东北', '10.00公里', '部分多云 (792米)', '本地:', '12:00、2019年8月3日周六', '协调世界时:', '04:00、2019年8月3日周六', '来源:', 'USAF 每小时地面观测', '报告类型:', 'METAR 航空例行天气报告', '露点:', '21.0°C', '其他云层:', '大部分晴天 (792米)', '下午1:00', '30°C', '1,006毫巴', '每小时10.8公里, 东北', '10.00公里', '部分多云 (792米)', '本地:', '13:00、2019年8月3日周六', '协调世界时:', '05:00、2019年8月3日周六', '来源:', '周期文件', '趋势:', '无重要变化', '露点:', '22°C', '其他云层:', '大部分晴天 (792米)', '原始:', 'ZUUU 030500Z 04003MPS 340V100 9999 FEW026TCU SCT026 30/22 Q1006 NOSIG', '下午1:00', '30.0°C', '1,006毫巴', '每小时10.8公里, 东北', '10.00公里', '部分多云 (792米)', '本地:', '13:00、2019年8月3日周六', '协调世界时:', '05:00、2019年8月3日周六', '来源:', 'USAF 每小时地面观测', '报告类型:', 'METAR 航空例行天气报告', '露点:', '22.0°C', '其他云层:', '大部分晴天 (792米)', '下午2:00', '30°C', '1,006毫巴', '每小时7.20公里, 北', '10.00公里', '部分多云 (792米)', '本地:', '14:00、2019年8月3日周六', '协调世界时:', '06:00、2019年8月3日周六', '来源:', '周期文件', '趋势:', '无重要变化', '露点:', '21°C', '其他云层:', '大部分晴天 (792米)', '原始:', 'ZUUU 030600Z 36002MPS 320V050 9999 FEW026TCU SCT026 30/21 Q1006 NOSIG', '下午2:00', '30.0°C', '1,006毫巴', '每小时7.20公里, 北', '10.00公里', '部分多云 (792米)', '本地:', '14:00、2019年8月3日周六', '协调世界时:', '06:00、2019年8月3日周六', '来源:', 'USAF 每小时地面观测', '报告类型:', 'METAR 航空例行天气报告', '露点:', '21.0°C', '其他云层:', '大部分晴天 (792米)', '下午3:00', '30°C', '1,006毫巴', '每小时3.60公里', '10.00公里', '部分多云 (792米)', '本地:', '15:00、2019年8月3日周六', '协调世界时:', '07:00、2019年8月3日周六', '来源:', '周期文件', '趋势:', '无重要变化', '露点:', '21°C', '其他云层:', '大部分晴天 (792米)', '原始:', 'ZUUU 030700Z VRB01MPS 9999 FEW026TCU SCT026 30/21 Q1006 NOSIG', '下午3:00', '30.0°C', '1,006毫巴', '每小时3.60公里', '10.00公里', '部分多云 (792米)', '本地:', '15:00、2019年8月3日周六', '协调世界时:', '07:00、2019年8月3日周六', '来源:', 'USAF 每小时地面观测', '报告类型:', 'METAR 航空例行天气报告', '露点:', '21.0°C', '其他云层:', '大部分晴天 (792米)', '下午4:00', '32°C', '1,005毫巴', '每小时7.20公里', '10.00公里', '部分多云 (792米)', '本地:', '16:00、2019年8月3日周六', '协调世界时:', '08:00、2019年8月3日周六', '来源:', '周期文件', '趋势:', '无重要变化', '露点:', '22°C', '其他云层:', '大部分晴天 (792米)', '原始:', 'ZUUU 030800Z VRB02MPS 9999 FEW026TCU SCT026 32/22 Q1005 NOSIG', '下午4:00', '32.0°C', '1,005毫巴', '每小时7.20公里', '10.00公里', '部分多云 (792米)', '本地:', '16:00、2019年8月3日周六', '协调世界时:', '08:00、2019年8月3日周六', '来源:', 'USAF 每小时地面观测', '报告类型:', 'METAR 航空例行天气报告', '露点:', '22.0°C', '其他云层:', '大部分晴天 (792米)', '下午5:00', '30°C', '1,005毫巴', '每小时7.20公里, 东南', '10.00公里', '部分多云 (792米)', '本地:', '17:00、2019年8月3日周六', '协调世界时:', '09:00、2019年8月3日周六', '来源:', '周期文件', '趋势:', '无重要变化', '露点:', '21°C', '其他云层:', '大部分晴天 (792米)', '原始:', 'ZUUU 030900Z 12002MPS 060V200 9999 FEW026TCU SCT026 30/21 Q1005 NOSIG', '下午5:00', '30.0°C', '1,005毫巴', '每小时7.20公里, 东南', '10.00公里', '部分多云 (792米)', '本地:', '17:00、2019年8月3日周六', '协调世界时:', '09:00、2019年8月3日周六', '来源:', 'USAF 每小时地面观测', '报告类型:', 'METAR 航空例行天气报告', '露点:', '21.0°C', '其他云层:', '大部分晴天 (792米)', '下午6:00', '29°C', '1,004毫巴', '每小时10.8公里, 南', '10.00公里', '部分多云 (792米)', '本地:', '18:00、2019年8月3日周六', '协调世界时:', '10:00、2019年8月3日周六', '来源:', '周期文件', '趋势:', '无重要变化', '露点:', '22°C', '其他云层:', '大部分晴天 (792米)', '原始:', 'ZUUU 031000Z 19003MPS 140V230 9999 FEW026TCU SCT026 29/22 Q1004 NOSIG', '下午6:00', '29.0°C', '1,004毫巴', '每小时10.8公里, 南', '10.00公里', '部分多云 (792米)', '本地:', '18:00、2019年8月3日周六', '协调世界时:', '10:00、2019年8月3日周六', '来源:', 'USAF 每小时地面观测', '报告类型:', 'METAR 航空例行天气报告', '露点:', '22.0°C', '其他云层:', '大部分晴天 (792米)', '下午7:00', '29°C', '1,004毫巴', '每小时7.20公里, 南', '10.00公里', '部分多云 (792米)', '本地:', '19:00、2019年8月3日周六', '协调世界时:', '11:00、2019年8月3日周六', '来源:', '周期文件', '趋势:', '无重要变化', '露点:', '23°C', '其他云层:', '大部分晴天 (792米)', '原始:', 'ZUUU 031100Z 17002MPS 120V220 9999 FEW026TCU SCT026 29/23 Q1004 NOSIG', '下午7:00', '29.0°C', '1,004毫巴', '每小时7.20公里, 南', '10.00公里', '部分多云 (792米)', '本地:', '19:00、2019年8月3日周六', '协调世界时:', '11:00、2019年8月3日周六', '来源:', 'USAF 每小时地面观测', '报告类型:', 'METAR 航空例行天气报告', '露点:', '23.0°C', '其他云层:', '大部分晴天 (792米)', '下午8:00', '28°C', '1,005毫巴', '每小时7.20公里, 南', '10.00公里', '部分多云 (792米)', '本地:', '20:00、2019年8月3日周六', '协调世界时:', '12:00、2019年8月3日周六', '来源:', '周期文件', '趋势:', '无重要变化', '露点:', '23°C', '其他云层:', '大部分晴天 (792米)', '原始:', 'ZUUU 031200Z 20002MPS 120V240 9999 FEW026CB SCT026 28/23 Q1005 NOSIG', '下午8:00', '28.0°C', '1,005毫巴', '每小时7.20公里, 南', '10.00公里', '部分多云 (792米)', '本地:', '20:00、2019年8月3日周六', '协调世界时:', '12:00、2019年8月3日周六', '来源:', 'USAF 每小时地面观测', '报告类型:', 'METAR 航空例行天气报告', '露点:', '23.0°C', '其他云层:', '大部分晴天 (792米)', '下午9:00', '26°C', '1,006毫巴', '每小时3.60公里', '10.00公里', '部分多云 (701米)', '本地:', '21:00、2019年8月3日周六', '协调世界时:', '13:00、2019年8月3日周六', '来源:', '周期文件', '趋势:', '无重要变化', '露点:', '24°C', '其他云层:', '大部分晴天 (701米)', '天气:', 'Showers of Light Rain、Recent Showers of Rain', '原始:', 'ZUUU 031300Z VRB01MPS 9999 -SHRA FEW023CB SCT023 26/24 Q1006 RESHRA NOSIG', '下午9:00', '26.0°C', '1,006毫巴', '每小时3.60公里', '10.00公里', '部分多云 (701米)', '本地:', '21:00、2019年8月3日周六', '协调世界时:', '13:00、2019年8月3日周六', '来源:', 'USAF 每小时地面观测', '报告类型:', 'METAR 航空例行天气报告', '露点:', '24.0°C', '其他云层:', '大部分晴天 (701米)', '天气:', 'Showers of Light Rain', '下午10:00', '26°C', '1,007毫巴', '每小时3.60公里', '10.00公里', '部分多云 (914米)', '本地:', '22:00、2019年8月3日周六', '协调世界时:', '14:00、2019年8月3日周六', '来源:', '周期文件', '趋势:', '无重要变化', '露点:', '23°C', '其他云层:', '大部分晴天 (914米)', '原始:', 'ZUUU 031400Z VRB01MPS 9999 FEW030CB SCT030 26/23 Q1007 NOSIG', '下午10:00', '26.0°C', '1,007毫巴', '每小时3.60公里', '10.00公里', '部分多云 (914米)', '本地:', '22:00、2019年8月3日周六', '协调世界时:', '14:00、2019年8月3日周六', '来源:', 'USAF 每小时地面观测', '报告类型:', 'METAR 航空例行天气报告', '露点:', '23.0°C', '其他云层:', '大部分晴天 (914米)', '下午11:00', '26°C', '1,008毫巴', '每小时3.60公里', '10.00公里', '大部分晴天 (1,006米)', '本地:', '23:00、2019年8月3日周六', '协调世界时:', '15:00、2019年8月3日周六', '来源:', '周期文件', '趋势:', '无重要变化', '露点:', '23°C', '原始:', 'ZUUU 031500Z VRB01MPS 9999 FEW033CB FEW033 26/23 Q1008 NOSIG', '下午11:00', '26.0°C', '1,008毫巴', '每小时3.60公里', '10.00公里', '大部分晴天 (1,006米)', '本地:', '23:00、2019年8月3日周六', '协调世界时:', '15:00、2019年8月3日周六', '来源:', 'USAF 每小时地面观测', '报告类型:', 'METAR 航空例行天气报告', '露点:', '23.0°C']