['Light Rain、Mist', '-RA、IWC61、BR、IWC10', 'Light Rain、Mist', '-RA、IWC61、BR、IWC10', 'Light Rain、Mist', '-RA、IWC61、BR、IWC10', 'Mist', 'BR、IWC10', 'Mist', 'BR、IWC10', 'Mist', 'BR、IWC10', 'Mist', 'BR、IWC10', 'Light Rain、Mist', '-RA、IWC61、BR、IWC10', 'Light Rain、Mist', '-RA、IWC61、BR、IWC10', 'Light Rain、Mist', '-RA、IWC61、BR、IWC10', 'Light Rain、Mist', '-RA、IWC61、BR、IWC10', 'Light Rain、Mist', '-RA、IWC61、BR、IWC10', 'Light Rain、Mist', '-RA、IWC61、BR、IWC10', 'Mist', 'BR、IWC10', 'Light Rain、Mist', '-RA、IWC61、BR、IWC10', 'Light Rain、Mist', '-RA、IWC61、BR、IWC10', 'Light Rain、Mist', '-RA、IWC61、BR、IWC10', 'Mist', 'BR、IWC10', 'Mist', 'BR、IWC10', '上午12:00', '8°C', '1,023毫巴', '每小时7.20公里, 北', '3.50公里', '部分多云 (1,219米)', '本地:', '00:00、2019年2月24日周日', '协调世界时:', '16:00、2019年2月23日周六', '来源:', '周期文件', '趋势:', '无重要变化', '露点:', '7°C', '其他云层:', '大部分晴天 (701米)', '天气:', 'Light Rain、Mist', '原始:', 'ZUUU 231600Z 36002MPS 320V020 3500 -RA BR FEW023 SCT040 08/07 Q1023 NOSIG', '上午12:00', '8.0°C', '1,023毫巴', '每小时7.20公里, 北', '3.50公里', '部分多云 (1,219米)', '本地:', '00:00、2019年2月24日周日', '协调世界时:', '16:00、2019年2月23日周六', '来源:', 'USAF 每小时地面观测', '报告类型:', 'METAR 航空例行天气报告', '露点:', '7.0°C', '其他云层:', '大部分晴天 (701米)', '天气:', 'Mist、Light Rain', '上午1:00', '7°C', '1,023毫巴', '每小时3.60公里', '5.00公里', '部分多云 (1,219米)', '本地:', '01:00、2019年2月24日周日', '协调世界时:', '17:00、2019年2月23日周六', '来源:', '周期文件', '趋势:', '无重要变化', '露点:', '7°C', '其他云层:', '大部分晴天 (701米)', '天气:', 'Light Rain、Mist', '原始:', 'ZUUU 231700Z VRB01MPS 5000 -RA BR FEW023 SCT040 07/07 Q1023 NOSIG', '上午1:00', '7.0°C', '1,023毫巴', '每小时3.60公里', '5.00公里', '部分多云 (1,219米)', '本地:', '01:00、2019年2月24日周日', '协调世界时:', '17:00、2019年2月23日周六', '来源:', 'USAF 每小时地面观测', '报告类型:', 'METAR 航空例行天气报告', '露点:', '7.0°C', '其他云层:', '大部分晴天 (701米)', '天气:', 'Mist、Light Rain', '上午2:00', '7°C', '1,022毫巴', '每小时3.60公里', '5.00公里', '部分多云 (1,219米)', '本地:', '02:00、2019年2月24日周日', '协调世界时:', '18:00、2019年2月23日周六', '来源:', '周期文件', '趋势:', '无重要变化', '露点:', '7°C', '其他云层:', '大部分晴天 (701米)', '天气:', 'Light Rain、Mist', '原始:', 'ZUUU 231800Z VRB01MPS 5000 -RA BR FEW023 SCT040 07/07 Q1022 NOSIG', '上午2:00', '7.0°C', '1,022毫巴', '每小时3.60公里', '5.00公里', '部分多云 (1,219米)', '本地:', '02:00、2019年2月24日周日', '协调世界时:', '18:00、2019年2月23日周六', '来源:', 'USAF 每小时地面观测', '报告类型:', 'METAR 航空例行天气报告', '露点:', '7.0°C', '其他云层:', '大部分晴天 (701米)', '天气:', 'Mist、Light Rain', '上午3:00', '7°C', '1,021毫巴', '每小时3.60公里', '7.00公里', '部分多云 (1,219米)', '本地:', '03:00、2019年2月24日周日', '协调世界时:', '19:00、2019年2月23日周六', '来源:', '周期文件', '趋势:', '无重要变化', '露点:', '7°C', '其他云层:', '大部分晴天 (305米)', '原始:', 'ZUUU 231900Z VRB01MPS 7000 FEW010 SCT040 07/07 Q1021 NOSIG', '上午3:00', '7.0°C', '1,021毫巴', '每小时3.60公里', '7.00公里', '部分多云 (1,219米)', '本地:', '03:00、2019年2月24日周日', '协调世界时:', '19:00、2019年2月23日周六', '来源:', 'USAF 每小时地面观测', '报告类型:', 'METAR 航空例行天气报告', '露点:', '7.0°C', '其他云层:', '大部分晴天 (305米)', '上午4:00', '7°C', '1,021毫巴', '每小时0公里', '7.00公里', '部分多云 (1,219米)', '本地:', '04:00、2019年2月24日周日', '协调世界时:', '20:00、2019年2月23日周六', '来源:', '周期文件', '趋势:', '无重要变化', '露点:', '7°C', '原始:', 'ZUUU 232000Z 00000MPS 7000 SCT040 07/07 Q1021 NOSIG', '上午4:00', '7.0°C', '1,021毫巴', '每小时0公里', '7.00公里', '部分多云 (1,219米)', '本地:', '04:00、2019年2月24日周日', '协调世界时:', '20:00、2019年2月23日周六', '来源:', 'USAF 每小时地面观测', '报告类型:', 'METAR 航空例行天气报告', '露点:', '7.0°C', '上午5:00', '7°C', '1,020毫巴', '每小时3.60公里', '7.00公里', '部分多云 (1,219米)', '本地:', '05:00、2019年2月24日周日', '协调世界时:', '21:00、2019年2月23日周六', '来源:', '周期文件', '趋势:', '无重要变化', '露点:', '7°C', '原始:', 'ZUUU 232100Z VRB01MPS 7000 SCT040 07/07 Q1020 NOSIG', '上午5:00', '7.0°C', '1,020毫巴', '每小时3.60公里', '7.00公里', '部分多云 (1,219米)', '本地:', '05:00、2019年2月24日周日', '协调世界时:', '21:00、2019年2月23日周六', '来源:', 'USAF 每小时地面观测', '报告类型:', 'METAR 航空例行天气报告', '露点:', '7.0°C', '上午6:00', '7°C', '1,020毫巴', '每小时3.60公里', '7.00公里', '部分多云 (1,311米)', '本地:', '06:00、2019年2月24日周日', '协调世界时:', '22:00、2019年2月23日周六', '来源:', '周期文件', '趋势:', '无重要变化', '露点:', '7°C', '原始:', 'ZUUU 232200Z VRB01MPS 7000 SCT043 07/07 Q1020 NOSIG', '上午6:00', '7.0°C', '1,020毫巴', '每小时3.60公里', '7.00公里', '部分多云 (1,311米)', '本地:', '06:00、2019年2月24日周日', '协调世界时:', '22:00、2019年2月23日周六', '来源:', 'USAF 每小时地面观测', '报告类型:', 'METAR 航空例行天气报告', '露点:', '7.0°C', '上午7:00', '7°C', '1,020毫巴', '每小时3.60公里', '7.00公里', '部分多云 (1,311米)', '本地:', '07:00、2019年2月24日周日', '协调世界时:', '23:00、2019年2月23日周六', '来源:', '周期文件', '趋势:', '无重要变化', '露点:', '7°C', '原始:', 'ZUUU 232300Z VRB01MPS 7000 SCT043 07/07 Q1020 NOSIG', '上午7:00', '7.0°C', '1,020毫巴', '每小时3.60公里', '7.00公里', '部分多云 (1,311米)', '本地:', '07:00、2019年2月24日周日', '协调世界时:', '23:00、2019年2月23日周六', '来源:', 'USAF 每小时地面观测', '报告类型:', 'METAR 航空例行天气报告', '露点:', '7.0°C', '上午8:00', '7°C', '1,021毫巴', '每小时0公里', '3.50公里', '部分多云 (1,311米)', '本地:', '08:00、2019年2月24日周日', '协调世界时:', '00:00、2019年2月24日周日', '来源:', '周期文件', '趋势:', '无重要变化', '露点:', '7°C', '其他云层:', '大部分晴天 (610米)', '天气:', 'Mist', '原始:', 'ZUUU 240000Z 00000MPS 3500 BR FEW020 SCT043 07/07 Q1021 NOSIG', '上午8:00', '7.0°C', '1,021毫巴', '每小时0公里', '3.50公里', '部分多云 (1,311米)', '本地:', '08:00、2019年2月24日周日', '协调世界时:', '00:00、2019年2月24日周日', '来源:', 'USAF 每小时地面观测', '报告类型:', 'METAR 航空例行天气报告', '露点:', '7.0°C', '其他云层:', '大部分晴天 (610米)', '天气:', 'Mist', '上午9:00', '8°C', '1,021毫巴', '每小时3.60公里', '3.00公里', '部分多云 (1,311米)', '本地:', '09:00、2019年2月24日周日', '协调世界时:', '01:00、2019年2月24日周日', '来源:', '周期文件', '趋势:', '无重要变化', '露点:', '7°C', '其他云层:', '大部分晴天 (610米)', '天气:', 'Mist', '原始:', 'ZUUU 240100Z VRB01MPS 3000 BR FEW020 SCT043 08/07 Q1021 NOSIG', '上午9:00', '8.0°C', '1,021毫巴', '每小时3.60公里', '3.00公里', '部分多云 (1,311米)', '本地:', '09:00、2019年2月24日周日', '协调世界时:', '01:00、2019年2月24日周日', '来源:', 'USAF 每小时地面观测', '报告类型:', 'METAR 航空例行天气报告', '露点:', '7.0°C', '其他云层:', '大部分晴天 (610米)', '天气:', 'Mist', '上午10:00', '8°C', '1,021毫巴', '每小时7.20公里, 北', '3.50公里', '部分多云 (1,006米)', '本地:', '10:00、2019年2月24日周日', '协调世界时:', '02:00、2019年2月24日周日', '来源:', '周期文件', '趋势:', '无重要变化', '露点:', '7°C', '其他云层:', '大部分晴天 (610米)', '天气:', 'Mist', '原始:', 'ZUUU 240200Z 36002MPS 320V040 3500 BR FEW020 SCT033 08/07 Q1021 NOSIG', '上午10:00', '8.0°C', '1,021毫巴', '每小时7.20公里, 北', '3.50公里', '部分多云 (1,006米)', '本地:', '10:00、2019年2月24日周日', '协调世界时:', '02:00、2019年2月24日周日', '来源:', 'USAF 每小时地面观测', '报告类型:', 'METAR 航空例行天气报告', '露点:', '7.0°C', '其他云层:', '大部分晴天 (610米)', '天气:', 'Mist', '上午11:00', '9°C', '1,022毫巴', '每小时7.20公里, 北', '4.00公里', '部分多云 (1,006米)', '本地:', '11:00、2019年2月24日周日', '协调世界时:', '03:00、2019年2月24日周日', '来源:', '周期文件', '趋势:', '无重要变化', '露点:', '7°C', '其他云层:', '大部分晴天 (610米)', '天气:', 'Mist', '原始:', 'ZUUU 240300Z 36002MPS 300V040 4000 BR FEW020 SCT033 09/07 Q1022 NOSIG', '上午11:00', '9.0°C', '1,022毫巴', '每小时7.20公里, 北', '4.00公里', '部分多云 (1,006米)', '本地:', '11:00、2019年2月24日周日', '协调世界时:', '03:00、2019年2月24日周日', '来源:', 'USAF 每小时地面观测', '报告类型:', 'METAR 航空例行天气报告', '露点:', '7.0°C', '其他云层:', '大部分晴天 (610米)', '天气:', 'Mist', '下午12:00', '9°C', '1,021毫巴', '每小时7.20公里, 北', '4.00公里', '部分多云 (1,006米)', '本地:', '12:00、2019年2月24日周日', '协调世界时:', '04:00、2019年2月24日周日', '来源:', '周期文件', '趋势:', '无重要变化', '露点:', '7°C', '其他云层:', '大部分晴天 (610米)', '天气:', 'Light Rain、Mist', '原始:', 'ZUUU 240400Z 02002MPS 330V050 4000 -RA BR FEW020 SCT033 09/07 Q1021 NOSIG', '下午12:00', '9.0°C', '1,021毫巴', '每小时7.20公里, 北', '4.00公里', '部分多云 (1,006米)', '本地:', '12:00、2019年2月24日周日', '协调世界时:', '04:00、2019年2月24日周日', '来源:', 'USAF 每小时地面观测', '报告类型:', 'METAR 航空例行天气报告', '露点:', '7.0°C', '其他云层:', '大部分晴天 (610米)', '天气:', 'Mist、Light Rain', '下午1:00', '9°C', '1,020毫巴', '每小时7.20公里, 北', '5.00公里', '部分多云 (1,006米)', '本地:', '13:00、2019年2月24日周日', '协调世界时:', '05:00、2019年2月24日周日', '来源:', '周期文件', '趋势:', '无重要变化', '露点:', '7°C', '其他云层:', '大部分晴天 (610米)', '天气:', 'Light Rain、Mist', '原始:', 'ZUUU 240500Z 36002MPS 320V040 5000 -RA BR FEW020 SCT033 09/07 Q1020 NOSIG', '下午1:00', '9.0°C', '1,020毫巴', '每小时7.20公里, 北', '5.00公里', '部分多云 (1,006米)', '本地:', '13:00、2019年2月24日周日', '协调世界时:', '05:00、2019年2月24日周日', '来源:', 'USAF 每小时地面观测', '报告类型:', 'METAR 航空例行天气报告', '露点:', '7.0°C', '其他云层:', '大部分晴天 (610米)', '天气:', 'Mist、Light Rain', '下午2:00', '9°C', '1,019毫巴', '每小时7.20公里, 北', '5.00公里', '部分多云 (610米)', '本地:', '14:00、2019年2月24日周日', '协调世界时:', '06:00、2019年2月24日周日', '来源:', '周期文件', '趋势:', '无重要变化', '露点:', '7°C', '其他云层:', '大部分晴天 (366米)', '天气:', 'Light Rain、Mist', '原始:', 'ZUUU 240600Z 02002MPS 5000 -RA BR FEW012 SCT020 09/07 Q1019 NOSIG', '下午2:00', '9.0°C', '1,019毫巴', '每小时7.20公里, 北', '5.00公里', '部分多云 (610米)', '本地:', '14:00、2019年2月24日周日', '协调世界时:', '06:00、2019年2月24日周日', '来源:', 'USAF 每小时地面观测', '报告类型:', 'METAR 航空例行天气报告', '露点:', '7.0°C', '其他云层:', '大部分晴天 (366米)', '天气:', 'Mist、Light Rain', '下午3:00', '9°C', '1,018毫巴', '每小时14.4公里, 东北', '3.50公里', '部分多云 (610米)', '本地:', '15:00、2019年2月24日周日', '协调世界时:', '07:00、2019年2月24日周日', '来源:', '周期文件', '趋势:', '无重要变化', '露点:', '7°C', '其他云层:', '大部分晴天 (366米)', '天气:', 'Light Rain、Mist', '原始:', 'ZUUU 240700Z 03004MPS 3500 -RA BR FEW012 SCT020 09/07 Q1018 NOSIG', '下午3:00', '9.0°C', '1,018毫巴', '每小时14.4公里, 东北', '3.50公里', '部分多云 (610米)', '本地:', '15:00、2019年2月24日周日', '协调世界时:', '07:00、2019年2月24日周日', '来源:', 'USAF 每小时地面观测', '报告类型:', 'METAR 航空例行天气报告', '露点:', '7.0°C', '其他云层:', '大部分晴天 (366米)', '天气:', 'Mist、Light Rain', '下午4:00', '8°C', '1,019毫巴', '每小时14.4公里, 东北', '2.30公里', '部分多云 (366米)', '本地:', '16:00、2019年2月24日周日', '协调世界时:', '08:00、2019年2月24日周日', '来源:', '周期文件', '趋势:', '无重要变化', '露点:', '7°C', '其他云层:', '大部分晴天 (274米)', '天气:', 'Light Rain、Mist', '原始:', 'ZUUU 240800Z 03004MPS 2300 -RA BR FEW009 SCT012 08/07 Q1019 NOSIG', '下午4:00', '8.0°C', '1,019毫巴', '每小时14.4公里, 东北', '2.30公里', '部分多云 (366米)', '本地:', '16:00、2019年2月24日周日', '协调世界时:', '08:00、2019年2月24日周日', '来源:', 'USAF 每小时地面观测', '报告类型:', 'METAR 航空例行天气报告', '露点:', '7.0°C', '其他云层:', '大部分晴天 (274米)', '天气:', 'Mist、Light Rain', '下午5:00', '8°C', '1,019毫巴', '每小时14.4公里, 东北', '2.50公里', '大部分多云 (610米)', '本地:', '17:00、2019年2月24日周日', '协调世界时:', '09:00、2019年2月24日周日', '来源:', '周期文件', '趋势:', '变化为', '露点:', '8°C', '其他云层:', '大部分晴天 (122米)、部分多云 (244米)', '天气:', 'Light Rain、Mist', '原始:', 'ZUUU 240900Z 04004MPS 010V080 2500 R02L/P2000N R02R/1300N -RA BR FEW004 SCT008 BKN020 08/08 Q1019 BECMG TL1030 3000', '下午5:00', '8.0°C', '1,019毫巴', '每小时14.4公里, 东北', '2.50公里', '大部分多云 (610米)', '本地:', '17:00、2019年2月24日周日', '协调世界时:', '09:00、2019年2月24日周日', '来源:', 'USAF 每小时地面观测', '报告类型:', 'METAR 航空例行天气报告', '露点:', '8.0°C', '其他云层:', '大部分晴天 (122米)、部分多云 (244米)', '天气:', 'Mist、Light Rain', '下午6:00', '8°C', '1,019毫巴', '每小时7.20公里, 北', '4.50公里', '大部分多云 (610米)', '本地:', '18:00、2019年2月24日周日', '协调世界时:', '10:00、2019年2月24日周日', '来源:', '周期文件', '趋势:', '无重要变化', '露点:', '7°C', '其他云层:', '大部分晴天 (122米)、部分多云 (274米)', '天气:', 'Mist', '原始:', 'ZUUU 241000Z 36002MPS 330V040 4500 BR FEW004 SCT009 BKN020 08/07 Q1019 NOSIG', '下午6:00', '8.0°C', '1,019毫巴', '每小时7.20公里, 北', '4.50公里', '大部分多云 (610米)', '本地:', '18:00、2019年2月24日周日', '协调世界时:', '10:00、2019年2月24日周日', '来源:', 'USAF 每小时地面观测', '报告类型:', 'METAR 航空例行天气报告', '露点:', '7.0°C', '其他云层:', '大部分晴天 (122米)、部分多云 (274米)', '天气:', 'Mist', '下午7:00', '8°C', '1,020毫巴', '每小时7.20公里, 北', '4.50公里', '部分多云 (610米)', '本地:', '19:00、2019年2月24日周日', '协调世界时:', '11:00、2019年2月24日周日', '来源:', '周期文件', '趋势:', '无重要变化', '露点:', '7°C', '其他云层:', '大部分晴天 (274米)', '天气:', 'Light Rain、Mist', '原始:', 'ZUUU 241100Z 36002MPS 320V030 4500 -RA BR FEW009 SCT020 08/07 Q1020 NOSIG', '下午7:00', '8.0°C', '1,020毫巴', '每小时7.20公里, 北', '4.50公里', '部分多云 (610米)', '本地:', '19:00、2019年2月24日周日', '协调世界时:', '11:00、2019年2月24日周日', '来源:', 'USAF 每小时地面观测', '报告类型:', 'METAR 航空例行天气报告', '露点:', '7.0°C', '其他云层:', '大部分晴天 (274米)', '天气:', 'Mist、Light Rain', '下午8:00', '8°C', '1,021毫巴', '每小时0公里', '4.50公里', '部分多云 (610米)', '本地:', '20:00、2019年2月24日周日', '协调世界时:', '12:00、2019年2月24日周日', '来源:', '周期文件', '趋势:', '无重要变化', '露点:', '7°C', '其他云层:', '大部分晴天 (274米)', '天气:', 'Light Rain、Mist', '原始:', 'ZUUU 241200Z 00000MPS 4500 -RA BR FEW009 SCT020 08/07 Q1021 NOSIG', '下午8:00', '8.0°C', '1,021毫巴', '每小时0公里', '4.50公里', '部分多云 (610米)', '本地:', '20:00、2019年2月24日周日', '协调世界时:', '12:00、2019年2月24日周日', '来源:', 'USAF 每小时地面观测', '报告类型:', 'METAR 航空例行天气报告', '露点:', '7.0°C', '其他云层:', '大部分晴天 (274米)', '天气:', 'Mist、Light Rain', '下午9:00', '8°C', '1,022毫巴', '每小时3.60公里', '4.50公里', '部分多云 (610米)', '本地:', '21:00、2019年2月24日周日', '协调世界时:', '13:00、2019年2月24日周日', '来源:', '周期文件', '趋势:', '无重要变化', '露点:', '7°C', '其他云层:', '大部分晴天 (274米)', '天气:', 'Light Rain、Mist', '原始:', 'ZUUU 241300Z VRB01MPS 4500 -RA BR FEW009 SCT020 08/07 Q1022 NOSIG', '下午9:00', '8.0°C', '1,022毫巴', '每小时3.60公里', '4.50公里', '部分多云 (610米)', '本地:', '21:00、2019年2月24日周日', '协调世界时:', '13:00、2019年2月24日周日', '来源:', 'USAF 每小时地面观测', '报告类型:', 'METAR 航空例行天气报告', '露点:', '7.0°C', '其他云层:', '大部分晴天 (274米)', '天气:', 'Mist、Light Rain', '下午10:00', '8°C', '1,022毫巴', '每小时3.60公里', '4.50公里', '部分多云 (610米)', '本地:', '22:00、2019年2月24日周日', '协调世界时:', '14:00、2019年2月24日周日', '来源:', '周期文件', '趋势:', '无重要变化', '露点:', '7°C', '其他云层:', '大部分晴天 (305米)', '天气:', 'Mist', '原始:', 'ZUUU 241400Z VRB01MPS 4500 BR FEW010 SCT020 08/07 Q1022 NOSIG', '下午10:00', '8.0°C', '1,022毫巴', '每小时3.60公里', '4.50公里', '部分多云 (610米)', '本地:', '22:00、2019年2月24日周日', '协调世界时:', '14:00、2019年2月24日周日', '来源:', 'USAF 每小时地面观测', '报告类型:', 'METAR 航空例行天气报告', '露点:', '7.0°C', '其他云层:', '大部分晴天 (305米)', '天气:', 'Mist', '下午11:00', '8°C', '1,023毫巴', '每小时3.60公里', '5.00公里', '部分多云 (1,524米)', '本地:', '23:00、2019年2月24日周日', '协调世界时:', '15:00、2019年2月24日周日', '来源:', '周期文件', '趋势:', '无重要变化', '露点:', '7°C', '其他云层:', '大部分晴天 (305米)', '天气:', 'Mist', '原始:', 'ZUUU 241500Z VRB01MPS 5000 BR FEW010 SCT050 08/07 Q1023 NOSIG', '下午11:00', '8.0°C', '1,023毫巴', '每小时3.60公里', '5.00公里', '部分多云 (1,524米)', '本地:', '23:00、2019年2月24日周日', '协调世界时:', '15:00、2019年2月24日周日', '来源:', 'USAF 每小时地面观测', '报告类型:', 'METAR 航空例行天气报告', '露点:', '7.0°C', '其他云层:', '大部分晴天 (305米)', '天气:', 'Mist']