['Showers of Light Rain', '-SHRA、IWC80', 'Showers of Light Rain', '-SHRA、IWC80', 'Showers of Light Rain', '-SHRA、IWC80', 'Showers of Light Rain', '-SHRA、IWC80', 'Showers of Light Rain', '-SHRA、IWC80', 'Showers of Light Rain', '-SHRA、IWC80', 'Showers of Light Rain', '-SHRA、IWC80', 'Showers of Light Rain', '-SHRA、IWC80', '上午12:00', '24°C', '1,013毫巴', '每小时7.20公里, 南', '10.00公里', '大部分晴天 (1,006米)', '本地:', '00:00、2019年4月30日周二', '协调世界时:', '16:00、2019年4月29日周一', '来源:', '周期文件', '趋势:', '无重要变化', '露点:', '15°C', '天气:', 'Showers of Light Rain', '原始:', 'ZUUU 291600Z 17002MPS 120V210 9999 -SHRA FEW033 FEW033TCU 24/15 Q1013 NOSIG', '上午12:00', '24.0°C', '1,013毫巴', '每小时7.20公里, 南', '10.00公里', '大部分晴天 (1,006米)', '本地:', '00:00、2019年4月30日周二', '协调世界时:', '16:00、2019年4月29日周一', '来源:', 'USAF 每小时地面观测', '报告类型:', 'METAR 航空例行天气报告', '露点:', '15.0°C', '天气:', 'Showers of Light Rain', '上午1:00', '24°C', '1,014毫巴', '每小时7.20公里, 东南', '10.00公里', '大部分晴天 (1,006米)', '本地:', '01:00、2019年4月30日周二', '协调世界时:', '17:00、2019年4月29日周一', '来源:', '周期文件', '趋势:', '无重要变化', '露点:', '15°C', '天气:', 'Showers of Light Rain', '原始:', 'ZUUU 291700Z 14002MPS 100V170 9999 -SHRA FEW033 FEW033TCU 24/15 Q1014 NOSIG', '上午1:00', '24.0°C', '1,014毫巴', '每小时7.20公里, 东南', '10.00公里', '大部分晴天 (1,006米)', '本地:', '01:00、2019年4月30日周二', '协调世界时:', '17:00、2019年4月29日周一', '来源:', 'USAF 每小时地面观测', '报告类型:', 'METAR 航空例行天气报告', '露点:', '15.0°C', '天气:', 'Showers of Light Rain', '上午2:00', '23°C', '1,013毫巴', '每小时3.60公里', '≥ 10.00公里', '晴空万里', '本地:', '02:00、2019年4月30日周二', '协调世界时:', '18:00、2019年4月29日周一', '来源:', '周期文件', '趋势:', '无重要变化', '露点:', '15°C', '晴空万里:', '真', '原始:', 'ZUUU 291800Z VRB01MPS CAVOK 23/15 Q1013 NOSIG', '上午2:00', '23.0°C', '1,013毫巴', '每小时3.60公里', '-', '晴空万里', '本地:', '02:00、2019年4月30日周二', '协调世界时:', '18:00、2019年4月29日周一', '来源:', 'USAF 每小时地面观测', '报告类型:', 'METAR 航空例行天气报告', '露点:', '15.0°C', '晴空万里:', '真', '上午3:00', '22°C', '1,013毫巴', '每小时7.20公里, 北', '≥ 10.00公里', '晴空万里', '本地:', '03:00、2019年4月30日周二', '协调世界时:', '19:00、2019年4月29日周一', '来源:', '周期文件', '趋势:', '无重要变化', '露点:', '18°C', '晴空万里:', '真', '原始:', 'ZUUU 291900Z 01002MPS 330V030 CAVOK 22/18 Q1013 NOSIG', '上午3:00', '22.0°C', '1,013毫巴', '每小时7.20公里, 北', '-', '晴空万里', '本地:', '03:00、2019年4月30日周二', '协调世界时:', '19:00、2019年4月29日周一', '来源:', 'USAF 每小时地面观测', '报告类型:', 'METAR 航空例行天气报告', '露点:', '18.0°C', '晴空万里:', '真', '上午4:00', '21°C', '1,013毫巴', '每小时3.60公里', '≥ 10.00公里', '晴空万里', '本地:', '04:00、2019年4月30日周二', '协调世界时:', '20:00、2019年4月29日周一', '来源:', '周期文件', '趋势:', '无重要变化', '露点:', '17°C', '晴空万里:', '真', '原始:', 'ZUUU 292000Z VRB01MPS CAVOK 21/17 Q1013 NOSIG', '上午4:00', '21.0°C', '1,013毫巴', '每小时3.60公里', '-', '晴空万里', '本地:', '04:00、2019年4月30日周二', '协调世界时:', '20:00、2019年4月29日周一', '来源:', 'USAF 每小时地面观测', '报告类型:', 'METAR 航空例行天气报告', '露点:', '17.0°C', '晴空万里:', '真', '上午5:00', '21°C', '1,013毫巴', '每小时7.20公里, 西北', '10.00公里', '部分多云 (1,219米)', '本地:', '05:00、2019年4月30日周二', '协调世界时:', '21:00、2019年4月29日周一', '来源:', '周期文件', '趋势:', '无重要变化', '露点:', '17°C', '其他云层:', '大部分晴天 (1,219米)', '天气:', 'Showers of Light Rain', '原始:', 'ZUUU 292100Z 31002MPS 270V020 9999 -SHRA FEW040TCU SCT040 21/17 Q1013 NOSIG', '上午5:00', '21.0°C', '1,013毫巴', '每小时7.20公里, 西北', '10.00公里', '部分多云 (1,219米)', '本地:', '05:00、2019年4月30日周二', '协调世界时:', '21:00、2019年4月29日周一', '来源:', 'USAF 每小时地面观测', '报告类型:', 'METAR 航空例行天气报告', '露点:', '17.0°C', '其他云层:', '大部分晴天 (1,219米)', '天气:', 'Showers of Light Rain', '上午6:00', '21°C', '1,015毫巴', '每小时14.4公里, 东北', '10.00公里', '部分多云 (1,006米)', '本地:', '06:00、2019年4月30日周二', '协调世界时:', '22:00、2019年4月29日周一', '来源:', '周期文件', '趋势:', '无重要变化', '露点:', '17°C', '其他云层:', '大部分晴天 (1,006米)', '天气:', 'Showers of Light Rain', '原始:', 'ZUUU 292200Z 06004MPS 9999 -SHRA FEW033TCU SCT033 21/17 Q1015 NOSIG', '上午6:00', '21.0°C', '1,015毫巴', '每小时14.4公里, 东北', '10.00公里', '部分多云 (1,006米)', '本地:', '06:00、2019年4月30日周二', '协调世界时:', '22:00、2019年4月29日周一', '来源:', 'USAF 每小时地面观测', '报告类型:', 'METAR 航空例行天气报告', '露点:', '17.0°C', '其他云层:', '大部分晴天 (1,006米)', '天气:', 'Showers of Light Rain', '上午7:00', '20°C', '1,015毫巴', '每小时3.60公里', '10.00公里', '部分多云 (1,006米)', '本地:', '07:00、2019年4月30日周二', '协调世界时:', '23:00、2019年4月29日周一', '来源:', '周期文件', '趋势:', '无重要变化', '露点:', '17°C', '其他云层:', '大部分晴天 (1,006米)', '天气:', 'Showers of Light Rain', '原始:', 'ZUUU 292300Z VRB01MPS 9999 -SHRA FEW033TCU SCT033 20/17 Q1015 NOSIG', '上午7:00', '20.0°C', '1,015毫巴', '每小时3.60公里', '10.00公里', '部分多云 (1,006米)', '本地:', '07:00、2019年4月30日周二', '协调世界时:', '23:00、2019年4月29日周一', '来源:', 'USAF 每小时地面观测', '报告类型:', 'METAR 航空例行天气报告', '露点:', '17.0°C', '其他云层:', '大部分晴天 (1,006米)', '天气:', 'Showers of Light Rain', '上午8:00', '21°C', '1,016毫巴', '每小时7.20公里, 西', '10.00公里', '部分多云 (1,006米)', '本地:', '08:00、2019年4月30日周二', '协调世界时:', '00:00、2019年4月30日周二', '来源:', '周期文件', '趋势:', '无重要变化', '露点:', '17°C', '其他云层:', '大部分晴天 (1,006米)', '天气:', 'Showers of Light Rain', '原始:', 'ZUUU 300000Z 28002MPS 240V330 9999 -SHRA FEW033TCU SCT033 21/17 Q1016 NOSIG', '上午8:00', '21.0°C', '1,016毫巴', '每小时7.20公里, 西', '10.00公里', '部分多云 (1,006米)', '本地:', '08:00、2019年4月30日周二', '协调世界时:', '00:00、2019年4月30日周二', '来源:', 'USAF 每小时地面观测', '报告类型:', 'METAR 航空例行天气报告', '露点:', '17.0°C', '其他云层:', '大部分晴天 (1,006米)', '天气:', 'Showers of Light Rain', '上午9:00', '20°C', '1,016毫巴', '每小时10.8公里, 西', '10.00公里', '部分多云 (1,006米)', '本地:', '09:00、2019年4月30日周二', '协调世界时:', '01:00、2019年4月30日周二', '来源:', '周期文件', '趋势:', '无重要变化', '露点:', '16°C', '其他云层:', '大部分晴天 (1,006米)', '天气:', 'Showers of Light Rain', '原始:', 'ZUUU 300100Z 25003MPS 220V330 9999 -SHRA FEW033TCU SCT033 20/16 Q1016 NOSIG', '上午9:00', '20.0°C', '1,016毫巴', '每小时10.8公里, 西', '10.00公里', '部分多云 (1,006米)', '本地:', '09:00、2019年4月30日周二', '协调世界时:', '01:00、2019年4月30日周二', '来源:', 'USAF 每小时地面观测', '报告类型:', 'METAR 航空例行天气报告', '露点:', '16.0°C', '其他云层:', '大部分晴天 (1,006米)', '天气:', 'Showers of Light Rain', '上午10:00', '20°C', '1,017毫巴', '每小时14.4公里, 西北', '10.00公里', '部分多云 (1,006米)', '本地:', '10:00、2019年4月30日周二', '协调世界时:', '02:00、2019年4月30日周二', '来源:', '周期文件', '趋势:', '无重要变化', '露点:', '17°C', '其他云层:', '大部分晴天 (1,006米)', '天气:', 'Showers of Light Rain', '原始:', 'ZUUU 300200Z 30004MPS 250V350 9999 -SHRA FEW033TCU SCT033 20/17 Q1017 NOSIG', '上午10:00', '20.0°C', '1,017毫巴', '每小时14.4公里, 西北', '10.00公里', '部分多云 (1,006米)', '本地:', '10:00、2019年4月30日周二', '协调世界时:', '02:00、2019年4月30日周二', '来源:', 'USAF 每小时地面观测', '报告类型:', 'METAR 航空例行天气报告', '露点:', '17.0°C', '其他云层:', '大部分晴天 (1,006米)', '天气:', 'Showers of Light Rain', '上午11:00', '20°C', '1,017毫巴', '每小时3.60公里', '10.00公里', '部分多云 (1,219米)', '本地:', '11:00、2019年4月30日周二', '协调世界时:', '03:00、2019年4月30日周二', '来源:', '周期文件', '趋势:', '无重要变化', '露点:', '17°C', '其他云层:', '大部分晴天 (1,219米)', '原始:', 'ZUUU 300300Z VRB01MPS 9999 FEW040TCU SCT040 20/17 Q1017 NOSIG', '上午11:00', '20.0°C', '1,017毫巴', '每小时3.60公里', '10.00公里', '部分多云 (1,219米)', '本地:', '11:00、2019年4月30日周二', '协调世界时:', '03:00、2019年4月30日周二', '来源:', 'USAF 每小时地面观测', '报告类型:', 'METAR 航空例行天气报告', '露点:', '17.0°C', '其他云层:', '大部分晴天 (1,219米)', '下午12:00', '21°C', '1,016毫巴', '每小时3.60公里', '10.00公里', '部分多云 (1,524米)', '本地:', '12:00、2019年4月30日周二', '协调世界时:', '04:00、2019年4月30日周二', '来源:', '周期文件', '趋势:', '无重要变化', '露点:', '17°C', '其他云层:', '大部分晴天 (1,006米)', '原始:', 'ZUUU 300400Z VRB01MPS 9999 FEW033TCU FEW033 SCT050 21/17 Q1016 NOSIG', '下午12:00', '21.0°C', '1,016毫巴', '每小时3.60公里', '10.00公里', '部分多云 (1,524米)', '本地:', '12:00、2019年4月30日周二', '协调世界时:', '04:00、2019年4月30日周二', '来源:', 'USAF 每小时地面观测', '报告类型:', 'METAR 航空例行天气报告', '露点:', '17.0°C', '其他云层:', '大部分晴天 (1,006米)', '下午1:00', '22°C', '1,016毫巴', '每小时3.60公里', '10.00公里', '部分多云 (1,524米)', '本地:', '13:00、2019年4月30日周二', '协调世界时:', '05:00、2019年4月30日周二', '来源:', '周期文件', '趋势:', '无重要变化', '露点:', '17°C', '原始:', 'ZUUU 300500Z VRB01MPS 9999 SCT050 22/17 Q1016 NOSIG', '下午1:00', '22.0°C', '1,016毫巴', '每小时3.60公里', '10.00公里', '部分多云 (1,524米)', '本地:', '13:00、2019年4月30日周二', '协调世界时:', '05:00、2019年4月30日周二', '来源:', 'USAF 每小时地面观测', '报告类型:', 'METAR 航空例行天气报告', '露点:', '17.0°C', '下午2:00', '24°C', '1,015毫巴', '每小时3.60公里', '10.00公里', '部分多云 (1,524米)', '本地:', '14:00、2019年4月30日周二', '协调世界时:', '06:00、2019年4月30日周二', '来源:', '周期文件', '趋势:', '无重要变化', '露点:', '16°C', '原始:', 'ZUUU 300600Z VRB01MPS 9999 SCT050 24/16 Q1015 NOSIG', '下午2:00', '24.0°C', '1,015毫巴', '每小时3.60公里', '10.00公里', '部分多云 (1,524米)', '本地:', '14:00、2019年4月30日周二', '协调世界时:', '06:00、2019年4月30日周二', '来源:', 'USAF 每小时地面观测', '报告类型:', 'METAR 航空例行天气报告', '露点:', '16.0°C', '下午3:00', '26°C', '1,013毫巴', '每小时3.60公里', '≥ 10.00公里', '晴空万里', '本地:', '15:00、2019年4月30日周二', '协调世界时:', '07:00、2019年4月30日周二', '来源:', '周期文件', '趋势:', '无重要变化', '露点:', '14°C', '晴空万里:', '真', '原始:', 'ZUUU 300700Z VRB01MPS CAVOK 26/14 Q1013 NOSIG', '下午3:00', '26.0°C', '1,013毫巴', '每小时3.60公里', '-', '晴空万里', '本地:', '15:00、2019年4月30日周二', '协调世界时:', '07:00、2019年4月30日周二', '来源:', 'USAF 每小时地面观测', '报告类型:', 'METAR 航空例行天气报告', '露点:', '14.0°C', '晴空万里:', '真', '下午4:00', '27°C', '1,012毫巴', '每小时3.60公里', '10.00公里', '大部分晴天 (914米)', '本地:', '16:00、2019年4月30日周二', '协调世界时:', '08:00、2019年4月30日周二', '来源:', '周期文件', '趋势:', '无重要变化', '露点:', '14°C', '原始:', 'ZUUU 300800Z VRB01MPS 9999 FEW030 27/14 Q1012 NOSIG', '下午4:00', '27.0°C', '1,012毫巴', '每小时3.60公里', '10.00公里', '大部分晴天 (914米)', '本地:', '16:00、2019年4月30日周二', '协调世界时:', '08:00、2019年4月30日周二', '来源:', 'USAF 每小时地面观测', '报告类型:', 'METAR 航空例行天气报告', '露点:', '14.0°C', '下午5:00', '26°C', '1,011毫巴', '每小时3.60公里', '10.00公里', '大部分晴天 (914米)', '本地:', '17:00、2019年4月30日周二', '协调世界时:', '09:00、2019年4月30日周二', '来源:', '周期文件', '趋势:', '无重要变化', '露点:', '13°C', '原始:', 'ZUUU 300900Z VRB01MPS 9999 FEW030 26/13 Q1011 NOSIG', '下午5:00', '26.0°C', '1,011毫巴', '每小时3.60公里', '10.00公里', '大部分晴天 (914米)', '本地:', '17:00、2019年4月30日周二', '协调世界时:', '09:00、2019年4月30日周二', '来源:', 'USAF 每小时地面观测', '报告类型:', 'METAR 航空例行天气报告', '露点:', '13.0°C', '下午6:00', '25°C', '1,011毫巴', '每小时10.8公里, 西南', '10.00公里', '大部分晴天 (914米)', '本地:', '18:00、2019年4月30日周二', '协调世界时:', '10:00、2019年4月30日周二', '来源:', '周期文件', '趋势:', '无重要变化', '露点:', '14°C', '原始:', 'ZUUU 301000Z 23003MPS 180V260 9999 FEW030 25/14 Q1011 NOSIG', '下午6:00', '25.0°C', '1,011毫巴', '每小时10.8公里, 西南', '10.00公里', '大部分晴天 (914米)', '本地:', '18:00、2019年4月30日周二', '协调世界时:', '10:00、2019年4月30日周二', '来源:', 'USAF 每小时地面观测', '报告类型:', 'METAR 航空例行天气报告', '露点:', '14.0°C', '下午7:00', '25°C', '1,011毫巴', '每小时7.20公里, 西南', '10.00公里', '大部分晴天 (914米)', '本地:', '19:00、2019年4月30日周二', '协调世界时:', '11:00、2019年4月30日周二', '来源:', '周期文件', '趋势:', '无重要变化', '露点:', '13°C', '原始:', 'ZUUU 301100Z 24002MPS 210V280 9999 FEW030 25/13 Q1011 NOSIG', '下午7:00', '25.0°C', '1,011毫巴', '每小时7.20公里, 西南', '10.00公里', '大部分晴天 (914米)', '本地:', '19:00、2019年4月30日周二', '协调世界时:', '11:00、2019年4月30日周二', '来源:', 'USAF 每小时地面观测', '报告类型:', 'METAR 航空例行天气报告', '露点:', '13.0°C', '下午8:00', '24°C', '1,012毫巴', '每小时3.60公里, 西', '≥ 10.00公里', '晴空万里', '本地:', '20:00、2019年4月30日周二', '协调世界时:', '12:00、2019年4月30日周二', '来源:', '周期文件', '趋势:', '无重要变化', '露点:', '13°C', '晴空万里:', '真', '原始:', 'ZUUU 301200Z 25001MPS CAVOK 24/13 Q1012 NOSIG', '下午8:00', '24.0°C', '1,012毫巴', '每小时3.60公里, 西', '-', '晴空万里', '本地:', '20:00、2019年4月30日周二', '协调世界时:', '12:00、2019年4月30日周二', '来源:', 'USAF 每小时地面观测', '报告类型:', 'METAR 航空例行天气报告', '露点:', '13.0°C', '晴空万里:', '真', '下午9:00', '21°C', '1,013毫巴', '每小时3.60公里, 西南', '≥ 10.00公里', '晴空万里', '本地:', '21:00、2019年4月30日周二', '协调世界时:', '13:00、2019年4月30日周二', '来源:', '周期文件', '趋势:', '无重要变化', '露点:', '15°C', '晴空万里:', '真', '原始:', 'ZUUU 301300Z 22001MPS CAVOK 21/15 Q1013 NOSIG', '下午9:00', '21.0°C', '1,013毫巴', '每小时3.60公里, 西南', '-', '晴空万里', '本地:', '21:00、2019年4月30日周二', '协调世界时:', '13:00、2019年4月30日周二', '来源:', 'USAF 每小时地面观测', '报告类型:', 'METAR 航空例行天气报告', '露点:', '15.0°C', '晴空万里:', '真', '下午10:00', '20°C', '1,013毫巴', '每小时3.60公里, 西南', '≥ 10.00公里', '晴空万里', '本地:', '22:00、2019年4月30日周二', '协调世界时:', '14:00、2019年4月30日周二', '来源:', '周期文件', '趋势:', '无重要变化', '露点:', '15°C', '晴空万里:', '真', '原始:', 'ZUUU 301400Z 23001MPS CAVOK 20/15 Q1013 NOSIG', '下午10:00', '20.0°C', '1,013毫巴', '每小时3.60公里, 西南', '-', '晴空万里', '本地:', '22:00、2019年4月30日周二', '协调世界时:', '14:00、2019年4月30日周二', '来源:', 'USAF 每小时地面观测', '报告类型:', 'METAR 航空例行天气报告', '露点:', '15.0°C', '晴空万里:', '真', '下午11:00', '21°C', '1,013毫巴', '每小时3.60公里, 西南', '≥ 10.00公里', '晴空万里', '本地:', '23:00、2019年4月30日周二', '协调世界时:', '15:00、2019年4月30日周二', '来源:', '周期文件', '趋势:', '无重要变化', '露点:', '14°C', '晴空万里:', '真', '原始:', 'ZUUU 301500Z 22001MPS CAVOK 21/14 Q1013 NOSIG', '下午11:00', '21.0°C', '1,013毫巴', '每小时3.60公里, 西南', '-', '晴空万里', '本地:', '23:00、2019年4月30日周二', '协调世界时:', '15:00、2019年4月30日周二', '来源:', 'USAF 每小时地面观测', '报告类型:', 'METAR 航空例行天气报告', '露点:', '14.0°C', '晴空万里:', '真']