['Mist', 'BR、IWC10', 'Mist', 'BR、IWC10', 'Mist', 'BR、IWC10', 'Mist', 'BR、IWC10', 'Mist', 'BR、IWC10', 'Mist', 'BR、IWC10', 'Mist', 'BR、IWC10', 'Mist', 'BR、IWC10', 'Mist', 'BR、IWC10', 'Mist', 'BR、IWC10', 'Mist', 'BR、IWC10', 'Mist', 'BR、IWC10', 'Mist', 'BR、IWC10', 'Mist', 'BR、IWC10', 'Haze', 'HZ、IWC05', 'Haze', 'HZ、IWC05', 'Haze', 'HZ、IWC05', 'Haze', 'HZ、IWC05', 'Haze', 'HZ、IWC05', 'Haze', 'HZ、IWC05', '上午12:00', '11°C', '1,014毫巴', '每小时0公里', '3.50公里', '无重要云', '本地:', '00:00、2019年12月16日周一', '协调世界时:', '16:00、2019年12月15日周日', '来源:', '周期文件', '趋势:', '无重要变化', '露点:', '9°C', '天气:', 'Mist', '原始:', 'ZUUU 151600Z 00000MPS 3500 BR NSC 11/09 Q1014 NOSIG', '上午12:00', '11.0°C', '1,014毫巴', '每小时0公里', '3.50公里', '未检测到云', '本地:', '00:00、2019年12月16日周一', '协调世界时:', '16:00、2019年12月15日周日', '来源:', 'USAF 每小时地面观测', '报告类型:', 'METAR 航空例行天气报告', '露点:', '9.0°C', '天气:', 'Mist', '上午1:00', '11°C', '1,014毫巴', '每小时3.60公里, 西南', '3.50公里', '无重要云', '本地:', '01:00、2019年12月16日周一', '协调世界时:', '17:00、2019年12月15日周日', '来源:', '周期文件', '趋势:', '无重要变化', '露点:', '10°C', '天气:', 'Mist', '原始:', 'ZUUU 151700Z 24001MPS 3500 BR NSC 11/10 Q1014 NOSIG', '上午1:00', '11.0°C', '1,014毫巴', '每小时3.60公里, 西南', '3.50公里', '未检测到云', '本地:', '01:00、2019年12月16日周一', '协调世界时:', '17:00、2019年12月15日周日', '来源:', 'USAF 每小时地面观测', '报告类型:', 'METAR 航空例行天气报告', '露点:', '10.0°C', '天气:', 'Mist', '上午2:00', '11°C', '1,014毫巴', '每小时0公里', '3.50公里', '无重要云', '本地:', '02:00、2019年12月16日周一', '协调世界时:', '18:00、2019年12月15日周日', '来源:', '周期文件', '趋势:', '无重要变化', '露点:', '9°C', '天气:', 'Mist', '原始:', 'ZUUU 151800Z 00000MPS 3500 BR NSC 11/09 Q1014 NOSIG', '上午2:00', '11.0°C', '1,014毫巴', '每小时0公里', '3.50公里', '未检测到云', '本地:', '02:00、2019年12月16日周一', '协调世界时:', '18:00、2019年12月15日周日', '来源:', 'USAF 每小时地面观测', '报告类型:', 'METAR 航空例行天气报告', '露点:', '9.0°C', '天气:', 'Mist', '上午3:00', '11°C', '1,014毫巴', '每小时7.20公里, 北', '4.00公里', '无重要云', '本地:', '03:00、2019年12月16日周一', '协调世界时:', '19:00、2019年12月15日周日', '来源:', '周期文件', '趋势:', '无重要变化', '露点:', '10°C', '天气:', 'Mist', '原始:', 'ZUUU 151900Z 01002MPS 330V040 4000 BR NSC 11/10 Q1014 NOSIG', '上午3:00', '11.0°C', '1,014毫巴', '每小时7.20公里, 北', '4.00公里', '未检测到云', '本地:', '03:00、2019年12月16日周一', '协调世界时:', '19:00、2019年12月15日周日', '来源:', 'USAF 每小时地面观测', '报告类型:', 'METAR 航空例行天气报告', '露点:', '10.0°C', '天气:', 'Mist', '上午4:00', '11°C', '1,014毫巴', '每小时3.60公里', '4.00公里', '无重要云', '本地:', '04:00、2019年12月16日周一', '协调世界时:', '20:00、2019年12月15日周日', '来源:', '周期文件', '趋势:', '无重要变化', '露点:', '9°C', '天气:', 'Mist', '原始:', 'ZUUU 152000Z VRB01MPS 4000 BR NSC 11/09 Q1014 NOSIG', '上午4:00', '11.0°C', '1,014毫巴', '每小时3.60公里', '4.00公里', '未检测到云', '本地:', '04:00、2019年12月16日周一', '协调世界时:', '20:00、2019年12月15日周日', '来源:', 'USAF 每小时地面观测', '报告类型:', 'METAR 航空例行天气报告', '露点:', '9.0°C', '天气:', 'Mist', '上午5:00', '11°C', '1,014毫巴', '每小时3.60公里', '4.00公里', '无重要云', '本地:', '05:00、2019年12月16日周一', '协调世界时:', '21:00、2019年12月15日周日', '来源:', '周期文件', '趋势:', '无重要变化', '露点:', '10°C', '天气:', 'Mist', '原始:', 'ZUUU 152100Z VRB01MPS 4000 BR NSC 11/10 Q1014 NOSIG', '上午5:00', '11.0°C', '1,014毫巴', '每小时3.60公里', '4.00公里', '未检测到云', '本地:', '05:00、2019年12月16日周一', '协调世界时:', '21:00、2019年12月15日周日', '来源:', 'USAF 每小时地面观测', '报告类型:', 'METAR 航空例行天气报告', '露点:', '10.0°C', '天气:', 'Mist', '上午6:00', '11°C', '1,014毫巴', '每小时3.60公里', '4.00公里', '无重要云', '本地:', '06:00、2019年12月16日周一', '协调世界时:', '22:00、2019年12月15日周日', '来源:', '周期文件', '趋势:', '变化为', '露点:', '10°C', '天气:', 'Mist、Mist', '原始:', 'ZUUU 152200Z VRB01MPS 4000 BR NSC 11/10 Q1014 BECMG TL2340 2500 BR', '上午6:00', '11.0°C', '1,014毫巴', '每小时3.60公里', '4.00公里', '未检测到云', '本地:', '06:00、2019年12月16日周一', '协调世界时:', '22:00、2019年12月15日周日', '来源:', 'USAF 每小时地面观测', '报告类型:', 'METAR 航空例行天气报告', '露点:', '10.0°C', '天气:', 'Mist', '上午7:00', '11°C', '1,015毫巴', '每小时0公里', '4.00公里', '无重要云', '本地:', '07:00、2019年12月16日周一', '协调世界时:', '23:00、2019年12月15日周日', '来源:', '周期文件', '趋势:', '变化为', '露点:', '10°C', '天气:', 'Mist、Mist', '原始:', 'ZUUU 152300Z 00000MPS 4000 BR NSC 11/10 Q1015 BECMG TL2350 2500 BR', '上午7:00', '11.0°C', '1,015毫巴', '每小时0公里', '4.00公里', '未检测到云', '本地:', '07:00、2019年12月16日周一', '协调世界时:', '23:00、2019年12月15日周日', '来源:', 'USAF 每小时地面观测', '报告类型:', 'METAR 航空例行天气报告', '露点:', '10.0°C', '天气:', 'Mist', '上午8:00', '10°C', '1,015毫巴', '每小时0公里', '3.00公里', '无重要云', '本地:', '08:00、2019年12月16日周一', '协调世界时:', '00:00、2019年12月16日周一', '来源:', '周期文件', '趋势:', '变化为', '露点:', '9°C', '天气:', 'Mist、Mist', '原始:', 'ZUUU 160000Z 00000MPS 3000 BR NSC 10/09 Q1015 BECMG TL0040 2500 BR', '上午8:00', '10.0°C', '1,015毫巴', '每小时0公里', '3.00公里', '未检测到云', '本地:', '08:00、2019年12月16日周一', '协调世界时:', '00:00、2019年12月16日周一', '来源:', 'USAF 每小时地面观测', '报告类型:', 'METAR 航空例行天气报告', '露点:', '9.0°C', '天气:', 'Mist', '上午9:00', '11°C', '1,016毫巴', '每小时0公里', '2.50公里', '无重要云', '本地:', '09:00、2019年12月16日周一', '协调世界时:', '01:00、2019年12月16日周一', '来源:', '周期文件', '趋势:', '变化为', '露点:', '10°C', '天气:', 'Mist', '原始:', 'ZUUU 160100Z 00000MPS 2500 R02L/1700N R02R/1400N BR NSC 11/10 Q1016 BECMG TL0200 3000', '上午9:00', '11.0°C', '1,016毫巴', '每小时0公里', '2.50公里', '未检测到云', '本地:', '09:00、2019年12月16日周一', '协调世界时:', '01:00、2019年12月16日周一', '来源:', 'USAF 每小时地面观测', '报告类型:', 'METAR 航空例行天气报告', '露点:', '10.0°C', '天气:', 'Mist', '上午10:00', '12°C', '1,016毫巴', '每小时0公里', '2.50公里', '无重要云', '本地:', '10:00、2019年12月16日周一', '协调世界时:', '02:00、2019年12月16日周一', '来源:', '周期文件', '趋势:', '变化为', '露点:', '10°C', '天气:', 'Mist', '原始:', 'ZUUU 160200Z 00000MPS 2500 BR NSC 12/10 Q1016 BECMG TL0330 3000', '上午10:00', '12.0°C', '1,016毫巴', '每小时0公里', '2.50公里', '未检测到云', '本地:', '10:00、2019年12月16日周一', '协调世界时:', '02:00、2019年12月16日周一', '来源:', 'USAF 每小时地面观测', '报告类型:', 'METAR 航空例行天气报告', '露点:', '10.0°C', '天气:', 'Mist', '上午11:00', '13°C', '1,017毫巴', '每小时7.20公里, 西南', '2.70公里', '无重要云', '本地:', '11:00、2019年12月16日周一', '协调世界时:', '03:00、2019年12月16日周一', '来源:', '周期文件', '趋势:', '变化为', '露点:', '11°C', '天气:', 'Mist', '原始:', 'ZUUU 160300Z 23002MPS 210V270 2700 BR NSC 13/11 Q1017 BECMG TL0400 3000', '上午11:00', '13.0°C', '1,017毫巴', '每小时7.20公里, 西南', '2.70公里', '未检测到云', '本地:', '11:00、2019年12月16日周一', '协调世界时:', '03:00、2019年12月16日周一', '来源:', 'USAF 每小时地面观测', '报告类型:', 'METAR 航空例行天气报告', '露点:', '11.0°C', '天气:', 'Mist', '下午12:00', '13°C', '1,016毫巴', '每小时7.20公里, 西南', '2.70公里', '无重要云', '本地:', '12:00、2019年12月16日周一', '协调世界时:', '04:00、2019年12月16日周一', '来源:', '周期文件', '趋势:', '变化为', '露点:', '10°C', '天气:', 'Mist', '原始:', 'ZUUU 160400Z 24002MPS 210V290 2700 BR NSC 13/10 Q1016 BECMG TL0530 3000', '下午12:00', '13.0°C', '1,016毫巴', '每小时7.20公里, 西南', '2.70公里', '未检测到云', '本地:', '12:00、2019年12月16日周一', '协调世界时:', '04:00、2019年12月16日周一', '来源:', 'USAF 每小时地面观测', '报告类型:', 'METAR 航空例行天气报告', '露点:', '10.0°C', '天气:', 'Mist', '下午1:00', '14°C', '1,015毫巴', '每小时3.60公里', '3.00公里', '无重要云', '本地:', '13:00、2019年12月16日周一', '协调世界时:', '05:00、2019年12月16日周一', '来源:', '周期文件', '趋势:', '无重要变化', '露点:', '10°C', '天气:', 'Mist', '原始:', 'ZUUU 160500Z VRB01MPS 3000 BR NSC 14/10 Q1015 NOSIG', '下午1:00', '14.0°C', '1,015毫巴', '每小时3.60公里', '3.00公里', '未检测到云', '本地:', '13:00、2019年12月16日周一', '协调世界时:', '05:00、2019年12月16日周一', '来源:', 'USAF 每小时地面观测', '报告类型:', 'METAR 航空例行天气报告', '露点:', '10.0°C', '天气:', 'Mist', '下午2:00', '15°C', '1,014毫巴', '每小时0公里', '3.00公里', '无重要云', '本地:', '14:00、2019年12月16日周一', '协调世界时:', '06:00、2019年12月16日周一', '来源:', '周期文件', '趋势:', '无重要变化', '露点:', '10°C', '天气:', 'Haze', '原始:', 'ZUUU 160600Z 00000MPS 3000 HZ NSC 15/10 Q1014 NOSIG', '下午2:00', '15.0°C', '1,014毫巴', '每小时0公里', '3.00公里', '未检测到云', '本地:', '14:00、2019年12月16日周一', '协调世界时:', '06:00、2019年12月16日周一', '来源:', 'USAF 每小时地面观测', '报告类型:', 'METAR 航空例行天气报告', '露点:', '10.0°C', '天气:', 'Haze', '下午3:00', '16°C', '1,013毫巴', '每小时3.60公里', '3.50公里', '无重要云', '本地:', '15:00、2019年12月16日周一', '协调世界时:', '07:00、2019年12月16日周一', '来源:', '周期文件', '趋势:', '无重要变化', '露点:', '8°C', '天气:', 'Haze', '原始:', 'ZUUU 160700Z VRB01MPS 3500 HZ NSC 16/08 Q1013 NOSIG', '下午3:00', '16.0°C', '1,013毫巴', '每小时3.60公里', '3.50公里', '未检测到云', '本地:', '15:00、2019年12月16日周一', '协调世界时:', '07:00、2019年12月16日周一', '来源:', 'USAF 每小时地面观测', '报告类型:', 'METAR 航空例行天气报告', '露点:', '8.0°C', '天气:', 'Haze', '下午4:00', '16°C', '1,013毫巴', '每小时0公里', '4.00公里', '无重要云', '本地:', '16:00、2019年12月16日周一', '协调世界时:', '08:00、2019年12月16日周一', '来源:', '周期文件', '趋势:', '无重要变化', '露点:', '7°C', '天气:', 'Haze', '原始:', 'ZUUU 160800Z 00000MPS 4000 HZ NSC 16/07 Q1013 NOSIG', '下午4:00', '16.0°C', '1,013毫巴', '每小时0公里', '4.00公里', '未检测到云', '本地:', '16:00、2019年12月16日周一', '协调世界时:', '08:00、2019年12月16日周一', '来源:', 'USAF 每小时地面观测', '报告类型:', 'METAR 航空例行天气报告', '露点:', '7.0°C', '天气:', 'Haze', '下午5:00', '16°C', '1,014毫巴', '每小时0公里', '4.00公里', '无重要云', '本地:', '17:00、2019年12月16日周一', '协调世界时:', '09:00、2019年12月16日周一', '来源:', '周期文件', '趋势:', '无重要变化', '露点:', '7°C', '天气:', 'Haze', '原始:', 'ZUUU 160900Z 00000MPS 4000 HZ NSC 16/07 Q1014 NOSIG', '下午5:00', '16.0°C', '1,014毫巴', '每小时0公里', '4.00公里', '未检测到云', '本地:', '17:00、2019年12月16日周一', '协调世界时:', '09:00、2019年12月16日周一', '来源:', 'USAF 每小时地面观测', '报告类型:', 'METAR 航空例行天气报告', '露点:', '7.0°C', '天气:', 'Haze', '下午6:00', '15°C', '1,015毫巴', '每小时3.60公里', '5.00公里', '无重要云', '本地:', '18:00、2019年12月16日周一', '协调世界时:', '10:00、2019年12月16日周一', '来源:', '周期文件', '趋势:', '无重要变化', '露点:', '8°C', '天气:', 'Haze', '原始:', 'ZUUU 161000Z VRB01MPS 5000 HZ NSC 15/08 Q1015 NOSIG', '下午6:00', '15.0°C', '1,015毫巴', '每小时3.60公里', '5.00公里', '未检测到云', '本地:', '18:00、2019年12月16日周一', '协调世界时:', '10:00、2019年12月16日周一', '来源:', 'USAF 每小时地面观测', '报告类型:', 'METAR 航空例行天气报告', '露点:', '8.0°C', '天气:', 'Haze', '下午7:00', '15°C', '1,016毫巴', '每小时7.20公里, 东', '5.00公里', '无重要云', '本地:', '19:00、2019年12月16日周一', '协调世界时:', '11:00、2019年12月16日周一', '来源:', '周期文件', '趋势:', '无重要变化', '露点:', '7°C', '天气:', 'Haze', '原始:', 'ZUUU 161100Z 11002MPS 050V130 5000 HZ NSC 15/07 Q1016 NOSIG', '下午7:00', '15.0°C', '1,016毫巴', '每小时7.20公里, 东', '5.00公里', '未检测到云', '本地:', '19:00、2019年12月16日周一', '协调世界时:', '11:00、2019年12月16日周一', '来源:', 'USAF 每小时地面观测', '报告类型:', 'METAR 航空例行天气报告', '露点:', '7.0°C', '天气:', 'Haze', '下午8:00', '14°C', '1,017毫巴', '每小时14.4公里, 东', '8.00公里', '无重要云', '本地:', '20:00、2019年12月16日周一', '协调世界时:', '12:00、2019年12月16日周一', '来源:', '周期文件', '趋势:', '无重要变化', '露点:', '7°C', '原始:', 'ZUUU 161200Z 10004MPS 040V130 8000 NSC 14/07 Q1017 NOSIG', '下午8:00', '14.0°C', '1,017毫巴', '每小时14.4公里, 东', '8.00公里', '未检测到云', '本地:', '20:00、2019年12月16日周一', '协调世界时:', '12:00、2019年12月16日周一', '来源:', 'USAF 每小时地面观测', '报告类型:', 'METAR 航空例行天气报告', '露点:', '7.0°C', '下午9:00', '14°C', '1,018毫巴', '每小时7.20公里, 东北', '≥ 10.00公里', '晴空万里', '本地:', '21:00、2019年12月16日周一', '协调世界时:', '13:00、2019年12月16日周一', '来源:', '周期文件', '趋势:', '无重要变化', '露点:', '6°C', '晴空万里:', '真', '原始:', 'ZUUU 161300Z 06002MPS 040V110 CAVOK 14/06 Q1018 NOSIG', '下午9:00', '14.0°C', '1,018毫巴', '每小时7.20公里, 东北', '9.90公里', '晴空万里', '本地:', '21:00、2019年12月16日周一', '协调世界时:', '13:00、2019年12月16日周一', '来源:', 'USAF 每小时地面观测', '报告类型:', 'METAR 航空例行天气报告', '露点:', '6.0°C', '晴空万里:', '真', '下午10:00', '13°C', '1,019毫巴', '每小时10.8公里, 东北', '≥ 10.00公里', '晴空万里', '本地:', '22:00、2019年12月16日周一', '协调世界时:', '14:00、2019年12月16日周一', '来源:', '周期文件', '趋势:', '无重要变化', '露点:', '5°C', '晴空万里:', '真', '原始:', 'ZUUU 161400Z 03003MPS 360V060 CAVOK 13/05 Q1019 NOSIG', '下午10:00', '13.0°C', '1,019毫巴', '每小时10.8公里, 东北', '9.90公里', '晴空万里', '本地:', '22:00、2019年12月16日周一', '协调世界时:', '14:00、2019年12月16日周一', '来源:', 'USAF 每小时地面观测', '报告类型:', 'METAR 航空例行天气报告', '露点:', '5.0°C', '晴空万里:', '真', '下午11:00', '13°C', '1,019毫巴', '每小时10.8公里, 东北', '≥ 10.00公里', '晴空万里', '本地:', '23:00、2019年12月16日周一', '协调世界时:', '15:00、2019年12月16日周一', '来源:', '周期文件', '趋势:', '无重要变化', '露点:', '4°C', '晴空万里:', '真', '原始:', 'ZUUU 161500Z 06003MPS 020V100 CAVOK 13/04 Q1019 NOSIG', '下午11:00', '13.0°C', '1,019毫巴', '每小时10.8公里, 东北', '9.90公里', '晴空万里', '本地:', '23:00、2019年12月16日周一', '协调世界时:', '15:00、2019年12月16日周一', '来源:', 'USAF 每小时地面观测', '报告类型:', 'METAR 航空例行天气报告', '露点:', '4.0°C', '晴空万里:', '真']