['Mist', 'BR、IWC10', 'Mist', 'BR、IWC10', 'Mist', 'BR、IWC10', 'Mist', 'BR、IWC10', 'Mist', 'BR、IWC10', 'Mist', 'BR、IWC10', 'Mist', 'BR、IWC10', 'Mist', 'BR、IWC10', 'Haze', 'HZ、IWC05', 'Haze', 'HZ、IWC05', 'Haze', 'HZ、IWC05', 'Mist', 'BR、IWC10', 'Mist', 'BR、IWC10', '上午12:00', '3°C', '1,027毫巴', '每小时0公里', '7.00公里', '无重要云', '本地:', '00:00、2019年1月5日周六', '协调世界时:', '16:00、2019年1月4日周五', '来源:', '周期文件', '趋势:', '无重要变化', '露点:', '2°C', '原始:', 'ZUUU 041600Z 00000MPS 7000 NSC 03/02 Q1027 NOSIG', '上午12:00', '3.0°C', '1,027毫巴', '每小时0公里', '7.00公里', '未检测到云', '本地:', '00:00、2019年1月5日周六', '协调世界时:', '16:00、2019年1月4日周五', '来源:', 'USAF 每小时地面观测', '报告类型:', 'METAR 航空例行天气报告', '露点:', '2.0°C', '上午1:00', '2°C', '1,026毫巴', '每小时0公里', '7.00公里', '无重要云', '本地:', '01:00、2019年1月5日周六', '协调世界时:', '17:00、2019年1月4日周五', '来源:', '周期文件', '趋势:', '无重要变化', '露点:', '1°C', '原始:', 'ZUUU 041700Z 00000MPS 7000 NSC 02/01 Q1026 NOSIG', '上午1:00', '2.0°C', '1,026毫巴', '每小时0公里', '7.00公里', '未检测到云', '本地:', '01:00、2019年1月5日周六', '协调世界时:', '17:00、2019年1月4日周五', '来源:', 'USAF 每小时地面观测', '报告类型:', 'METAR 航空例行天气报告', '露点:', '1.0°C', '上午2:00', '3°C', '1,026毫巴', '每小时0公里', '7.00公里', '无重要云', '本地:', '02:00、2019年1月5日周六', '协调世界时:', '18:00、2019年1月4日周五', '来源:', '周期文件', '趋势:', '无重要变化', '露点:', '2°C', '原始:', 'ZUUU 041800Z 00000MPS 7000 NSC 03/02 Q1026 NOSIG', '上午2:00', '3.0°C', '1,026毫巴', '每小时0公里', '7.00公里', '未检测到云', '本地:', '02:00、2019年1月5日周六', '协调世界时:', '18:00、2019年1月4日周五', '来源:', 'USAF 每小时地面观测', '报告类型:', 'METAR 航空例行天气报告', '露点:', '2.0°C', '上午3:00', '2°C', '1,026毫巴', '每小时0公里', '6.00公里', '无重要云', '本地:', '03:00、2019年1月5日周六', '协调世界时:', '19:00、2019年1月4日周五', '来源:', '周期文件', '趋势:', '无重要变化', '露点:', '1°C', '原始:', 'ZUUU 041900Z 00000MPS 6000 NSC 02/01 Q1026 NOSIG', '上午3:00', '2.0°C', '1,026毫巴', '每小时0公里', '6.00公里', '未检测到云', '本地:', '03:00、2019年1月5日周六', '协调世界时:', '19:00、2019年1月4日周五', '来源:', 'USAF 每小时地面观测', '报告类型:', 'METAR 航空例行天气报告', '露点:', '1.0°C', '上午4:00', '1°C', '1,026毫巴', '每小时0公里', '4.50公里', '无重要云', '本地:', '04:00、2019年1月5日周六', '协调世界时:', '20:00、2019年1月4日周五', '来源:', '周期文件', '趋势:', '无重要变化', '露点:', '1°C', '天气:', 'Mist', '原始:', 'ZUUU 042000Z 00000MPS 4500 BR NSC 01/01 Q1026 NOSIG', '上午4:00', '1.0°C', '1,026毫巴', '每小时0公里', '4.50公里', '未检测到云', '本地:', '04:00、2019年1月5日周六', '协调世界时:', '20:00、2019年1月4日周五', '来源:', 'USAF 每小时地面观测', '报告类型:', 'METAR 航空例行天气报告', '露点:', '1.0°C', '天气:', 'Mist', '上午5:00', '0°C', '1,026毫巴', '每小时0公里', '3.50公里', '无重要云', '本地:', '05:00、2019年1月5日周六', '协调世界时:', '21:00、2019年1月4日周五', '来源:', '周期文件', '趋势:', '无重要变化', '露点:', '0°C', '天气:', 'Mist', '原始:', 'ZUUU 042100Z 00000MPS 3500 BR NSC 00/00 Q1026 NOSIG', '上午5:00', '0.0°C', '1,026毫巴', '每小时0公里', '3.50公里', '未检测到云', '本地:', '05:00、2019年1月5日周六', '协调世界时:', '21:00、2019年1月4日周五', '来源:', 'USAF 每小时地面观测', '报告类型:', 'METAR 航空例行天气报告', '露点:', '0.0°C', '天气:', 'Mist', '上午6:00', '1°C', '1,026毫巴', '每小时0公里', '3.30公里', '无重要云', '本地:', '06:00、2019年1月5日周六', '协调世界时:', '22:00、2019年1月4日周五', '来源:', '周期文件', '趋势:', '变化为', '露点:', '1°C', '天气:', 'Mist、Mist', '原始:', 'ZUUU 042200Z 00000MPS 3300 BR NSC 01/01 Q1026 BECMG TL2300 2500 BR', '上午6:00', '1.0°C', '1,026毫巴', '每小时0公里', '3.30公里', '未检测到云', '本地:', '06:00、2019年1月5日周六', '协调世界时:', '22:00、2019年1月4日周五', '来源:', 'USAF 每小时地面观测', '报告类型:', 'METAR 航空例行天气报告', '露点:', '1.0°C', '天气:', 'Mist', '上午7:00', '0°C', '1,027毫巴', '每小时0公里', '3.00公里', '无重要云', '本地:', '07:00、2019年1月5日周六', '协调世界时:', '23:00、2019年1月4日周五', '来源:', '周期文件', '趋势:', '变化为', '露点:', '0°C', '天气:', 'Mist、Mist', '原始:', 'ZUUU 042300Z 00000MPS 3000 BR NSC 00/00 Q1027 BECMG TL0030 2500 BR', '上午7:00', '0.0°C', '1,027毫巴', '每小时0公里', '3.00公里', '未检测到云', '本地:', '07:00、2019年1月5日周六', '协调世界时:', '23:00、2019年1月4日周五', '来源:', 'USAF 每小时地面观测', '报告类型:', 'METAR 航空例行天气报告', '露点:', '0.0°C', '天气:', 'Mist', '上午8:00', '0°C', '1,027毫巴', '每小时0公里', '2.30公里', '无重要云', '本地:', '08:00、2019年1月5日周六', '协调世界时:', '00:00、2019年1月5日周六', '来源:', '周期文件', '趋势:', '无重要变化', '露点:', '0°C', '天气:', 'Mist', '原始:', 'ZUUU 050000Z 00000MPS 2300 BR NSC 00/00 Q1027 NOSIG', '上午8:00', '0.0°C', '1,027毫巴', '每小时0公里', '2.30公里', '未检测到云', '本地:', '08:00、2019年1月5日周六', '协调世界时:', '00:00、2019年1月5日周六', '来源:', 'USAF 每小时地面观测', '报告类型:', 'METAR 航空例行天气报告', '露点:', '0.0°C', '天气:', 'Mist', '上午9:00', '1°C', '1,028毫巴', '每小时0公里', '2.50公里', '无重要云', '本地:', '09:00、2019年1月5日周六', '协调世界时:', '01:00、2019年1月5日周六', '来源:', '周期文件', '趋势:', '变化为', '露点:', '1°C', '天气:', 'Mist', '原始:', 'ZUUU 050100Z 00000MPS 2500 BR NSC 01/01 Q1028 BECMG TL0230 3000', '上午9:00', '1.0°C', '1,028毫巴', '每小时0公里', '2.50公里', '未检测到云', '本地:', '09:00、2019年1月5日周六', '协调世界时:', '01:00、2019年1月5日周六', '来源:', 'USAF 每小时地面观测', '报告类型:', 'METAR 航空例行天气报告', '露点:', '1.0°C', '天气:', 'Mist', '上午10:00', '5°C', '1,029毫巴', '每小时0公里', '3.00公里', '大部分晴天 (1,524米)', '本地:', '10:00、2019年1月5日周六', '协调世界时:', '02:00、2019年1月5日周六', '来源:', '周期文件', '趋势:', '无重要变化', '露点:', '4°C', '天气:', 'Mist', '原始:', 'ZUUU 050200Z 00000MPS 3000 BR FEW050 05/04 Q1029 NOSIG', '上午10:00', '5.0°C', '1,029毫巴', '每小时0公里', '3.00公里', '大部分晴天 (1,524米)', '本地:', '10:00、2019年1月5日周六', '协调世界时:', '02:00、2019年1月5日周六', '来源:', 'USAF 每小时地面观测', '报告类型:', 'METAR 航空例行天气报告', '露点:', '4.0°C', '天气:', 'Mist', '上午11:00', '7°C', '1,029毫巴', '每小时0公里', '4.00公里', '无重要云', '本地:', '11:00、2019年1月5日周六', '协调世界时:', '03:00、2019年1月5日周六', '来源:', '周期文件', '趋势:', '无重要变化', '露点:', '4°C', '天气:', 'Mist', '原始:', 'ZUUU 050300Z 00000MPS 4000 BR NSC 07/04 Q1029 NOSIG', '上午11:00', '7.0°C', '1,029毫巴', '每小时0公里', '4.00公里', '未检测到云', '本地:', '11:00、2019年1月5日周六', '协调世界时:', '03:00、2019年1月5日周六', '来源:', 'USAF 每小时地面观测', '报告类型:', 'METAR 航空例行天气报告', '露点:', '4.0°C', '天气:', 'Mist', '下午12:00', '9°C', '1,028毫巴', '每小时3.60公里', '5.00公里', '无重要云', '本地:', '12:00、2019年1月5日周六', '协调世界时:', '04:00、2019年1月5日周六', '来源:', '周期文件', '趋势:', '无重要变化', '露点:', '2°C', '天气:', 'Haze', '原始:', 'ZUUU 050400Z VRB01MPS 5000 HZ NSC 09/02 Q1028 NOSIG', '下午12:00', '9.0°C', '1,028毫巴', '每小时3.60公里', '5.00公里', '未检测到云', '本地:', '12:00、2019年1月5日周六', '协调世界时:', '04:00、2019年1月5日周六', '来源:', 'USAF 每小时地面观测', '报告类型:', 'METAR 航空例行天气报告', '露点:', '2.0°C', '天气:', 'Haze', '下午1:00', '10°C', '1,027毫巴', '每小时10.8公里, 西', '5.00公里', '大部分晴天 (792米)', '本地:', '13:00、2019年1月5日周六', '协调世界时:', '05:00、2019年1月5日周六', '来源:', '周期文件', '趋势:', '无重要变化', '露点:', '2°C', '天气:', 'Haze', '原始:', 'ZUUU 050500Z 25003MPS 5000 HZ FEW026 10/02 Q1027 NOSIG', '下午1:00', '10.0°C', '1,027毫巴', '每小时10.8公里, 西', '5.00公里', '大部分晴天 (792米)', '本地:', '13:00、2019年1月5日周六', '协调世界时:', '05:00、2019年1月5日周六', '来源:', 'USAF 每小时地面观测', '报告类型:', 'METAR 航空例行天气报告', '露点:', '2.0°C', '天气:', 'Haze', '下午2:00', '11°C', '1,025毫巴', '每小时10.8公里, 西南', '6.00公里', '部分多云 (792米)', '本地:', '14:00、2019年1月5日周六', '协调世界时:', '06:00、2019年1月5日周六', '来源:', '周期文件', '趋势:', '无重要变化', '露点:', '2°C', '原始:', 'ZUUU 050600Z 21003MPS 140V280 6000 SCT026 11/02 Q1025 NOSIG', '下午2:00', '11.0°C', '1,025毫巴', '每小时10.8公里, 西南', '6.00公里', '部分多云 (792米)', '本地:', '14:00、2019年1月5日周六', '协调世界时:', '06:00、2019年1月5日周六', '来源:', 'USAF 每小时地面观测', '报告类型:', 'METAR 航空例行天气报告', '露点:', '2.0°C', '下午3:00', '10°C', '1,024毫巴', '每小时7.20公里, 西南', '7.00公里', '部分多云 (1,219米)', '本地:', '15:00、2019年1月5日周六', '协调世界时:', '07:00、2019年1月5日周六', '来源:', '周期文件', '趋势:', '无重要变化', '露点:', '2°C', '原始:', 'ZUUU 050700Z 24002MPS 180V270 7000 SCT040 10/02 Q1024 NOSIG', '下午3:00', '10.0°C', '1,024毫巴', '每小时7.20公里, 西南', '7.00公里', '部分多云 (1,219米)', '本地:', '15:00、2019年1月5日周六', '协调世界时:', '07:00、2019年1月5日周六', '来源:', 'USAF 每小时地面观测', '报告类型:', 'METAR 航空例行天气报告', '露点:', '2.0°C', '下午4:00', '11°C', '1,024毫巴', '每小时10.8公里, 西南', '10.00公里', '部分多云 (1,524米)', '本地:', '16:00、2019年1月5日周六', '协调世界时:', '08:00、2019年1月5日周六', '来源:', '周期文件', '趋势:', '无重要变化', '露点:', '0°C', '原始:', 'ZUUU 050800Z 24003MPS 210V270 9999 SCT050 11/00 Q1024 NOSIG', '下午4:00', '11.0°C', '1,024毫巴', '每小时10.8公里, 西南', '10.00公里', '部分多云 (1,524米)', '本地:', '16:00、2019年1月5日周六', '协调世界时:', '08:00、2019年1月5日周六', '来源:', 'USAF 每小时地面观测', '报告类型:', 'METAR 航空例行天气报告', '露点:', '0.0°C', '下午5:00', '10°C', '1,023毫巴', '每小时7.20公里, 西南', '8.00公里', '部分多云 (1,524米)', '本地:', '17:00、2019年1月5日周六', '协调世界时:', '09:00、2019年1月5日周六', '来源:', '周期文件', '趋势:', '无重要变化', '露点:', '0°C', '其他云层:', '大部分晴天 (1,006米)', '原始:', 'ZUUU 050900Z 24002MPS 8000 FEW033 SCT050 10/00 Q1023 NOSIG', '下午5:00', '10.0°C', '1,023毫巴', '每小时7.20公里, 西南', '8.00公里', '部分多云 (1,524米)', '本地:', '17:00、2019年1月5日周六', '协调世界时:', '09:00、2019年1月5日周六', '来源:', 'USAF 每小时地面观测', '报告类型:', 'METAR 航空例行天气报告', '露点:', '0.0°C', '其他云层:', '大部分晴天 (1,006米)', '下午6:00', '9°C', '1,024毫巴', '每小时0公里', '8.00公里', '部分多云 (1,524米)', '本地:', '18:00、2019年1月5日周六', '协调世界时:', '10:00、2019年1月5日周六', '来源:', '周期文件', '趋势:', '无重要变化', '露点:', '1°C', '原始:', 'ZUUU 051000Z 00000MPS 8000 SCT050 09/01 Q1024 NOSIG', '下午6:00', '9.0°C', '1,024毫巴', '每小时0公里', '8.00公里', '部分多云 (1,524米)', '本地:', '18:00、2019年1月5日周六', '协调世界时:', '10:00、2019年1月5日周六', '来源:', 'USAF 每小时地面观测', '报告类型:', 'METAR 航空例行天气报告', '露点:', '1.0°C', '下午7:00', '9°C', '1,024毫巴', '每小时0公里', '7.00公里', '部分多云 (1,524米)', '本地:', '19:00、2019年1月5日周六', '协调世界时:', '11:00、2019年1月5日周六', '来源:', '周期文件', '趋势:', '无重要变化', '露点:', '2°C', '原始:', 'ZUUU 051100Z 00000MPS 7000 SCT050 09/02 Q1024 NOSIG', '下午7:00', '9.0°C', '1,024毫巴', '每小时0公里', '7.00公里', '部分多云 (1,524米)', '本地:', '19:00、2019年1月5日周六', '协调世界时:', '11:00、2019年1月5日周六', '来源:', 'USAF 每小时地面观测', '报告类型:', 'METAR 航空例行天气报告', '露点:', '2.0°C', '下午8:00', '9°C', '1,025毫巴', '每小时0公里', '6.00公里', '部分多云 (1,524米)', '本地:', '20:00、2019年1月5日周六', '协调世界时:', '12:00、2019年1月5日周六', '来源:', '周期文件', '趋势:', '无重要变化', '露点:', '3°C', '原始:', 'ZUUU 051200Z 00000MPS 6000 SCT050 09/03 Q1025 NOSIG', '下午8:00', '9.0°C', '1,025毫巴', '每小时0公里', '6.00公里', '部分多云 (1,524米)', '本地:', '20:00、2019年1月5日周六', '协调世界时:', '12:00、2019年1月5日周六', '来源:', 'USAF 每小时地面观测', '报告类型:', 'METAR 航空例行天气报告', '露点:', '3.0°C', '下午9:00', '8°C', '1,025毫巴', '每小时0公里', '5.00公里', '部分多云 (1,524米)', '本地:', '21:00、2019年1月5日周六', '协调世界时:', '13:00、2019年1月5日周六', '来源:', '周期文件', '趋势:', '无重要变化', '露点:', '3°C', '天气:', 'Haze', '原始:', 'ZUUU 051300Z 00000MPS 5000 HZ SCT050 08/03 Q1025 NOSIG', '下午9:00', '8.0°C', '1,025毫巴', '每小时0公里', '5.00公里', '部分多云 (1,524米)', '本地:', '21:00、2019年1月5日周六', '协调世界时:', '13:00、2019年1月5日周六', '来源:', 'USAF 每小时地面观测', '报告类型:', 'METAR 航空例行天气报告', '露点:', '3.0°C', '天气:', 'Haze', '下午10:00', '8°C', '1,025毫巴', '每小时7.20公里, 北', '5.00公里', '部分多云 (1,524米)', '本地:', '22:00、2019年1月5日周六', '协调世界时:', '14:00、2019年1月5日周六', '来源:', '周期文件', '趋势:', '无重要变化', '露点:', '3°C', '天气:', 'Mist', '原始:', 'ZUUU 051400Z 02002MPS 5000 BR SCT050 08/03 Q1025 NOSIG', '下午10:00', '8.0°C', '1,025毫巴', '每小时7.20公里, 北', '5.00公里', '部分多云 (1,524米)', '本地:', '22:00、2019年1月5日周六', '协调世界时:', '14:00、2019年1月5日周六', '来源:', 'USAF 每小时地面观测', '报告类型:', 'METAR 航空例行天气报告', '露点:', '3.0°C', '天气:', 'Mist', '下午11:00', '8°C', '1,025毫巴', '每小时0公里', '5.00公里', '部分多云 (1,524米)', '本地:', '23:00、2019年1月5日周六', '协调世界时:', '15:00、2019年1月5日周六', '来源:', '周期文件', '趋势:', '无重要变化', '露点:', '4°C', '天气:', 'Mist', '原始:', 'ZUUU 051500Z 00000MPS 5000 BR SCT050 08/04 Q1025 NOSIG', '下午11:00', '8.0°C', '1,025毫巴', '每小时0公里', '5.00公里', '部分多云 (1,524米)', '本地:', '23:00、2019年1月5日周六', '协调世界时:', '15:00、2019年1月5日周六', '来源:', 'USAF 每小时地面观测', '报告类型:', 'METAR 航空例行天气报告', '露点:', '4.0°C', '天气:', 'Mist']