['Showers of Light Rain、Mist', '-SHRA、IWC80、BR、IWC10', 'Showers of Light Rain、Mist', '-SHRA、IWC80、BR、IWC10', 'Showers of Light Rain、Mist', '-SHRA、IWC80、BR、IWC10', 'Showers of Light Rain、Mist', '-SHRA、IWC80、BR、IWC10', 'Showers of Light Rain、Mist', '-SHRA、IWC80、BR、IWC10', 'Mist', 'BR、IWC10', 'Mist', 'BR、IWC10', 'Mist', 'BR、IWC10', 'Showers of Light Rain', '-SHRA、IWC80', 'Showers of Light Rain', '-SHRA、IWC80', 'Showers of Light Rain', '-SHRA、IWC80', 'Mist', 'BR、IWC10', '上午12:00', '23°C', '1,008毫巴', '每小时3.60公里, 西南', '4.50公里', '部分多云 (1,006米)', '本地:', '00:00、2019年6月17日周一', '协调世界时:', '16:00、2019年6月16日周日', '来源:', '周期文件', '趋势:', '无重要变化', '露点:', '22°C', '其他云层:', '大部分晴天 (1,006米)', '天气:', 'Showers of Light Rain、Mist', '原始:', 'ZUUU 161600Z 23001MPS 4500 -SHRA BR FEW033TCU SCT033 23/22 Q1008 NOSIG', '上午12:00', '23.0°C', '1,008毫巴', '每小时3.60公里, 西南', '4.50公里', '部分多云 (1,006米)', '本地:', '00:00、2019年6月17日周一', '协调世界时:', '16:00、2019年6月16日周日', '来源:', 'USAF 每小时地面观测', '报告类型:', 'METAR 航空例行天气报告', '露点:', '22.0°C', '其他云层:', '大部分晴天 (1,006米)', '天气:', 'Mist、Showers of Light Rain', '上午1:00', '23°C', '1,008毫巴', '每小时3.60公里', '4.00公里', '部分多云 (1,006米)', '本地:', '01:00、2019年6月17日周一', '协调世界时:', '17:00、2019年6月16日周日', '来源:', '周期文件', '趋势:', '无重要变化', '露点:', '22°C', '其他云层:', '大部分晴天 (1,006米)', '天气:', 'Showers of Light Rain、Mist', '原始:', 'ZUUU 161700Z VRB01MPS 4000 -SHRA BR FEW033TCU SCT033 23/22 Q1008 NOSIG', '上午1:00', '23.0°C', '1,008毫巴', '每小时3.60公里', '4.00公里', '部分多云 (1,006米)', '本地:', '01:00、2019年6月17日周一', '协调世界时:', '17:00、2019年6月16日周日', '来源:', 'USAF 每小时地面观测', '报告类型:', 'METAR 航空例行天气报告', '露点:', '22.0°C', '其他云层:', '大部分晴天 (1,006米)', '天气:', 'Mist、Showers of Light Rain', '上午2:00', '23°C', '1,008毫巴', '每小时3.60公里', '4.00公里', '部分多云 (1,006米)', '本地:', '02:00、2019年6月17日周一', '协调世界时:', '18:00、2019年6月16日周日', '来源:', '周期文件', '趋势:', '无重要变化', '露点:', '22°C', '其他云层:', '大部分晴天 (1,006米)', '天气:', 'Showers of Light Rain、Mist', '原始:', 'ZUUU 161800Z VRB01MPS 4000 -SHRA BR FEW033TCU SCT033 23/22 Q1008 NOSIG', '上午2:00', '23.0°C', '1,008毫巴', '每小时3.60公里', '4.00公里', '部分多云 (1,006米)', '本地:', '02:00、2019年6月17日周一', '协调世界时:', '18:00、2019年6月16日周日', '来源:', 'USAF 每小时地面观测', '报告类型:', 'METAR 航空例行天气报告', '露点:', '22.0°C', '其他云层:', '大部分晴天 (1,006米)', '天气:', 'Mist、Showers of Light Rain', '上午3:00', '23°C', '1,007毫巴', '每小时7.20公里, 西', '4.00公里', '部分多云 (1,006米)', '本地:', '03:00、2019年6月17日周一', '协调世界时:', '19:00、2019年6月16日周日', '来源:', '周期文件', '趋势:', '无重要变化', '露点:', '22°C', '其他云层:', '大部分晴天 (1,006米)', '天气:', 'Showers of Light Rain、Mist', '原始:', 'ZUUU 161900Z 29002MPS 240V320 4000 -SHRA BR FEW033TCU SCT033 23/22 Q1007 NOSIG', '上午3:00', '23.0°C', '1,007毫巴', '每小时7.20公里, 西', '4.00公里', '部分多云 (1,006米)', '本地:', '03:00、2019年6月17日周一', '协调世界时:', '19:00、2019年6月16日周日', '来源:', 'USAF 每小时地面观测', '报告类型:', 'METAR 航空例行天气报告', '露点:', '22.0°C', '其他云层:', '大部分晴天 (1,006米)', '天气:', 'Mist、Showers of Light Rain', '上午4:00', '22°C', '1,007毫巴', '每小时3.60公里', '4.50公里', '大部分晴天 (122米)', '本地:', '04:00、2019年6月17日周一', '协调世界时:', '20:00、2019年6月16日周日', '来源:', '周期文件', '趋势:', '无重要变化', '露点:', '22°C', '其他云层:', '大部分晴天 (1,006米)', '天气:', 'Showers of Light Rain、Mist', '原始:', 'ZUUU 162000Z VRB01MPS 4500 -SHRA BR FEW004 FEW033TCU 22/22 Q1007 NOSIG', '上午4:00', '22.0°C', '1,007毫巴', '每小时3.60公里', '4.50公里', '大部分晴天 (122米)', '本地:', '04:00、2019年6月17日周一', '协调世界时:', '20:00、2019年6月16日周日', '来源:', 'USAF 每小时地面观测', '报告类型:', 'METAR 航空例行天气报告', '露点:', '22.0°C', '其他云层:', '大部分晴天 (1,006米)', '天气:', 'Mist、Showers of Light Rain', '上午5:00', '22°C', '1,007毫巴', '每小时0公里', '6.00公里', '大部分晴天 (122米)', '本地:', '05:00、2019年6月17日周一', '协调世界时:', '21:00、2019年6月16日周日', '来源:', '周期文件', '趋势:', '无重要变化', '露点:', '22°C', '原始:', 'ZUUU 162100Z 00000MPS 6000 FEW004 22/22 Q1007 NOSIG', '上午5:00', '22.0°C', '1,007毫巴', '每小时0公里', '6.00公里', '大部分晴天 (122米)', '本地:', '05:00、2019年6月17日周一', '协调世界时:', '21:00、2019年6月16日周日', '来源:', 'USAF 每小时地面观测', '报告类型:', 'METAR 航空例行天气报告', '露点:', '22.0°C', '上午6:00', '21°C', '1,007毫巴', '每小时3.60公里', '5.00公里', '大部分晴天 (792米)', '本地:', '06:00、2019年6月17日周一', '协调世界时:', '22:00、2019年6月16日周日', '来源:', '周期文件', '趋势:', '无重要变化', '露点:', '21°C', '天气:', 'Mist', '原始:', 'ZUUU 162200Z VRB01MPS 5000 BR FEW026 21/21 Q1007 NOSIG', '上午6:00', '21.0°C', '1,007毫巴', '每小时3.60公里', '5.00公里', '大部分晴天 (792米)', '本地:', '06:00、2019年6月17日周一', '协调世界时:', '22:00、2019年6月16日周日', '来源:', 'USAF 每小时地面观测', '报告类型:', 'METAR 航空例行天气报告', '露点:', '21.0°C', '天气:', 'Mist', '上午7:00', '22°C', '1,008毫巴', '每小时0公里', '5.00公里', '大部分晴天 (305米)', '本地:', '07:00、2019年6月17日周一', '协调世界时:', '23:00、2019年6月16日周日', '来源:', '周期文件', '趋势:', '无重要变化', '露点:', '21°C', '天气:', 'Mist', '原始:', 'ZUUU 162300Z 00000MPS 5000 BR FEW010 22/21 Q1008 NOSIG', '上午7:00', '22.0°C', '1,008毫巴', '每小时0公里', '5.00公里', '大部分晴天 (305米)', '本地:', '07:00、2019年6月17日周一', '协调世界时:', '23:00、2019年6月16日周日', '来源:', 'USAF 每小时地面观测', '报告类型:', 'METAR 航空例行天气报告', '露点:', '21.0°C', '天气:', 'Mist', '上午8:00', '22°C', '1,008毫巴', '每小时0公里', '5.00公里', '部分多云 (792米)', '本地:', '08:00、2019年6月17日周一', '协调世界时:', '00:00、2019年6月17日周一', '来源:', '周期文件', '趋势:', '无重要变化', '露点:', '22°C', '其他云层:', '部分多云 (1,524米)', '天气:', 'Mist', '原始:', 'ZUUU 170000Z 00000MPS 5000 BR SCT026 SCT050 22/22 Q1008 NOSIG', '上午8:00', '22.0°C', '1,008毫巴', '每小时0公里', '5.00公里', '部分多云 (792米)', '本地:', '08:00、2019年6月17日周一', '协调世界时:', '00:00、2019年6月17日周一', '来源:', 'USAF 每小时地面观测', '报告类型:', 'METAR 航空例行天气报告', '露点:', '22.0°C', '其他云层:', '部分多云 (1,524米)', '天气:', 'Mist', '上午9:00', '23°C', '1,009毫巴', '每小时3.60公里', '7.00公里', '部分多云 (792米)', '本地:', '09:00、2019年6月17日周一', '协调世界时:', '01:00、2019年6月17日周一', '来源:', '周期文件', '趋势:', '无重要变化', '露点:', '21°C', '其他云层:', '大部分晴天 (305米)', '原始:', 'ZUUU 170100Z VRB01MPS 7000 FEW010 SCT026 23/21 Q1009 NOSIG', '上午9:00', '23.0°C', '1,009毫巴', '每小时3.60公里', '7.00公里', '部分多云 (792米)', '本地:', '09:00、2019年6月17日周一', '协调世界时:', '01:00、2019年6月17日周一', '来源:', 'USAF 每小时地面观测', '报告类型:', 'METAR 航空例行天气报告', '露点:', '21.0°C', '其他云层:', '大部分晴天 (305米)', '上午10:00', '23°C', '1,009毫巴', '每小时7.20公里, 西南', '7.00公里', '部分多云 (792米)', '本地:', '10:00、2019年6月17日周一', '协调世界时:', '02:00、2019年6月17日周一', '来源:', '周期文件', '趋势:', '无重要变化', '露点:', '22°C', '其他云层:', '大部分晴天 (305米)', '原始:', 'ZUUU 170200Z 22002MPS 7000 FEW010 SCT026 23/22 Q1009 NOSIG', '上午10:00', '23.0°C', '1,009毫巴', '每小时7.20公里, 西南', '7.00公里', '部分多云 (792米)', '本地:', '10:00、2019年6月17日周一', '协调世界时:', '02:00、2019年6月17日周一', '来源:', 'USAF 每小时地面观测', '报告类型:', 'METAR 航空例行天气报告', '露点:', '22.0°C', '其他云层:', '大部分晴天 (305米)', '上午11:00', '24°C', '1,009毫巴', '每小时3.60公里', '7.00公里', '大部分晴天 (792米)', '本地:', '11:00、2019年6月17日周一', '协调世界时:', '03:00、2019年6月17日周一', '来源:', '周期文件', '趋势:', '无重要变化', '露点:', '22°C', '原始:', 'ZUUU 170300Z VRB01MPS 7000 FEW026 24/22 Q1009 NOSIG', '上午11:00', '24.0°C', '1,009毫巴', '每小时3.60公里', '7.00公里', '大部分晴天 (792米)', '本地:', '11:00、2019年6月17日周一', '协调世界时:', '03:00、2019年6月17日周一', '来源:', 'USAF 每小时地面观测', '报告类型:', 'METAR 航空例行天气报告', '露点:', '22.0°C', '下午12:00', '24°C', '1,009毫巴', '每小时7.20公里, 南', '7.00公里', '部分多云 (792米)', '本地:', '12:00、2019年6月17日周一', '协调世界时:', '04:00、2019年6月17日周一', '来源:', '周期文件', '趋势:', '无重要变化', '露点:', '22°C', '其他云层:', '大部分晴天 (305米)、大部分晴天 (792米)', '天气:', 'Showers of Light Rain', '原始:', 'ZUUU 170400Z 16002MPS 090V220 7000 -SHRA FEW010 FEW026TCU SCT026 24/22 Q1009 NOSIG', '下午12:00', '24.0°C', '1,009毫巴', '每小时7.20公里, 南', '7.00公里', '部分多云 (792米)', '本地:', '12:00、2019年6月17日周一', '协调世界时:', '04:00、2019年6月17日周一', '来源:', 'USAF 每小时地面观测', '报告类型:', 'METAR 航空例行天气报告', '露点:', '22.0°C', '其他云层:', '大部分晴天 (305米)、大部分晴天 (792米)', '天气:', 'Showers of Light Rain', '下午1:00', '24°C', '1,009毫巴', '每小时7.20公里', '6.00公里', '部分多云 (792米)', '本地:', '13:00、2019年6月17日周一', '协调世界时:', '05:00、2019年6月17日周一', '来源:', '周期文件', '趋势:', '无重要变化', '露点:', '22°C', '其他云层:', '大部分晴天 (396米)', '原始:', 'ZUUU 170500Z VRB02MPS 6000 FEW013 SCT026 24/22 Q1009 NOSIG', '下午1:00', '24.0°C', '1,009毫巴', '每小时7.20公里', '6.00公里', '部分多云 (792米)', '本地:', '13:00、2019年6月17日周一', '协调世界时:', '05:00、2019年6月17日周一', '来源:', 'USAF 每小时地面观测', '报告类型:', 'METAR 航空例行天气报告', '露点:', '22.0°C', '其他云层:', '大部分晴天 (396米)', '下午2:00', '24°C', '1,008毫巴', '每小时7.20公里, 南', '6.00公里', '部分多云 (1,219米)', '本地:', '14:00、2019年6月17日周一', '协调世界时:', '06:00、2019年6月17日周一', '来源:', '周期文件', '趋势:', '无重要变化', '露点:', '21°C', '天气:', 'Showers of Light Rain', '原始:', 'ZUUU 170600Z 18002MPS 120V220 6000 -SHRA SCT040 24/21 Q1008 NOSIG', '下午2:00', '24.0°C', '1,008毫巴', '每小时7.20公里, 南', '6.00公里', '部分多云 (1,219米)', '本地:', '14:00、2019年6月17日周一', '协调世界时:', '06:00、2019年6月17日周一', '来源:', 'USAF 每小时地面观测', '报告类型:', 'METAR 航空例行天气报告', '露点:', '21.0°C', '天气:', 'Showers of Light Rain', '下午3:00', '25°C', '1,008毫巴', '每小时3.60公里', '6.00公里', '部分多云 (1,219米)', '本地:', '15:00、2019年6月17日周一', '协调世界时:', '07:00、2019年6月17日周一', '来源:', '周期文件', '趋势:', '无重要变化', '露点:', '21°C', '原始:', 'ZUUU 170700Z VRB01MPS 6000 SCT040 25/21 Q1008 NOSIG', '下午3:00', '25.0°C', '1,008毫巴', '每小时3.60公里', '6.00公里', '部分多云 (1,219米)', '本地:', '15:00、2019年6月17日周一', '协调世界时:', '07:00、2019年6月17日周一', '来源:', 'USAF 每小时地面观测', '报告类型:', 'METAR 航空例行天气报告', '露点:', '21.0°C', '下午4:00', '25°C', '1,008毫巴', '每小时7.20公里, 东南', '7.00公里', '部分多云 (1,524米)', '本地:', '16:00、2019年6月17日周一', '协调世界时:', '08:00、2019年6月17日周一', '来源:', '周期文件', '趋势:', '无重要变化', '露点:', '21°C', '原始:', 'ZUUU 170800Z 13002MPS 030V170 7000 SCT050 25/21 Q1008 NOSIG', '下午4:00', '25.0°C', '1,008毫巴', '每小时7.20公里, 东南', '7.00公里', '部分多云 (1,524米)', '本地:', '16:00、2019年6月17日周一', '协调世界时:', '08:00、2019年6月17日周一', '来源:', 'USAF 每小时地面观测', '报告类型:', 'METAR 航空例行天气报告', '露点:', '21.0°C', '下午5:00', '25°C', '1,007毫巴', '每小时7.20公里, 东', '10.00公里', '大部分晴天 (1,524米)', '本地:', '17:00、2019年6月17日周一', '协调世界时:', '09:00、2019年6月17日周一', '来源:', '周期文件', '趋势:', '无重要变化', '露点:', '20°C', '原始:', 'ZUUU 170900Z 10002MPS 040V150 9999 FEW050 25/20 Q1007 NOSIG', '下午5:00', '25.0°C', '1,007毫巴', '每小时7.20公里, 东', '10.00公里', '大部分晴天 (1,524米)', '本地:', '17:00、2019年6月17日周一', '协调世界时:', '09:00、2019年6月17日周一', '来源:', 'USAF 每小时地面观测', '报告类型:', 'METAR 航空例行天气报告', '露点:', '20.0°C', '下午6:00', '25°C', '1,008毫巴', '每小时3.60公里', '10.00公里', '部分多云 (1,524米)', '本地:', '18:00、2019年6月17日周一', '协调世界时:', '10:00、2019年6月17日周一', '来源:', '周期文件', '趋势:', '无重要变化', '露点:', '20°C', '原始:', 'ZUUU 171000Z VRB01MPS 9999 SCT050 25/20 Q1008 NOSIG', '下午6:00', '25.0°C', '1,008毫巴', '每小时3.60公里', '10.00公里', '部分多云 (1,524米)', '本地:', '18:00、2019年6月17日周一', '协调世界时:', '10:00、2019年6月17日周一', '来源:', 'USAF 每小时地面观测', '报告类型:', 'METAR 航空例行天气报告', '露点:', '20.0°C', '下午7:00', '24°C', '1,008毫巴', '每小时10.8公里, 西', '10.00公里', '部分多云 (1,219米)', '本地:', '19:00、2019年6月17日周一', '协调世界时:', '11:00、2019年6月17日周一', '来源:', '周期文件', '趋势:', '无重要变化', '露点:', '21°C', '其他云层:', '大部分晴天 (792米)', '原始:', 'ZUUU 171100Z 28003MPS 240V320 9999 FEW026 SCT040 24/21 Q1008 NOSIG', '下午7:00', '24.0°C', '1,008毫巴', '每小时10.8公里, 西', '10.00公里', '部分多云 (1,219米)', '本地:', '19:00、2019年6月17日周一', '协调世界时:', '11:00、2019年6月17日周一', '来源:', 'USAF 每小时地面观测', '报告类型:', 'METAR 航空例行天气报告', '露点:', '21.0°C', '其他云层:', '大部分晴天 (792米)', '下午8:00', '23°C', '1,009毫巴', '每小时3.60公里', '6.00公里', '部分多云 (1,006米)', '本地:', '20:00、2019年6月17日周一', '协调世界时:', '12:00、2019年6月17日周一', '来源:', '周期文件', '趋势:', '无重要变化', '露点:', '21°C', '其他云层:', '大部分晴天 (1,006米)', '天气:', 'Showers of Light Rain', '原始:', 'ZUUU 171200Z VRB01MPS 6000 -SHRA FEW033TCU SCT033 23/21 Q1009 NOSIG', '下午8:00', '23.0°C', '1,009毫巴', '每小时3.60公里', '6.00公里', '部分多云 (1,006米)', '本地:', '20:00、2019年6月17日周一', '协调世界时:', '12:00、2019年6月17日周一', '来源:', 'USAF 每小时地面观测', '报告类型:', 'METAR 航空例行天气报告', '露点:', '21.0°C', '其他云层:', '大部分晴天 (1,006米)', '天气:', 'Showers of Light Rain', '下午9:00', '22°C', '1,010毫巴', '每小时7.20公里, 西南', '7.00公里', '部分多云 (1,524米)', '本地:', '21:00、2019年6月17日周一', '协调世界时:', '13:00、2019年6月17日周一', '来源:', '周期文件', '趋势:', '无重要变化', '露点:', '21°C', '其他云层:', '大部分晴天 (792米)', '原始:', 'ZUUU 171300Z 21002MPS 170V230 7000 FEW026 SCT050 22/21 Q1010 NOSIG', '下午9:00', '22.0°C', '1,010毫巴', '每小时7.20公里, 西南', '7.00公里', '部分多云 (1,524米)', '本地:', '21:00、2019年6月17日周一', '协调世界时:', '13:00、2019年6月17日周一', '来源:', 'USAF 每小时地面观测', '报告类型:', 'METAR 航空例行天气报告', '露点:', '21.0°C', '其他云层:', '大部分晴天 (792米)', '下午10:00', '22°C', '1,010毫巴', '每小时3.60公里, 西南', '6.00公里', '部分多云 (1,524米)', '本地:', '22:00、2019年6月17日周一', '协调世界时:', '14:00、2019年6月17日周一', '来源:', '周期文件', '趋势:', '无重要变化', '露点:', '22°C', '原始:', 'ZUUU 171400Z 22001MPS 6000 SCT050 22/22 Q1010 NOSIG', '下午10:00', '22.0°C', '1,010毫巴', '每小时3.60公里, 西南', '6.00公里', '部分多云 (1,524米)', '本地:', '22:00、2019年6月17日周一', '协调世界时:', '14:00、2019年6月17日周一', '来源:', 'USAF 每小时地面观测', '报告类型:', 'METAR 航空例行天气报告', '露点:', '22.0°C', '下午11:00', '22°C', '1,011毫巴', '每小时7.20公里, 西', '5.00公里', '大部分晴天 (1,006米)', '本地:', '23:00、2019年6月17日周一', '协调世界时:', '15:00、2019年6月17日周一', '来源:', '周期文件', '趋势:', '无重要变化', '露点:', '22°C', '天气:', 'Mist', '原始:', 'ZUUU 171500Z 27002MPS 230V310 5000 BR FEW033 22/22 Q1011 NOSIG', '下午11:00', '22.0°C', '1,011毫巴', '每小时7.20公里, 西', '5.00公里', '大部分晴天 (1,006米)', '本地:', '23:00、2019年6月17日周一', '协调世界时:', '15:00、2019年6月17日周一', '来源:', 'USAF 每小时地面观测', '报告类型:', 'METAR 航空例行天气报告', '露点:', '22.0°C', '天气:', 'Mist']