['Thunderstorm with Light Rain、Showers of Light Rain', '-TSRA、-SHRA、IWC80', 'Recent Thunderstorm', 'RETS', 'Showers of Light Rain', '-SHRA、IWC80', '上午12:00', '28°C', '1,001毫巴', '每小时0公里', '10.00公里', '大部分晴天 (1,524米)', '本地:', '00:00、2019年7月27日周六', '协调世界时:', '16:00、2019年7月26日周五', '来源:', '周期文件', '趋势:', '无重要变化', '露点:', '25°C', '原始:', 'ZUUU 261600Z 00000MPS 9999 FEW050 28/25 Q1001 NOSIG', '上午12:00', '28.0°C', '1,001毫巴', '每小时0公里', '10.00公里', '大部分晴天 (1,524米)', '本地:', '00:00、2019年7月27日周六', '协调世界时:', '16:00、2019年7月26日周五', '来源:', 'USAF 每小时地面观测', '报告类型:', 'METAR 航空例行天气报告', '露点:', '25.0°C', '上午1:00', '27°C', '1,000毫巴', '每小时0公里', '10.00公里', '大部分晴天 (1,524米)', '本地:', '01:00、2019年7月27日周六', '协调世界时:', '17:00、2019年7月26日周五', '来源:', '周期文件', '趋势:', '无重要变化', '露点:', '24°C', '原始:', 'ZUUU 261700Z 00000MPS 9999 FEW050 27/24 Q1000 NOSIG', '上午1:00', '27.0°C', '1,000毫巴', '每小时0公里', '10.00公里', '大部分晴天 (1,524米)', '本地:', '01:00、2019年7月27日周六', '协调世界时:', '17:00、2019年7月26日周五', '来源:', 'USAF 每小时地面观测', '报告类型:', 'METAR 航空例行天气报告', '露点:', '24.0°C', '上午2:00', '27°C', '1,000毫巴', '每小时3.60公里', '10.00公里', '大部分晴天 (1,524米)', '本地:', '02:00、2019年7月27日周六', '协调世界时:', '18:00、2019年7月26日周五', '来源:', '周期文件', '趋势:', '无重要变化', '露点:', '24°C', '原始:', 'ZUUU 261800Z VRB01MPS 9999 FEW050 27/24 Q1000 NOSIG', '上午2:00', '27.0°C', '1,000毫巴', '每小时3.60公里', '10.00公里', '大部分晴天 (1,524米)', '本地:', '02:00、2019年7月27日周六', '协调世界时:', '18:00、2019年7月26日周五', '来源:', 'USAF 每小时地面观测', '报告类型:', 'METAR 航空例行天气报告', '露点:', '24.0°C', '上午3:00', '27°C', '1,000毫巴', '每小时0公里', '10.00公里', '大部分晴天 (1,524米)', '本地:', '03:00、2019年7月27日周六', '协调世界时:', '19:00、2019年7月26日周五', '来源:', '周期文件', '趋势:', '无重要变化', '露点:', '24°C', '原始:', 'ZUUU 261900Z 00000MPS 9999 FEW050 27/24 Q1000 NOSIG', '上午3:00', '27.0°C', '1,000毫巴', '每小时0公里', '10.00公里', '大部分晴天 (1,524米)', '本地:', '03:00、2019年7月27日周六', '协调世界时:', '19:00、2019年7月26日周五', '来源:', 'USAF 每小时地面观测', '报告类型:', 'METAR 航空例行天气报告', '露点:', '24.0°C', '上午4:00', '28°C', '999.0毫巴', '每小时0公里', '10.00公里', '大部分晴天 (1,219米)', '本地:', '04:00、2019年7月27日周六', '协调世界时:', '20:00、2019年7月26日周五', '来源:', '周期文件', '趋势:', '无重要变化', '露点:', '24°C', '原始:', 'ZUUU 262000Z 00000MPS 9999 FEW040 28/24 Q0999 NOSIG', '上午4:00', '28.0°C', '999.0毫巴', '每小时0公里', '10.00公里', '大部分晴天 (1,219米)', '本地:', '04:00、2019年7月27日周六', '协调世界时:', '20:00、2019年7月26日周五', '来源:', 'USAF 每小时地面观测', '报告类型:', 'METAR 航空例行天气报告', '露点:', '24.0°C', '上午5:00', '27°C', '999.0毫巴', '每小时3.60公里', '10.00公里', '大部分晴天 (1,524米)', '本地:', '05:00、2019年7月27日周六', '协调世界时:', '21:00、2019年7月26日周五', '来源:', '周期文件', '趋势:', '无重要变化', '露点:', '23°C', '原始:', 'ZUUU 262100Z VRB01MPS 9999 FEW050 27/23 Q0999 NOSIG', '上午5:00', '27.0°C', '999.0毫巴', '每小时3.60公里', '10.00公里', '大部分晴天 (1,524米)', '本地:', '05:00、2019年7月27日周六', '协调世界时:', '21:00、2019年7月26日周五', '来源:', 'USAF 每小时地面观测', '报告类型:', 'METAR 航空例行天气报告', '露点:', '23.0°C', '上午6:00', '27°C', '999.0毫巴', '每小时3.60公里', '10.00公里', '大部分晴天 (1,524米)', '本地:', '06:00、2019年7月27日周六', '协调世界时:', '22:00、2019年7月26日周五', '来源:', '周期文件', '趋势:', '无重要变化', '露点:', '24°C', '原始:', 'ZUUU 262200Z VRB01MPS 9999 FEW050 27/24 Q0999 NOSIG', '上午6:00', '27.0°C', '999.0毫巴', '每小时3.60公里', '10.00公里', '大部分晴天 (1,524米)', '本地:', '06:00、2019年7月27日周六', '协调世界时:', '22:00、2019年7月26日周五', '来源:', 'USAF 每小时地面观测', '报告类型:', 'METAR 航空例行天气报告', '露点:', '24.0°C', '上午7:00', '27°C', '1,000毫巴', '每小时3.60公里', '6.00公里', '大部分晴天 (1,524米)', '本地:', '07:00、2019年7月27日周六', '协调世界时:', '23:00、2019年7月26日周五', '来源:', '周期文件', '趋势:', '无重要变化', '露点:', '24°C', '原始:', 'ZUUU 262300Z VRB01MPS 6000 FEW050 27/24 Q1000 NOSIG', '上午7:00', '27.0°C', '1,000毫巴', '每小时3.60公里', '6.00公里', '大部分晴天 (1,524米)', '本地:', '07:00、2019年7月27日周六', '协调世界时:', '23:00、2019年7月26日周五', '来源:', 'USAF 每小时地面观测', '报告类型:', 'METAR 航空例行天气报告', '露点:', '24.0°C', '上午8:00', '28°C', '1,001毫巴', '每小时7.20公里, 北', '6.00公里', '无重要云', '本地:', '08:00、2019年7月27日周六', '协调世界时:', '00:00、2019年7月27日周六', '来源:', '周期文件', '趋势:', '无重要变化', '露点:', '24°C', '原始:', 'ZUUU 270000Z 36002MPS 320V030 6000 NSC 28/24 Q1001 NOSIG', '上午8:00', '28.0°C', '1,001毫巴', '每小时7.20公里, 北', '6.00公里', '未检测到云', '本地:', '08:00、2019年7月27日周六', '协调世界时:', '00:00、2019年7月27日周六', '来源:', 'USAF 每小时地面观测', '报告类型:', 'METAR 航空例行天气报告', '露点:', '24.0°C', '上午9:00', '29°C', '1,001毫巴', '每小时7.20公里, 北', '6.00公里', '无重要云', '本地:', '09:00、2019年7月27日周六', '协调世界时:', '01:00、2019年7月27日周六', '来源:', '周期文件', '趋势:', '无重要变化', '露点:', '25°C', '原始:', 'ZUUU 270100Z 01002MPS 300V040 6000 NSC 29/25 Q1001 NOSIG', '上午9:00', '29.0°C', '1,001毫巴', '每小时7.20公里, 北', '6.00公里', '未检测到云', '本地:', '09:00、2019年7月27日周六', '协调世界时:', '01:00、2019年7月27日周六', '来源:', 'USAF 每小时地面观测', '报告类型:', 'METAR 航空例行天气报告', '露点:', '25.0°C', '上午10:00', '30°C', '1,002毫巴', '每小时7.20公里, 北', '7.00公里', '大部分晴天 (1,006米)', '本地:', '10:00、2019年7月27日周六', '协调世界时:', '02:00、2019年7月27日周六', '来源:', '周期文件', '趋势:', '无重要变化', '露点:', '25°C', '原始:', 'ZUUU 270200Z 01002MPS 320V050 7000 FEW033TCU 30/25 Q1002 NOSIG', '上午10:00', '30.0°C', '1,002毫巴', '每小时7.20公里, 北', '7.00公里', '大部分晴天 (1,006米)', '本地:', '10:00、2019年7月27日周六', '协调世界时:', '02:00、2019年7月27日周六', '来源:', 'USAF 每小时地面观测', '报告类型:', 'METAR 航空例行天气报告', '露点:', '25.0°C', '上午11:00', '32°C', '1,002毫巴', '每小时7.20公里, 北', '7.00公里', '大部分晴天 (1,006米)', '本地:', '11:00、2019年7月27日周六', '协调世界时:', '03:00、2019年7月27日周六', '来源:', '周期文件', '趋势:', '无重要变化', '露点:', '24°C', '原始:', 'ZUUU 270300Z 34002MPS 280V030 7000 FEW033TCU 32/24 Q1002 NOSIG', '上午11:00', '32.0°C', '1,002毫巴', '每小时7.20公里, 北', '7.00公里', '大部分晴天 (1,006米)', '本地:', '11:00、2019年7月27日周六', '协调世界时:', '03:00、2019年7月27日周六', '来源:', 'USAF 每小时地面观测', '报告类型:', 'METAR 航空例行天气报告', '露点:', '24.0°C', '下午12:00', '33°C', '1,002毫巴', '每小时7.20公里, 北', '10.00公里', '大部分晴天 (914米)', '本地:', '12:00、2019年7月27日周六', '协调世界时:', '04:00、2019年7月27日周六', '来源:', '周期文件', '趋势:', '无重要变化', '露点:', '24°C', '原始:', 'ZUUU 270400Z 02002MPS 330V060 9999 FEW030TCU FEW030 33/24 Q1002 NOSIG', '下午12:00', '33.0°C', '1,002毫巴', '每小时7.20公里, 北', '10.00公里', '大部分晴天 (914米)', '本地:', '12:00、2019年7月27日周六', '协调世界时:', '04:00、2019年7月27日周六', '来源:', 'USAF 每小时地面观测', '报告类型:', 'METAR 航空例行天气报告', '露点:', '24.0°C', '下午1:00', '33°C', '1,001毫巴', '每小时7.20公里, 西北', '10.00公里', '大部分晴天 (914米)', '本地:', '13:00、2019年7月27日周六', '协调世界时:', '05:00、2019年7月27日周六', '来源:', '周期文件', '趋势:', '无重要变化', '露点:', '24°C', '原始:', 'ZUUU 270500Z 32002MPS 270V040 9999 FEW030TCU FEW030 33/24 Q1001 NOSIG', '下午1:00', '33.0°C', '1,001毫巴', '每小时7.20公里, 西北', '10.00公里', '大部分晴天 (914米)', '本地:', '13:00、2019年7月27日周六', '协调世界时:', '05:00、2019年7月27日周六', '来源:', 'USAF 每小时地面观测', '报告类型:', 'METAR 航空例行天气报告', '露点:', '24.0°C', '下午2:00', '34°C', '1,001毫巴', '每小时3.60公里', '10.00公里', '大部分晴天 (914米)', '本地:', '14:00、2019年7月27日周六', '协调世界时:', '06:00、2019年7月27日周六', '来源:', '周期文件', '趋势:', '无重要变化', '露点:', '23°C', '原始:', 'ZUUU 270600Z VRB01MPS 9999 FEW030 FEW030TCU 34/23 Q1001 NOSIG', '下午2:00', '34.0°C', '1,001毫巴', '每小时3.60公里', '10.00公里', '大部分晴天 (914米)', '本地:', '14:00、2019年7月27日周六', '协调世界时:', '06:00、2019年7月27日周六', '来源:', 'USAF 每小时地面观测', '报告类型:', 'METAR 航空例行天气报告', '露点:', '23.0°C', '下午3:00', '32°C', '1,001毫巴', '每小时18.0公里, 东', '10.00公里', '部分多云 (914米)', '本地:', '15:00、2019年7月27日周六', '协调世界时:', '07:00、2019年7月27日周六', '来源:', '周期文件', '趋势:', '变化为', '露点:', '24°C', '阵风风速:', '每小时36.0公里', '天气:', 'Showers of Light Rain、Thunderstorm with Light Rain', '原始:', 'ZUUU 270700Z 08005G10MPS 040V100 9999 -SHRA SCT030 SCT030CB 32/24 Q1001 BECMG TL0740 -TSRA', '下午3:00', '32.0°C', '1,001毫巴', '每小时18.0公里, 东', '10.00公里', '部分多云 (914米)', '本地:', '15:00、2019年7月27日周六', '协调世界时:', '07:00、2019年7月27日周六', '来源:', 'USAF 每小时地面观测', '报告类型:', 'METAR 航空例行天气报告', '露点:', '24.0°C', '阵风风速:', '每小时36.0公里', '天气:', 'Showers of Light Rain', '下午4:00', '32°C', '1,000毫巴', '每小时10.8公里, 东南', '10.00公里', '大部分晴天 (914米)', '本地:', '16:00、2019年7月27日周六', '协调世界时:', '08:00、2019年7月27日周六', '来源:', '周期文件', '趋势:', '无重要变化', '露点:', '24°C', '天气:', 'Recent Thunderstorm', '原始:', 'ZUUU 270800Z 15003MPS 070V200 9999 FEW030 FEW030CB 32/24 Q1000 RETS NOSIG', '下午4:00', '32.0°C', '1,000毫巴', '每小时10.8公里, 东南', '10.00公里', '大部分晴天 (914米)', '本地:', '16:00、2019年7月27日周六', '协调世界时:', '08:00、2019年7月27日周六', '来源:', 'USAF 每小时地面观测', '报告类型:', 'METAR 航空例行天气报告', '露点:', '24.0°C', '下午5:00', '33°C', '1,000毫巴', '每小时3.60公里', '10.00公里', '大部分晴天 (914米)', '本地:', '17:00、2019年7月27日周六', '协调世界时:', '09:00、2019年7月27日周六', '来源:', '周期文件', '趋势:', '无重要变化', '露点:', '24°C', '天气:', 'Showers of Light Rain', '原始:', 'ZUUU 270900Z VRB01MPS 9999 -SHRA FEW030 FEW030CB 33/24 Q1000 NOSIG', '下午5:00', '33.0°C', '1,000毫巴', '每小时3.60公里', '10.00公里', '大部分晴天 (914米)', '本地:', '17:00、2019年7月27日周六', '协调世界时:', '09:00、2019年7月27日周六', '来源:', 'USAF 每小时地面观测', '报告类型:', 'METAR 航空例行天气报告', '露点:', '24.0°C', '天气:', 'Showers of Light Rain', '下午6:00', '33°C', '1,000毫巴', '每小时3.60公里', '10.00公里', '大部分晴天 (914米)', '本地:', '18:00、2019年7月27日周六', '协调世界时:', '10:00、2019年7月27日周六', '来源:', '周期文件', '趋势:', '无重要变化', '露点:', '24°C', '原始:', 'ZUUU 271000Z VRB01MPS 9999 FEW030 FEW030CB 33/24 Q1000 NOSIG', '下午6:00', '33.0°C', '1,000毫巴', '每小时3.60公里', '10.00公里', '大部分晴天 (914米)', '本地:', '18:00、2019年7月27日周六', '协调世界时:', '10:00、2019年7月27日周六', '来源:', 'USAF 每小时地面观测', '报告类型:', 'METAR 航空例行天气报告', '露点:', '24.0°C', '下午7:00', '33°C', '1,000毫巴', '每小时0公里', '10.00公里', '大部分晴天 (914米)', '本地:', '19:00、2019年7月27日周六', '协调世界时:', '11:00、2019年7月27日周六', '来源:', '周期文件', '趋势:', '无重要变化', '露点:', '24°C', '原始:', 'ZUUU 271100Z 00000MPS 9999 FEW030 FEW030CB 33/24 Q1000 NOSIG', '下午7:00', '33.0°C', '1,000毫巴', '每小时0公里', '10.00公里', '大部分晴天 (914米)', '本地:', '19:00、2019年7月27日周六', '协调世界时:', '11:00、2019年7月27日周六', '来源:', 'USAF 每小时地面观测', '报告类型:', 'METAR 航空例行天气报告', '露点:', '24.0°C', '下午8:00', '30°C', '1,000毫巴', '每小时3.60公里', '10.00公里', '大部分晴天 (914米)', '本地:', '20:00、2019年7月27日周六', '协调世界时:', '12:00、2019年7月27日周六', '来源:', '周期文件', '趋势:', '无重要变化', '露点:', '26°C', '原始:', 'ZUUU 271200Z VRB01MPS 9999 FEW030CB 30/26 Q1000 NOSIG', '下午8:00', '30.0°C', '1,000毫巴', '每小时3.60公里', '10.00公里', '大部分晴天 (914米)', '本地:', '20:00、2019年7月27日周六', '协调世界时:', '12:00、2019年7月27日周六', '来源:', 'USAF 每小时地面观测', '报告类型:', 'METAR 航空例行天气报告', '露点:', '26.0°C', '下午9:00', '30°C', '1,001毫巴', '每小时3.60公里, 西南', '≥ 10.00公里', '晴空万里', '本地:', '21:00、2019年7月27日周六', '协调世界时:', '13:00、2019年7月27日周六', '来源:', '周期文件', '趋势:', '无重要变化', '露点:', '25°C', '晴空万里:', '真', '原始:', 'ZUUU 271300Z 23001MPS CAVOK 30/25 Q1001 NOSIG', '下午9:00', '30.0°C', '1,001毫巴', '每小时3.60公里, 西南', '9.90公里', '晴空万里', '本地:', '21:00、2019年7月27日周六', '协调世界时:', '13:00、2019年7月27日周六', '来源:', 'USAF 每小时地面观测', '报告类型:', 'METAR 航空例行天气报告', '露点:', '25.0°C', '晴空万里:', '真', '下午10:00', '29°C', '1,001毫巴', '每小时7.20公里, 南', '10.00公里', '大部分晴天 (914米)', '本地:', '22:00、2019年7月27日周六', '协调世界时:', '14:00、2019年7月27日周六', '来源:', '周期文件', '趋势:', '无重要变化', '露点:', '25°C', '原始:', 'ZUUU 271400Z 20002MPS 170V230 9999 FEW030CB 29/25 Q1001 NOSIG', '下午10:00', '29.0°C', '1,001毫巴', '每小时7.20公里, 南', '10.00公里', '大部分晴天 (914米)', '本地:', '22:00、2019年7月27日周六', '协调世界时:', '14:00、2019年7月27日周六', '来源:', 'USAF 每小时地面观测', '报告类型:', 'METAR 航空例行天气报告', '露点:', '25.0°C', '下午11:00', '29°C', '1,002毫巴', '每小时0公里', '10.00公里', '大部分晴天 (914米)', '本地:', '23:00、2019年7月27日周六', '协调世界时:', '15:00、2019年7月27日周六', '来源:', '周期文件', '趋势:', '无重要变化', '露点:', '25°C', '原始:', 'ZUUU 271500Z 00000MPS 9999 FEW030CB 29/25 Q1002 NOSIG', '下午11:00', '29.0°C', '1,002毫巴', '每小时0公里', '10.00公里', '大部分晴天 (914米)', '本地:', '23:00、2019年7月27日周六', '协调世界时:', '15:00、2019年7月27日周六', '来源:', 'USAF 每小时地面观测', '报告类型:', 'METAR 航空例行天气报告', '露点:', '25.0°C']