['Showers of Light Rain', '-SHRA、IWC80', 'Mist', 'BR、IWC10', 'Mist', 'BR、IWC10', 'Mist', 'BR、IWC10', 'Showers of Light Rain', '-SHRA、IWC80', 'Showers of Light Rain、Mist', '-SHRA、IWC80、BR、IWC10', 'Showers of Light Rain、Mist', '-SHRA、IWC80、BR、IWC10', 'Showers of Light Rain、Mist', '-SHRA、IWC80、BR、IWC10', 'Showers of Light Rain、Mist', '-SHRA、IWC80、BR、IWC10', 'Showers of Light Rain、Mist', '-SHRA、IWC80、BR、IWC10', 'Mist', 'BR、IWC10', 'Mist', 'BR、IWC10', 'Mist', 'BR、IWC10', '上午12:00', '21°C', '1,016毫巴', '每小时3.60公里, 西南', '7.00公里', '部分多云 (1,006米)', '本地:', '00:00、2019年9月1日周日', '协调世界时:', '16:00、2019年8月31日周六', '来源:', '周期文件', '趋势:', '无重要变化', '露点:', '19°C', '天气:', 'Showers of Light Rain', '原始:', 'ZUUU 311600Z 21001MPS 7000 -SHRA SCT033 21/19 Q1016 NOSIG', '上午12:00', '21.0°C', '1,016毫巴', '每小时3.60公里, 西南', '7.00公里', '部分多云 (1,006米)', '本地:', '00:00、2019年9月1日周日', '协调世界时:', '16:00、2019年8月31日周六', '来源:', 'USAF 每小时地面观测', '报告类型:', 'METAR 航空例行天气报告', '露点:', '19.0°C', '天气:', 'Showers of Light Rain', '上午1:00', '21°C', '1,016毫巴', '每小时3.60公里, 西南', '7.00公里', '部分多云 (1,219米)', '本地:', '01:00、2019年9月1日周日', '协调世界时:', '17:00、2019年8月31日周六', '来源:', '周期文件', '趋势:', '无重要变化', '露点:', '19°C', '原始:', 'ZUUU 311700Z 22001MPS 7000 SCT040 21/19 Q1016 NOSIG', '上午1:00', '21.0°C', '1,016毫巴', '每小时3.60公里, 西南', '7.00公里', '部分多云 (1,219米)', '本地:', '01:00、2019年9月1日周日', '协调世界时:', '17:00、2019年8月31日周六', '来源:', 'USAF 每小时地面观测', '报告类型:', 'METAR 航空例行天气报告', '露点:', '19.0°C', '上午2:00', '21°C', '1,015毫巴', '每小时3.60公里', '7.00公里', '部分多云 (1,524米)', '本地:', '02:00、2019年9月1日周日', '协调世界时:', '18:00、2019年8月31日周六', '来源:', '周期文件', '趋势:', '无重要变化', '露点:', '19°C', '原始:', 'ZUUU 311800Z VRB01MPS 7000 SCT050 21/19 Q1015 NOSIG', '上午2:00', '21.0°C', '1,015毫巴', '每小时3.60公里', '7.00公里', '部分多云 (1,524米)', '本地:', '02:00、2019年9月1日周日', '协调世界时:', '18:00、2019年8月31日周六', '来源:', 'USAF 每小时地面观测', '报告类型:', 'METAR 航空例行天气报告', '露点:', '19.0°C', '上午3:00', '21°C', '1,015毫巴', '每小时0公里', '7.00公里', '部分多云 (1,524米)', '本地:', '03:00、2019年9月1日周日', '协调世界时:', '19:00、2019年8月31日周六', '来源:', '周期文件', '趋势:', '无重要变化', '露点:', '19°C', '其他云层:', '大部分晴天 (396米)', '原始:', 'ZUUU 311900Z 00000MPS 7000 FEW013 SCT050 21/19 Q1015 NOSIG', '上午3:00', '21.0°C', '1,015毫巴', '每小时0公里', '7.00公里', '部分多云 (1,524米)', '本地:', '03:00、2019年9月1日周日', '协调世界时:', '19:00、2019年8月31日周六', '来源:', 'USAF 每小时地面观测', '报告类型:', 'METAR 航空例行天气报告', '露点:', '19.0°C', '其他云层:', '大部分晴天 (396米)', '上午4:00', '21°C', '1,015毫巴', '每小时3.60公里, 西南', '6.00公里', '部分多云 (1,524米)', '本地:', '04:00、2019年9月1日周日', '协调世界时:', '20:00、2019年8月31日周六', '来源:', '周期文件', '趋势:', '无重要变化', '露点:', '19°C', '原始:', 'ZUUU 312000Z 21001MPS 6000 SCT050 21/19 Q1015 NOSIG', '上午4:00', '21.0°C', '1,015毫巴', '每小时3.60公里, 西南', '6.00公里', '部分多云 (1,524米)', '本地:', '04:00、2019年9月1日周日', '协调世界时:', '20:00、2019年8月31日周六', '来源:', 'USAF 每小时地面观测', '报告类型:', 'METAR 航空例行天气报告', '露点:', '19.0°C', '上午5:00', '21°C', '1,014毫巴', '每小时0公里', '6.00公里', '部分多云 (1,524米)', '本地:', '05:00、2019年9月1日周日', '协调世界时:', '21:00、2019年8月31日周六', '来源:', '周期文件', '趋势:', '无重要变化', '露点:', '19°C', '其他云层:', '大部分晴天 (792米)', '原始:', 'ZUUU 312100Z 00000MPS 6000 FEW026 SCT050 21/19 Q1014 NOSIG', '上午5:00', '21.0°C', '1,014毫巴', '每小时0公里', '6.00公里', '部分多云 (1,524米)', '本地:', '05:00、2019年9月1日周日', '协调世界时:', '21:00、2019年8月31日周六', '来源:', 'USAF 每小时地面观测', '报告类型:', 'METAR 航空例行天气报告', '露点:', '19.0°C', '其他云层:', '大部分晴天 (792米)', '上午6:00', '21°C', '1,015毫巴', '每小时3.60公里, 西南', '5.00公里', '部分多云 (1,524米)', '本地:', '06:00、2019年9月1日周日', '协调世界时:', '22:00、2019年8月31日周六', '来源:', '周期文件', '趋势:', '无重要变化', '露点:', '19°C', '其他云层:', '大部分晴天 (792米)', '天气:', 'Mist', '原始:', 'ZUUU 312200Z 22001MPS 5000 BR FEW026 SCT050 21/19 Q1015 NOSIG', '上午6:00', '21.0°C', '1,015毫巴', '每小时3.60公里, 西南', '5.00公里', '部分多云 (1,524米)', '本地:', '06:00、2019年9月1日周日', '协调世界时:', '22:00、2019年8月31日周六', '来源:', 'USAF 每小时地面观测', '报告类型:', 'METAR 航空例行天气报告', '露点:', '19.0°C', '其他云层:', '大部分晴天 (792米)', '天气:', 'Mist', '上午7:00', '21°C', '1,015毫巴', '每小时7.20公里, 西南', '4.00公里', '部分多云 (1,524米)', '本地:', '07:00、2019年9月1日周日', '协调世界时:', '23:00、2019年8月31日周六', '来源:', '周期文件', '趋势:', '无重要变化', '露点:', '19°C', '其他云层:', '大部分晴天 (610米)', '天气:', 'Mist', '原始:', 'ZUUU 312300Z 22002MPS 4000 BR FEW020 SCT050 21/19 Q1015 NOSIG', '上午7:00', '21.0°C', '1,015毫巴', '每小时7.20公里, 西南', '4.00公里', '部分多云 (1,524米)', '本地:', '07:00、2019年9月1日周日', '协调世界时:', '23:00、2019年8月31日周六', '来源:', 'USAF 每小时地面观测', '报告类型:', 'METAR 航空例行天气报告', '露点:', '19.0°C', '其他云层:', '大部分晴天 (610米)', '天气:', 'Mist', '上午8:00', '22°C', '1,015毫巴', '每小时3.60公里', '5.00公里', '大部分晴天 (610米)', '本地:', '08:00、2019年9月1日周日', '协调世界时:', '00:00、2019年9月1日周日', '来源:', '周期文件', '趋势:', '无重要变化', '露点:', '19°C', '天气:', 'Mist', '原始:', 'ZUUU 010000Z VRB01MPS 5000 BR FEW020 22/19 Q1015 NOSIG', '上午8:00', '22.0°C', '1,015毫巴', '每小时3.60公里', '5.00公里', '大部分晴天 (610米)', '本地:', '08:00、2019年9月1日周日', '协调世界时:', '00:00、2019年9月1日周日', '来源:', 'USAF 每小时地面观测', '报告类型:', 'METAR 航空例行天气报告', '露点:', '19.0°C', '天气:', 'Mist', '上午9:00', '23°C', '1,016毫巴', '每小时0公里', '6.00公里', '部分多云 (1,524米)', '本地:', '09:00、2019年9月1日周日', '协调世界时:', '01:00、2019年9月1日周日', '来源:', '周期文件', '趋势:', '无重要变化', '露点:', '19°C', '其他云层:', '大部分晴天 (610米)', '原始:', 'ZUUU 010100Z 00000MPS 6000 FEW020 SCT050 23/19 Q1016 NOSIG', '上午9:00', '23.0°C', '1,016毫巴', '每小时0公里', '6.00公里', '部分多云 (1,524米)', '本地:', '09:00、2019年9月1日周日', '协调世界时:', '01:00、2019年9月1日周日', '来源:', 'USAF 每小时地面观测', '报告类型:', 'METAR 航空例行天气报告', '露点:', '19.0°C', '其他云层:', '大部分晴天 (610米)', '上午10:00', '23°C', '1,016毫巴', '每小时3.60公里', '7.00公里', '部分多云 (1,524米)', '本地:', '10:00、2019年9月1日周日', '协调世界时:', '02:00、2019年9月1日周日', '来源:', '周期文件', '趋势:', '无重要变化', '露点:', '19°C', '其他云层:', '大部分晴天 (610米)', '原始:', 'ZUUU 010200Z VRB01MPS 7000 FEW020 SCT050 23/19 Q1016 NOSIG', '上午10:00', '23.0°C', '1,016毫巴', '每小时3.60公里', '7.00公里', '部分多云 (1,524米)', '本地:', '10:00、2019年9月1日周日', '协调世界时:', '02:00、2019年9月1日周日', '来源:', 'USAF 每小时地面观测', '报告类型:', 'METAR 航空例行天气报告', '露点:', '19.0°C', '其他云层:', '大部分晴天 (610米)', '上午11:00', '24°C', '1,016毫巴', '每小时7.20公里, 西南', '10.00公里', '部分多云 (1,524米)', '本地:', '11:00、2019年9月1日周日', '协调世界时:', '03:00、2019年9月1日周日', '来源:', '周期文件', '趋势:', '无重要变化', '露点:', '18°C', '其他云层:', '大部分晴天 (610米)', '原始:', 'ZUUU 010300Z 21002MPS 160V280 9999 FEW020 SCT050 24/18 Q1016 NOSIG', '上午11:00', '24.0°C', '1,016毫巴', '每小时7.20公里, 西南', '10.00公里', '部分多云 (1,524米)', '本地:', '11:00、2019年9月1日周日', '协调世界时:', '03:00、2019年9月1日周日', '来源:', 'USAF 每小时地面观测', '报告类型:', 'METAR 航空例行天气报告', '露点:', '18.0°C', '其他云层:', '大部分晴天 (610米)', '下午12:00', '26°C', '1,016毫巴', '每小时0公里', '10.00公里', '部分多云 (1,524米)', '本地:', '12:00、2019年9月1日周日', '协调世界时:', '04:00、2019年9月1日周日', '来源:', '周期文件', '趋势:', '无重要变化', '露点:', '19°C', '其他云层:', '大部分晴天 (610米)', '原始:', 'ZUUU 010400Z 00000MPS 9999 FEW020 SCT050 26/19 Q1016 NOSIG', '下午12:00', '26.0°C', '1,016毫巴', '每小时0公里', '10.00公里', '部分多云 (1,524米)', '本地:', '12:00、2019年9月1日周日', '协调世界时:', '04:00、2019年9月1日周日', '来源:', 'USAF 每小时地面观测', '报告类型:', 'METAR 航空例行天气报告', '露点:', '19.0°C', '其他云层:', '大部分晴天 (610米)', '下午1:00', '27°C', '1,015毫巴', '每小时3.60公里', '10.00公里', '部分多云 (1,219米)', '本地:', '13:00、2019年9月1日周日', '协调世界时:', '05:00、2019年9月1日周日', '来源:', '周期文件', '趋势:', '无重要变化', '露点:', '19°C', '其他云层:', '大部分晴天 (610米)', '原始:', 'ZUUU 010500Z VRB01MPS 9999 FEW020 SCT040 27/19 Q1015 NOSIG', '下午1:00', '27.0°C', '1,015毫巴', '每小时3.60公里', '10.00公里', '部分多云 (1,219米)', '本地:', '13:00、2019年9月1日周日', '协调世界时:', '05:00、2019年9月1日周日', '来源:', 'USAF 每小时地面观测', '报告类型:', 'METAR 航空例行天气报告', '露点:', '19.0°C', '其他云层:', '大部分晴天 (610米)', '下午2:00', '26°C', '1,014毫巴', '每小时7.20公里, 东南', '10.00公里', '部分多云 (1,219米)', '本地:', '14:00、2019年9月1日周日', '协调世界时:', '06:00、2019年9月1日周日', '来源:', '周期文件', '趋势:', '无重要变化', '露点:', '18°C', '其他云层:', '大部分晴天 (701米)', '原始:', 'ZUUU 010600Z 13002MPS 030V170 9999 FEW023TCU FEW023 SCT040 26/18 Q1014 NOSIG', '下午2:00', '26.0°C', '1,014毫巴', '每小时7.20公里, 东南', '10.00公里', '部分多云 (1,219米)', '本地:', '14:00、2019年9月1日周日', '协调世界时:', '06:00、2019年9月1日周日', '来源:', 'USAF 每小时地面观测', '报告类型:', 'METAR 航空例行天气报告', '露点:', '18.0°C', '其他云层:', '大部分晴天 (701米)', '下午3:00', '25°C', '1,014毫巴', '每小时10.8公里, 东北', '8.00公里', '部分多云 (701米)', '本地:', '15:00、2019年9月1日周日', '协调世界时:', '07:00、2019年9月1日周日', '来源:', '周期文件', '趋势:', '无重要变化', '露点:', '18°C', '其他云层:', '大部分晴天 (701米)', '天气:', 'Showers of Light Rain', '原始:', 'ZUUU 010700Z 06003MPS 340V110 8000 -SHRA FEW023CB SCT023 25/18 Q1014 NOSIG', '下午3:00', '25.0°C', '1,014毫巴', '每小时10.8公里, 东北', '8.00公里', '部分多云 (701米)', '本地:', '15:00、2019年9月1日周日', '协调世界时:', '07:00、2019年9月1日周日', '来源:', 'USAF 每小时地面观测', '报告类型:', 'METAR 航空例行天气报告', '露点:', '18.0°C', '其他云层:', '大部分晴天 (701米)', '天气:', 'Showers of Light Rain', '下午4:00', '22°C', '1,014毫巴', '每小时10.8公里, 北', '5.00公里', '部分多云 (701米)', '本地:', '16:00、2019年9月1日周日', '协调世界时:', '08:00、2019年9月1日周日', '来源:', '周期文件', '趋势:', '无重要变化', '露点:', '19°C', '其他云层:', '大部分晴天 (701米)', '天气:', 'Showers of Light Rain、Mist', '原始:', 'ZUUU 010800Z 36003MPS 330V040 5000 -SHRA BR FEW023CB SCT023 22/19 Q1014 NOSIG', '下午4:00', '22.0°C', '1,014毫巴', '每小时10.8公里, 北', '5.00公里', '部分多云 (701米)', '本地:', '16:00、2019年9月1日周日', '协调世界时:', '08:00、2019年9月1日周日', '来源:', 'USAF 每小时地面观测', '报告类型:', 'METAR 航空例行天气报告', '露点:', '19.0°C', '其他云层:', '大部分晴天 (701米)', '天气:', 'Mist、Showers of Light Rain', '下午5:00', '21°C', '1,014毫巴', '每小时10.8公里, 东北', '2.00公里', '部分多云 (701米)', '本地:', '17:00、2019年9月1日周日', '协调世界时:', '09:00、2019年9月1日周日', '来源:', '周期文件', '趋势:', '变化为', '露点:', '20°C', '其他云层:', '大部分晴天 (701米)', '天气:', 'Showers of Light Rain、Mist', '原始:', 'ZUUU 010900Z 06003MPS 360V100 2000 -SHRA BR FEW023CB SCT023 21/20 Q1014 BECMG TL1040 3000', '下午5:00', '21.0°C', '1,014毫巴', '每小时10.8公里, 东北', '2.00公里', '部分多云 (701米)', '本地:', '17:00、2019年9月1日周日', '协调世界时:', '09:00、2019年9月1日周日', '来源:', 'USAF 每小时地面观测', '报告类型:', 'METAR 航空例行天气报告', '露点:', '20.0°C', '其他云层:', '大部分晴天 (701米)', '天气:', 'Mist、Showers of Light Rain', '下午6:00', '21°C', '1,014毫巴', '每小时3.60公里', '2.00公里', '部分多云 (701米)', '本地:', '18:00、2019年9月1日周日', '协调世界时:', '10:00、2019年9月1日周日', '来源:', '周期文件', '趋势:', '变化为', '露点:', '20°C', '其他云层:', '大部分晴天 (701米)', '天气:', 'Showers of Light Rain、Mist', '原始:', 'ZUUU 011000Z VRB01MPS 2000 -SHRA BR FEW023CB SCT023 21/20 Q1014 BECMG TL1130 3000', '下午6:00', '21.0°C', '1,014毫巴', '每小时3.60公里', '2.00公里', '部分多云 (701米)', '本地:', '18:00、2019年9月1日周日', '协调世界时:', '10:00、2019年9月1日周日', '来源:', 'USAF 每小时地面观测', '报告类型:', 'METAR 航空例行天气报告', '露点:', '20.0°C', '其他云层:', '大部分晴天 (701米)', '天气:', 'Mist、Showers of Light Rain', '下午7:00', '21°C', '1,015毫巴', '每小时0公里', '3.00公里', '部分多云 (701米)', '本地:', '19:00、2019年9月1日周日', '协调世界时:', '11:00、2019年9月1日周日', '来源:', '周期文件', '趋势:', '无重要变化', '露点:', '19°C', '天气:', 'Showers of Light Rain、Mist', '原始:', 'ZUUU 011100Z 00000MPS 3000 -SHRA BR SCT023 21/19 Q1015 NOSIG', '下午7:00', '21.0°C', '1,015毫巴', '每小时0公里', '3.00公里', '部分多云 (701米)', '本地:', '19:00、2019年9月1日周日', '协调世界时:', '11:00、2019年9月1日周日', '来源:', 'USAF 每小时地面观测', '报告类型:', 'METAR 航空例行天气报告', '露点:', '19.0°C', '天气:', 'Mist、Showers of Light Rain', '下午8:00', '21°C', '1,015毫巴', '每小时3.60公里, 西北', '5.00公里', '部分多云 (1,006米)', '本地:', '20:00、2019年9月1日周日', '协调世界时:', '12:00、2019年9月1日周日', '来源:', '周期文件', '趋势:', '无重要变化', '露点:', '19°C', '天气:', 'Showers of Light Rain、Mist', '原始:', 'ZUUU 011200Z 32001MPS 5000 -SHRA BR SCT033 21/19 Q1015 NOSIG', '下午8:00', '21.0°C', '1,015毫巴', '每小时3.60公里, 西北', '5.00公里', '部分多云 (1,006米)', '本地:', '20:00、2019年9月1日周日', '协调世界时:', '12:00、2019年9月1日周日', '来源:', 'USAF 每小时地面观测', '报告类型:', 'METAR 航空例行天气报告', '露点:', '19.0°C', '天气:', 'Mist、Showers of Light Rain', '下午9:00', '21°C', '1,015毫巴', '每小时0公里', '5.00公里', '部分多云 (1,219米)', '本地:', '21:00、2019年9月1日周日', '协调世界时:', '13:00、2019年9月1日周日', '来源:', '周期文件', '趋势:', '无重要变化', '露点:', '20°C', '天气:', 'Mist', '原始:', 'ZUUU 011300Z 00000MPS 5000 BR SCT040 21/20 Q1015 NOSIG', '下午9:00', '21.0°C', '1,015毫巴', '每小时0公里', '5.00公里', '部分多云 (1,219米)', '本地:', '21:00、2019年9月1日周日', '协调世界时:', '13:00、2019年9月1日周日', '来源:', 'USAF 每小时地面观测', '报告类型:', 'METAR 航空例行天气报告', '露点:', '20.0°C', '天气:', 'Mist', '下午10:00', '21°C', '1,016毫巴', '每小时0公里', '4.00公里', '部分多云 (1,219米)', '本地:', '22:00、2019年9月1日周日', '协调世界时:', '14:00、2019年9月1日周日', '来源:', '周期文件', '趋势:', '无重要变化', '露点:', '20°C', '天气:', 'Mist', '原始:', 'ZUUU 011400Z 00000MPS 4000 BR SCT040 21/20 Q1016 NOSIG', '下午10:00', '21.0°C', '1,016毫巴', '每小时0公里', '4.00公里', '部分多云 (1,219米)', '本地:', '22:00、2019年9月1日周日', '协调世界时:', '14:00、2019年9月1日周日', '来源:', 'USAF 每小时地面观测', '报告类型:', 'METAR 航空例行天气报告', '露点:', '20.0°C', '天气:', 'Mist', '下午11:00', '21°C', '1,016毫巴', '每小时0公里', '4.00公里', '部分多云 (1,219米)', '本地:', '23:00、2019年9月1日周日', '协调世界时:', '15:00、2019年9月1日周日', '来源:', '周期文件', '趋势:', '无重要变化', '露点:', '20°C', '天气:', 'Mist', '原始:', 'ZUUU 011500Z 00000MPS 4000 BR SCT040 21/20 Q1016 NOSIG', '下午11:00', '21.0°C', '1,016毫巴', '每小时0公里', '4.00公里', '部分多云 (1,219米)', '本地:', '23:00、2019年9月1日周日', '协调世界时:', '15:00、2019年9月1日周日', '来源:', 'USAF 每小时地面观测', '报告类型:', 'METAR 航空例行天气报告', '露点:', '20.0°C', '天气:', 'Mist']