['Light Rain', '-RA、IWC61', 'Mist', 'BR、IWC10', 'Mist', 'BR、IWC10', '上午12:00', '12°C', '1,024毫巴', '每小时7.20公里, 南', '10.00公里', '部分多云 (1,524米)', '本地:', '00:00、2019年10月27日周日', '协调世界时:', '16:00、2019年10月26日周六', '来源:', '周期文件', '趋势:', '无重要变化', '露点:', '11°C', '原始:', 'ZUUU 261600Z 20002MPS 9999 SCT050 12/11 Q1024 NOSIG', '上午12:00', '12.0°C', '1,024毫巴', '每小时7.20公里, 南', '10.00公里', '部分多云 (1,524米)', '本地:', '00:00、2019年10月27日周日', '协调世界时:', '16:00、2019年10月26日周六', '来源:', 'USAF 每小时地面观测', '报告类型:', 'METAR 航空例行天气报告', '露点:', '11.0°C', '上午1:00', '12°C', '1,024毫巴', '每小时3.60公里', '10.00公里', '部分多云 (1,524米)', '本地:', '01:00、2019年10月27日周日', '协调世界时:', '17:00、2019年10月26日周六', '来源:', '周期文件', '趋势:', '无重要变化', '露点:', '11°C', '原始:', 'ZUUU 261700Z VRB01MPS 9999 SCT050 12/11 Q1024 NOSIG', '上午1:00', '12.0°C', '1,024毫巴', '每小时3.60公里', '10.00公里', '部分多云 (1,524米)', '本地:', '01:00、2019年10月27日周日', '协调世界时:', '17:00、2019年10月26日周六', '来源:', 'USAF 每小时地面观测', '报告类型:', 'METAR 航空例行天气报告', '露点:', '11.0°C', '上午2:00', '12°C', '1,023毫巴', '每小时7.20公里, 南', '10.00公里', '部分多云 (1,219米)', '本地:', '02:00、2019年10月27日周日', '协调世界时:', '18:00、2019年10月26日周六', '来源:', '周期文件', '趋势:', '无重要变化', '露点:', '10°C', '天气:', 'Light Rain', '原始:', 'ZUUU 261800Z 19002MPS 150V220 9999 -RA SCT040 12/10 Q1023 NOSIG', '上午2:00', '12.0°C', '1,023毫巴', '每小时7.20公里, 南', '10.00公里', '部分多云 (1,219米)', '本地:', '02:00、2019年10月27日周日', '协调世界时:', '18:00、2019年10月26日周六', '来源:', 'USAF 每小时地面观测', '报告类型:', 'METAR 航空例行天气报告', '露点:', '10.0°C', '天气:', 'Light Rain', '上午3:00', '12°C', '1,022毫巴', '每小时3.60公里, 南', '10.00公里', '部分多云 (1,524米)', '本地:', '03:00、2019年10月27日周日', '协调世界时:', '19:00、2019年10月26日周六', '来源:', '周期文件', '趋势:', '无重要变化', '露点:', '11°C', '原始:', 'ZUUU 261900Z 20001MPS 9999 SCT050 12/11 Q1022 NOSIG', '上午3:00', '12.0°C', '1,022毫巴', '每小时3.60公里, 南', '10.00公里', '部分多云 (1,524米)', '本地:', '03:00、2019年10月27日周日', '协调世界时:', '19:00、2019年10月26日周六', '来源:', 'USAF 每小时地面观测', '报告类型:', 'METAR 航空例行天气报告', '露点:', '11.0°C', '上午4:00', '12°C', '1,022毫巴', '每小时0公里', '10.00公里', '部分多云 (1,524米)', '本地:', '04:00、2019年10月27日周日', '协调世界时:', '20:00、2019年10月26日周六', '来源:', '周期文件', '趋势:', '无重要变化', '露点:', '10°C', '原始:', 'ZUUU 262000Z 00000MPS 9999 SCT050 12/10 Q1022 NOSIG', '上午4:00', '12.0°C', '1,022毫巴', '每小时0公里', '10.00公里', '部分多云 (1,524米)', '本地:', '04:00、2019年10月27日周日', '协调世界时:', '20:00、2019年10月26日周六', '来源:', 'USAF 每小时地面观测', '报告类型:', 'METAR 航空例行天气报告', '露点:', '10.0°C', '上午5:00', '12°C', '1,021毫巴', '每小时7.20公里, 南', '7.00公里', '部分多云 (1,524米)', '本地:', '05:00、2019年10月27日周日', '协调世界时:', '21:00、2019年10月26日周六', '来源:', '周期文件', '趋势:', '无重要变化', '露点:', '11°C', '原始:', 'ZUUU 262100Z 19002MPS 170V230 7000 SCT050 12/11 Q1021 NOSIG', '上午5:00', '12.0°C', '1,021毫巴', '每小时7.20公里, 南', '7.00公里', '部分多云 (1,524米)', '本地:', '05:00、2019年10月27日周日', '协调世界时:', '21:00、2019年10月26日周六', '来源:', 'USAF 每小时地面观测', '报告类型:', 'METAR 航空例行天气报告', '露点:', '11.0°C', '上午6:00', '12°C', '1,021毫巴', '每小时0公里', '6.00公里', '部分多云 (1,219米)', '本地:', '06:00、2019年10月27日周日', '协调世界时:', '22:00、2019年10月26日周六', '来源:', '周期文件', '趋势:', '无重要变化', '露点:', '11°C', '其他云层:', '大部分晴天 (366米)', '原始:', 'ZUUU 262200Z 00000MPS 6000 FEW012 SCT040 12/11 Q1021 NOSIG', '上午6:00', '12.0°C', '1,021毫巴', '每小时0公里', '6.00公里', '部分多云 (1,219米)', '本地:', '06:00、2019年10月27日周日', '协调世界时:', '22:00、2019年10月26日周六', '来源:', 'USAF 每小时地面观测', '报告类型:', 'METAR 航空例行天气报告', '露点:', '11.0°C', '其他云层:', '大部分晴天 (366米)', '上午7:00', '12°C', '1,021毫巴', '每小时7.20公里, 西南', '5.00公里', '部分多云 (1,219米)', '本地:', '07:00、2019年10月27日周日', '协调世界时:', '23:00、2019年10月26日周六', '来源:', '周期文件', '趋势:', '无重要变化', '露点:', '11°C', '天气:', 'Mist', '原始:', 'ZUUU 262300Z 22002MPS 5000 BR SCT040 12/11 Q1021 NOSIG', '上午7:00', '12.0°C', '1,021毫巴', '每小时7.20公里, 西南', '5.00公里', '部分多云 (1,219米)', '本地:', '07:00、2019年10月27日周日', '协调世界时:', '23:00、2019年10月26日周六', '来源:', 'USAF 每小时地面观测', '报告类型:', 'METAR 航空例行天气报告', '露点:', '11.0°C', '天气:', 'Mist', '上午8:00', '12°C', '1,021毫巴', '每小时0公里', '5.00公里', '部分多云 (1,524米)', '本地:', '08:00、2019年10月27日周日', '协调世界时:', '00:00、2019年10月27日周日', '来源:', '周期文件', '趋势:', '无重要变化', '露点:', '11°C', '天气:', 'Mist', '原始:', 'ZUUU 270000Z 00000MPS 5000 BR SCT050 12/11 Q1021 NOSIG', '上午8:00', '12.0°C', '1,021毫巴', '每小时0公里', '5.00公里', '部分多云 (1,524米)', '本地:', '08:00、2019年10月27日周日', '协调世界时:', '00:00、2019年10月27日周日', '来源:', 'USAF 每小时地面观测', '报告类型:', 'METAR 航空例行天气报告', '露点:', '11.0°C', '天气:', 'Mist', '上午9:00', '13°C', '1,022毫巴', '每小时3.60公里', '8.00公里', '部分多云 (1,524米)', '本地:', '09:00、2019年10月27日周日', '协调世界时:', '01:00、2019年10月27日周日', '来源:', '周期文件', '趋势:', '无重要变化', '露点:', '12°C', '原始:', 'ZUUU 270100Z VRB01MPS 8000 SCT050 13/12 Q1022 NOSIG', '上午9:00', '13.0°C', '1,022毫巴', '每小时3.60公里', '8.00公里', '部分多云 (1,524米)', '本地:', '09:00、2019年10月27日周日', '协调世界时:', '01:00、2019年10月27日周日', '来源:', 'USAF 每小时地面观测', '报告类型:', 'METAR 航空例行天气报告', '露点:', '12.0°C', '上午10:00', '15°C', '1,023毫巴', '每小时0公里', '10.00公里', '部分多云 (1,524米)', '本地:', '10:00、2019年10月27日周日', '协调世界时:', '02:00、2019年10月27日周日', '来源:', '周期文件', '趋势:', '无重要变化', '露点:', '11°C', '原始:', 'ZUUU 270200Z 00000MPS 9999 SCT050 15/11 Q1023 NOSIG', '上午10:00', '15.0°C', '1,023毫巴', '每小时0公里', '10.00公里', '部分多云 (1,524米)', '本地:', '10:00、2019年10月27日周日', '协调世界时:', '02:00、2019年10月27日周日', '来源:', 'USAF 每小时地面观测', '报告类型:', 'METAR 航空例行天气报告', '露点:', '11.0°C', '上午11:00', '15°C', '1,022毫巴', '每小时0公里', '10.00公里', '部分多云 (1,524米)', '本地:', '11:00、2019年10月27日周日', '协调世界时:', '03:00、2019年10月27日周日', '来源:', '周期文件', '趋势:', '无重要变化', '露点:', '11°C', '原始:', 'ZUUU 270300Z 00000MPS 9999 SCT050 15/11 Q1022 NOSIG', '上午11:00', '15.0°C', '1,022毫巴', '每小时0公里', '10.00公里', '部分多云 (1,524米)', '本地:', '11:00、2019年10月27日周日', '协调世界时:', '03:00、2019年10月27日周日', '来源:', 'USAF 每小时地面观测', '报告类型:', 'METAR 航空例行天气报告', '露点:', '11.0°C', '下午12:00', '16°C', '1,021毫巴', '每小时3.60公里', '10.00公里', '部分多云 (1,524米)', '本地:', '12:00、2019年10月27日周日', '协调世界时:', '04:00、2019年10月27日周日', '来源:', '周期文件', '趋势:', '无重要变化', '露点:', '11°C', '原始:', 'ZUUU 270400Z VRB01MPS 9999 SCT050 16/11 Q1021 NOSIG', '下午12:00', '16.0°C', '1,021毫巴', '每小时3.60公里', '10.00公里', '部分多云 (1,524米)', '本地:', '12:00、2019年10月27日周日', '协调世界时:', '04:00、2019年10月27日周日', '来源:', 'USAF 每小时地面观测', '报告类型:', 'METAR 航空例行天气报告', '露点:', '11.0°C', '下午1:00', '17°C', '1,020毫巴', '每小时7.20公里', '10.00公里', '大部分晴天 (792米)', '本地:', '13:00、2019年10月27日周日', '协调世界时:', '05:00、2019年10月27日周日', '来源:', '周期文件', '趋势:', '无重要变化', '露点:', '9°C', '原始:', 'ZUUU 270500Z VRB02MPS 9999 FEW026 17/09 Q1020 NOSIG', '下午1:00', '17.0°C', '1,020毫巴', '每小时7.20公里', '10.00公里', '大部分晴天 (792米)', '本地:', '13:00、2019年10月27日周日', '协调世界时:', '05:00、2019年10月27日周日', '来源:', 'USAF 每小时地面观测', '报告类型:', 'METAR 航空例行天气报告', '露点:', '9.0°C', '下午2:00', '17°C', '1,019毫巴', '每小时3.60公里', '10.00公里', '大部分晴天 (792米)', '本地:', '14:00、2019年10月27日周日', '协调世界时:', '06:00、2019年10月27日周日', '来源:', '周期文件', '趋势:', '无重要变化', '露点:', '9°C', '原始:', 'ZUUU 270600Z VRB01MPS 9999 FEW026 17/09 Q1019 NOSIG', '下午2:00', '17.0°C', '1,019毫巴', '每小时3.60公里', '10.00公里', '大部分晴天 (792米)', '本地:', '14:00、2019年10月27日周日', '协调世界时:', '06:00、2019年10月27日周日', '来源:', 'USAF 每小时地面观测', '报告类型:', 'METAR 航空例行天气报告', '露点:', '9.0°C', '下午3:00', '17°C', '1,019毫巴', '每小时3.60公里', '10.00公里', '大部分晴天 (792米)', '本地:', '15:00、2019年10月27日周日', '协调世界时:', '07:00、2019年10月27日周日', '来源:', '周期文件', '趋势:', '无重要变化', '露点:', '8°C', '原始:', 'ZUUU 270700Z VRB01MPS 9999 FEW026 17/08 Q1019 NOSIG', '下午3:00', '17.0°C', '1,019毫巴', '每小时3.60公里', '10.00公里', '大部分晴天 (792米)', '本地:', '15:00、2019年10月27日周日', '协调世界时:', '07:00、2019年10月27日周日', '来源:', 'USAF 每小时地面观测', '报告类型:', 'METAR 航空例行天气报告', '露点:', '8.0°C', '下午4:00', '17°C', '1,019毫巴', '每小时7.20公里, 南', '10.00公里', '部分多云 (1,219米)', '本地:', '16:00、2019年10月27日周日', '协调世界时:', '08:00、2019年10月27日周日', '来源:', '周期文件', '趋势:', '无重要变化', '露点:', '10°C', '原始:', 'ZUUU 270800Z 20002MPS 170V230 9999 SCT040 17/10 Q1019 NOSIG', '下午4:00', '17.0°C', '1,019毫巴', '每小时7.20公里, 南', '10.00公里', '部分多云 (1,219米)', '本地:', '16:00、2019年10月27日周日', '协调世界时:', '08:00、2019年10月27日周日', '来源:', 'USAF 每小时地面观测', '报告类型:', 'METAR 航空例行天气报告', '露点:', '10.0°C', '下午5:00', '17°C', '1,019毫巴', '每小时7.20公里, 西南', '10.00公里', '部分多云 (1,219米)', '本地:', '17:00、2019年10月27日周日', '协调世界时:', '09:00、2019年10月27日周日', '来源:', '周期文件', '趋势:', '无重要变化', '露点:', '10°C', '原始:', 'ZUUU 270900Z 22002MPS 9999 SCT040 17/10 Q1019 NOSIG', '下午5:00', '17.0°C', '1,019毫巴', '每小时7.20公里, 西南', '10.00公里', '部分多云 (1,219米)', '本地:', '17:00、2019年10月27日周日', '协调世界时:', '09:00、2019年10月27日周日', '来源:', 'USAF 每小时地面观测', '报告类型:', 'METAR 航空例行天气报告', '露点:', '10.0°C', '下午6:00', '16°C', '1,019毫巴', '每小时3.60公里, 西南', '10.00公里', '部分多云 (1,219米)', '本地:', '18:00、2019年10月27日周日', '协调世界时:', '10:00、2019年10月27日周日', '来源:', '周期文件', '趋势:', '无重要变化', '露点:', '10°C', '原始:', 'ZUUU 271000Z 22001MPS 9999 SCT040 16/10 Q1019 NOSIG', '下午6:00', '16.0°C', '1,019毫巴', '每小时3.60公里, 西南', '10.00公里', '部分多云 (1,219米)', '本地:', '18:00、2019年10月27日周日', '协调世界时:', '10:00、2019年10月27日周日', '来源:', 'USAF 每小时地面观测', '报告类型:', 'METAR 航空例行天气报告', '露点:', '10.0°C', '下午7:00', '15°C', '1,019毫巴', '每小时7.20公里, 南', '10.00公里', '部分多云 (1,219米)', '本地:', '19:00、2019年10月27日周日', '协调世界时:', '11:00、2019年10月27日周日', '来源:', '周期文件', '趋势:', '无重要变化', '露点:', '11°C', '原始:', 'ZUUU 271100Z 18002MPS 140V230 9999 SCT040 15/11 Q1019 NOSIG', '下午7:00', '15.0°C', '1,019毫巴', '每小时7.20公里, 南', '10.00公里', '部分多云 (1,219米)', '本地:', '19:00、2019年10月27日周日', '协调世界时:', '11:00、2019年10月27日周日', '来源:', 'USAF 每小时地面观测', '报告类型:', 'METAR 航空例行天气报告', '露点:', '11.0°C', '下午8:00', '16°C', '1,021毫巴', '每小时3.60公里', '10.00公里', '部分多云 (1,219米)', '本地:', '20:00、2019年10月27日周日', '协调世界时:', '12:00、2019年10月27日周日', '来源:', '周期文件', '趋势:', '无重要变化', '露点:', '11°C', '原始:', 'ZUUU 271200Z VRB01MPS 9999 SCT040 16/11 Q1021 NOSIG', '下午8:00', '16.0°C', '1,021毫巴', '每小时3.60公里', '10.00公里', '部分多云 (1,219米)', '本地:', '20:00、2019年10月27日周日', '协调世界时:', '12:00、2019年10月27日周日', '来源:', 'USAF 每小时地面观测', '报告类型:', 'METAR 航空例行天气报告', '露点:', '11.0°C', '下午9:00', '15°C', '1,023毫巴', '每小时0公里', '10.00公里', '部分多云 (1,219米)', '本地:', '21:00、2019年10月27日周日', '协调世界时:', '13:00、2019年10月27日周日', '来源:', '周期文件', '趋势:', '无重要变化', '露点:', '12°C', '原始:', 'ZUUU 271300Z 00000MPS 9999 SCT040 15/12 Q1023 NOSIG', '下午9:00', '15.0°C', '1,023毫巴', '每小时0公里', '10.00公里', '部分多云 (1,219米)', '本地:', '21:00、2019年10月27日周日', '协调世界时:', '13:00、2019年10月27日周日', '来源:', 'USAF 每小时地面观测', '报告类型:', 'METAR 航空例行天气报告', '露点:', '12.0°C', '下午10:00', '16°C', '1,024毫巴', '每小时7.20公里, 东', '10.00公里', '部分多云 (1,219米)', '本地:', '22:00、2019年10月27日周日', '协调世界时:', '14:00、2019年10月27日周日', '来源:', '周期文件', '趋势:', '无重要变化', '露点:', '12°C', '原始:', 'ZUUU 271400Z 09002MPS 030V150 9999 SCT040 16/12 Q1024 NOSIG', '下午10:00', '16.0°C', '1,024毫巴', '每小时7.20公里, 东', '10.00公里', '部分多云 (1,219米)', '本地:', '22:00、2019年10月27日周日', '协调世界时:', '14:00、2019年10月27日周日', '来源:', 'USAF 每小时地面观测', '报告类型:', 'METAR 航空例行天气报告', '露点:', '12.0°C', '下午11:00', '14°C', '1,025毫巴', '每小时0公里', '10.00公里', '部分多云 (1,006米)', '本地:', '23:00、2019年10月27日周日', '协调世界时:', '15:00、2019年10月27日周日', '来源:', '周期文件', '趋势:', '无重要变化', '露点:', '12°C', '原始:', 'ZUUU 271500Z 00000MPS 9999 SCT033 14/12 Q1025 NOSIG', '下午11:00', '14.0°C', '1,025毫巴', '每小时0公里', '10.00公里', '部分多云 (1,006米)', '本地:', '23:00、2019年10月27日周日', '协调世界时:', '15:00、2019年10月27日周日', '来源:', 'USAF 每小时地面观测', '报告类型:', 'METAR 航空例行天气报告', '露点:', '12.0°C']