['Showers of Light Rain', '-SHRA、IWC80', 'Showers of Light Rain、Mist', '-SHRA、IWC80、BR、IWC10', 'Showers of Light Rain、Mist', '-SHRA、IWC80、BR、IWC10', 'Showers of Light Rain、Mist', '-SHRA、IWC80、BR、IWC10', 'Mist', 'BR、IWC10', '上午12:00', '19°C', '1,017毫巴', '每小时0公里', '8.00公里', '大部分多云 (1,524米)', '本地:', '00:00、2019年10月9日周三', '协调世界时:', '16:00、2019年10月8日周二', '来源:', '周期文件', '趋势:', '无重要变化', '露点:', '15°C', '原始:', 'ZUUU 081600Z 00000MPS 8000 BKN050 19/15 Q1017 NOSIG', '上午12:00', '19.0°C', '1,017毫巴', '每小时0公里', '8.00公里', '大部分多云 (1,524米)', '本地:', '00:00、2019年10月9日周三', '协调世界时:', '16:00、2019年10月8日周二', '来源:', 'USAF 每小时地面观测', '报告类型:', 'METAR 航空例行天气报告', '露点:', '15.0°C', '上午1:00', '18°C', '1,017毫巴', '每小时3.60公里', '8.00公里', '大部分多云 (1,524米)', '本地:', '01:00、2019年10月9日周三', '协调世界时:', '17:00、2019年10月8日周二', '来源:', '周期文件', '趋势:', '无重要变化', '露点:', '14°C', '其他云层:', '大部分晴天 (701米)', '原始:', 'ZUUU 081700Z VRB01MPS 8000 FEW023 BKN050 18/14 Q1017 NOSIG', '上午1:00', '18.0°C', '1,017毫巴', '每小时3.60公里', '8.00公里', '大部分多云 (1,524米)', '本地:', '01:00、2019年10月9日周三', '协调世界时:', '17:00、2019年10月8日周二', '来源:', 'USAF 每小时地面观测', '报告类型:', 'METAR 航空例行天气报告', '露点:', '14.0°C', '其他云层:', '大部分晴天 (701米)', '上午2:00', '18°C', '1,016毫巴', '每小时0公里', '8.00公里', '大部分多云 (1,524米)', '本地:', '02:00、2019年10月9日周三', '协调世界时:', '18:00、2019年10月8日周二', '来源:', '周期文件', '趋势:', '无重要变化', '露点:', '15°C', '其他云层:', '大部分晴天 (701米)', '原始:', 'ZUUU 081800Z 00000MPS 8000 FEW023 BKN050 18/15 Q1016 NOSIG', '上午2:00', '18.0°C', '1,016毫巴', '每小时0公里', '8.00公里', '大部分多云 (1,524米)', '本地:', '02:00、2019年10月9日周三', '协调世界时:', '18:00、2019年10月8日周二', '来源:', 'USAF 每小时地面观测', '报告类型:', 'METAR 航空例行天气报告', '露点:', '15.0°C', '其他云层:', '大部分晴天 (701米)', '上午3:00', '18°C', '1,015毫巴', '每小时3.60公里', '7.00公里', '大部分多云 (1,524米)', '本地:', '03:00、2019年10月9日周三', '协调世界时:', '19:00、2019年10月8日周二', '来源:', '周期文件', '趋势:', '无重要变化', '露点:', '15°C', '其他云层:', '大部分晴天 (701米)', '原始:', 'ZUUU 081900Z VRB01MPS 7000 FEW023 BKN050 18/15 Q1015 NOSIG', '上午3:00', '18.0°C', '1,015毫巴', '每小时3.60公里', '7.00公里', '大部分多云 (1,524米)', '本地:', '03:00、2019年10月9日周三', '协调世界时:', '19:00、2019年10月8日周二', '来源:', 'USAF 每小时地面观测', '报告类型:', 'METAR 航空例行天气报告', '露点:', '15.0°C', '其他云层:', '大部分晴天 (701米)', '上午4:00', '18°C', '1,014毫巴', '每小时3.60公里', '6.00公里', '大部分多云 (1,524米)', '本地:', '04:00、2019年10月9日周三', '协调世界时:', '20:00、2019年10月8日周二', '来源:', '周期文件', '趋势:', '无重要变化', '露点:', '15°C', '其他云层:', '大部分晴天 (701米)', '原始:', 'ZUUU 082000Z VRB01MPS 6000 FEW023 BKN050 18/15 Q1014 NOSIG', '上午4:00', '18.0°C', '1,014毫巴', '每小时3.60公里', '6.00公里', '大部分多云 (1,524米)', '本地:', '04:00、2019年10月9日周三', '协调世界时:', '20:00、2019年10月8日周二', '来源:', 'USAF 每小时地面观测', '报告类型:', 'METAR 航空例行天气报告', '露点:', '15.0°C', '其他云层:', '大部分晴天 (701米)', '上午5:00', '18°C', '1,014毫巴', '每小时3.60公里', '6.00公里', '大部分多云 (1,524米)', '本地:', '05:00、2019年10月9日周三', '协调世界时:', '21:00、2019年10月8日周二', '来源:', '周期文件', '趋势:', '无重要变化', '露点:', '15°C', '其他云层:', '大部分晴天 (701米)', '原始:', 'ZUUU 082100Z VRB01MPS 6000 FEW023 BKN050 18/15 Q1014 NOSIG', '上午5:00', '18.0°C', '1,014毫巴', '每小时3.60公里', '6.00公里', '大部分多云 (1,524米)', '本地:', '05:00、2019年10月9日周三', '协调世界时:', '21:00、2019年10月8日周二', '来源:', 'USAF 每小时地面观测', '报告类型:', 'METAR 航空例行天气报告', '露点:', '15.0°C', '其他云层:', '大部分晴天 (701米)', '上午6:00', '18°C', '1,014毫巴', '每小时3.60公里', '7.00公里', '部分多云 (1,524米)', '本地:', '06:00、2019年10月9日周三', '协调世界时:', '22:00、2019年10月8日周二', '来源:', '周期文件', '趋势:', '无重要变化', '露点:', '15°C', '其他云层:', '大部分晴天 (792米)', '原始:', 'ZUUU 082200Z VRB01MPS 7000 FEW026 SCT050 18/15 Q1014 NOSIG', '上午6:00', '18.0°C', '1,014毫巴', '每小时3.60公里', '7.00公里', '部分多云 (1,524米)', '本地:', '06:00、2019年10月9日周三', '协调世界时:', '22:00、2019年10月8日周二', '来源:', 'USAF 每小时地面观测', '报告类型:', 'METAR 航空例行天气报告', '露点:', '15.0°C', '其他云层:', '大部分晴天 (792米)', '上午7:00', '18°C', '1,014毫巴', '每小时7.20公里, 北', '7.00公里', '部分多云 (1,219米)', '本地:', '07:00、2019年10月9日周三', '协调世界时:', '23:00、2019年10月8日周二', '来源:', '周期文件', '趋势:', '无重要变化', '露点:', '15°C', '其他云层:', '大部分晴天 (792米)', '天气:', 'Showers of Light Rain', '原始:', 'ZUUU 082300Z 36002MPS 320V020 7000 -SHRA FEW026 SCT040 18/15 Q1014 NOSIG', '上午7:00', '18.0°C', '1,014毫巴', '每小时7.20公里, 北', '7.00公里', '部分多云 (1,219米)', '本地:', '07:00、2019年10月9日周三', '协调世界时:', '23:00、2019年10月8日周二', '来源:', 'USAF 每小时地面观测', '报告类型:', 'METAR 航空例行天气报告', '露点:', '15.0°C', '其他云层:', '大部分晴天 (792米)', '天气:', 'Showers of Light Rain', '上午8:00', '17°C', '1,014毫巴', '每小时10.8公里, 东北', '3.00公里', '部分多云 (610米)', '本地:', '08:00、2019年10月9日周三', '协调世界时:', '00:00、2019年10月9日周三', '来源:', '周期文件', '趋势:', '变化为', '露点:', '16°C', '其他云层:', '部分多云 (1,219米)', '天气:', 'Showers of Light Rain、Mist、Mist', '原始:', 'ZUUU 090000Z 03003MPS 350V080 3000 -SHRA BR SCT020 SCT040 17/16 Q1014 BECMG TL0100 2700 BR', '上午8:00', '17.0°C', '1,014毫巴', '每小时10.8公里, 东北', '3.00公里', '部分多云 (610米)', '本地:', '08:00、2019年10月9日周三', '协调世界时:', '00:00、2019年10月9日周三', '来源:', 'USAF 每小时地面观测', '报告类型:', 'METAR 航空例行天气报告', '露点:', '16.0°C', '其他云层:', '部分多云 (1,219米)', '天气:', 'Mist、Showers of Light Rain', '上午9:00', '17°C', '1,015毫巴', '每小时7.20公里, 北', '2.50公里', '大部分多云 (610米)', '本地:', '09:00、2019年10月9日周三', '协调世界时:', '01:00、2019年10月9日周三', '来源:', '周期文件', '趋势:', '变化为', '露点:', '16°C', '其他云层:', '大部分晴天 (122米)、部分多云 (274米)', '天气:', 'Showers of Light Rain、Mist', '原始:', 'ZUUU 090100Z 01002MPS 330V050 2500 -SHRA BR FEW004 SCT009 BKN020 17/16 Q1015 BECMG TL0200 3000', '上午9:00', '17.0°C', '1,015毫巴', '每小时7.20公里, 北', '2.50公里', '大部分多云 (610米)', '本地:', '09:00、2019年10月9日周三', '协调世界时:', '01:00、2019年10月9日周三', '来源:', 'USAF 每小时地面观测', '报告类型:', 'METAR 航空例行天气报告', '露点:', '16.0°C', '其他云层:', '大部分晴天 (122米)、部分多云 (274米)', '天气:', 'Mist、Showers of Light Rain', '上午10:00', '17°C', '1,015毫巴', '每小时0公里', '3.50公里', '大部分多云 (701米)', '本地:', '10:00、2019年10月9日周三', '协调世界时:', '02:00、2019年10月9日周三', '来源:', '周期文件', '趋势:', '无重要变化', '露点:', '16°C', '其他云层:', '大部分晴天 (152米)、部分多云 (274米)', '天气:', 'Showers of Light Rain、Mist', '原始:', 'ZUUU 090200Z 00000MPS 3500 -SHRA BR FEW005 SCT009 BKN023 17/16 Q1015 NOSIG', '上午10:00', '17.0°C', '1,015毫巴', '每小时0公里', '3.50公里', '大部分多云 (701米)', '本地:', '10:00、2019年10月9日周三', '协调世界时:', '02:00、2019年10月9日周三', '来源:', 'USAF 每小时地面观测', '报告类型:', 'METAR 航空例行天气报告', '露点:', '16.0°C', '其他云层:', '大部分晴天 (152米)、部分多云 (274米)', '天气:', 'Mist、Showers of Light Rain', '上午11:00', '18°C', '1,015毫巴', '每小时3.60公里', '5.00公里', '大部分多云 (701米)', '本地:', '11:00、2019年10月9日周三', '协调世界时:', '03:00、2019年10月9日周三', '来源:', '周期文件', '趋势:', '无重要变化', '露点:', '15°C', '其他云层:', '部分多云 (274米)', '天气:', 'Mist', '原始:', 'ZUUU 090300Z VRB01MPS 5000 BR SCT009 BKN023 18/15 Q1015 NOSIG', '上午11:00', '18.0°C', '1,015毫巴', '每小时3.60公里', '5.00公里', '大部分多云 (701米)', '本地:', '11:00、2019年10月9日周三', '协调世界时:', '03:00、2019年10月9日周三', '来源:', 'USAF 每小时地面观测', '报告类型:', 'METAR 航空例行天气报告', '露点:', '15.0°C', '其他云层:', '部分多云 (274米)', '天气:', 'Mist', '下午12:00', '19°C', '1,014毫巴', '每小时3.60公里', '8.00公里', '部分多云 (1,006米)', '本地:', '12:00、2019年10月9日周三', '协调世界时:', '04:00、2019年10月9日周三', '来源:', '周期文件', '趋势:', '无重要变化', '露点:', '16°C', '其他云层:', '大部分晴天 (488米)', '原始:', 'ZUUU 090400Z VRB01MPS 8000 FEW016 SCT033 19/16 Q1014 NOSIG', '下午12:00', '19.0°C', '1,014毫巴', '每小时3.60公里', '8.00公里', '部分多云 (1,006米)', '本地:', '12:00、2019年10月9日周三', '协调世界时:', '04:00、2019年10月9日周三', '来源:', 'USAF 每小时地面观测', '报告类型:', 'METAR 航空例行天气报告', '露点:', '16.0°C', '其他云层:', '大部分晴天 (488米)', '下午1:00', '20°C', '1,013毫巴', '每小时7.20公里, 北', '10.00公里', '部分多云 (1,219米)', '本地:', '13:00、2019年10月9日周三', '协调世界时:', '05:00、2019年10月9日周三', '来源:', '周期文件', '趋势:', '无重要变化', '露点:', '14°C', '其他云层:', '大部分晴天 (610米)', '原始:', 'ZUUU 090500Z 01002MPS 340V050 9999 FEW020 SCT040 20/14 Q1013 NOSIG', '下午1:00', '20.0°C', '1,013毫巴', '每小时7.20公里, 北', '10.00公里', '部分多云 (1,219米)', '本地:', '13:00、2019年10月9日周三', '协调世界时:', '05:00、2019年10月9日周三', '来源:', 'USAF 每小时地面观测', '报告类型:', 'METAR 航空例行天气报告', '露点:', '14.0°C', '其他云层:', '大部分晴天 (610米)', '下午2:00', '20°C', '1,012毫巴', '每小时7.20公里, 东北', '10.00公里', '部分多云 (701米)', '本地:', '14:00、2019年10月9日周三', '协调世界时:', '06:00、2019年10月9日周三', '来源:', '周期文件', '趋势:', '无重要变化', '露点:', '15°C', '其他云层:', '部分多云 (1,524米)', '原始:', 'ZUUU 090600Z 04002MPS 330V100 9999 SCT023 SCT050 20/15 Q1012 NOSIG', '下午2:00', '20.0°C', '1,012毫巴', '每小时7.20公里, 东北', '10.00公里', '部分多云 (701米)', '本地:', '14:00、2019年10月9日周三', '协调世界时:', '06:00、2019年10月9日周三', '来源:', 'USAF 每小时地面观测', '报告类型:', 'METAR 航空例行天气报告', '露点:', '15.0°C', '其他云层:', '部分多云 (1,524米)', '下午3:00', '21°C', '1,011毫巴', '每小时7.20公里, 北', '10.00公里', '大部分多云 (1,524米)', '本地:', '15:00、2019年10月9日周三', '协调世界时:', '07:00、2019年10月9日周三', '来源:', '周期文件', '趋势:', '无重要变化', '露点:', '15°C', '其他云层:', '部分多云 (701米)', '原始:', 'ZUUU 090700Z 01002MPS 300V040 9999 SCT023 BKN050 21/15 Q1011 NOSIG', '下午3:00', '21.0°C', '1,011毫巴', '每小时7.20公里, 北', '10.00公里', '大部分多云 (1,524米)', '本地:', '15:00、2019年10月9日周三', '协调世界时:', '07:00、2019年10月9日周三', '来源:', 'USAF 每小时地面观测', '报告类型:', 'METAR 航空例行天气报告', '露点:', '15.0°C', '其他云层:', '部分多云 (701米)', '下午4:00', '21°C', '1,011毫巴', '每小时3.60公里', '10.00公里', '大部分晴天 (701米)', '本地:', '16:00、2019年10月9日周三', '协调世界时:', '08:00、2019年10月9日周三', '来源:', '周期文件', '趋势:', '无重要变化', '露点:', '14°C', '原始:', 'ZUUU 090800Z VRB01MPS 9999 FEW023 21/14 Q1011 NOSIG', '下午4:00', '21.0°C', '1,011毫巴', '每小时3.60公里', '10.00公里', '大部分晴天 (701米)', '本地:', '16:00、2019年10月9日周三', '协调世界时:', '08:00、2019年10月9日周三', '来源:', 'USAF 每小时地面观测', '报告类型:', 'METAR 航空例行天气报告', '露点:', '14.0°C', '下午5:00', '20°C', '1,011毫巴', '每小时3.60公里', '≥ 10.00公里', '晴空万里', '本地:', '17:00、2019年10月9日周三', '协调世界时:', '09:00、2019年10月9日周三', '来源:', '周期文件', '趋势:', '无重要变化', '露点:', '14°C', '晴空万里:', '真', '原始:', 'ZUUU 090900Z VRB01MPS CAVOK 20/14 Q1011 NOSIG', '下午5:00', '20.0°C', '1,011毫巴', '每小时3.60公里', '9.90公里', '晴空万里', '本地:', '17:00、2019年10月9日周三', '协调世界时:', '09:00、2019年10月9日周三', '来源:', 'USAF 每小时地面观测', '报告类型:', 'METAR 航空例行天气报告', '露点:', '14.0°C', '晴空万里:', '真', '下午6:00', '20°C', '1,011毫巴', '每小时3.60公里', '10.00公里', '大部分晴天 (914米)', '本地:', '18:00、2019年10月9日周三', '协调世界时:', '10:00、2019年10月9日周三', '来源:', '周期文件', '趋势:', '无重要变化', '露点:', '15°C', '原始:', 'ZUUU 091000Z VRB01MPS 9999 FEW030 20/15 Q1011 NOSIG', '下午6:00', '20.0°C', '1,011毫巴', '每小时3.60公里', '10.00公里', '大部分晴天 (914米)', '本地:', '18:00、2019年10月9日周三', '协调世界时:', '10:00、2019年10月9日周三', '来源:', 'USAF 每小时地面观测', '报告类型:', 'METAR 航空例行天气报告', '露点:', '15.0°C', '下午7:00', '20°C', '1,012毫巴', '每小时3.60公里', '≥ 10.00公里', '晴空万里', '本地:', '19:00、2019年10月9日周三', '协调世界时:', '11:00、2019年10月9日周三', '来源:', '周期文件', '趋势:', '无重要变化', '露点:', '15°C', '晴空万里:', '真', '原始:', 'ZUUU 091100Z VRB01MPS CAVOK 20/15 Q1012 NOSIG', '下午7:00', '20.0°C', '1,012毫巴', '每小时3.60公里', '9.90公里', '晴空万里', '本地:', '19:00、2019年10月9日周三', '协调世界时:', '11:00、2019年10月9日周三', '来源:', 'USAF 每小时地面观测', '报告类型:', 'METAR 航空例行天气报告', '露点:', '15.0°C', '晴空万里:', '真', '下午8:00', '20°C', '1,013毫巴', '每小时0公里', '≥ 10.00公里', '晴空万里', '本地:', '20:00、2019年10月9日周三', '协调世界时:', '12:00、2019年10月9日周三', '来源:', '周期文件', '趋势:', '无重要变化', '露点:', '15°C', '晴空万里:', '真', '原始:', 'ZUUU 091200Z 00000MPS CAVOK 20/15 Q1013 NOSIG', '下午8:00', '20.0°C', '1,013毫巴', '每小时0公里', '9.90公里', '晴空万里', '本地:', '20:00、2019年10月9日周三', '协调世界时:', '12:00、2019年10月9日周三', '来源:', 'USAF 每小时地面观测', '报告类型:', 'METAR 航空例行天气报告', '露点:', '15.0°C', '晴空万里:', '真', '下午9:00', '20°C', '1,014毫巴', '每小时0公里', '≥ 10.00公里', '晴空万里', '本地:', '21:00、2019年10月9日周三', '协调世界时:', '13:00、2019年10月9日周三', '来源:', '周期文件', '趋势:', '无重要变化', '露点:', '15°C', '晴空万里:', '真', '原始:', 'ZUUU 091300Z 00000MPS CAVOK 20/15 Q1014 NOSIG', '下午9:00', '20.0°C', '1,014毫巴', '每小时0公里', '9.90公里', '晴空万里', '本地:', '21:00、2019年10月9日周三', '协调世界时:', '13:00、2019年10月9日周三', '来源:', 'USAF 每小时地面观测', '报告类型:', 'METAR 航空例行天气报告', '露点:', '15.0°C', '晴空万里:', '真', '下午10:00', '19°C', '1,015毫巴', '每小时0公里', '≥ 10.00公里', '晴空万里', '本地:', '22:00、2019年10月9日周三', '协调世界时:', '14:00、2019年10月9日周三', '来源:', '周期文件', '趋势:', '无重要变化', '露点:', '16°C', '晴空万里:', '真', '原始:', 'ZUUU 091400Z 00000MPS CAVOK 19/16 Q1015 NOSIG', '下午10:00', '19.0°C', '1,015毫巴', '每小时0公里', '9.90公里', '晴空万里', '本地:', '22:00、2019年10月9日周三', '协调世界时:', '14:00、2019年10月9日周三', '来源:', 'USAF 每小时地面观测', '报告类型:', 'METAR 航空例行天气报告', '露点:', '16.0°C', '晴空万里:', '真', '下午11:00', '19°C', '1,015毫巴', '每小时3.60公里, 西南', '8.00公里', '无重要云', '本地:', '23:00、2019年10月9日周三', '协调世界时:', '15:00、2019年10月9日周三', '来源:', '周期文件', '趋势:', '无重要变化', '露点:', '16°C', '原始:', 'ZUUU 091500Z 21001MPS 8000 NSC 19/16 Q1015 NOSIG', '下午11:00', '19.0°C', '1,015毫巴', '每小时3.60公里, 西南', '8.00公里', '未检测到云', '本地:', '23:00、2019年10月9日周三', '协调世界时:', '15:00、2019年10月9日周三', '来源:', 'USAF 每小时地面观测', '报告类型:', 'METAR 航空例行天气报告', '露点:', '16.0°C']