['Mist', 'BR、IWC10', 'Mist', 'BR、IWC10', 'Mist', 'BR、IWC10', 'Mist', 'BR、IWC10', 'Mist', 'BR、IWC10', 'Mist', 'BR、IWC10', 'Mist', 'BR、IWC10', 'Mist', 'BR、IWC10', 'Mist', 'BR、IWC10', 'Mist', 'BR、IWC10', 'Mist', 'BR、IWC10', 'Mist', 'BR、IWC10', 'Haze', 'HZ、IWC05', 'Haze', 'HZ、IWC05', 'Haze', 'HZ、IWC05', 'Haze', 'HZ、IWC05', 'Haze', 'HZ、IWC05', 'Haze', 'HZ、IWC05', 'Haze', 'HZ、IWC05', 'Haze', 'HZ、IWC05', 'Haze', 'HZ、IWC05', 'Haze', 'HZ、IWC05', '上午12:00', '7°C', '1,021毫巴', '每小时7.20公里, 南', '7.00公里', '部分多云 (1,524米)', '本地:', '00:00、2019年12月29日周日', '协调世界时:', '16:00、2019年12月28日周六', '来源:', '周期文件', '趋势:', '无重要变化', '露点:', '4°C', '原始:', 'ZUUU 281600Z 17002MPS 100V220 7000 SCT050 07/04 Q1021 NOSIG', '上午12:00', '7.0°C', '1,021毫巴', '每小时7.20公里, 南', '7.00公里', '部分多云 (1,524米)', '本地:', '00:00、2019年12月29日周日', '协调世界时:', '16:00、2019年12月28日周六', '来源:', 'USAF 每小时地面观测', '报告类型:', 'METAR 航空例行天气报告', '露点:', '4.0°C', '上午1:00', '6°C', '1,021毫巴', '每小时7.20公里, 南', '6.00公里', '无重要云', '本地:', '01:00、2019年12月29日周日', '协调世界时:', '17:00、2019年12月28日周六', '来源:', '周期文件', '趋势:', '无重要变化', '露点:', '4°C', '原始:', 'ZUUU 281700Z 19002MPS 140V220 6000 NSC 06/04 Q1021 NOSIG', '上午1:00', '6.0°C', '1,021毫巴', '每小时7.20公里, 南', '6.00公里', '未检测到云', '本地:', '01:00、2019年12月29日周日', '协调世界时:', '17:00、2019年12月28日周六', '来源:', 'USAF 每小时地面观测', '报告类型:', 'METAR 航空例行天气报告', '露点:', '4.0°C', '上午2:00', '6°C', '1,020毫巴', '每小时3.60公里', '5.00公里', '无重要云', '本地:', '02:00、2019年12月29日周日', '协调世界时:', '18:00、2019年12月28日周六', '来源:', '周期文件', '趋势:', '无重要变化', '露点:', '4°C', '天气:', 'Mist', '原始:', 'ZUUU 281800Z VRB01MPS 5000 BR NSC 06/04 Q1020 NOSIG', '上午2:00', '6.0°C', '1,020毫巴', '每小时3.60公里', '5.00公里', '未检测到云', '本地:', '02:00、2019年12月29日周日', '协调世界时:', '18:00、2019年12月28日周六', '来源:', 'USAF 每小时地面观测', '报告类型:', 'METAR 航空例行天气报告', '露点:', '4.0°C', '天气:', 'Mist', '上午3:00', '5°C', '1,020毫巴', '每小时0公里', '5.00公里', '无重要云', '本地:', '03:00、2019年12月29日周日', '协调世界时:', '19:00、2019年12月28日周六', '来源:', '周期文件', '趋势:', '无重要变化', '露点:', '3°C', '天气:', 'Mist', '原始:', 'ZUUU 281900Z 00000MPS 5000 BR NSC 05/03 Q1020 NOSIG', '上午3:00', '5.0°C', '1,020毫巴', '每小时0公里', '5.00公里', '未检测到云', '本地:', '03:00、2019年12月29日周日', '协调世界时:', '19:00、2019年12月28日周六', '来源:', 'USAF 每小时地面观测', '报告类型:', 'METAR 航空例行天气报告', '露点:', '3.0°C', '天气:', 'Mist', '上午4:00', '4°C', '1,020毫巴', '每小时0公里', '4.50公里', '无重要云', '本地:', '04:00、2019年12月29日周日', '协调世界时:', '20:00、2019年12月28日周六', '来源:', '周期文件', '趋势:', '无重要变化', '露点:', '3°C', '天气:', 'Mist', '原始:', 'ZUUU 282000Z 00000MPS 4500 BR NSC 04/03 Q1020 NOSIG', '上午4:00', '4.0°C', '1,020毫巴', '每小时0公里', '4.50公里', '未检测到云', '本地:', '04:00、2019年12月29日周日', '协调世界时:', '20:00、2019年12月28日周六', '来源:', 'USAF 每小时地面观测', '报告类型:', 'METAR 航空例行天气报告', '露点:', '3.0°C', '天气:', 'Mist', '上午5:00', '5°C', '1,020毫巴', '每小时0公里', '4.50公里', '无重要云', '本地:', '05:00、2019年12月29日周日', '协调世界时:', '21:00、2019年12月28日周六', '来源:', '周期文件', '趋势:', '无重要变化', '露点:', '4°C', '天气:', 'Mist', '原始:', 'ZUUU 282100Z 00000MPS 4500 BR NSC 05/04 Q1020 NOSIG', '上午5:00', '5.0°C', '1,020毫巴', '每小时0公里', '4.50公里', '未检测到云', '本地:', '05:00、2019年12月29日周日', '协调世界时:', '21:00、2019年12月28日周六', '来源:', 'USAF 每小时地面观测', '报告类型:', 'METAR 航空例行天气报告', '露点:', '4.0°C', '天气:', 'Mist', '上午6:00', '6°C', '1,020毫巴', '每小时0公里', '4.50公里', '大部分晴天 (1,524米)', '本地:', '06:00、2019年12月29日周日', '协调世界时:', '22:00、2019年12月28日周六', '来源:', '周期文件', '趋势:', '无重要变化', '露点:', '4°C', '天气:', 'Mist', '原始:', 'ZUUU 282200Z 00000MPS 4500 BR FEW050 06/04 Q1020 NOSIG', '上午6:00', '6.0°C', '1,020毫巴', '每小时0公里', '4.50公里', '大部分晴天 (1,524米)', '本地:', '06:00、2019年12月29日周日', '协调世界时:', '22:00、2019年12月28日周六', '来源:', 'USAF 每小时地面观测', '报告类型:', 'METAR 航空例行天气报告', '露点:', '4.0°C', '天气:', 'Mist', '上午7:00', '6°C', '1,020毫巴', '每小时0公里', '4.50公里', '部分多云 (1,524米)', '本地:', '07:00、2019年12月29日周日', '协调世界时:', '23:00、2019年12月28日周六', '来源:', '周期文件', '趋势:', '无重要变化', '露点:', '4°C', '天气:', 'Mist', '原始:', 'ZUUU 282300Z 00000MPS 4500 BR SCT050 06/04 Q1020 NOSIG', '上午7:00', '6.0°C', '1,020毫巴', '每小时0公里', '4.50公里', '部分多云 (1,524米)', '本地:', '07:00、2019年12月29日周日', '协调世界时:', '23:00、2019年12月28日周六', '来源:', 'USAF 每小时地面观测', '报告类型:', 'METAR 航空例行天气报告', '露点:', '4.0°C', '天气:', 'Mist', '上午8:00', '6°C', '1,021毫巴', '每小时0公里', '3.50公里', '部分多云 (1,219米)', '本地:', '08:00、2019年12月29日周日', '协调世界时:', '00:00、2019年12月29日周日', '来源:', '周期文件', '趋势:', '无重要变化', '露点:', '4°C', '天气:', 'Mist', '原始:', 'ZUUU 290000Z 00000MPS 3500 BR SCT040 06/04 Q1021 NOSIG', '上午8:00', '6.0°C', '1,021毫巴', '每小时0公里', '3.50公里', '部分多云 (1,219米)', '本地:', '08:00、2019年12月29日周日', '协调世界时:', '00:00、2019年12月29日周日', '来源:', 'USAF 每小时地面观测', '报告类型:', 'METAR 航空例行天气报告', '露点:', '4.0°C', '天气:', 'Mist', '上午9:00', '7°C', '1,021毫巴', '每小时3.60公里', '3.50公里', '部分多云 (1,219米)', '本地:', '09:00、2019年12月29日周日', '协调世界时:', '01:00、2019年12月29日周日', '来源:', '周期文件', '趋势:', '无重要变化', '露点:', '4°C', '天气:', 'Mist', '原始:', 'ZUUU 290100Z VRB01MPS 3500 BR SCT040 07/04 Q1021 NOSIG', '上午9:00', '7.0°C', '1,021毫巴', '每小时3.60公里', '3.50公里', '部分多云 (1,219米)', '本地:', '09:00、2019年12月29日周日', '协调世界时:', '01:00、2019年12月29日周日', '来源:', 'USAF 每小时地面观测', '报告类型:', 'METAR 航空例行天气报告', '露点:', '4.0°C', '天气:', 'Mist', '上午10:00', '8°C', '1,022毫巴', '每小时7.20公里', '3.50公里', '部分多云 (1,219米)', '本地:', '10:00、2019年12月29日周日', '协调世界时:', '02:00、2019年12月29日周日', '来源:', '周期文件', '趋势:', '无重要变化', '露点:', '4°C', '天气:', 'Mist', '原始:', 'ZUUU 290200Z VRB02MPS 3500 BR SCT040 08/04 Q1022 NOSIG', '上午10:00', '8.0°C', '1,022毫巴', '每小时7.20公里', '3.50公里', '部分多云 (1,219米)', '本地:', '10:00、2019年12月29日周日', '协调世界时:', '02:00、2019年12月29日周日', '来源:', 'USAF 每小时地面观测', '报告类型:', 'METAR 航空例行天气报告', '露点:', '4.0°C', '天气:', 'Mist', '上午11:00', '8°C', '1,022毫巴', '每小时3.60公里', '3.50公里', '部分多云 (1,219米)', '本地:', '11:00、2019年12月29日周日', '协调世界时:', '03:00、2019年12月29日周日', '来源:', '周期文件', '趋势:', '无重要变化', '露点:', '5°C', '天气:', 'Mist', '原始:', 'ZUUU 290300Z VRB01MPS 3500 BR SCT040 08/05 Q1022 NOSIG', '上午11:00', '8.0°C', '1,022毫巴', '每小时3.60公里', '3.50公里', '部分多云 (1,219米)', '本地:', '11:00、2019年12月29日周日', '协调世界时:', '03:00、2019年12月29日周日', '来源:', 'USAF 每小时地面观测', '报告类型:', 'METAR 航空例行天气报告', '露点:', '5.0°C', '天气:', 'Mist', '下午12:00', '9°C', '1,021毫巴', '每小时3.60公里', '3.50公里', '部分多云 (1,524米)', '本地:', '12:00、2019年12月29日周日', '协调世界时:', '04:00、2019年12月29日周日', '来源:', '周期文件', '趋势:', '无重要变化', '露点:', '4°C', '天气:', 'Mist', '原始:', 'ZUUU 290400Z VRB01MPS 3500 BR SCT050 09/04 Q1021 NOSIG', '下午12:00', '9.0°C', '1,021毫巴', '每小时3.60公里', '3.50公里', '部分多云 (1,524米)', '本地:', '12:00、2019年12月29日周日', '协调世界时:', '04:00、2019年12月29日周日', '来源:', 'USAF 每小时地面观测', '报告类型:', 'METAR 航空例行天气报告', '露点:', '4.0°C', '天气:', 'Mist', '下午1:00', '9°C', '1,020毫巴', '每小时7.20公里, 西南', '4.00公里', '大部分晴天 (1,524米)', '本地:', '13:00、2019年12月29日周日', '协调世界时:', '05:00、2019年12月29日周日', '来源:', '周期文件', '趋势:', '无重要变化', '露点:', '4°C', '天气:', 'Mist', '原始:', 'ZUUU 290500Z 23002MPS 160V270 4000 BR FEW050 09/04 Q1020 NOSIG', '下午1:00', '9.0°C', '1,020毫巴', '每小时7.20公里, 西南', '4.00公里', '大部分晴天 (1,524米)', '本地:', '13:00、2019年12月29日周日', '协调世界时:', '05:00、2019年12月29日周日', '来源:', 'USAF 每小时地面观测', '报告类型:', 'METAR 航空例行天气报告', '露点:', '4.0°C', '天气:', 'Mist', '下午2:00', '10°C', '1,019毫巴', '每小时0公里', '4.00公里', '大部分晴天 (610米)', '本地:', '14:00、2019年12月29日周日', '协调世界时:', '06:00、2019年12月29日周日', '来源:', '周期文件', '趋势:', '无重要变化', '露点:', '4°C', '天气:', 'Haze', '原始:', 'ZUUU 290600Z 00000MPS 4000 HZ FEW020 10/04 Q1019 NOSIG', '下午2:00', '10.0°C', '1,019毫巴', '每小时0公里', '4.00公里', '大部分晴天 (610米)', '本地:', '14:00、2019年12月29日周日', '协调世界时:', '06:00、2019年12月29日周日', '来源:', 'USAF 每小时地面观测', '报告类型:', 'METAR 航空例行天气报告', '露点:', '4.0°C', '天气:', 'Haze', '下午3:00', '10°C', '1,018毫巴', '每小时7.20公里, 东', '4.00公里', '大部分晴天 (1,524米)', '本地:', '15:00、2019年12月29日周日', '协调世界时:', '07:00、2019年12月29日周日', '来源:', '周期文件', '趋势:', '无重要变化', '露点:', '3°C', '天气:', 'Haze', '原始:', 'ZUUU 290700Z 10002MPS 040V150 4000 HZ FEW050 10/03 Q1018 NOSIG', '下午3:00', '10.0°C', '1,018毫巴', '每小时7.20公里, 东', '4.00公里', '大部分晴天 (1,524米)', '本地:', '15:00、2019年12月29日周日', '协调世界时:', '07:00、2019年12月29日周日', '来源:', 'USAF 每小时地面观测', '报告类型:', 'METAR 航空例行天气报告', '露点:', '3.0°C', '天气:', 'Haze', '下午4:00', '10°C', '1,018毫巴', '每小时3.60公里', '4.00公里', '大部分晴天 (1,219米)', '本地:', '16:00、2019年12月29日周日', '协调世界时:', '08:00、2019年12月29日周日', '来源:', '周期文件', '趋势:', '无重要变化', '露点:', '4°C', '天气:', 'Haze', '原始:', 'ZUUU 290800Z VRB01MPS 4000 HZ FEW040 10/04 Q1018 NOSIG', '下午4:00', '10.0°C', '1,018毫巴', '每小时3.60公里', '4.00公里', '大部分晴天 (1,219米)', '本地:', '16:00、2019年12月29日周日', '协调世界时:', '08:00、2019年12月29日周日', '来源:', 'USAF 每小时地面观测', '报告类型:', 'METAR 航空例行天气报告', '露点:', '4.0°C', '天气:', 'Haze', '下午5:00', '10°C', '1,019毫巴', '每小时7.20公里, 北', '4.00公里', '部分多云 (1,006米)', '本地:', '17:00、2019年12月29日周日', '协调世界时:', '09:00、2019年12月29日周日', '来源:', '周期文件', '趋势:', '无重要变化', '露点:', '4°C', '天气:', 'Haze', '原始:', 'ZUUU 290900Z 02002MPS 360V060 4000 HZ SCT033 10/04 Q1019 NOSIG', '下午5:00', '10.0°C', '1,019毫巴', '每小时7.20公里, 北', '4.00公里', '部分多云 (1,006米)', '本地:', '17:00、2019年12月29日周日', '协调世界时:', '09:00、2019年12月29日周日', '来源:', 'USAF 每小时地面观测', '报告类型:', 'METAR 航空例行天气报告', '露点:', '4.0°C', '天气:', 'Haze', '下午6:00', '10°C', '1,019毫巴', '每小时10.8公里, 东北', '4.00公里', '部分多云 (1,006米)', '本地:', '18:00、2019年12月29日周日', '协调世界时:', '10:00、2019年12月29日周日', '来源:', '周期文件', '趋势:', '无重要变化', '露点:', '3°C', '天气:', 'Haze', '原始:', 'ZUUU 291000Z 05003MPS 360V080 4000 HZ SCT033 10/03 Q1019 NOSIG', '下午6:00', '10.0°C', '1,019毫巴', '每小时10.8公里, 东北', '4.00公里', '部分多云 (1,006米)', '本地:', '18:00、2019年12月29日周日', '协调世界时:', '10:00、2019年12月29日周日', '来源:', 'USAF 每小时地面观测', '报告类型:', 'METAR 航空例行天气报告', '露点:', '3.0°C', '天气:', 'Haze', '下午7:00', '10°C', '1,020毫巴', '每小时10.8公里, 东北', '4.00公里', '部分多云 (1,006米)', '本地:', '19:00、2019年12月29日周日', '协调世界时:', '11:00、2019年12月29日周日', '来源:', '周期文件', '趋势:', '无重要变化', '露点:', '3°C', '天气:', 'Haze', '原始:', 'ZUUU 291100Z 06003MPS 4000 HZ SCT033 10/03 Q1020 NOSIG', '下午7:00', '10.0°C', '1,020毫巴', '每小时10.8公里, 东北', '4.00公里', '部分多云 (1,006米)', '本地:', '19:00、2019年12月29日周日', '协调世界时:', '11:00、2019年12月29日周日', '来源:', 'USAF 每小时地面观测', '报告类型:', 'METAR 航空例行天气报告', '露点:', '3.0°C', '天气:', 'Haze', '下午8:00', '10°C', '1,022毫巴', '每小时14.4公里, 东', '4.00公里', '部分多云 (1,006米)', '本地:', '20:00、2019年12月29日周日', '协调世界时:', '12:00、2019年12月29日周日', '来源:', '周期文件', '趋势:', '无重要变化', '露点:', '4°C', '天气:', 'Haze', '原始:', 'ZUUU 291200Z 10004MPS 050V140 4000 HZ SCT033 10/04 Q1022 NOSIG', '下午8:00', '10.0°C', '1,022毫巴', '每小时14.4公里, 东', '4.00公里', '部分多云 (1,006米)', '本地:', '20:00、2019年12月29日周日', '协调世界时:', '12:00、2019年12月29日周日', '来源:', 'USAF 每小时地面观测', '报告类型:', 'METAR 航空例行天气报告', '露点:', '4.0°C', '天气:', 'Haze', '下午9:00', '9°C', '1,023毫巴', '每小时7.20公里, 东', '4.00公里', '部分多云 (1,006米)', '本地:', '21:00、2019年12月29日周日', '协调世界时:', '13:00、2019年12月29日周日', '来源:', '周期文件', '趋势:', '无重要变化', '露点:', '4°C', '天气:', 'Haze', '原始:', 'ZUUU 291300Z 09002MPS 040V130 4000 HZ SCT033 09/04 Q1023 NOSIG', '下午9:00', '9.0°C', '1,023毫巴', '每小时7.20公里, 东', '4.00公里', '部分多云 (1,006米)', '本地:', '21:00、2019年12月29日周日', '协调世界时:', '13:00、2019年12月29日周日', '来源:', 'USAF 每小时地面观测', '报告类型:', 'METAR 航空例行天气报告', '露点:', '4.0°C', '天气:', 'Haze', '下午10:00', '9°C', '1,023毫巴', '每小时10.8公里, 东北', '4.00公里', '无重要云', '本地:', '22:00、2019年12月29日周日', '协调世界时:', '14:00、2019年12月29日周日', '来源:', '周期文件', '趋势:', '无重要变化', '露点:', '4°C', '天气:', 'Haze', '原始:', 'ZUUU 291400Z 06003MPS 4000 HZ NSC 09/04 Q1023 NOSIG', '下午10:00', '9.0°C', '1,023毫巴', '每小时10.8公里, 东北', '4.00公里', '未检测到云', '本地:', '22:00、2019年12月29日周日', '协调世界时:', '14:00、2019年12月29日周日', '来源:', 'USAF 每小时地面观测', '报告类型:', 'METAR 航空例行天气报告', '露点:', '4.0°C', '天气:', 'Haze', '下午11:00', '9°C', '1,024毫巴', '每小时10.8公里, 东北', '4.00公里', '无重要云', '本地:', '23:00、2019年12月29日周日', '协调世界时:', '15:00、2019年12月29日周日', '来源:', '周期文件', '趋势:', '无重要变化', '露点:', '4°C', '天气:', 'Haze', '原始:', 'ZUUU 291500Z 06003MPS 030V100 4000 HZ NSC 09/04 Q1024 NOSIG', '下午11:00', '9.0°C', '1,024毫巴', '每小时10.8公里, 东北', '4.00公里', '未检测到云', '本地:', '23:00、2019年12月29日周日', '协调世界时:', '15:00、2019年12月29日周日', '来源:', 'USAF 每小时地面观测', '报告类型:', 'METAR 航空例行天气报告', '露点:', '4.0°C', '天气:', 'Haze']