['Thunderstorm with Rain、Recent Showers of Rain、Showers of Light Rain', 'TSRA、RESHRA、-SHRA、IWC80', 'Thunderstorm with Light Rain、Thunderstorm with Rain、Recent Showers of Rain、Showers of Light Rain', '-TSRA、IWC95、RESHRA、-SHRA', 'Thunderstorm with Light Rain、Thunderstorm with Rain、Showers of Light Rain', '-TSRA、IWC95、-SHRA', 'Showers of Light Rain', '-SHRA、IWC80', 'Showers of Light Rain', '-SHRA、IWC80', '上午12:00', '26°C', '1,006毫巴', '每小时3.60公里, 西北', '≥ 10.00公里', '晴空万里', '本地:', '00:00、2019年8月2日周五', '协调世界时:', '16:00、2019年8月1日周四', '来源:', '周期文件', '趋势:', '无重要变化', '露点:', '23°C', '晴空万里:', '真', '原始:', 'ZUUU 011600Z 31001MPS CAVOK 26/23 Q1006 NOSIG', '上午12:00', '26.0°C', '1,006毫巴', '每小时3.60公里, 西北', '9.90公里', '晴空万里', '本地:', '00:00、2019年8月2日周五', '协调世界时:', '16:00、2019年8月1日周四', '来源:', 'USAF 每小时地面观测', '报告类型:', 'METAR 航空例行天气报告', '露点:', '23.0°C', '晴空万里:', '真', '上午1:00', '26°C', '1,006毫巴', '每小时3.60公里', '≥ 10.00公里', '晴空万里', '本地:', '01:00、2019年8月2日周五', '协调世界时:', '17:00、2019年8月1日周四', '来源:', '周期文件', '趋势:', '无重要变化', '露点:', '22°C', '晴空万里:', '真', '原始:', 'ZUUU 011700Z VRB01MPS CAVOK 26/22 Q1006 NOSIG', '上午1:00', '26.0°C', '1,006毫巴', '每小时3.60公里', '9.90公里', '晴空万里', '本地:', '01:00、2019年8月2日周五', '协调世界时:', '17:00、2019年8月1日周四', '来源:', 'USAF 每小时地面观测', '报告类型:', 'METAR 航空例行天气报告', '露点:', '22.0°C', '晴空万里:', '真', '上午2:00', '26°C', '1,005毫巴', '每小时0公里', '≥ 10.00公里', '晴空万里', '本地:', '02:00、2019年8月2日周五', '协调世界时:', '18:00、2019年8月1日周四', '来源:', '周期文件', '趋势:', '无重要变化', '露点:', '22°C', '晴空万里:', '真', '原始:', 'ZUUU 011800Z 00000MPS CAVOK 26/22 Q1005 NOSIG', '上午2:00', '26.0°C', '1,005毫巴', '每小时0公里', '9.90公里', '晴空万里', '本地:', '02:00、2019年8月2日周五', '协调世界时:', '18:00、2019年8月1日周四', '来源:', 'USAF 每小时地面观测', '报告类型:', 'METAR 航空例行天气报告', '露点:', '22.0°C', '晴空万里:', '真', '上午3:00', '25°C', '1,005毫巴', '每小时3.60公里', '≥ 10.00公里', '晴空万里', '本地:', '03:00、2019年8月2日周五', '协调世界时:', '19:00、2019年8月1日周四', '来源:', '周期文件', '趋势:', '无重要变化', '露点:', '22°C', '晴空万里:', '真', '原始:', 'ZUUU 011900Z VRB01MPS CAVOK 25/22 Q1005 NOSIG', '上午3:00', '25.0°C', '1,005毫巴', '每小时3.60公里', '9.90公里', '晴空万里', '本地:', '03:00、2019年8月2日周五', '协调世界时:', '19:00、2019年8月1日周四', '来源:', 'USAF 每小时地面观测', '报告类型:', 'METAR 航空例行天气报告', '露点:', '22.0°C', '晴空万里:', '真', '上午4:00', '24°C', '1,005毫巴', '每小时7.20公里, 西南', '≥ 10.00公里', '晴空万里', '本地:', '04:00、2019年8月2日周五', '协调世界时:', '20:00、2019年8月1日周四', '来源:', '周期文件', '趋势:', '无重要变化', '露点:', '22°C', '晴空万里:', '真', '原始:', 'ZUUU 012000Z 24002MPS 210V270 CAVOK 24/22 Q1005 NOSIG', '上午4:00', '24.0°C', '1,005毫巴', '每小时7.20公里, 西南', '9.90公里', '晴空万里', '本地:', '04:00、2019年8月2日周五', '协调世界时:', '20:00、2019年8月1日周四', '来源:', 'USAF 每小时地面观测', '报告类型:', 'METAR 航空例行天气报告', '露点:', '22.0°C', '晴空万里:', '真', '上午5:00', '25°C', '1,005毫巴', '每小时3.60公里', '8.00公里', '无重要云', '本地:', '05:00、2019年8月2日周五', '协调世界时:', '21:00、2019年8月1日周四', '来源:', '周期文件', '趋势:', '无重要变化', '露点:', '22°C', '原始:', 'ZUUU 012100Z VRB01MPS 8000 NSC 25/22 Q1005 NOSIG', '上午5:00', '25.0°C', '1,005毫巴', '每小时3.60公里', '8.00公里', '未检测到云', '本地:', '05:00、2019年8月2日周五', '协调世界时:', '21:00、2019年8月1日周四', '来源:', 'USAF 每小时地面观测', '报告类型:', 'METAR 航空例行天气报告', '露点:', '22.0°C', '上午6:00', '25°C', '1,004毫巴', '每小时0公里', '7.00公里', '无重要云', '本地:', '06:00、2019年8月2日周五', '协调世界时:', '22:00、2019年8月1日周四', '来源:', '周期文件', '趋势:', '无重要变化', '露点:', '22°C', '原始:', 'ZUUU 012200Z 00000MPS 7000 NSC 25/22 Q1004 NOSIG', '上午6:00', '25.0°C', '1,004毫巴', '每小时0公里', '7.00公里', '未检测到云', '本地:', '06:00、2019年8月2日周五', '协调世界时:', '22:00、2019年8月1日周四', '来源:', 'USAF 每小时地面观测', '报告类型:', 'METAR 航空例行天气报告', '露点:', '22.0°C', '上午7:00', '25°C', '1,005毫巴', '每小时7.20公里, 西', '6.00公里', '大部分晴天 (792米)', '本地:', '07:00、2019年8月2日周五', '协调世界时:', '23:00、2019年8月1日周四', '来源:', '周期文件', '趋势:', '无重要变化', '露点:', '22°C', '原始:', 'ZUUU 012300Z 27002MPS 240V310 6000 FEW026 25/22 Q1005 NOSIG', '上午7:00', '25.0°C', '1,005毫巴', '每小时7.20公里, 西', '6.00公里', '大部分晴天 (792米)', '本地:', '07:00、2019年8月2日周五', '协调世界时:', '23:00、2019年8月1日周四', '来源:', 'USAF 每小时地面观测', '报告类型:', 'METAR 航空例行天气报告', '露点:', '22.0°C', '上午8:00', '26°C', '1,005毫巴', '每小时0公里', '6.00公里', '大部分晴天 (792米)', '本地:', '08:00、2019年8月2日周五', '协调世界时:', '00:00、2019年8月2日周五', '来源:', '周期文件', '趋势:', '无重要变化', '露点:', '22°C', '原始:', 'ZUUU 020000Z 00000MPS 6000 FEW026 FEW026TCU 26/22 Q1005 NOSIG', '上午8:00', '26.0°C', '1,005毫巴', '每小时0公里', '6.00公里', '大部分晴天 (792米)', '本地:', '08:00、2019年8月2日周五', '协调世界时:', '00:00、2019年8月2日周五', '来源:', 'USAF 每小时地面观测', '报告类型:', 'METAR 航空例行天气报告', '露点:', '22.0°C', '上午9:00', '28°C', '1,005毫巴', '每小时3.60公里', '8.00公里', '大部分晴天 (792米)', '本地:', '09:00、2019年8月2日周五', '协调世界时:', '01:00、2019年8月2日周五', '来源:', '周期文件', '趋势:', '无重要变化', '露点:', '23°C', '原始:', 'ZUUU 020100Z VRB01MPS 8000 FEW026 FEW026TCU 28/23 Q1005 NOSIG', '上午9:00', '28.0°C', '1,005毫巴', '每小时3.60公里', '8.00公里', '大部分晴天 (792米)', '本地:', '09:00、2019年8月2日周五', '协调世界时:', '01:00、2019年8月2日周五', '来源:', 'USAF 每小时地面观测', '报告类型:', 'METAR 航空例行天气报告', '露点:', '23.0°C', '上午10:00', '28°C', '1,005毫巴', '每小时3.60公里', '7.00公里', '大部分晴天 (914米)', '本地:', '10:00、2019年8月2日周五', '协调世界时:', '02:00、2019年8月2日周五', '来源:', '周期文件', '趋势:', '无重要变化', '露点:', '23°C', '原始:', 'ZUUU 020200Z VRB01MPS 7000 FEW030TCU FEW030 28/23 Q1005 NOSIG', '上午10:00', '28.0°C', '1,005毫巴', '每小时3.60公里', '7.00公里', '大部分晴天 (914米)', '本地:', '10:00、2019年8月2日周五', '协调世界时:', '02:00、2019年8月2日周五', '来源:', 'USAF 每小时地面观测', '报告类型:', 'METAR 航空例行天气报告', '露点:', '23.0°C', '上午11:00', '30°C', '1,005毫巴', '每小时3.60公里', '7.00公里', '大部分晴天 (914米)', '本地:', '11:00、2019年8月2日周五', '协调世界时:', '03:00、2019年8月2日周五', '来源:', '周期文件', '趋势:', '无重要变化', '露点:', '24°C', '原始:', 'ZUUU 020300Z VRB01MPS 7000 FEW030 FEW030TCU 30/24 Q1005 NOSIG', '上午11:00', '30.0°C', '1,005毫巴', '每小时3.60公里', '7.00公里', '大部分晴天 (914米)', '本地:', '11:00、2019年8月2日周五', '协调世界时:', '03:00、2019年8月2日周五', '来源:', 'USAF 每小时地面观测', '报告类型:', 'METAR 航空例行天气报告', '露点:', '24.0°C', '下午12:00', '27°C', '1,004毫巴', '每小时0公里', '7.00公里', '部分多云 (701米)', '本地:', '12:00、2019年8月2日周五', '协调世界时:', '04:00、2019年8月2日周五', '来源:', '周期文件', '趋势:', '变化为', '露点:', '24°C', '其他云层:', '大部分晴天 (305米)', '天气:', 'Showers of Light Rain、Recent Showers of Rain、Thunderstorm with Rain', '原始:', 'ZUUU 020400Z 00000MPS 7000 -SHRA FEW010 SCT023 SCT023CB 27/24 Q1004 RESHRA BECMG TL0500 20005MPS TSRA', '下午12:00', '27.0°C', '1,004毫巴', '每小时0公里', '7.00公里', '部分多云 (701米)', '本地:', '12:00、2019年8月2日周五', '协调世界时:', '04:00、2019年8月2日周五', '来源:', 'USAF 每小时地面观测', '报告类型:', 'METAR 航空例行天气报告', '露点:', '24.0°C', '其他云层:', '大部分晴天 (305米)', '天气:', 'Showers of Light Rain', '下午1:00', '23°C', '1,005毫巴', '每小时7.20公里, 东', '10.00公里', '部分多云 (213米)', '本地:', '13:00、2019年8月2日周五', '协调世界时:', '05:00、2019年8月2日周五', '来源:', '周期文件', '趋势:', '变化为', '露点:', '22°C', '其他云层:', '部分多云 (701米)', '天气:', 'Thunderstorm with Light Rain、Recent Showers of Rain、Showers of Light Rain', '原始:', 'ZUUU 020500Z 11002MPS 040V150 9999 -TSRA SCT007 SCT023 SCT023CB 23/22 Q1005 RESHRA BECMG TL0630 -SHRA', '下午1:00', '23.0°C', '1,005毫巴', '每小时7.20公里, 东', '10.00公里', '部分多云 (213米)', '本地:', '13:00、2019年8月2日周五', '协调世界时:', '05:00、2019年8月2日周五', '来源:', 'USAF 每小时地面观测', '报告类型:', 'METAR 航空例行天气报告', '露点:', '22.0°C', '其他云层:', '部分多云 (701米)', '天气:', 'Thunderstorm with Rain', '下午2:00', '24°C', '1,004毫巴', '每小时14.4公里, 东北', '10.00公里', '部分多云 (914米)', '本地:', '14:00、2019年8月2日周五', '协调世界时:', '06:00、2019年8月2日周五', '来源:', '周期文件', '趋势:', '变化为', '露点:', '22°C', '其他云层:', '大部分晴天 (305米)、大部分晴天 (914米)', '天气:', 'Thunderstorm with Light Rain、Showers of Light Rain', '原始:', 'ZUUU 020600Z 03004MPS 9999 -TSRA FEW010 FEW030CB SCT030 24/22 Q1004 BECMG TL0630 -SHRA', '下午2:00', '24.0°C', '1,004毫巴', '每小时14.4公里, 东北', '10.00公里', '部分多云 (914米)', '本地:', '14:00、2019年8月2日周五', '协调世界时:', '06:00、2019年8月2日周五', '来源:', 'USAF 每小时地面观测', '报告类型:', 'METAR 航空例行天气报告', '露点:', '22.0°C', '其他云层:', '大部分晴天 (305米)、大部分晴天 (914米)', '天气:', 'Thunderstorm with Rain', '下午3:00', '25°C', '1,004毫巴', '每小时10.8公里, 北', '10.00公里', '部分多云 (1,219米)', '本地:', '15:00、2019年8月2日周五', '协调世界时:', '07:00、2019年8月2日周五', '来源:', '周期文件', '趋势:', '无重要变化', '露点:', '23°C', '其他云层:', '大部分晴天 (701米)、大部分晴天 (914米)', '天气:', 'Showers of Light Rain', '原始:', 'ZUUU 020700Z 01003MPS 330V060 9999 -SHRA FEW023 FEW030CB SCT040 25/23 Q1004 NOSIG', '下午3:00', '25.0°C', '1,004毫巴', '每小时10.8公里, 北', '10.00公里', '部分多云 (1,219米)', '本地:', '15:00、2019年8月2日周五', '协调世界时:', '07:00、2019年8月2日周五', '来源:', 'USAF 每小时地面观测', '报告类型:', 'METAR 航空例行天气报告', '露点:', '23.0°C', '其他云层:', '大部分晴天 (701米)、大部分晴天 (914米)', '天气:', 'Showers of Light Rain', '下午4:00', '26°C', '1,003毫巴', '每小时14.4公里, 东北', '10.00公里', '部分多云 (1,524米)', '本地:', '16:00、2019年8月2日周五', '协调世界时:', '08:00、2019年8月2日周五', '来源:', '周期文件', '趋势:', '无重要变化', '露点:', '23°C', '其他云层:', '大部分晴天 (701米)', '原始:', 'ZUUU 020800Z 04004MPS 010V070 9999 FEW023 SCT050 26/23 Q1003 NOSIG', '下午4:00', '26.0°C', '1,003毫巴', '每小时14.4公里, 东北', '10.00公里', '部分多云 (1,524米)', '本地:', '16:00、2019年8月2日周五', '协调世界时:', '08:00、2019年8月2日周五', '来源:', 'USAF 每小时地面观测', '报告类型:', 'METAR 航空例行天气报告', '露点:', '23.0°C', '其他云层:', '大部分晴天 (701米)', '下午5:00', '26°C', '1,003毫巴', '每小时18.0公里, 北', '10.00公里', '部分多云 (1,524米)', '本地:', '17:00、2019年8月2日周五', '协调世界时:', '09:00、2019年8月2日周五', '来源:', '周期文件', '趋势:', '无重要变化', '露点:', '22°C', '其他云层:', '大部分晴天 (701米)', '原始:', 'ZUUU 020900Z 01005MPS 340V050 9999 FEW023TCU FEW023 SCT050 26/22 Q1003 NOSIG', '下午5:00', '26.0°C', '1,003毫巴', '每小时18.0公里, 北', '10.00公里', '部分多云 (1,524米)', '本地:', '17:00、2019年8月2日周五', '协调世界时:', '09:00、2019年8月2日周五', '来源:', 'USAF 每小时地面观测', '报告类型:', 'METAR 航空例行天气报告', '露点:', '22.0°C', '其他云层:', '大部分晴天 (701米)', '下午6:00', '25°C', '1,003毫巴', '每小时14.4公里, 北', '10.00公里', '部分多云 (1,524米)', '本地:', '18:00、2019年8月2日周五', '协调世界时:', '10:00、2019年8月2日周五', '来源:', '周期文件', '趋势:', '无重要变化', '露点:', '22°C', '其他云层:', '大部分晴天 (305米)', '原始:', 'ZUUU 021000Z 01004MPS 330V040 9999 FEW010 SCT050 25/22 Q1003 NOSIG', '下午6:00', '25.0°C', '1,003毫巴', '每小时14.4公里, 北', '10.00公里', '部分多云 (1,524米)', '本地:', '18:00、2019年8月2日周五', '协调世界时:', '10:00、2019年8月2日周五', '来源:', 'USAF 每小时地面观测', '报告类型:', 'METAR 航空例行天气报告', '露点:', '22.0°C', '其他云层:', '大部分晴天 (305米)', '下午7:00', '25°C', '1,003毫巴', '每小时14.4公里, 北', '10.00公里', '部分多云 (1,524米)', '本地:', '19:00、2019年8月2日周五', '协调世界时:', '11:00、2019年8月2日周五', '来源:', '周期文件', '趋势:', '无重要变化', '露点:', '22°C', '其他云层:', '大部分晴天 (305米)', '原始:', 'ZUUU 021100Z 01004MPS 340V040 9999 FEW010 SCT050 25/22 Q1003 NOSIG', '下午7:00', '25.0°C', '1,003毫巴', '每小时14.4公里, 北', '10.00公里', '部分多云 (1,524米)', '本地:', '19:00、2019年8月2日周五', '协调世界时:', '11:00、2019年8月2日周五', '来源:', 'USAF 每小时地面观测', '报告类型:', 'METAR 航空例行天气报告', '露点:', '22.0°C', '其他云层:', '大部分晴天 (305米)', '下午8:00', '25°C', '1,004毫巴', '每小时7.20公里, 北', '10.00公里', '部分多云 (1,524米)', '本地:', '20:00、2019年8月2日周五', '协调世界时:', '12:00、2019年8月2日周五', '来源:', '周期文件', '趋势:', '无重要变化', '露点:', '22°C', '原始:', 'ZUUU 021200Z 01002MPS 330V040 9999 SCT050 25/22 Q1004 NOSIG', '下午8:00', '25.0°C', '1,004毫巴', '每小时7.20公里, 北', '10.00公里', '部分多云 (1,524米)', '本地:', '20:00、2019年8月2日周五', '协调世界时:', '12:00、2019年8月2日周五', '来源:', 'USAF 每小时地面观测', '报告类型:', 'METAR 航空例行天气报告', '露点:', '22.0°C', '下午9:00', '25°C', '1,004毫巴', '每小时7.20公里, 北', '10.00公里', '大部分晴天 (1,219米)', '本地:', '21:00、2019年8月2日周五', '协调世界时:', '13:00、2019年8月2日周五', '来源:', '周期文件', '趋势:', '无重要变化', '露点:', '22°C', '原始:', 'ZUUU 021300Z 01002MPS 340V050 9999 FEW040TCU FEW040 25/22 Q1004 NOSIG', '下午9:00', '25.0°C', '1,004毫巴', '每小时7.20公里, 北', '10.00公里', '大部分晴天 (1,219米)', '本地:', '21:00、2019年8月2日周五', '协调世界时:', '13:00、2019年8月2日周五', '来源:', 'USAF 每小时地面观测', '报告类型:', 'METAR 航空例行天气报告', '露点:', '22.0°C', '下午10:00', '24°C', '1,005毫巴', '每小时7.20公里, 北', '10.00公里', '部分多云 (1,219米)', '本地:', '22:00、2019年8月2日周五', '协调世界时:', '14:00、2019年8月2日周五', '来源:', '周期文件', '趋势:', '无重要变化', '露点:', '22°C', '其他云层:', '大部分晴天 (1,219米)', '天气:', 'Showers of Light Rain', '原始:', 'ZUUU 021400Z 36002MPS 320V040 9999 -SHRA FEW040TCU SCT040 24/22 Q1005 NOSIG', '下午10:00', '24.0°C', '1,005毫巴', '每小时7.20公里, 北', '10.00公里', '部分多云 (1,219米)', '本地:', '22:00、2019年8月2日周五', '协调世界时:', '14:00、2019年8月2日周五', '来源:', 'USAF 每小时地面观测', '报告类型:', 'METAR 航空例行天气报告', '露点:', '22.0°C', '其他云层:', '大部分晴天 (1,219米)', '天气:', 'Showers of Light Rain', '下午11:00', '25°C', '1,006毫巴', '每小时7.20公里, 北', '10.00公里', '部分多云 (1,524米)', '本地:', '23:00、2019年8月2日周五', '协调世界时:', '15:00、2019年8月2日周五', '来源:', '周期文件', '趋势:', '无重要变化', '露点:', '22°C', '原始:', 'ZUUU 021500Z 36002MPS 320V030 9999 SCT050 25/22 Q1006 NOSIG', '下午11:00', '25.0°C', '1,006毫巴', '每小时7.20公里, 北', '10.00公里', '部分多云 (1,524米)', '本地:', '23:00、2019年8月2日周五', '协调世界时:', '15:00、2019年8月2日周五', '来源:', 'USAF 每小时地面观测', '报告类型:', 'METAR 航空例行天气报告', '露点:', '22.0°C']