['Showers of Light Rain', '-SHRA、IWC80', 'Showers of Rain、Showers of Light Rain、Mist', 'SHRA、IWC81、-SHRA、BR、IWC10', 'Showers of Rain、Showers of Light Rain、Mist', 'SHRA、IWC81、-SHRA、BR、IWC10', 'Thunderstorm with Light Rain、Thunderstorm with Rain、Showers of Light Rain、Mist', '-TSRA、IWC95、-SHRA、BR、IWC10', 'Showers of Light Rain、Mist', '-SHRA、IWC80、BR、IWC10', 'Mist', 'BR、IWC10', '上午12:00', '23°C', '1,008毫巴', '每小时3.60公里', '≥ 10.00公里', '晴空万里', '本地:', '00:00、2019年7月9日周二', '协调世界时:', '16:00、2019年7月8日周一', '来源:', '周期文件', '趋势:', '无重要变化', '露点:', '20°C', '晴空万里:', '真', '原始:', 'ZUUU 081600Z VRB01MPS CAVOK 23/20 Q1008 NOSIG', '上午12:00', '23.0°C', '1,008毫巴', '每小时3.60公里', '9.90公里', '晴空万里', '本地:', '00:00、2019年7月9日周二', '协调世界时:', '16:00、2019年7月8日周一', '来源:', 'USAF 每小时地面观测', '报告类型:', 'METAR 航空例行天气报告', '露点:', '20.0°C', '晴空万里:', '真', '上午1:00', '23°C', '1,008毫巴', '每小时7.20公里, 南', '≥ 10.00公里', '晴空万里', '本地:', '01:00、2019年7月9日周二', '协调世界时:', '17:00、2019年7月8日周一', '来源:', '周期文件', '趋势:', '无重要变化', '露点:', '20°C', '晴空万里:', '真', '原始:', 'ZUUU 081700Z 19002MPS 120V230 CAVOK 23/20 Q1008 NOSIG', '上午1:00', '23.0°C', '1,008毫巴', '每小时7.20公里, 南', '9.90公里', '晴空万里', '本地:', '01:00、2019年7月9日周二', '协调世界时:', '17:00、2019年7月8日周一', '来源:', 'USAF 每小时地面观测', '报告类型:', 'METAR 航空例行天气报告', '露点:', '20.0°C', '晴空万里:', '真', '上午2:00', '23°C', '1,008毫巴', '每小时0公里', '≥ 10.00公里', '晴空万里', '本地:', '02:00、2019年7月9日周二', '协调世界时:', '18:00、2019年7月8日周一', '来源:', '周期文件', '趋势:', '无重要变化', '露点:', '20°C', '晴空万里:', '真', '原始:', 'ZUUU 081800Z 00000MPS CAVOK 23/20 Q1008 NOSIG', '上午2:00', '23.0°C', '1,008毫巴', '每小时0公里', '9.90公里', '晴空万里', '本地:', '02:00、2019年7月9日周二', '协调世界时:', '18:00、2019年7月8日周一', '来源:', 'USAF 每小时地面观测', '报告类型:', 'METAR 航空例行天气报告', '露点:', '20.0°C', '晴空万里:', '真', '上午3:00', '23°C', '1,007毫巴', '每小时3.60公里, 南', '≥ 10.00公里', '晴空万里', '本地:', '03:00、2019年7月9日周二', '协调世界时:', '19:00、2019年7月8日周一', '来源:', '周期文件', '趋势:', '无重要变化', '露点:', '20°C', '晴空万里:', '真', '原始:', 'ZUUU 081900Z 19001MPS CAVOK 23/20 Q1007 NOSIG', '上午3:00', '23.0°C', '1,007毫巴', '每小时3.60公里, 南', '9.90公里', '晴空万里', '本地:', '03:00、2019年7月9日周二', '协调世界时:', '19:00、2019年7月8日周一', '来源:', 'USAF 每小时地面观测', '报告类型:', 'METAR 航空例行天气报告', '露点:', '20.0°C', '晴空万里:', '真', '上午4:00', '22°C', '1,007毫巴', '每小时0公里', '≥ 10.00公里', '晴空万里', '本地:', '04:00、2019年7月9日周二', '协调世界时:', '20:00、2019年7月8日周一', '来源:', '周期文件', '趋势:', '无重要变化', '露点:', '20°C', '晴空万里:', '真', '原始:', 'ZUUU 082000Z 00000MPS CAVOK 22/20 Q1007 NOSIG', '上午4:00', '22.0°C', '1,007毫巴', '每小时0公里', '9.90公里', '晴空万里', '本地:', '04:00、2019年7月9日周二', '协调世界时:', '20:00、2019年7月8日周一', '来源:', 'USAF 每小时地面观测', '报告类型:', 'METAR 航空例行天气报告', '露点:', '20.0°C', '晴空万里:', '真', '上午5:00', '22°C', '1,007毫巴', '每小时3.60公里', '8.00公里', '无重要云', '本地:', '05:00、2019年7月9日周二', '协调世界时:', '21:00、2019年7月8日周一', '来源:', '周期文件', '趋势:', '无重要变化', '露点:', '20°C', '原始:', 'ZUUU 082100Z VRB01MPS 8000 NSC 22/20 Q1007 NOSIG', '上午5:00', '22.0°C', '1,007毫巴', '每小时3.60公里', '8.00公里', '未检测到云', '本地:', '05:00、2019年7月9日周二', '协调世界时:', '21:00、2019年7月8日周一', '来源:', 'USAF 每小时地面观测', '报告类型:', 'METAR 航空例行天气报告', '露点:', '20.0°C', '上午6:00', '22°C', '1,007毫巴', '每小时3.60公里, 西南', '7.00公里', '无重要云', '本地:', '06:00、2019年7月9日周二', '协调世界时:', '22:00、2019年7月8日周一', '来源:', '周期文件', '趋势:', '无重要变化', '露点:', '20°C', '原始:', 'ZUUU 082200Z 22001MPS 7000 NSC 22/20 Q1007 NOSIG', '上午6:00', '22.0°C', '1,007毫巴', '每小时3.60公里, 西南', '7.00公里', '未检测到云', '本地:', '06:00、2019年7月9日周二', '协调世界时:', '22:00、2019年7月8日周一', '来源:', 'USAF 每小时地面观测', '报告类型:', 'METAR 航空例行天气报告', '露点:', '20.0°C', '上午7:00', '23°C', '1,008毫巴', '每小时3.60公里', '6.00公里', '无重要云', '本地:', '07:00、2019年7月9日周二', '协调世界时:', '23:00、2019年7月8日周一', '来源:', '周期文件', '趋势:', '无重要变化', '露点:', '20°C', '原始:', 'ZUUU 082300Z VRB01MPS 6000 NSC 23/20 Q1008 NOSIG', '上午7:00', '23.0°C', '1,008毫巴', '每小时3.60公里', '6.00公里', '未检测到云', '本地:', '07:00、2019年7月9日周二', '协调世界时:', '23:00、2019年7月8日周一', '来源:', 'USAF 每小时地面观测', '报告类型:', 'METAR 航空例行天气报告', '露点:', '20.0°C', '上午8:00', '24°C', '1,008毫巴', '每小时7.20公里, 东南', '6.00公里', '无重要云', '本地:', '08:00、2019年7月9日周二', '协调世界时:', '00:00、2019年7月9日周二', '来源:', '周期文件', '趋势:', '无重要变化', '露点:', '20°C', '原始:', 'ZUUU 090000Z 13002MPS 050V180 6000 NSC 24/20 Q1008 NOSIG', '上午8:00', '24.0°C', '1,008毫巴', '每小时7.20公里, 东南', '6.00公里', '未检测到云', '本地:', '08:00、2019年7月9日周二', '协调世界时:', '00:00、2019年7月9日周二', '来源:', 'USAF 每小时地面观测', '报告类型:', 'METAR 航空例行天气报告', '露点:', '20.0°C', '上午9:00', '25°C', '1,008毫巴', '每小时3.60公里', '≥ 10.00公里', '晴空万里', '本地:', '09:00、2019年7月9日周二', '协调世界时:', '01:00、2019年7月9日周二', '来源:', '周期文件', '趋势:', '无重要变化', '露点:', '20°C', '晴空万里:', '真', '原始:', 'ZUUU 090100Z VRB01MPS CAVOK 25/20 Q1008 NOSIG', '上午9:00', '25.0°C', '1,008毫巴', '每小时3.60公里', '9.90公里', '晴空万里', '本地:', '09:00、2019年7月9日周二', '协调世界时:', '01:00、2019年7月9日周二', '来源:', 'USAF 每小时地面观测', '报告类型:', 'METAR 航空例行天气报告', '露点:', '20.0°C', '晴空万里:', '真', '上午10:00', '26°C', '1,008毫巴', '每小时3.60公里', '10.00公里', '部分多云 (1,524米)', '本地:', '10:00、2019年7月9日周二', '协调世界时:', '02:00、2019年7月9日周二', '来源:', '周期文件', '趋势:', '无重要变化', '露点:', '20°C', '原始:', 'ZUUU 090200Z VRB01MPS 9999 SCT050 26/20 Q1008 NOSIG', '上午10:00', '26.0°C', '1,008毫巴', '每小时3.60公里', '10.00公里', '部分多云 (1,524米)', '本地:', '10:00、2019年7月9日周二', '协调世界时:', '02:00、2019年7月9日周二', '来源:', 'USAF 每小时地面观测', '报告类型:', 'METAR 航空例行天气报告', '露点:', '20.0°C', '上午11:00', '26°C', '1,008毫巴', '每小时7.20公里, 西南', '10.00公里', '部分多云 (792米)', '本地:', '11:00、2019年7月9日周二', '协调世界时:', '03:00、2019年7月9日周二', '来源:', '周期文件', '趋势:', '无重要变化', '露点:', '20°C', '原始:', 'ZUUU 090300Z 21002MPS 110V260 9999 SCT026 26/20 Q1008 NOSIG', '上午11:00', '26.0°C', '1,008毫巴', '每小时7.20公里, 西南', '10.00公里', '部分多云 (792米)', '本地:', '11:00、2019年7月9日周二', '协调世界时:', '03:00、2019年7月9日周二', '来源:', 'USAF 每小时地面观测', '报告类型:', 'METAR 航空例行天气报告', '露点:', '20.0°C', '下午12:00', '28°C', '1,008毫巴', '每小时7.20公里, 西南', '10.00公里', '部分多云 (792米)', '本地:', '12:00、2019年7月9日周二', '协调世界时:', '04:00、2019年7月9日周二', '来源:', '周期文件', '趋势:', '无重要变化', '露点:', '21°C', '其他云层:', '大部分晴天 (792米)', '原始:', 'ZUUU 090400Z 21002MPS 140V300 9999 FEW026TCU SCT026 28/21 Q1008 NOSIG', '下午12:00', '28.0°C', '1,008毫巴', '每小时7.20公里, 西南', '10.00公里', '部分多云 (792米)', '本地:', '12:00、2019年7月9日周二', '协调世界时:', '04:00、2019年7月9日周二', '来源:', 'USAF 每小时地面观测', '报告类型:', 'METAR 航空例行天气报告', '露点:', '21.0°C', '其他云层:', '大部分晴天 (792米)', '下午1:00', '30°C', '1,007毫巴', '每小时10.8公里, 南', '10.00公里', '部分多云 (792米)', '本地:', '13:00、2019年7月9日周二', '协调世界时:', '05:00、2019年7月9日周二', '来源:', '周期文件', '趋势:', '无重要变化', '露点:', '19°C', '其他云层:', '大部分晴天 (792米)', '原始:', 'ZUUU 090500Z 18003MPS 130V220 9999 FEW026TCU SCT026 30/19 Q1007 NOSIG', '下午1:00', '30.0°C', '1,007毫巴', '每小时10.8公里, 南', '10.00公里', '部分多云 (792米)', '本地:', '13:00、2019年7月9日周二', '协调世界时:', '05:00、2019年7月9日周二', '来源:', 'USAF 每小时地面观测', '报告类型:', 'METAR 航空例行天气报告', '露点:', '19.0°C', '其他云层:', '大部分晴天 (792米)', '下午2:00', '30°C', '1,006毫巴', '每小时14.4公里', '10.00公里', '部分多云 (792米)', '本地:', '14:00、2019年7月9日周二', '协调世界时:', '06:00、2019年7月9日周二', '来源:', '周期文件', '趋势:', '无重要变化', '露点:', '21°C', '其他云层:', '大部分晴天 (792米)', '原始:', 'ZUUU 090600Z VRB04MPS 9999 FEW026TCU SCT026 30/21 Q1006 NOSIG', '下午2:00', '30.0°C', '1,006毫巴', '每小时14.4公里', '10.00公里', '部分多云 (792米)', '本地:', '14:00、2019年7月9日周二', '协调世界时:', '06:00、2019年7月9日周二', '来源:', 'USAF 每小时地面观测', '报告类型:', 'METAR 航空例行天气报告', '露点:', '21.0°C', '其他云层:', '大部分晴天 (792米)', '下午3:00', '30°C', '1,005毫巴', '每小时14.4公里, 南', '10.00公里', '部分多云 (792米)', '本地:', '15:00、2019年7月9日周二', '协调世界时:', '07:00、2019年7月9日周二', '来源:', '周期文件', '趋势:', '无重要变化', '露点:', '20°C', '其他云层:', '大部分晴天 (792米)', '原始:', 'ZUUU 090700Z 17004MPS 100V220 9999 FEW026TCU SCT026 30/20 Q1005 NOSIG', '下午3:00', '30.0°C', '1,005毫巴', '每小时14.4公里, 南', '10.00公里', '部分多云 (792米)', '本地:', '15:00、2019年7月9日周二', '协调世界时:', '07:00、2019年7月9日周二', '来源:', 'USAF 每小时地面观测', '报告类型:', 'METAR 航空例行天气报告', '露点:', '20.0°C', '其他云层:', '大部分晴天 (792米)', '下午4:00', '31°C', '1,004毫巴', '每小时7.20公里', '10.00公里', '部分多云 (792米)', '本地:', '16:00、2019年7月9日周二', '协调世界时:', '08:00、2019年7月9日周二', '来源:', '周期文件', '趋势:', '无重要变化', '露点:', '21°C', '其他云层:', '大部分晴天 (792米)', '原始:', 'ZUUU 090800Z VRB02MPS 9999 FEW026 SCT026CB 31/21 Q1004 NOSIG', '下午4:00', '31.0°C', '1,004毫巴', '每小时7.20公里', '10.00公里', '部分多云 (792米)', '本地:', '16:00、2019年7月9日周二', '协调世界时:', '08:00、2019年7月9日周二', '来源:', 'USAF 每小时地面观测', '报告类型:', 'METAR 航空例行天气报告', '露点:', '21.0°C', '其他云层:', '大部分晴天 (792米)', '下午5:00', '28°C', '1,004毫巴', '每小时14.4公里, 北', '10.00公里', '部分多云 (792米)', '本地:', '17:00、2019年7月9日周二', '协调世界时:', '09:00、2019年7月9日周二', '来源:', '周期文件', '趋势:', '无重要变化', '露点:', '21°C', '原始:', 'ZUUU 090900Z 36004MPS 320V030 9999 SCT026CB SCT026 28/21 Q1004 NOSIG', '下午5:00', '28.0°C', '1,004毫巴', '每小时14.4公里, 北', '10.00公里', '部分多云 (792米)', '本地:', '17:00、2019年7月9日周二', '协调世界时:', '09:00、2019年7月9日周二', '来源:', 'USAF 每小时地面观测', '报告类型:', 'METAR 航空例行天气报告', '露点:', '21.0°C', '下午6:00', '24°C', '1,005毫巴', '每小时21.6公里, 北', '10.00公里', '大部分多云 (792米)', '本地:', '18:00、2019年7月9日周二', '协调世界时:', '10:00、2019年7月9日周二', '来源:', '周期文件', '趋势:', '无重要变化', '露点:', '22°C', '其他云层:', '部分多云 (792米)', '天气:', 'Showers of Light Rain', '原始:', 'ZUUU 091000Z 02006MPS 9999 -SHRA SCT026CB BKN026 24/22 Q1005 NOSIG', '下午6:00', '24.0°C', '1,005毫巴', '每小时21.6公里, 北', '10.00公里', '大部分多云 (792米)', '本地:', '18:00、2019年7月9日周二', '协调世界时:', '10:00、2019年7月9日周二', '来源:', 'USAF 每小时地面观测', '报告类型:', 'METAR 航空例行天气报告', '露点:', '22.0°C', '其他云层:', '部分多云 (792米)', '天气:', 'Showers of Light Rain', '下午7:00', '23°C', '1,005毫巴', '每小时7.20公里', '3.50公里', '大部分多云 (792米)', '本地:', '19:00、2019年7月9日周二', '协调世界时:', '11:00、2019年7月9日周二', '来源:', '周期文件', '趋势:', '变化为', '露点:', '21°C', '其他云层:', '大部分晴天 (274米)、部分多云 (792米)', '天气:', 'Showers of Rain、Mist、Showers of Light Rain', '原始:', 'ZUUU 091100Z VRB02MPS 3500 SHRA BR FEW009 SCT026CB BKN026 23/21 Q1005 BECMG TL1130 -SHRA', '下午7:00', '23.0°C', '1,005毫巴', '每小时7.20公里', '3.50公里', '大部分多云 (792米)', '本地:', '19:00、2019年7月9日周二', '协调世界时:', '11:00、2019年7月9日周二', '来源:', 'USAF 每小时地面观测', '报告类型:', 'METAR 航空例行天气报告', '露点:', '21.0°C', '其他云层:', '大部分晴天 (274米)、部分多云 (792米)', '天气:', 'Mist、Showers of Rain', '下午8:00', '22°C', '1,006毫巴', '每小时7.20公里, 北', '3.00公里', '大部分多云 (792米)', '本地:', '20:00、2019年7月9日周二', '协调世界时:', '12:00、2019年7月9日周二', '来源:', '周期文件', '趋势:', '变化为', '露点:', '20°C', '其他云层:', '大部分晴天 (274米)、部分多云 (792米)', '天气:', 'Showers of Rain、Mist、Showers of Light Rain', '原始:', 'ZUUU 091200Z 34002MPS 280V050 3000 SHRA BR FEW009 SCT026CB BKN026 22/20 Q1006 BECMG TL1230 -SHRA', '下午8:00', '22.0°C', '1,006毫巴', '每小时7.20公里, 北', '3.00公里', '大部分多云 (792米)', '本地:', '20:00、2019年7月9日周二', '协调世界时:', '12:00、2019年7月9日周二', '来源:', 'USAF 每小时地面观测', '报告类型:', 'METAR 航空例行天气报告', '露点:', '20.0°C', '其他云层:', '大部分晴天 (274米)、部分多云 (792米)', '天气:', 'Mist、Showers of Rain', '下午9:00', '22°C', '1,007毫巴', '每小时0公里', '4.00公里', '大部分多云 (792米)', '本地:', '21:00、2019年7月9日周二', '协调世界时:', '13:00、2019年7月9日周二', '来源:', '周期文件', '趋势:', '变化为', '露点:', '21°C', '其他云层:', '大部分晴天 (274米)、部分多云 (792米)', '天气:', 'Thunderstorm with Light Rain、Mist、Showers of Light Rain', '原始:', 'ZUUU 091300Z 00000MPS 4000 -TSRA BR FEW009 SCT026CB BKN026 22/21 Q1007 BECMG TL1330 -SHRA', '下午9:00', '22.0°C', '1,007毫巴', '每小时0公里', '4.00公里', '大部分多云 (792米)', '本地:', '21:00、2019年7月9日周二', '协调世界时:', '13:00、2019年7月9日周二', '来源:', 'USAF 每小时地面观测', '报告类型:', 'METAR 航空例行天气报告', '露点:', '21.0°C', '其他云层:', '大部分晴天 (274米)、部分多云 (792米)', '天气:', 'Mist、Thunderstorm with Rain', '下午10:00', '22°C', '1,007毫巴', '每小时3.60公里', '4.50公里', '部分多云 (1,219米)', '本地:', '22:00、2019年7月9日周二', '协调世界时:', '14:00、2019年7月9日周二', '来源:', '周期文件', '趋势:', '无重要变化', '露点:', '20°C', '其他云层:', '大部分晴天 (305米)、大部分晴天 (1,219米)', '天气:', 'Showers of Light Rain、Mist', '原始:', 'ZUUU 091400Z VRB01MPS 4500 -SHRA BR FEW010 FEW040CB SCT040 22/20 Q1007 NOSIG', '下午10:00', '22.0°C', '1,007毫巴', '每小时3.60公里', '4.50公里', '部分多云 (1,219米)', '本地:', '22:00、2019年7月9日周二', '协调世界时:', '14:00、2019年7月9日周二', '来源:', 'USAF 每小时地面观测', '报告类型:', 'METAR 航空例行天气报告', '露点:', '20.0°C', '其他云层:', '大部分晴天 (305米)、大部分晴天 (1,219米)', '天气:', 'Mist、Showers of Light Rain', '下午11:00', '22°C', '1,007毫巴', '每小时3.60公里', '5.00公里', '部分多云 (1,219米)', '本地:', '23:00、2019年7月9日周二', '协调世界时:', '15:00、2019年7月9日周二', '来源:', '周期文件', '趋势:', '无重要变化', '露点:', '21°C', '天气:', 'Mist', '原始:', 'ZUUU 091500Z VRB01MPS 5000 BR SCT040 22/21 Q1007 NOSIG', '下午11:00', '22.0°C', '1,007毫巴', '每小时3.60公里', '5.00公里', '部分多云 (1,219米)', '本地:', '23:00、2019年7月9日周二', '协调世界时:', '15:00、2019年7月9日周二', '来源:', 'USAF 每小时地面观测', '报告类型:', 'METAR 航空例行天气报告', '露点:', '21.0°C', '天气:', 'Mist']