['Showers of Light Rain', '-SHRA、IWC80', 'Showers of Light Rain', '-SHRA、IWC80', 'Showers of Light Rain', '-SHRA、IWC80', 'Showers of Light Rain', '-SHRA、IWC80', 'Showers of Light Rain', '-SHRA、IWC80', 'Showers of Light Rain', '-SHRA、IWC80', 'Showers of Light Rain', '-SHRA、IWC80', 'Mist', 'BR、IWC10', '上午12:00', '21°C', '1,007毫巴', '每小时7.20公里, 北', '8.00公里', '大部分多云 (1,006米)', '本地:', '00:00、2019年6月19日周三', '协调世界时:', '16:00、2019年6月18日周二', '来源:', '周期文件', '趋势:', '无重要变化', '露点:', '21°C', '其他云层:', '大部分晴天 (610米)', '天气:', 'Showers of Light Rain', '原始:', 'ZUUU 181600Z 36002MPS 330V040 8000 -SHRA FEW020 BKN033 21/21 Q1007 NOSIG', '上午12:00', '21.0°C', '1,007毫巴', '每小时7.20公里, 北', '8.00公里', '大部分多云 (1,006米)', '本地:', '00:00、2019年6月19日周三', '协调世界时:', '16:00、2019年6月18日周二', '来源:', 'USAF 每小时地面观测', '报告类型:', 'METAR 航空例行天气报告', '露点:', '21.0°C', '其他云层:', '大部分晴天 (610米)', '天气:', 'Showers of Light Rain', '上午1:00', '21°C', '1,007毫巴', '每小时7.20公里, 北', '8.00公里', '大部分多云 (1,006米)', '本地:', '01:00、2019年6月19日周三', '协调世界时:', '17:00、2019年6月18日周二', '来源:', '周期文件', '趋势:', '无重要变化', '露点:', '21°C', '其他云层:', '大部分晴天 (610米)', '天气:', 'Showers of Light Rain', '原始:', 'ZUUU 181700Z 35002MPS 320V020 8000 -SHRA FEW020 BKN033 21/21 Q1007 NOSIG', '上午1:00', '21.0°C', '1,007毫巴', '每小时7.20公里, 北', '8.00公里', '大部分多云 (1,006米)', '本地:', '01:00、2019年6月19日周三', '协调世界时:', '17:00、2019年6月18日周二', '来源:', 'USAF 每小时地面观测', '报告类型:', 'METAR 航空例行天气报告', '露点:', '21.0°C', '其他云层:', '大部分晴天 (610米)', '天气:', 'Showers of Light Rain', '上午2:00', '21°C', '1,006毫巴', '每小时7.20公里, 北', '10.00公里', '大部分多云 (1,006米)', '本地:', '02:00、2019年6月19日周三', '协调世界时:', '18:00、2019年6月18日周二', '来源:', '周期文件', '趋势:', '无重要变化', '露点:', '21°C', '其他云层:', '大部分晴天 (610米)', '原始:', 'ZUUU 181800Z 35002MPS 310V050 9999 FEW020 BKN033 21/21 Q1006 NOSIG', '上午2:00', '21.0°C', '1,006毫巴', '每小时7.20公里, 北', '10.00公里', '大部分多云 (1,006米)', '本地:', '02:00、2019年6月19日周三', '协调世界时:', '18:00、2019年6月18日周二', '来源:', 'USAF 每小时地面观测', '报告类型:', 'METAR 航空例行天气报告', '露点:', '21.0°C', '其他云层:', '大部分晴天 (610米)', '上午3:00', '21°C', '1,006毫巴', '每小时7.20公里, 北', '8.00公里', '大部分多云 (1,006米)', '本地:', '03:00、2019年6月19日周三', '协调世界时:', '19:00、2019年6月18日周二', '来源:', '周期文件', '趋势:', '无重要变化', '露点:', '21°C', '其他云层:', '大部分晴天 (305米)', '天气:', 'Showers of Light Rain', '原始:', 'ZUUU 181900Z 35002MPS 290V030 8000 -SHRA FEW010 BKN033 21/21 Q1006 NOSIG', '上午3:00', '21.0°C', '1,006毫巴', '每小时7.20公里, 北', '8.00公里', '大部分多云 (1,006米)', '本地:', '03:00、2019年6月19日周三', '协调世界时:', '19:00、2019年6月18日周二', '来源:', 'USAF 每小时地面观测', '报告类型:', 'METAR 航空例行天气报告', '露点:', '21.0°C', '其他云层:', '大部分晴天 (305米)', '天气:', 'Showers of Light Rain', '上午4:00', '22°C', '1,006毫巴', '每小时3.60公里', '8.00公里', '大部分多云 (1,006米)', '本地:', '04:00、2019年6月19日周三', '协调世界时:', '20:00、2019年6月18日周二', '来源:', '周期文件', '趋势:', '无重要变化', '露点:', '21°C', '其他云层:', '大部分晴天 (305米)', '天气:', 'Showers of Light Rain', '原始:', 'ZUUU 182000Z VRB01MPS 8000 -SHRA FEW010 BKN033 22/21 Q1006 NOSIG', '上午4:00', '22.0°C', '1,006毫巴', '每小时3.60公里', '8.00公里', '大部分多云 (1,006米)', '本地:', '04:00、2019年6月19日周三', '协调世界时:', '20:00、2019年6月18日周二', '来源:', 'USAF 每小时地面观测', '报告类型:', 'METAR 航空例行天气报告', '露点:', '21.0°C', '其他云层:', '大部分晴天 (305米)', '天气:', 'Showers of Light Rain', '上午5:00', '22°C', '1,005毫巴', '每小时3.60公里', '8.00公里', '大部分多云 (1,006米)', '本地:', '05:00、2019年6月19日周三', '协调世界时:', '21:00、2019年6月18日周二', '来源:', '周期文件', '趋势:', '无重要变化', '露点:', '21°C', '其他云层:', '大部分晴天 (213米)', '天气:', 'Showers of Light Rain', '原始:', 'ZUUU 182100Z VRB01MPS 8000 -SHRA FEW007 BKN033 22/21 Q1005 NOSIG', '上午5:00', '22.0°C', '1,005毫巴', '每小时3.60公里', '8.00公里', '大部分多云 (1,006米)', '本地:', '05:00、2019年6月19日周三', '协调世界时:', '21:00、2019年6月18日周二', '来源:', 'USAF 每小时地面观测', '报告类型:', 'METAR 航空例行天气报告', '露点:', '21.0°C', '其他云层:', '大部分晴天 (213米)', '天气:', 'Showers of Light Rain', '上午6:00', '22°C', '1,006毫巴', '每小时3.60公里', '6.00公里', '大部分多云 (1,006米)', '本地:', '06:00、2019年6月19日周三', '协调世界时:', '22:00、2019年6月18日周二', '来源:', '周期文件', '趋势:', '无重要变化', '露点:', '21°C', '其他云层:', '部分多云 (244米)', '天气:', 'Showers of Light Rain', '原始:', 'ZUUU 182200Z VRB01MPS 6000 -SHRA SCT008 BKN033 22/21 Q1006 NOSIG', '上午6:00', '22.0°C', '1,006毫巴', '每小时3.60公里', '6.00公里', '大部分多云 (1,006米)', '本地:', '06:00、2019年6月19日周三', '协调世界时:', '22:00、2019年6月18日周二', '来源:', 'USAF 每小时地面观测', '报告类型:', 'METAR 航空例行天气报告', '露点:', '21.0°C', '其他云层:', '部分多云 (244米)', '天气:', 'Showers of Light Rain', '上午7:00', '22°C', '1,005毫巴', '每小时0公里', '6.00公里', '大部分多云 (1,006米)', '本地:', '07:00、2019年6月19日周三', '协调世界时:', '23:00、2019年6月18日周二', '来源:', '周期文件', '趋势:', '无重要变化', '露点:', '21°C', '其他云层:', '大部分晴天 (244米)', '天气:', 'Showers of Light Rain', '原始:', 'ZUUU 182300Z 00000MPS 6000 -SHRA FEW008 BKN033 22/21 Q1005 NOSIG', '上午7:00', '22.0°C', '1,005毫巴', '每小时0公里', '6.00公里', '大部分多云 (1,006米)', '本地:', '07:00、2019年6月19日周三', '协调世界时:', '23:00、2019年6月18日周二', '来源:', 'USAF 每小时地面观测', '报告类型:', 'METAR 航空例行天气报告', '露点:', '21.0°C', '其他云层:', '大部分晴天 (244米)', '天气:', 'Showers of Light Rain', '上午8:00', '22°C', '1,005毫巴', '每小时0公里', '6.00公里', '大部分多云 (1,006米)', '本地:', '08:00、2019年6月19日周三', '协调世界时:', '00:00、2019年6月19日周三', '来源:', '周期文件', '趋势:', '无重要变化', '露点:', '22°C', '其他云层:', '大部分晴天 (244米)', '原始:', 'ZUUU 190000Z 00000MPS 6000 FEW008 BKN033 22/22 Q1005 NOSIG', '上午8:00', '22.0°C', '1,005毫巴', '每小时0公里', '6.00公里', '大部分多云 (1,006米)', '本地:', '08:00、2019年6月19日周三', '协调世界时:', '00:00、2019年6月19日周三', '来源:', 'USAF 每小时地面观测', '报告类型:', 'METAR 航空例行天气报告', '露点:', '22.0°C', '其他云层:', '大部分晴天 (244米)', '上午9:00', '23°C', '1,006毫巴', '每小时3.60公里', '5.00公里', '大部分多云 (1,006米)', '本地:', '09:00、2019年6月19日周三', '协调世界时:', '01:00、2019年6月19日周三', '来源:', '周期文件', '趋势:', '无重要变化', '露点:', '22°C', '其他云层:', '大部分晴天 (305米)', '天气:', 'Mist', '原始:', 'ZUUU 190100Z VRB01MPS 5000 BR FEW010 BKN033 23/22 Q1006 NOSIG', '上午9:00', '23.0°C', '1,006毫巴', '每小时3.60公里', '5.00公里', '大部分多云 (1,006米)', '本地:', '09:00、2019年6月19日周三', '协调世界时:', '01:00、2019年6月19日周三', '来源:', 'USAF 每小时地面观测', '报告类型:', 'METAR 航空例行天气报告', '露点:', '22.0°C', '其他云层:', '大部分晴天 (305米)', '天气:', 'Mist', '上午10:00', '24°C', '1,005毫巴', '每小时0公里', '6.00公里', '大部分多云 (1,006米)', '本地:', '10:00、2019年6月19日周三', '协调世界时:', '02:00、2019年6月19日周三', '来源:', '周期文件', '趋势:', '无重要变化', '露点:', '22°C', '其他云层:', '大部分晴天 (305米)', '原始:', 'ZUUU 190200Z 00000MPS 6000 FEW010 BKN033 24/22 Q1005 NOSIG', '上午10:00', '24.0°C', '1,005毫巴', '每小时0公里', '6.00公里', '大部分多云 (1,006米)', '本地:', '10:00、2019年6月19日周三', '协调世界时:', '02:00、2019年6月19日周三', '来源:', 'USAF 每小时地面观测', '报告类型:', 'METAR 航空例行天气报告', '露点:', '22.0°C', '其他云层:', '大部分晴天 (305米)', '上午11:00', '24°C', '1,005毫巴', '每小时0公里', '7.00公里', '大部分多云 (1,006米)', '本地:', '11:00、2019年6月19日周三', '协调世界时:', '03:00、2019年6月19日周三', '来源:', '周期文件', '趋势:', '无重要变化', '露点:', '22°C', '其他云层:', '大部分晴天 (305米)', '原始:', 'ZUUU 190300Z 00000MPS 7000 FEW010 BKN033 24/22 Q1005 NOSIG', '上午11:00', '24.0°C', '1,005毫巴', '每小时0公里', '7.00公里', '大部分多云 (1,006米)', '本地:', '11:00、2019年6月19日周三', '协调世界时:', '03:00、2019年6月19日周三', '来源:', 'USAF 每小时地面观测', '报告类型:', 'METAR 航空例行天气报告', '露点:', '22.0°C', '其他云层:', '大部分晴天 (305米)', '下午12:00', '25°C', '1,005毫巴', '每小时3.60公里', '8.00公里', '部分多云 (701米)', '本地:', '12:00、2019年6月19日周三', '协调世界时:', '04:00、2019年6月19日周三', '来源:', '周期文件', '趋势:', '无重要变化', '露点:', '22°C', '其他云层:', '大部分晴天 (305米)、大部分晴天 (701米)', '原始:', 'ZUUU 190400Z VRB01MPS 8000 FEW010 FEW023TCU SCT023 25/22 Q1005 NOSIG', '下午12:00', '25.0°C', '1,005毫巴', '每小时3.60公里', '8.00公里', '部分多云 (701米)', '本地:', '12:00、2019年6月19日周三', '协调世界时:', '04:00、2019年6月19日周三', '来源:', 'USAF 每小时地面观测', '报告类型:', 'METAR 航空例行天气报告', '露点:', '22.0°C', '其他云层:', '大部分晴天 (305米)、大部分晴天 (701米)', '下午1:00', '25°C', '1,004毫巴', '每小时3.60公里', '8.00公里', '部分多云 (701米)', '本地:', '13:00、2019年6月19日周三', '协调世界时:', '05:00、2019年6月19日周三', '来源:', '周期文件', '趋势:', '无重要变化', '露点:', '22°C', '其他云层:', '大部分晴天 (274米)、大部分晴天 (701米)', '原始:', 'ZUUU 190500Z VRB01MPS 8000 FEW009 FEW023TCU SCT023 25/22 Q1004 NOSIG', '下午1:00', '25.0°C', '1,004毫巴', '每小时3.60公里', '8.00公里', '部分多云 (701米)', '本地:', '13:00、2019年6月19日周三', '协调世界时:', '05:00、2019年6月19日周三', '来源:', 'USAF 每小时地面观测', '报告类型:', 'METAR 航空例行天气报告', '露点:', '22.0°C', '其他云层:', '大部分晴天 (274米)、大部分晴天 (701米)', '下午2:00', '25°C', '1,003毫巴', '每小时7.20公里, 东', '8.00公里', '部分多云 (701米)', '本地:', '14:00、2019年6月19日周三', '协调世界时:', '06:00、2019年6月19日周三', '来源:', '周期文件', '趋势:', '无重要变化', '露点:', '22°C', '其他云层:', '大部分晴天 (274米)、大部分晴天 (701米)', '原始:', 'ZUUU 190600Z 08002MPS 020V140 8000 FEW009 FEW023TCU SCT023 25/22 Q1003 NOSIG', '下午2:00', '25.0°C', '1,003毫巴', '每小时7.20公里, 东', '8.00公里', '部分多云 (701米)', '本地:', '14:00、2019年6月19日周三', '协调世界时:', '06:00、2019年6月19日周三', '来源:', 'USAF 每小时地面观测', '报告类型:', 'METAR 航空例行天气报告', '露点:', '22.0°C', '其他云层:', '大部分晴天 (274米)、大部分晴天 (701米)', '下午3:00', '26°C', '1,003毫巴', '每小时10.8公里, 东', '8.00公里', '大部分多云 (701米)', '本地:', '15:00、2019年6月19日周三', '协调世界时:', '07:00、2019年6月19日周三', '来源:', '周期文件', '趋势:', '无重要变化', '露点:', '22°C', '其他云层:', '大部分晴天 (305米)、大部分晴天 (701米)', '原始:', 'ZUUU 190700Z 08003MPS 030V140 8000 FEW010 FEW023TCU BKN023 26/22 Q1003 NOSIG', '下午3:00', '26.0°C', '1,003毫巴', '每小时10.8公里, 东', '8.00公里', '大部分多云 (701米)', '本地:', '15:00、2019年6月19日周三', '协调世界时:', '07:00、2019年6月19日周三', '来源:', 'USAF 每小时地面观测', '报告类型:', 'METAR 航空例行天气报告', '露点:', '22.0°C', '其他云层:', '大部分晴天 (305米)、大部分晴天 (701米)', '下午4:00', '26°C', '1,002毫巴', '每小时10.8公里, 东', '8.00公里', '大部分多云 (701米)', '本地:', '16:00、2019年6月19日周三', '协调世界时:', '08:00、2019年6月19日周三', '来源:', '周期文件', '趋势:', '无重要变化', '露点:', '22°C', '其他云层:', '大部分晴天 (701米)', '原始:', 'ZUUU 190800Z 08003MPS 030V140 8000 FEW023TCU BKN023 26/22 Q1002 NOSIG', '下午4:00', '26.0°C', '1,002毫巴', '每小时10.8公里, 东', '8.00公里', '大部分多云 (701米)', '本地:', '16:00、2019年6月19日周三', '协调世界时:', '08:00、2019年6月19日周三', '来源:', 'USAF 每小时地面观测', '报告类型:', 'METAR 航空例行天气报告', '露点:', '22.0°C', '其他云层:', '大部分晴天 (701米)', '下午5:00', '26°C', '1,001毫巴', '每小时10.8公里, 东北', '10.00公里', '部分多云 (914米)', '本地:', '17:00、2019年6月19日周三', '协调世界时:', '09:00、2019年6月19日周三', '来源:', '周期文件', '趋势:', '无重要变化', '露点:', '21°C', '原始:', 'ZUUU 190900Z 06003MPS 360V110 9999 SCT030 26/21 Q1001 NOSIG', '下午5:00', '26.0°C', '1,001毫巴', '每小时10.8公里, 东北', '10.00公里', '部分多云 (914米)', '本地:', '17:00、2019年6月19日周三', '协调世界时:', '09:00、2019年6月19日周三', '来源:', 'USAF 每小时地面观测', '报告类型:', 'METAR 航空例行天气报告', '露点:', '21.0°C', '下午6:00', '26°C', '1,001毫巴', '每小时10.8公里, 东', '10.00公里', '大部分晴天 (792米)', '本地:', '18:00、2019年6月19日周三', '协调世界时:', '10:00、2019年6月19日周三', '来源:', '周期文件', '趋势:', '无重要变化', '露点:', '21°C', '原始:', 'ZUUU 191000Z 08003MPS 010V150 9999 FEW026 26/21 Q1001 NOSIG', '下午6:00', '26.0°C', '1,001毫巴', '每小时10.8公里, 东', '10.00公里', '大部分晴天 (792米)', '本地:', '18:00、2019年6月19日周三', '协调世界时:', '10:00、2019年6月19日周三', '来源:', 'USAF 每小时地面观测', '报告类型:', 'METAR 航空例行天气报告', '露点:', '21.0°C', '下午7:00', '26°C', '1,001毫巴', '每小时7.20公里, 东', '10.00公里', '部分多云 (792米)', '本地:', '19:00、2019年6月19日周三', '协调世界时:', '11:00、2019年6月19日周三', '来源:', '周期文件', '趋势:', '无重要变化', '露点:', '22°C', '原始:', 'ZUUU 191100Z 11002MPS 060V140 9999 SCT026 26/22 Q1001 NOSIG', '下午7:00', '26.0°C', '1,001毫巴', '每小时7.20公里, 东', '10.00公里', '部分多云 (792米)', '本地:', '19:00、2019年6月19日周三', '协调世界时:', '11:00、2019年6月19日周三', '来源:', 'USAF 每小时地面观测', '报告类型:', 'METAR 航空例行天气报告', '露点:', '22.0°C', '下午8:00', '26°C', '1,002毫巴', '每小时7.20公里, 东', '10.00公里', '部分多云 (1,006米)', '本地:', '20:00、2019年6月19日周三', '协调世界时:', '12:00、2019年6月19日周三', '来源:', '周期文件', '趋势:', '无重要变化', '露点:', '21°C', '原始:', 'ZUUU 191200Z 07002MPS 020V100 9999 SCT033 26/21 Q1002 NOSIG', '下午8:00', '26.0°C', '1,002毫巴', '每小时7.20公里, 东', '10.00公里', '部分多云 (1,006米)', '本地:', '20:00、2019年6月19日周三', '协调世界时:', '12:00、2019年6月19日周三', '来源:', 'USAF 每小时地面观测', '报告类型:', 'METAR 航空例行天气报告', '露点:', '21.0°C', '下午9:00', '25°C', '1,003毫巴', '每小时3.60公里', '10.00公里', '部分多云 (1,219米)', '本地:', '21:00、2019年6月19日周三', '协调世界时:', '13:00、2019年6月19日周三', '来源:', '周期文件', '趋势:', '无重要变化', '露点:', '22°C', '原始:', 'ZUUU 191300Z VRB01MPS 9999 SCT040 25/22 Q1003 NOSIG', '下午9:00', '25.0°C', '1,003毫巴', '每小时3.60公里', '10.00公里', '部分多云 (1,219米)', '本地:', '21:00、2019年6月19日周三', '协调世界时:', '13:00、2019年6月19日周三', '来源:', 'USAF 每小时地面观测', '报告类型:', 'METAR 航空例行天气报告', '露点:', '22.0°C', '下午10:00', '25°C', '1,003毫巴', '每小时3.60公里', '10.00公里', '部分多云 (1,219米)', '本地:', '22:00、2019年6月19日周三', '协调世界时:', '14:00、2019年6月19日周三', '来源:', '周期文件', '趋势:', '无重要变化', '露点:', '22°C', '原始:', 'ZUUU 191400Z VRB01MPS 9999 SCT040 25/22 Q1003 NOSIG', '下午10:00', '25.0°C', '1,003毫巴', '每小时3.60公里', '10.00公里', '部分多云 (1,219米)', '本地:', '22:00、2019年6月19日周三', '协调世界时:', '14:00、2019年6月19日周三', '来源:', 'USAF 每小时地面观测', '报告类型:', 'METAR 航空例行天气报告', '露点:', '22.0°C', '下午11:00', '25°C', '1,003毫巴', '每小时3.60公里', '10.00公里', '部分多云 (1,219米)', '本地:', '23:00、2019年6月19日周三', '协调世界时:', '15:00、2019年6月19日周三', '来源:', '周期文件', '趋势:', '无重要变化', '露点:', '23°C', '原始:', 'ZUUU 191500Z VRB01MPS 9999 SCT040 25/23 Q1003 NOSIG', '下午11:00', '25.0°C', '1,003毫巴', '每小时3.60公里', '10.00公里', '部分多云 (1,219米)', '本地:', '23:00、2019年6月19日周三', '协调世界时:', '15:00、2019年6月19日周三', '来源:', 'USAF 每小时地面观测', '报告类型:', 'METAR 航空例行天气报告', '露点:', '23.0°C']