['Light Rain', '-RA、IWC61', 'Light Rain', '-RA、IWC61', 'Light Rain', '-RA、IWC61', 'Light Rain', '-RA、IWC61', 'Light Rain', '-RA、IWC61', 'Light Rain', '-RA、IWC61', 'Light Rain', '-RA、IWC61', 'Light Rain', '-RA、IWC61', 'Light Rain', '-RA、IWC61', '上午12:00', '11°C', '1,030毫巴', '每小时7.20公里, 东', '10.00公里', '大部分多云 (1,524米)', '本地:', '00:00、2019年11月28日周四', '协调世界时:', '16:00、2019年11月27日周三', '来源:', '周期文件', '趋势:', '无重要变化', '露点:', '7°C', '原始:', 'ZUUU 271600Z 11002MPS 050V170 9999 BKN050 11/07 Q1030 NOSIG', '上午12:00', '11.0°C', '1,030毫巴', '每小时7.20公里, 东', '10.00公里', '大部分多云 (1,524米)', '本地:', '00:00、2019年11月28日周四', '协调世界时:', '16:00、2019年11月27日周三', '来源:', 'USAF 每小时地面观测', '报告类型:', 'METAR 航空例行天气报告', '露点:', '7.0°C', '上午1:00', '11°C', '1,030毫巴', '每小时7.20公里, 东', '10.00公里', '大部分多云 (1,524米)', '本地:', '01:00、2019年11月28日周四', '协调世界时:', '17:00、2019年11月27日周三', '来源:', '周期文件', '趋势:', '无重要变化', '露点:', '6°C', '其他云层:', '大部分晴天 (1,006米)', '原始:', 'ZUUU 271700Z 09002MPS 040V130 9999 FEW033 BKN050 11/06 Q1030 NOSIG', '上午1:00', '11.0°C', '1,030毫巴', '每小时7.20公里, 东', '10.00公里', '大部分多云 (1,524米)', '本地:', '01:00、2019年11月28日周四', '协调世界时:', '17:00、2019年11月27日周三', '来源:', 'USAF 每小时地面观测', '报告类型:', 'METAR 航空例行天气报告', '露点:', '6.0°C', '其他云层:', '大部分晴天 (1,006米)', '上午2:00', '11°C', '1,030毫巴', '每小时3.60公里', '10.00公里', '部分多云 (1,219米)', '本地:', '02:00、2019年11月28日周四', '协调世界时:', '18:00、2019年11月27日周三', '来源:', '周期文件', '趋势:', '无重要变化', '露点:', '6°C', '原始:', 'ZUUU 271800Z VRB01MPS 9999 SCT040 11/06 Q1030 NOSIG', '上午2:00', '11.0°C', '1,030毫巴', '每小时3.60公里', '10.00公里', '部分多云 (1,219米)', '本地:', '02:00、2019年11月28日周四', '协调世界时:', '18:00、2019年11月27日周三', '来源:', 'USAF 每小时地面观测', '报告类型:', 'METAR 航空例行天气报告', '露点:', '6.0°C', '上午3:00', '10°C', '1,029毫巴', '每小时7.20公里, 南', '10.00公里', '大部分多云 (1,219米)', '本地:', '03:00、2019年11月28日周四', '协调世界时:', '19:00、2019年11月27日周三', '来源:', '周期文件', '趋势:', '无重要变化', '露点:', '7°C', '原始:', 'ZUUU 271900Z 16002MPS 9999 BKN040 10/07 Q1029 NOSIG', '上午3:00', '10.0°C', '1,029毫巴', '每小时7.20公里, 南', '10.00公里', '大部分多云 (1,219米)', '本地:', '03:00、2019年11月28日周四', '协调世界时:', '19:00、2019年11月27日周三', '来源:', 'USAF 每小时地面观测', '报告类型:', 'METAR 航空例行天气报告', '露点:', '7.0°C', '上午4:00', '10°C', '1,029毫巴', '每小时3.60公里, 东南', '10.00公里', '大部分多云 (1,219米)', '本地:', '04:00、2019年11月28日周四', '协调世界时:', '20:00、2019年11月27日周三', '来源:', '周期文件', '趋势:', '无重要变化', '露点:', '7°C', '原始:', 'ZUUU 272000Z 15001MPS 9999 BKN040 10/07 Q1029 NOSIG', '上午4:00', '10.0°C', '1,029毫巴', '每小时3.60公里, 东南', '10.00公里', '大部分多云 (1,219米)', '本地:', '04:00、2019年11月28日周四', '协调世界时:', '20:00、2019年11月27日周三', '来源:', 'USAF 每小时地面观测', '报告类型:', 'METAR 航空例行天气报告', '露点:', '7.0°C', '上午5:00', '10°C', '1,028毫巴', '每小时0公里', '10.00公里', '部分多云 (1,524米)', '本地:', '05:00、2019年11月28日周四', '协调世界时:', '21:00、2019年11月27日周三', '来源:', '周期文件', '趋势:', '无重要变化', '露点:', '8°C', '其他云层:', '大部分晴天 (1,006米)', '原始:', 'ZUUU 272100Z 00000MPS 9999 FEW033 SCT050 10/08 Q1028 NOSIG', '上午5:00', '10.0°C', '1,028毫巴', '每小时0公里', '10.00公里', '部分多云 (1,524米)', '本地:', '05:00、2019年11月28日周四', '协调世界时:', '21:00、2019年11月27日周三', '来源:', 'USAF 每小时地面观测', '报告类型:', 'METAR 航空例行天气报告', '露点:', '8.0°C', '其他云层:', '大部分晴天 (1,006米)', '上午6:00', '9°C', '1,028毫巴', '每小时7.20公里, 东南', '10.00公里', '部分多云 (1,524米)', '本地:', '06:00、2019年11月28日周四', '协调世界时:', '22:00、2019年11月27日周三', '来源:', '周期文件', '趋势:', '无重要变化', '露点:', '8°C', '其他云层:', '大部分晴天 (610米)', '原始:', 'ZUUU 272200Z 15002MPS 9999 FEW020 SCT050 09/08 Q1028 NOSIG', '上午6:00', '9.0°C', '1,028毫巴', '每小时7.20公里, 东南', '10.00公里', '部分多云 (1,524米)', '本地:', '06:00、2019年11月28日周四', '协调世界时:', '22:00、2019年11月27日周三', '来源:', 'USAF 每小时地面观测', '报告类型:', 'METAR 航空例行天气报告', '露点:', '8.0°C', '其他云层:', '大部分晴天 (610米)', '上午7:00', '10°C', '1,028毫巴', '每小时3.60公里', '10.00公里', '大部分多云 (1,219米)', '本地:', '07:00、2019年11月28日周四', '协调世界时:', '23:00、2019年11月27日周三', '来源:', '周期文件', '趋势:', '无重要变化', '露点:', '8°C', '其他云层:', '大部分晴天 (305米)', '天气:', 'Light Rain', '原始:', 'ZUUU 272300Z VRB01MPS 9999 -RA FEW010 BKN040 10/08 Q1028 NOSIG', '上午7:00', '10.0°C', '1,028毫巴', '每小时3.60公里', '10.00公里', '大部分多云 (1,219米)', '本地:', '07:00、2019年11月28日周四', '协调世界时:', '23:00、2019年11月27日周三', '来源:', 'USAF 每小时地面观测', '报告类型:', 'METAR 航空例行天气报告', '露点:', '8.0°C', '其他云层:', '大部分晴天 (305米)', '天气:', 'Light Rain', '上午8:00', '10°C', '1,028毫巴', '每小时3.60公里', '10.00公里', '大部分多云 (1,311米)', '本地:', '08:00、2019年11月28日周四', '协调世界时:', '00:00、2019年11月28日周四', '来源:', '周期文件', '趋势:', '无重要变化', '露点:', '8°C', '其他云层:', '大部分晴天 (305米)', '原始:', 'ZUUU 280000Z VRB01MPS 9999 FEW010 BKN043 10/08 Q1028 NOSIG', '上午8:00', '10.0°C', '1,028毫巴', '每小时3.60公里', '10.00公里', '大部分多云 (1,311米)', '本地:', '08:00、2019年11月28日周四', '协调世界时:', '00:00、2019年11月28日周四', '来源:', 'USAF 每小时地面观测', '报告类型:', 'METAR 航空例行天气报告', '露点:', '8.0°C', '其他云层:', '大部分晴天 (305米)', '上午9:00', '10°C', '1,029毫巴', '每小时7.20公里, 东', '10.00公里', '大部分多云 (1,524米)', '本地:', '09:00、2019年11月28日周四', '协调世界时:', '01:00、2019年11月28日周四', '来源:', '周期文件', '趋势:', '无重要变化', '露点:', '7°C', '其他云层:', '大部分晴天 (305米)', '原始:', 'ZUUU 280100Z 10002MPS 040V150 9999 FEW010 BKN050 10/07 Q1029 NOSIG', '上午9:00', '10.0°C', '1,029毫巴', '每小时7.20公里, 东', '10.00公里', '大部分多云 (1,524米)', '本地:', '09:00、2019年11月28日周四', '协调世界时:', '01:00、2019年11月28日周四', '来源:', 'USAF 每小时地面观测', '报告类型:', 'METAR 航空例行天气报告', '露点:', '7.0°C', '其他云层:', '大部分晴天 (305米)', '上午10:00', '10°C', '1,029毫巴', '每小时7.20公里, 东北', '10.00公里', '大部分多云 (1,524米)', '本地:', '10:00、2019年11月28日周四', '协调世界时:', '02:00、2019年11月28日周四', '来源:', '周期文件', '趋势:', '无重要变化', '露点:', '7°C', '其他云层:', '大部分晴天 (305米)', '原始:', 'ZUUU 280200Z 03002MPS 350V070 9999 FEW010 BKN050 10/07 Q1029 NOSIG', '上午10:00', '10.0°C', '1,029毫巴', '每小时7.20公里, 东北', '10.00公里', '大部分多云 (1,524米)', '本地:', '10:00、2019年11月28日周四', '协调世界时:', '02:00、2019年11月28日周四', '来源:', 'USAF 每小时地面观测', '报告类型:', 'METAR 航空例行天气报告', '露点:', '7.0°C', '其他云层:', '大部分晴天 (305米)', '上午11:00', '10°C', '1,029毫巴', '每小时10.8公里, 东', '10.00公里', '大部分多云 (1,524米)', '本地:', '11:00、2019年11月28日周四', '协调世界时:', '03:00、2019年11月28日周四', '来源:', '周期文件', '趋势:', '无重要变化', '露点:', '8°C', '其他云层:', '大部分晴天 (305米)', '天气:', 'Light Rain', '原始:', 'ZUUU 280300Z 07003MPS 030V110 9999 -RA FEW010 BKN050 10/08 Q1029 NOSIG', '上午11:00', '10.0°C', '1,029毫巴', '每小时10.8公里, 东', '10.00公里', '大部分多云 (1,524米)', '本地:', '11:00、2019年11月28日周四', '协调世界时:', '03:00、2019年11月28日周四', '来源:', 'USAF 每小时地面观测', '报告类型:', 'METAR 航空例行天气报告', '露点:', '8.0°C', '其他云层:', '大部分晴天 (305米)', '天气:', 'Light Rain', '下午12:00', '10°C', '1,028毫巴', '每小时7.20公里, 东', '10.00公里', '大部分多云 (1,219米)', '本地:', '12:00、2019年11月28日周四', '协调世界时:', '04:00、2019年11月28日周四', '来源:', '周期文件', '趋势:', '无重要变化', '露点:', '7°C', '其他云层:', '大部分晴天 (305米)', '原始:', 'ZUUU 280400Z 07002MPS 030V120 9999 FEW010 BKN040 10/07 Q1028 NOSIG', '下午12:00', '10.0°C', '1,028毫巴', '每小时7.20公里, 东', '10.00公里', '大部分多云 (1,219米)', '本地:', '12:00、2019年11月28日周四', '协调世界时:', '04:00、2019年11月28日周四', '来源:', 'USAF 每小时地面观测', '报告类型:', 'METAR 航空例行天气报告', '露点:', '7.0°C', '其他云层:', '大部分晴天 (305米)', '下午1:00', '10°C', '1,026毫巴', '每小时7.20公里, 北', '10.00公里', '大部分多云 (1,219米)', '本地:', '13:00、2019年11月28日周四', '协调世界时:', '05:00、2019年11月28日周四', '来源:', '周期文件', '趋势:', '无重要变化', '露点:', '7°C', '其他云层:', '大部分晴天 (305米)', '原始:', 'ZUUU 280500Z 02002MPS 350V050 9999 FEW010 BKN040 10/07 Q1026 NOSIG', '下午1:00', '10.0°C', '1,026毫巴', '每小时7.20公里, 北', '10.00公里', '大部分多云 (1,219米)', '本地:', '13:00、2019年11月28日周四', '协调世界时:', '05:00、2019年11月28日周四', '来源:', 'USAF 每小时地面观测', '报告类型:', 'METAR 航空例行天气报告', '露点:', '7.0°C', '其他云层:', '大部分晴天 (305米)', '下午2:00', '10°C', '1,024毫巴', '每小时7.20公里, 东北', '10.00公里', '部分多云 (1,219米)', '本地:', '14:00、2019年11月28日周四', '协调世界时:', '06:00、2019年11月28日周四', '来源:', '周期文件', '趋势:', '无重要变化', '露点:', '7°C', '其他云层:', '大部分晴天 (488米)', '原始:', 'ZUUU 280600Z 06002MPS 360V100 9999 FEW016 SCT040 10/07 Q1024 NOSIG', '下午2:00', '10.0°C', '1,024毫巴', '每小时7.20公里, 东北', '10.00公里', '部分多云 (1,219米)', '本地:', '14:00、2019年11月28日周四', '协调世界时:', '06:00、2019年11月28日周四', '来源:', 'USAF 每小时地面观测', '报告类型:', 'METAR 航空例行天气报告', '露点:', '7.0°C', '其他云层:', '大部分晴天 (488米)', '下午3:00', '10°C', '1,023毫巴', '每小时7.20公里, 东', '10.00公里', '部分多云 (1,219米)', '本地:', '15:00、2019年11月28日周四', '协调世界时:', '07:00、2019年11月28日周四', '来源:', '周期文件', '趋势:', '无重要变化', '露点:', '8°C', '其他云层:', '大部分晴天 (488米)', '天气:', 'Light Rain', '原始:', 'ZUUU 280700Z 07002MPS 010V120 9999 -RA FEW016 SCT040 10/08 Q1023 NOSIG', '下午3:00', '10.0°C', '1,023毫巴', '每小时7.20公里, 东', '10.00公里', '部分多云 (1,219米)', '本地:', '15:00、2019年11月28日周四', '协调世界时:', '07:00、2019年11月28日周四', '来源:', 'USAF 每小时地面观测', '报告类型:', 'METAR 航空例行天气报告', '露点:', '8.0°C', '其他云层:', '大部分晴天 (488米)', '天气:', 'Light Rain', '下午4:00', '10°C', '1,023毫巴', '每小时3.60公里', '10.00公里', '部分多云 (1,219米)', '本地:', '16:00、2019年11月28日周四', '协调世界时:', '08:00、2019年11月28日周四', '来源:', '周期文件', '趋势:', '无重要变化', '露点:', '7°C', '其他云层:', '大部分晴天 (488米)', '天气:', 'Light Rain', '原始:', 'ZUUU 280800Z VRB01MPS 9999 -RA FEW016 SCT040 10/07 Q1023 NOSIG', '下午4:00', '10.0°C', '1,023毫巴', '每小时3.60公里', '10.00公里', '部分多云 (1,219米)', '本地:', '16:00、2019年11月28日周四', '协调世界时:', '08:00、2019年11月28日周四', '来源:', 'USAF 每小时地面观测', '报告类型:', 'METAR 航空例行天气报告', '露点:', '7.0°C', '其他云层:', '大部分晴天 (488米)', '天气:', 'Light Rain', '下午5:00', '10°C', '1,023毫巴', '每小时7.20公里, 东', '10.00公里', '大部分多云 (1,006米)', '本地:', '17:00、2019年11月28日周四', '协调世界时:', '09:00、2019年11月28日周四', '来源:', '周期文件', '趋势:', '无重要变化', '露点:', '8°C', '其他云层:', '大部分晴天 (305米)', '天气:', 'Light Rain', '原始:', 'ZUUU 280900Z 08002MPS 030V110 9999 -RA FEW010 BKN033 10/08 Q1023 NOSIG', '下午5:00', '10.0°C', '1,023毫巴', '每小时7.20公里, 东', '10.00公里', '大部分多云 (1,006米)', '本地:', '17:00、2019年11月28日周四', '协调世界时:', '09:00、2019年11月28日周四', '来源:', 'USAF 每小时地面观测', '报告类型:', 'METAR 航空例行天气报告', '露点:', '8.0°C', '其他云层:', '大部分晴天 (305米)', '天气:', 'Light Rain', '下午6:00', '10°C', '1,023毫巴', '每小时7.20公里, 东', '10.00公里', '大部分多云 (792米)', '本地:', '18:00、2019年11月28日周四', '协调世界时:', '10:00、2019年11月28日周四', '来源:', '周期文件', '趋势:', '无重要变化', '露点:', '8°C', '其他云层:', '大部分晴天 (274米)', '天气:', 'Light Rain', '原始:', 'ZUUU 281000Z 10002MPS 040V130 9999 -RA FEW009 BKN026 10/08 Q1023 NOSIG', '下午6:00', '10.0°C', '1,023毫巴', '每小时7.20公里, 东', '10.00公里', '大部分多云 (792米)', '本地:', '18:00、2019年11月28日周四', '协调世界时:', '10:00、2019年11月28日周四', '来源:', 'USAF 每小时地面观测', '报告类型:', 'METAR 航空例行天气报告', '露点:', '8.0°C', '其他云层:', '大部分晴天 (274米)', '天气:', 'Light Rain', '下午7:00', '10°C', '1,023毫巴', '每小时7.20公里, 东', '10.00公里', '大部分多云 (701米)', '本地:', '19:00、2019年11月28日周四', '协调世界时:', '11:00、2019年11月28日周四', '来源:', '周期文件', '趋势:', '无重要变化', '露点:', '8°C', '其他云层:', '部分多云 (305米)', '天气:', 'Light Rain', '原始:', 'ZUUU 281100Z 08002MPS 020V110 9999 -RA SCT010 BKN023 10/08 Q1023 NOSIG', '下午7:00', '10.0°C', '1,023毫巴', '每小时7.20公里, 东', '10.00公里', '大部分多云 (701米)', '本地:', '19:00、2019年11月28日周四', '协调世界时:', '11:00、2019年11月28日周四', '来源:', 'USAF 每小时地面观测', '报告类型:', 'METAR 航空例行天气报告', '露点:', '8.0°C', '其他云层:', '部分多云 (305米)', '天气:', 'Light Rain', '下午8:00', '10°C', '1,024毫巴', '每小时3.60公里', '10.00公里', '大部分多云 (610米)', '本地:', '20:00、2019年11月28日周四', '协调世界时:', '12:00、2019年11月28日周四', '来源:', '周期文件', '趋势:', '无重要变化', '露点:', '9°C', '其他云层:', '大部分晴天 (244米)', '原始:', 'ZUUU 281200Z VRB01MPS 9999 FEW008 BKN020 10/09 Q1024 NOSIG', '下午8:00', '10.0°C', '1,024毫巴', '每小时3.60公里', '10.00公里', '大部分多云 (610米)', '本地:', '20:00、2019年11月28日周四', '协调世界时:', '12:00、2019年11月28日周四', '来源:', 'USAF 每小时地面观测', '报告类型:', 'METAR 航空例行天气报告', '露点:', '9.0°C', '其他云层:', '大部分晴天 (244米)', '下午9:00', '10°C', '1,024毫巴', '每小时0公里', '10.00公里', '大部分多云 (610米)', '本地:', '21:00、2019年11月28日周四', '协调世界时:', '13:00、2019年11月28日周四', '来源:', '周期文件', '趋势:', '无重要变化', '露点:', '9°C', '其他云层:', '大部分晴天 (213米)、部分多云 (396米)', '天气:', 'Light Rain', '原始:', 'ZUUU 281300Z 00000MPS 9999 -RA FEW007 SCT013 BKN020 10/09 Q1024 NOSIG', '下午9:00', '10.0°C', '1,024毫巴', '每小时0公里', '10.00公里', '大部分多云 (610米)', '本地:', '21:00、2019年11月28日周四', '协调世界时:', '13:00、2019年11月28日周四', '来源:', 'USAF 每小时地面观测', '报告类型:', 'METAR 航空例行天气报告', '露点:', '9.0°C', '其他云层:', '大部分晴天 (213米)、部分多云 (396米)', '天气:', 'Light Rain', '下午10:00', '10°C', '1,024毫巴', '每小时0公里', '10.00公里', '大部分多云 (610米)', '本地:', '22:00、2019年11月28日周四', '协调世界时:', '14:00、2019年11月28日周四', '来源:', '周期文件', '趋势:', '无重要变化', '露点:', '9°C', '其他云层:', '大部分晴天 (213米)、部分多云 (366米)', '原始:', 'ZUUU 281400Z 00000MPS 9999 FEW007 SCT012 BKN020 10/09 Q1024 NOSIG', '下午10:00', '10.0°C', '1,024毫巴', '每小时0公里', '10.00公里', '大部分多云 (610米)', '本地:', '22:00、2019年11月28日周四', '协调世界时:', '14:00、2019年11月28日周四', '来源:', 'USAF 每小时地面观测', '报告类型:', 'METAR 航空例行天气报告', '露点:', '9.0°C', '其他云层:', '大部分晴天 (213米)、部分多云 (366米)', '下午11:00', '10°C', '1,024毫巴', '每小时0公里', '10.00公里', '大部分多云 (610米)', '本地:', '23:00、2019年11月28日周四', '协调世界时:', '15:00、2019年11月28日周四', '来源:', '周期文件', '趋势:', '无重要变化', '露点:', '9°C', '其他云层:', '大部分晴天 (213米)、部分多云 (366米)', '天气:', 'Light Rain', '原始:', 'ZUUU 281500Z 00000MPS 9999 -RA FEW007 SCT012 BKN020 10/09 Q1024 NOSIG', '下午11:00', '10.0°C', '1,024毫巴', '每小时0公里', '10.00公里', '大部分多云 (610米)', '本地:', '23:00、2019年11月28日周四', '协调世界时:', '15:00、2019年11月28日周四', '来源:', 'USAF 每小时地面观测', '报告类型:', 'METAR 航空例行天气报告', '露点:', '9.0°C', '其他云层:', '大部分晴天 (213米)、部分多云 (366米)', '天气:', 'Light Rain']