['Light Rain、Mist', '-RA、IWC61、BR、IWC10', 'Light Rain、Mist', '-RA、IWC61、BR、IWC10', 'Light Rain、Mist', '-RA、IWC61、BR、IWC10', 'Light Rain、Mist', '-RA、IWC61、BR、IWC10', 'Light Rain、Mist', '-RA、IWC61、BR、IWC10', 'Light Rain、Mist', '-RA、IWC61、BR、IWC10', 'Mist', 'BR、IWC10', 'Light Rain、Mist', '-RA、IWC61、BR、IWC10', 'Light Rain、Mist', '-RA、IWC61、BR、IWC10', 'Mist', 'BR、IWC10', 'Mist', 'BR、IWC10', 'Mist', 'BR、IWC10', 'Light Rain、Mist', '-RA、IWC61、BR、IWC10', '上午12:00', '14°C', '1,022毫巴', '每小时0公里', '8.00公里', '大部分多云 (914米)', '本地:', '00:00、2019年11月5日周二', '协调世界时:', '16:00、2019年11月4日周一', '来源:', '周期文件', '趋势:', '无重要变化', '露点:', '13°C', '原始:', 'ZUUU 041600Z 00000MPS 8000 BKN030 14/13 Q1022 NOSIG', '上午12:00', '14.0°C', '1,022毫巴', '每小时0公里', '8.00公里', '大部分多云 (914米)', '本地:', '00:00、2019年11月5日周二', '协调世界时:', '16:00、2019年11月4日周一', '来源:', 'USAF 每小时地面观测', '报告类型:', 'METAR 航空例行天气报告', '露点:', '13.0°C', '上午1:00', '14°C', '1,022毫巴', '每小时0公里', '8.00公里', '大部分多云 (914米)', '本地:', '01:00、2019年11月5日周二', '协调世界时:', '17:00、2019年11月4日周一', '来源:', '周期文件', '趋势:', '无重要变化', '露点:', '13°C', '其他云层:', '大部分晴天 (701米)', '原始:', 'ZUUU 041700Z 00000MPS 8000 FEW023 BKN030 14/13 Q1022 NOSIG', '上午1:00', '14.0°C', '1,022毫巴', '每小时0公里', '8.00公里', '大部分多云 (914米)', '本地:', '01:00、2019年11月5日周二', '协调世界时:', '17:00、2019年11月4日周一', '来源:', 'USAF 每小时地面观测', '报告类型:', 'METAR 航空例行天气报告', '露点:', '13.0°C', '其他云层:', '大部分晴天 (701米)', '上午2:00', '15°C', '1,021毫巴', '每小时0公里', '5.00公里', '大部分多云 (792米)', '本地:', '02:00、2019年11月5日周二', '协调世界时:', '18:00、2019年11月4日周一', '来源:', '周期文件', '趋势:', '无重要变化', '露点:', '13°C', '其他云层:', '大部分晴天 (305米)', '天气:', 'Light Rain、Mist', '原始:', 'ZUUU 041800Z 00000MPS 5000 -RA BR FEW010 BKN026 15/13 Q1021 NOSIG', '上午2:00', '15.0°C', '1,021毫巴', '每小时0公里', '5.00公里', '大部分多云 (792米)', '本地:', '02:00、2019年11月5日周二', '协调世界时:', '18:00、2019年11月4日周一', '来源:', 'USAF 每小时地面观测', '报告类型:', 'METAR 航空例行天气报告', '露点:', '13.0°C', '其他云层:', '大部分晴天 (305米)', '天气:', 'Mist、Light Rain', '上午3:00', '14°C', '1,021毫巴', '每小时7.20公里, 西北', '3.70公里', '大部分多云 (914米)', '本地:', '03:00、2019年11月5日周二', '协调世界时:', '19:00、2019年11月4日周一', '来源:', '周期文件', '趋势:', '无重要变化', '露点:', '13°C', '其他云层:', '大部分晴天 (183米)', '天气:', 'Light Rain、Mist', '原始:', 'ZUUU 041900Z 30002MPS 260V340 3700 -RA BR FEW006 BKN030 14/13 Q1021 NOSIG', '上午3:00', '14.0°C', '1,021毫巴', '每小时7.20公里, 西北', '3.70公里', '大部分多云 (914米)', '本地:', '03:00、2019年11月5日周二', '协调世界时:', '19:00、2019年11月4日周一', '来源:', 'USAF 每小时地面观测', '报告类型:', 'METAR 航空例行天气报告', '露点:', '13.0°C', '其他云层:', '大部分晴天 (183米)', '天气:', 'Mist、Light Rain', '上午4:00', '14°C', '1,020毫巴', '每小时0公里', '3.70公里', '大部分多云 (914米)', '本地:', '04:00、2019年11月5日周二', '协调世界时:', '20:00、2019年11月4日周一', '来源:', '周期文件', '趋势:', '无重要变化', '露点:', '14°C', '其他云层:', '大部分晴天 (122米)', '天气:', 'Light Rain、Mist', '原始:', 'ZUUU 042000Z 00000MPS 3700 -RA BR FEW004 BKN030 14/14 Q1020 NOSIG', '上午4:00', '14.0°C', '1,020毫巴', '每小时0公里', '3.70公里', '大部分多云 (914米)', '本地:', '04:00、2019年11月5日周二', '协调世界时:', '20:00、2019年11月4日周一', '来源:', 'USAF 每小时地面观测', '报告类型:', 'METAR 航空例行天气报告', '露点:', '14.0°C', '其他云层:', '大部分晴天 (122米)', '天气:', 'Mist、Light Rain', '上午5:00', '13°C', '1,020毫巴', '每小时0公里', '5.00公里', '大部分多云 (914米)', '本地:', '05:00、2019年11月5日周二', '协调世界时:', '21:00、2019年11月4日周一', '来源:', '周期文件', '趋势:', '无重要变化', '露点:', '12°C', '其他云层:', '大部分晴天 (122米)、部分多云 (305米)', '天气:', 'Light Rain、Mist', '原始:', 'ZUUU 042100Z 00000MPS 5000 -RA BR FEW004 SCT010 BKN030 13/12 Q1020 NOSIG', '上午5:00', '13.0°C', '1,020毫巴', '每小时0公里', '5.00公里', '大部分多云 (914米)', '本地:', '05:00、2019年11月5日周二', '协调世界时:', '21:00、2019年11月4日周一', '来源:', 'USAF 每小时地面观测', '报告类型:', 'METAR 航空例行天气报告', '露点:', '12.0°C', '其他云层:', '大部分晴天 (122米)、部分多云 (305米)', '天气:', 'Mist、Light Rain', '上午6:00', '14°C', '1,020毫巴', '每小时3.60公里', '4.00公里', '大部分多云 (914米)', '本地:', '06:00、2019年11月5日周二', '协调世界时:', '22:00、2019年11月4日周一', '来源:', '周期文件', '趋势:', '变化为', '露点:', '13°C', '其他云层:', '大部分晴天 (122米)、部分多云 (244米)', '天气:', 'Light Rain、Mist、Light Rain', '原始:', 'ZUUU 042200Z VRB01MPS 4000 -RA BR FEW004 SCT008 BKN030 14/13 Q1020 BECMG TL2300 2700 -RA BR', '上午6:00', '14.0°C', '1,020毫巴', '每小时3.60公里', '4.00公里', '大部分多云 (914米)', '本地:', '06:00、2019年11月5日周二', '协调世界时:', '22:00、2019年11月4日周一', '来源:', 'USAF 每小时地面观测', '报告类型:', 'METAR 航空例行天气报告', '露点:', '13.0°C', '其他云层:', '大部分晴天 (122米)、部分多云 (244米)', '天气:', 'Mist、Light Rain', '上午7:00', '14°C', '1,020毫巴', '每小时0公里', '4.50公里', '大部分多云 (914米)', '本地:', '07:00、2019年11月5日周二', '协调世界时:', '23:00、2019年11月4日周一', '来源:', '周期文件', '趋势:', '无重要变化', '露点:', '13°C', '其他云层:', '大部分晴天 (122米)', '天气:', 'Light Rain、Mist', '原始:', 'ZUUU 042300Z 00000MPS 4500 -RA BR FEW004 BKN030 14/13 Q1020 NOSIG', '上午7:00', '14.0°C', '1,020毫巴', '每小时0公里', '4.50公里', '大部分多云 (914米)', '本地:', '07:00、2019年11月5日周二', '协调世界时:', '23:00、2019年11月4日周一', '来源:', 'USAF 每小时地面观测', '报告类型:', 'METAR 航空例行天气报告', '露点:', '13.0°C', '其他云层:', '大部分晴天 (122米)', '天气:', 'Mist、Light Rain', '上午8:00', '14°C', '1,020毫巴', '每小时3.60公里, 西北', '3.50公里', '大部分多云 (1,006米)', '本地:', '08:00、2019年11月5日周二', '协调世界时:', '00:00、2019年11月5日周二', '来源:', '周期文件', '趋势:', '无重要变化', '露点:', '13°C', '其他云层:', '大部分晴天 (183米)', '天气:', 'Mist', '原始:', 'ZUUU 050000Z 30001MPS 3500 BR FEW006 BKN033 14/13 Q1020 NOSIG', '上午8:00', '14.0°C', '1,020毫巴', '每小时3.60公里, 西北', '3.50公里', '大部分多云 (1,006米)', '本地:', '08:00、2019年11月5日周二', '协调世界时:', '00:00、2019年11月5日周二', '来源:', 'USAF 每小时地面观测', '报告类型:', 'METAR 航空例行天气报告', '露点:', '13.0°C', '其他云层:', '大部分晴天 (183米)', '天气:', 'Mist', '上午9:00', '14°C', '1,021毫巴', '每小时7.20公里, 西北', '3.50公里', '大部分多云 (792米)', '本地:', '09:00、2019年11月5日周二', '协调世界时:', '01:00、2019年11月5日周二', '来源:', '周期文件', '趋势:', '无重要变化', '露点:', '13°C', '其他云层:', '大部分晴天 (183米)', '天气:', 'Light Rain、Mist', '原始:', 'ZUUU 050100Z 31002MPS 270V350 3500 -RA BR FEW006 BKN026 14/13 Q1021 NOSIG', '上午9:00', '14.0°C', '1,021毫巴', '每小时7.20公里, 西北', '3.50公里', '大部分多云 (792米)', '本地:', '09:00、2019年11月5日周二', '协调世界时:', '01:00、2019年11月5日周二', '来源:', 'USAF 每小时地面观测', '报告类型:', 'METAR 航空例行天气报告', '露点:', '13.0°C', '其他云层:', '大部分晴天 (183米)', '天气:', 'Mist、Light Rain', '上午10:00', '14°C', '1,020毫巴', '每小时3.60公里, 西北', '3.50公里', '大部分多云 (792米)', '本地:', '10:00、2019年11月5日周二', '协调世界时:', '02:00、2019年11月5日周二', '来源:', '周期文件', '趋势:', '无重要变化', '露点:', '13°C', '其他云层:', '大部分晴天 (244米)', '天气:', 'Light Rain、Mist', '原始:', 'ZUUU 050200Z 30001MPS 3500 -RA BR FEW008 BKN026 14/13 Q1020 NOSIG', '上午10:00', '14.0°C', '1,020毫巴', '每小时3.60公里, 西北', '3.50公里', '大部分多云 (792米)', '本地:', '10:00、2019年11月5日周二', '协调世界时:', '02:00、2019年11月5日周二', '来源:', 'USAF 每小时地面观测', '报告类型:', 'METAR 航空例行天气报告', '露点:', '13.0°C', '其他云层:', '大部分晴天 (244米)', '天气:', 'Mist、Light Rain', '上午11:00', '15°C', '1,020毫巴', '每小时3.60公里', '4.50公里', '大部分多云 (792米)', '本地:', '11:00、2019年11月5日周二', '协调世界时:', '03:00、2019年11月5日周二', '来源:', '周期文件', '趋势:', '无重要变化', '露点:', '13°C', '其他云层:', '大部分晴天 (335米)', '天气:', 'Mist', '原始:', 'ZUUU 050300Z VRB01MPS 4500 BR FEW011 BKN026 15/13 Q1020 NOSIG', '上午11:00', '15.0°C', '1,020毫巴', '每小时3.60公里', '4.50公里', '大部分多云 (792米)', '本地:', '11:00、2019年11月5日周二', '协调世界时:', '03:00、2019年11月5日周二', '来源:', 'USAF 每小时地面观测', '报告类型:', 'METAR 航空例行天气报告', '露点:', '13.0°C', '其他云层:', '大部分晴天 (335米)', '天气:', 'Mist', '下午12:00', '16°C', '1,019毫巴', '每小时3.60公里', '5.00公里', '大部分多云 (1,006米)', '本地:', '12:00、2019年11月5日周二', '协调世界时:', '04:00、2019年11月5日周二', '来源:', '周期文件', '趋势:', '无重要变化', '露点:', '13°C', '其他云层:', '大部分晴天 (366米)', '天气:', 'Mist', '原始:', 'ZUUU 050400Z VRB01MPS 5000 BR FEW012 BKN033 16/13 Q1019 NOSIG', '下午12:00', '16.0°C', '1,019毫巴', '每小时3.60公里', '5.00公里', '大部分多云 (1,006米)', '本地:', '12:00、2019年11月5日周二', '协调世界时:', '04:00、2019年11月5日周二', '来源:', 'USAF 每小时地面观测', '报告类型:', 'METAR 航空例行天气报告', '露点:', '13.0°C', '其他云层:', '大部分晴天 (366米)', '天气:', 'Mist', '下午1:00', '16°C', '1,018毫巴', '每小时7.20公里, 西', '5.00公里', '大部分多云 (1,006米)', '本地:', '13:00、2019年11月5日周二', '协调世界时:', '05:00、2019年11月5日周二', '来源:', '周期文件', '趋势:', '无重要变化', '露点:', '13°C', '其他云层:', '大部分晴天 (610米)', '天气:', 'Mist', '原始:', 'ZUUU 050500Z 28002MPS 240V350 5000 BR FEW020 BKN033 16/13 Q1018 NOSIG', '下午1:00', '16.0°C', '1,018毫巴', '每小时7.20公里, 西', '5.00公里', '大部分多云 (1,006米)', '本地:', '13:00、2019年11月5日周二', '协调世界时:', '05:00、2019年11月5日周二', '来源:', 'USAF 每小时地面观测', '报告类型:', 'METAR 航空例行天气报告', '露点:', '13.0°C', '其他云层:', '大部分晴天 (610米)', '天气:', 'Mist', '下午2:00', '16°C', '1,016毫巴', '每小时7.20公里, 西北', '7.00公里', '部分多云 (610米)', '本地:', '14:00、2019年11月5日周二', '协调世界时:', '06:00、2019年11月5日周二', '来源:', '周期文件', '趋势:', '无重要变化', '露点:', '13°C', '原始:', 'ZUUU 050600Z 32002MPS 280V010 7000 SCT020 16/13 Q1016 NOSIG', '下午2:00', '16.0°C', '1,016毫巴', '每小时7.20公里, 西北', '7.00公里', '部分多云 (610米)', '本地:', '14:00、2019年11月5日周二', '协调世界时:', '06:00、2019年11月5日周二', '来源:', 'USAF 每小时地面观测', '报告类型:', 'METAR 航空例行天气报告', '露点:', '13.0°C', '下午3:00', '16°C', '1,015毫巴', '每小时10.8公里, 东北', '10.00公里', '大部分多云 (792米)', '本地:', '15:00、2019年11月5日周二', '协调世界时:', '07:00、2019年11月5日周二', '来源:', '周期文件', '趋势:', '无重要变化', '露点:', '12°C', '原始:', 'ZUUU 050700Z 03003MPS 360V060 9999 BKN026 16/12 Q1015 NOSIG', '下午3:00', '16.0°C', '1,015毫巴', '每小时10.8公里, 东北', '10.00公里', '大部分多云 (792米)', '本地:', '15:00、2019年11月5日周二', '协调世界时:', '07:00、2019年11月5日周二', '来源:', 'USAF 每小时地面观测', '报告类型:', 'METAR 航空例行天气报告', '露点:', '12.0°C', '下午4:00', '16°C', '1,015毫巴', '每小时14.4公里, 东', '10.00公里', '大部分多云 (792米)', '本地:', '16:00、2019年11月5日周二', '协调世界时:', '08:00、2019年11月5日周二', '来源:', '周期文件', '趋势:', '无重要变化', '露点:', '12°C', '阵风风速:', '每小时32.4公里', '原始:', 'ZUUU 050800Z 07004G09MPS 030V090 9999 BKN026 16/12 Q1015 NOSIG', '下午4:00', '16.0°C', '1,015毫巴', '每小时14.4公里, 东', '10.00公里', '大部分多云 (792米)', '本地:', '16:00、2019年11月5日周二', '协调世界时:', '08:00、2019年11月5日周二', '来源:', 'USAF 每小时地面观测', '报告类型:', 'METAR 航空例行天气报告', '露点:', '12.0°C', '阵风风速:', '每小时32.4公里', '下午5:00', '15°C', '1,015毫巴', '每小时10.8公里, 东', '10.00公里', '大部分多云 (792米)', '本地:', '17:00、2019年11月5日周二', '协调世界时:', '09:00、2019年11月5日周二', '来源:', '周期文件', '趋势:', '无重要变化', '露点:', '11°C', '原始:', 'ZUUU 050900Z 07003MPS 9999 BKN026 15/11 Q1015 NOSIG', '下午5:00', '15.0°C', '1,015毫巴', '每小时10.8公里, 东', '10.00公里', '大部分多云 (792米)', '本地:', '17:00、2019年11月5日周二', '协调世界时:', '09:00、2019年11月5日周二', '来源:', 'USAF 每小时地面观测', '报告类型:', 'METAR 航空例行天气报告', '露点:', '11.0°C', '下午6:00', '15°C', '1,015毫巴', '每小时10.8公里, 东北', '10.00公里', '部分多云 (1,219米)', '本地:', '18:00、2019年11月5日周二', '协调世界时:', '10:00、2019年11月5日周二', '来源:', '周期文件', '趋势:', '无重要变化', '露点:', '11°C', '原始:', 'ZUUU 051000Z 06003MPS 020V110 9999 SCT040 15/11 Q1015 NOSIG', '下午6:00', '15.0°C', '1,015毫巴', '每小时10.8公里, 东北', '10.00公里', '部分多云 (1,219米)', '本地:', '18:00、2019年11月5日周二', '协调世界时:', '10:00、2019年11月5日周二', '来源:', 'USAF 每小时地面观测', '报告类型:', 'METAR 航空例行天气报告', '露点:', '11.0°C', '下午7:00', '15°C', '1,016毫巴', '每小时10.8公里, 东北', '10.00公里', '部分多云 (1,006米)', '本地:', '19:00、2019年11月5日周二', '协调世界时:', '11:00、2019年11月5日周二', '来源:', '周期文件', '趋势:', '无重要变化', '露点:', '12°C', '原始:', 'ZUUU 051100Z 04003MPS 9999 SCT033 15/12 Q1016 NOSIG', '下午7:00', '15.0°C', '1,016毫巴', '每小时10.8公里, 东北', '10.00公里', '部分多云 (1,006米)', '本地:', '19:00、2019年11月5日周二', '协调世界时:', '11:00、2019年11月5日周二', '来源:', 'USAF 每小时地面观测', '报告类型:', 'METAR 航空例行天气报告', '露点:', '12.0°C', '下午8:00', '14°C', '1,016毫巴', '每小时14.4公里, 北', '10.00公里', '部分多云 (1,006米)', '本地:', '20:00、2019年11月5日周二', '协调世界时:', '12:00、2019年11月5日周二', '来源:', '周期文件', '趋势:', '无重要变化', '露点:', '12°C', '其他云层:', '大部分晴天 (457米)', '原始:', 'ZUUU 051200Z 02004MPS 9999 FEW015 SCT033 14/12 Q1016 NOSIG', '下午8:00', '14.0°C', '1,016毫巴', '每小时14.4公里, 北', '10.00公里', '部分多云 (1,006米)', '本地:', '20:00、2019年11月5日周二', '协调世界时:', '12:00、2019年11月5日周二', '来源:', 'USAF 每小时地面观测', '报告类型:', 'METAR 航空例行天气报告', '露点:', '12.0°C', '其他云层:', '大部分晴天 (457米)', '下午9:00', '14°C', '1,017毫巴', '每小时10.8公里, 北', '8.00公里', '部分多云 (396米)', '本地:', '21:00、2019年11月5日周二', '协调世界时:', '13:00、2019年11月5日周二', '来源:', '周期文件', '趋势:', '无重要变化', '露点:', '12°C', '其他云层:', '部分多云 (1,006米)', '原始:', 'ZUUU 051300Z 01003MPS 330V040 8000 SCT013 SCT033 14/12 Q1017 NOSIG', '下午9:00', '14.0°C', '1,017毫巴', '每小时10.8公里, 北', '8.00公里', '部分多云 (396米)', '本地:', '21:00、2019年11月5日周二', '协调世界时:', '13:00、2019年11月5日周二', '来源:', 'USAF 每小时地面观测', '报告类型:', 'METAR 航空例行天气报告', '露点:', '12.0°C', '其他云层:', '部分多云 (1,006米)', '下午10:00', '15°C', '1,017毫巴', '每小时10.8公里, 东北', '8.00公里', '部分多云 (396米)', '本地:', '22:00、2019年11月5日周二', '协调世界时:', '14:00、2019年11月5日周二', '来源:', '周期文件', '趋势:', '无重要变化', '露点:', '12°C', '其他云层:', '部分多云 (1,006米)', '原始:', 'ZUUU 051400Z 03003MPS 8000 SCT013 SCT033 15/12 Q1017 NOSIG', '下午10:00', '15.0°C', '1,017毫巴', '每小时10.8公里, 东北', '8.00公里', '部分多云 (396米)', '本地:', '22:00、2019年11月5日周二', '协调世界时:', '14:00、2019年11月5日周二', '来源:', 'USAF 每小时地面观测', '报告类型:', 'METAR 航空例行天气报告', '露点:', '12.0°C', '其他云层:', '部分多云 (1,006米)', '下午11:00', '14°C', '1,018毫巴', '每小时10.8公里, 北', '4.50公里', '部分多云 (396米)', '本地:', '23:00、2019年11月5日周二', '协调世界时:', '15:00、2019年11月5日周二', '来源:', '周期文件', '趋势:', '无重要变化', '露点:', '13°C', '其他云层:', '大部分晴天 (183米)', '天气:', 'Light Rain、Mist', '原始:', 'ZUUU 051500Z 02003MPS 4500 -RA BR FEW006 SCT013 14/13 Q1018 NOSIG', '下午11:00', '14.0°C', '1,018毫巴', '每小时10.8公里, 北', '4.50公里', '部分多云 (396米)', '本地:', '23:00、2019年11月5日周二', '协调世界时:', '15:00、2019年11月5日周二', '来源:', 'USAF 每小时地面观测', '报告类型:', 'METAR 航空例行天气报告', '露点:', '13.0°C', '其他云层:', '大部分晴天 (183米)', '天气:', 'Mist、Light Rain']