['Showers of Light Rain', '-SHRA、IWC80', 'Showers of Light Rain', '-SHRA、IWC80', 'Thunderstorm with Light Rain、Thunderstorm with Rain、Mist', '-TSRA、TSRA、IWC95、BR、IWC10', 'Thunderstorm with Light Rain、Thunderstorm with Rain、Showers of Light Rain', '-TSRA、IWC95、-SHRA', 'Thunderstorm with Light Rain、Thunderstorm with Rain、Showers of Light Rain', '-TSRA、IWC95、-SHRA', '上午12:00', '25°C', '1,006毫巴', '每小时7.20公里, 南', '≥ 10.00公里', '晴空万里', '本地:', '00:00、2019年7月21日周日', '协调世界时:', '16:00、2019年7月20日周六', '来源:', '周期文件', '趋势:', '无重要变化', '露点:', '23°C', '晴空万里:', '真', '原始:', 'ZUUU 201600Z 18002MPS 130V220 CAVOK 25/23 Q1006 NOSIG', '上午12:00', '25.0°C', '1,006毫巴', '每小时7.20公里, 南', '9.90公里', '晴空万里', '本地:', '00:00、2019年7月21日周日', '协调世界时:', '16:00、2019年7月20日周六', '来源:', 'USAF 每小时地面观测', '报告类型:', 'METAR 航空例行天气报告', '露点:', '23.0°C', '晴空万里:', '真', '上午1:00', '25°C', '1,005毫巴', '每小时3.60公里', '≥ 10.00公里', '晴空万里', '本地:', '01:00、2019年7月21日周日', '协调世界时:', '17:00、2019年7月20日周六', '来源:', '周期文件', '趋势:', '无重要变化', '露点:', '23°C', '晴空万里:', '真', '原始:', 'ZUUU 201700Z VRB01MPS CAVOK 25/23 Q1005 NOSIG', '上午1:00', '25.0°C', '1,005毫巴', '每小时3.60公里', '9.90公里', '晴空万里', '本地:', '01:00、2019年7月21日周日', '协调世界时:', '17:00、2019年7月20日周六', '来源:', 'USAF 每小时地面观测', '报告类型:', 'METAR 航空例行天气报告', '露点:', '23.0°C', '晴空万里:', '真', '上午2:00', '25°C', '1,005毫巴', '每小时0公里', '8.00公里', '无重要云', '本地:', '02:00、2019年7月21日周日', '协调世界时:', '18:00、2019年7月20日周六', '来源:', '周期文件', '趋势:', '无重要变化', '露点:', '23°C', '原始:', 'ZUUU 201800Z 00000MPS 8000 NSC 25/23 Q1005 NOSIG', '上午2:00', '25.0°C', '1,005毫巴', '每小时0公里', '8.00公里', '未检测到云', '本地:', '02:00、2019年7月21日周日', '协调世界时:', '18:00、2019年7月20日周六', '来源:', 'USAF 每小时地面观测', '报告类型:', 'METAR 航空例行天气报告', '露点:', '23.0°C', '上午3:00', '25°C', '1,004毫巴', '每小时0公里', '8.00公里', '无重要云', '本地:', '03:00、2019年7月21日周日', '协调世界时:', '19:00、2019年7月20日周六', '来源:', '周期文件', '趋势:', '无重要变化', '露点:', '23°C', '原始:', 'ZUUU 201900Z 00000MPS 8000 NSC 25/23 Q1004 NOSIG', '上午3:00', '25.0°C', '1,004毫巴', '每小时0公里', '8.00公里', '未检测到云', '本地:', '03:00、2019年7月21日周日', '协调世界时:', '19:00、2019年7月20日周六', '来源:', 'USAF 每小时地面观测', '报告类型:', 'METAR 航空例行天气报告', '露点:', '23.0°C', '上午4:00', '25°C', '1,004毫巴', '每小时3.60公里', '8.00公里', '无重要云', '本地:', '04:00、2019年7月21日周日', '协调世界时:', '20:00、2019年7月20日周六', '来源:', '周期文件', '趋势:', '无重要变化', '露点:', '22°C', '原始:', 'ZUUU 202000Z VRB01MPS 8000 NSC 25/22 Q1004 NOSIG', '上午4:00', '25.0°C', '1,004毫巴', '每小时3.60公里', '8.00公里', '未检测到云', '本地:', '04:00、2019年7月21日周日', '协调世界时:', '20:00、2019年7月20日周六', '来源:', 'USAF 每小时地面观测', '报告类型:', 'METAR 航空例行天气报告', '露点:', '22.0°C', '上午5:00', '24°C', '1,004毫巴', '每小时3.60公里', '7.00公里', '无重要云', '本地:', '05:00、2019年7月21日周日', '协调世界时:', '21:00、2019年7月20日周六', '来源:', '周期文件', '趋势:', '无重要变化', '露点:', '22°C', '原始:', 'ZUUU 202100Z VRB01MPS 7000 NSC 24/22 Q1004 NOSIG', '上午5:00', '24.0°C', '1,004毫巴', '每小时3.60公里', '7.00公里', '未检测到云', '本地:', '05:00、2019年7月21日周日', '协调世界时:', '21:00、2019年7月20日周六', '来源:', 'USAF 每小时地面观测', '报告类型:', 'METAR 航空例行天气报告', '露点:', '22.0°C', '上午6:00', '24°C', '1,004毫巴', '每小时3.60公里', '6.00公里', '无重要云', '本地:', '06:00、2019年7月21日周日', '协调世界时:', '22:00、2019年7月20日周六', '来源:', '周期文件', '趋势:', '无重要变化', '露点:', '22°C', '原始:', 'ZUUU 202200Z VRB01MPS 6000 NSC 24/22 Q1004 NOSIG', '上午6:00', '24.0°C', '1,004毫巴', '每小时3.60公里', '6.00公里', '未检测到云', '本地:', '06:00、2019年7月21日周日', '协调世界时:', '22:00、2019年7月20日周六', '来源:', 'USAF 每小时地面观测', '报告类型:', 'METAR 航空例行天气报告', '露点:', '22.0°C', '上午7:00', '25°C', '1,004毫巴', '每小时3.60公里', '6.00公里', '无重要云', '本地:', '07:00、2019年7月21日周日', '协调世界时:', '23:00、2019年7月20日周六', '来源:', '周期文件', '趋势:', '无重要变化', '露点:', '23°C', '原始:', 'ZUUU 202300Z VRB01MPS 6000 NSC 25/23 Q1004 NOSIG', '上午7:00', '25.0°C', '1,004毫巴', '每小时3.60公里', '6.00公里', '未检测到云', '本地:', '07:00、2019年7月21日周日', '协调世界时:', '23:00、2019年7月20日周六', '来源:', 'USAF 每小时地面观测', '报告类型:', 'METAR 航空例行天气报告', '露点:', '23.0°C', '上午8:00', '25°C', '1,005毫巴', '每小时0公里', '6.00公里', '无重要云', '本地:', '08:00、2019年7月21日周日', '协调世界时:', '00:00、2019年7月21日周日', '来源:', '周期文件', '趋势:', '无重要变化', '露点:', '23°C', '原始:', 'ZUUU 210000Z 00000MPS 6000 NSC 25/23 Q1005 NOSIG', '上午8:00', '25.0°C', '1,005毫巴', '每小时0公里', '6.00公里', '未检测到云', '本地:', '08:00、2019年7月21日周日', '协调世界时:', '00:00、2019年7月21日周日', '来源:', 'USAF 每小时地面观测', '报告类型:', 'METAR 航空例行天气报告', '露点:', '23.0°C', '上午9:00', '27°C', '1,005毫巴', '每小时0公里', '6.00公里', '无重要云', '本地:', '09:00、2019年7月21日周日', '协调世界时:', '01:00、2019年7月21日周日', '来源:', '周期文件', '趋势:', '无重要变化', '露点:', '23°C', '原始:', 'ZUUU 210100Z 00000MPS 6000 NSC 27/23 Q1005 NOSIG', '上午9:00', '27.0°C', '1,005毫巴', '每小时0公里', '6.00公里', '未检测到云', '本地:', '09:00、2019年7月21日周日', '协调世界时:', '01:00、2019年7月21日周日', '来源:', 'USAF 每小时地面观测', '报告类型:', 'METAR 航空例行天气报告', '露点:', '23.0°C', '上午10:00', '28°C', '1,004毫巴', '每小时0公里', '7.00公里', '大部分晴天 (792米)', '本地:', '10:00、2019年7月21日周日', '协调世界时:', '02:00、2019年7月21日周日', '来源:', '周期文件', '趋势:', '无重要变化', '露点:', '23°C', '原始:', 'ZUUU 210200Z 00000MPS 7000 FEW026 28/23 Q1004 NOSIG', '上午10:00', '28.0°C', '1,004毫巴', '每小时0公里', '7.00公里', '大部分晴天 (792米)', '本地:', '10:00、2019年7月21日周日', '协调世界时:', '02:00、2019年7月21日周日', '来源:', 'USAF 每小时地面观测', '报告类型:', 'METAR 航空例行天气报告', '露点:', '23.0°C', '上午11:00', '30°C', '1,004毫巴', '每小时0公里', '8.00公里', '大部分晴天 (792米)', '本地:', '11:00、2019年7月21日周日', '协调世界时:', '03:00、2019年7月21日周日', '来源:', '周期文件', '趋势:', '无重要变化', '露点:', '24°C', '原始:', 'ZUUU 210300Z 00000MPS 8000 FEW026 30/24 Q1004 NOSIG', '上午11:00', '30.0°C', '1,004毫巴', '每小时0公里', '8.00公里', '大部分晴天 (792米)', '本地:', '11:00、2019年7月21日周日', '协调世界时:', '03:00、2019年7月21日周日', '来源:', 'USAF 每小时地面观测', '报告类型:', 'METAR 航空例行天气报告', '露点:', '24.0°C', '下午12:00', '30°C', '1,004毫巴', '每小时3.60公里', '10.00公里', '部分多云 (914米)', '本地:', '12:00、2019年7月21日周日', '协调世界时:', '04:00、2019年7月21日周日', '来源:', '周期文件', '趋势:', '无重要变化', '露点:', '23°C', '其他云层:', '大部分晴天 (914米)', '原始:', 'ZUUU 210400Z VRB01MPS 9999 FEW030TCU SCT030 30/23 Q1004 NOSIG', '下午12:00', '30.0°C', '1,004毫巴', '每小时3.60公里', '10.00公里', '部分多云 (914米)', '本地:', '12:00、2019年7月21日周日', '协调世界时:', '04:00、2019年7月21日周日', '来源:', 'USAF 每小时地面观测', '报告类型:', 'METAR 航空例行天气报告', '露点:', '23.0°C', '其他云层:', '大部分晴天 (914米)', '下午1:00', '31°C', '1,003毫巴', '每小时7.20公里', '10.00公里', '部分多云 (914米)', '本地:', '13:00、2019年7月21日周日', '协调世界时:', '05:00、2019年7月21日周日', '来源:', '周期文件', '趋势:', '无重要变化', '露点:', '23°C', '其他云层:', '大部分晴天 (914米)', '原始:', 'ZUUU 210500Z VRB02MPS 9999 FEW030TCU SCT030 31/23 Q1003 NOSIG', '下午1:00', '31.0°C', '1,003毫巴', '每小时7.20公里', '10.00公里', '部分多云 (914米)', '本地:', '13:00、2019年7月21日周日', '协调世界时:', '05:00、2019年7月21日周日', '来源:', 'USAF 每小时地面观测', '报告类型:', 'METAR 航空例行天气报告', '露点:', '23.0°C', '其他云层:', '大部分晴天 (914米)', '下午2:00', '34°C', '1,002毫巴', '每小时3.60公里', '10.00公里', '部分多云 (914米)', '本地:', '14:00、2019年7月21日周日', '协调世界时:', '06:00、2019年7月21日周日', '来源:', '周期文件', '趋势:', '无重要变化', '露点:', '22°C', '其他云层:', '大部分晴天 (914米)', '原始:', 'ZUUU 210600Z VRB01MPS 9999 FEW030TCU SCT030 34/22 Q1002 NOSIG', '下午2:00', '34.0°C', '1,002毫巴', '每小时3.60公里', '10.00公里', '部分多云 (914米)', '本地:', '14:00、2019年7月21日周日', '协调世界时:', '06:00、2019年7月21日周日', '来源:', 'USAF 每小时地面观测', '报告类型:', 'METAR 航空例行天气报告', '露点:', '22.0°C', '其他云层:', '大部分晴天 (914米)', '下午3:00', '33°C', '1,001毫巴', '每小时3.60公里', '10.00公里', '部分多云 (914米)', '本地:', '15:00、2019年7月21日周日', '协调世界时:', '07:00、2019年7月21日周日', '来源:', '周期文件', '趋势:', '无重要变化', '露点:', '23°C', '其他云层:', '大部分晴天 (914米)', '原始:', 'ZUUU 210700Z VRB01MPS 9999 FEW030TCU SCT030 33/23 Q1001 NOSIG', '下午3:00', '33.0°C', '1,001毫巴', '每小时3.60公里', '10.00公里', '部分多云 (914米)', '本地:', '15:00、2019年7月21日周日', '协调世界时:', '07:00、2019年7月21日周日', '来源:', 'USAF 每小时地面观测', '报告类型:', 'METAR 航空例行天气报告', '露点:', '23.0°C', '其他云层:', '大部分晴天 (914米)', '下午4:00', '33°C', '1,001毫巴', '每小时7.20公里', '10.00公里', '部分多云 (914米)', '本地:', '16:00、2019年7月21日周日', '协调世界时:', '08:00、2019年7月21日周日', '来源:', '周期文件', '趋势:', '无重要变化', '露点:', '23°C', '其他云层:', '大部分晴天 (914米)', '原始:', 'ZUUU 210800Z VRB02MPS 9999 FEW030TCU SCT030 33/23 Q1001 NOSIG', '下午4:00', '33.0°C', '1,001毫巴', '每小时7.20公里', '10.00公里', '部分多云 (914米)', '本地:', '16:00、2019年7月21日周日', '协调世界时:', '08:00、2019年7月21日周日', '来源:', 'USAF 每小时地面观测', '报告类型:', 'METAR 航空例行天气报告', '露点:', '23.0°C', '其他云层:', '大部分晴天 (914米)', '下午5:00', '33°C', '1,000毫巴', '每小时7.20公里, 北', '10.00公里', '部分多云 (914米)', '本地:', '17:00、2019年7月21日周日', '协调世界时:', '09:00、2019年7月21日周日', '来源:', '周期文件', '趋势:', '无重要变化', '露点:', '23°C', '其他云层:', '大部分晴天 (914米)', '原始:', 'ZUUU 210900Z 02002MPS 330V070 9999 FEW030TCU SCT030 33/23 Q1000 NOSIG', '下午5:00', '33.0°C', '1,000毫巴', '每小时7.20公里, 北', '10.00公里', '部分多云 (914米)', '本地:', '17:00、2019年7月21日周日', '协调世界时:', '09:00、2019年7月21日周日', '来源:', 'USAF 每小时地面观测', '报告类型:', 'METAR 航空例行天气报告', '露点:', '23.0°C', '其他云层:', '大部分晴天 (914米)', '下午6:00', '33°C', '999.0毫巴', '每小时7.20公里', '10.00公里', '部分多云 (914米)', '本地:', '18:00、2019年7月21日周日', '协调世界时:', '10:00、2019年7月21日周日', '来源:', '周期文件', '趋势:', '无重要变化', '露点:', '23°C', '其他云层:', '大部分晴天 (914米)', '原始:', 'ZUUU 211000Z VRB02MPS 9999 FEW030CB SCT030 33/23 Q0999 NOSIG', '下午6:00', '33.0°C', '999.0毫巴', '每小时7.20公里', '10.00公里', '部分多云 (914米)', '本地:', '18:00、2019年7月21日周日', '协调世界时:', '10:00、2019年7月21日周日', '来源:', 'USAF 每小时地面观测', '报告类型:', 'METAR 航空例行天气报告', '露点:', '23.0°C', '其他云层:', '大部分晴天 (914米)', '下午7:00', '31°C', '1,000毫巴', '每小时14.4公里, 东', '10.00公里', '大部分多云 (914米)', '本地:', '19:00、2019年7月21日周日', '协调世界时:', '11:00、2019年7月21日周日', '来源:', '周期文件', '趋势:', '无重要变化', '露点:', '23°C', '其他云层:', '大部分晴天 (914米)', '天气:', 'Showers of Light Rain', '原始:', 'ZUUU 211100Z 09004MPS 050V130 9999 -SHRA FEW030CB BKN030 31/23 Q1000 NOSIG', '下午7:00', '31.0°C', '1,000毫巴', '每小时14.4公里, 东', '10.00公里', '大部分多云 (914米)', '本地:', '19:00、2019年7月21日周日', '协调世界时:', '11:00、2019年7月21日周日', '来源:', 'USAF 每小时地面观测', '报告类型:', 'METAR 航空例行天气报告', '露点:', '23.0°C', '其他云层:', '大部分晴天 (914米)', '天气:', 'Showers of Light Rain', '下午8:00', '28°C', '1,001毫巴', '每小时14.4公里, 北', '10.00公里', '部分多云 (914米)', '本地:', '20:00、2019年7月21日周日', '协调世界时:', '12:00、2019年7月21日周日', '来源:', '周期文件', '趋势:', '无重要变化', '露点:', '24°C', '天气:', 'Showers of Light Rain', '原始:', 'ZUUU 211200Z 01004MPS 340V040 9999 -SHRA SCT030 SCT030CB 28/24 Q1001 NOSIG', '下午8:00', '28.0°C', '1,001毫巴', '每小时14.4公里, 北', '10.00公里', '部分多云 (914米)', '本地:', '20:00、2019年7月21日周日', '协调世界时:', '12:00、2019年7月21日周日', '来源:', 'USAF 每小时地面观测', '报告类型:', 'METAR 航空例行天气报告', '露点:', '24.0°C', '天气:', 'Showers of Light Rain', '下午9:00', '26°C', '1,002毫巴', '每小时14.4公里, 西南', '4.00公里', '部分多云 (914米)', '本地:', '21:00、2019年7月21日周日', '协调世界时:', '13:00、2019年7月21日周日', '来源:', '周期文件', '趋势:', '变化为', '露点:', '24°C', '天气:', 'Thunderstorm with Rain、Mist、Thunderstorm with Light Rain', '原始:', 'ZUUU 211300Z 22004MPS 4000 TSRA BR SCT030 SCT030CB 26/24 Q1002 BECMG TL1330 -TSRA', '下午9:00', '26.0°C', '1,002毫巴', '每小时14.4公里, 西南', '4.00公里', '部分多云 (914米)', '本地:', '21:00、2019年7月21日周日', '协调世界时:', '13:00、2019年7月21日周日', '来源:', 'USAF 每小时地面观测', '报告类型:', 'METAR 航空例行天气报告', '露点:', '24.0°C', '天气:', 'Mist、Thunderstorm with Rain', '下午10:00', '26°C', '1,002毫巴', '每小时3.60公里', '8.00公里', '部分多云 (1,219米)', '本地:', '22:00、2019年7月21日周日', '协调世界时:', '14:00、2019年7月21日周日', '来源:', '周期文件', '趋势:', '变化为', '露点:', '25°C', '其他云层:', '大部分晴天 (1,219米)', '天气:', 'Thunderstorm with Light Rain、Showers of Light Rain', '原始:', 'ZUUU 211400Z VRB01MPS 8000 -TSRA FEW040CB SCT040 26/25 Q1002 BECMG TL1500 -SHRA', '下午10:00', '26.0°C', '1,002毫巴', '每小时3.60公里', '8.00公里', '部分多云 (1,219米)', '本地:', '22:00、2019年7月21日周日', '协调世界时:', '14:00、2019年7月21日周日', '来源:', 'USAF 每小时地面观测', '报告类型:', 'METAR 航空例行天气报告', '露点:', '25.0°C', '其他云层:', '大部分晴天 (1,219米)', '天气:', 'Thunderstorm with Rain', '下午11:00', '26°C', '1,002毫巴', '每小时3.60公里', '10.00公里', '部分多云 (1,219米)', '本地:', '23:00、2019年7月21日周日', '协调世界时:', '15:00、2019年7月21日周日', '来源:', '周期文件', '趋势:', '变化为', '露点:', '24°C', '其他云层:', '大部分晴天 (1,219米)', '天气:', 'Thunderstorm with Light Rain、Showers of Light Rain', '原始:', 'ZUUU 211500Z VRB01MPS 9999 -TSRA FEW040CB SCT040 26/24 Q1002 BECMG TL1600 -SHRA', '下午11:00', '26.0°C', '1,002毫巴', '每小时3.60公里', '10.00公里', '部分多云 (1,219米)', '本地:', '23:00、2019年7月21日周日', '协调世界时:', '15:00、2019年7月21日周日', '来源:', 'USAF 每小时地面观测', '报告类型:', 'METAR 航空例行天气报告', '露点:', '24.0°C', '其他云层:', '大部分晴天 (1,219米)', '天气:', 'Thunderstorm with Rain']