['Mist', 'BR、IWC10', 'Light Rain、Mist', '-RA、IWC61、BR、IWC10', 'Light Rain、Mist', '-RA、IWC61、BR、IWC10', 'Mist', 'BR、IWC10', 'Mist', 'BR、IWC10', 'Light Rain、Mist', '-RA、IWC61、BR、IWC10', 'Light Rain、Mist', '-RA、IWC61、BR、IWC10', 'Light Rain、Mist', '-RA、IWC61、BR、IWC10', 'Light Rain、Mist', '-RA、IWC61、BR、IWC10', 'Light Rain、Mist', '-RA、IWC61、BR、IWC10', 'Light Rain、Mist', '-RA、IWC61、BR、IWC10', 'Light Rain、Mist', '-RA、IWC61、BR、IWC10', 'Light Rain、Mist', '-RA、IWC61、BR、IWC10', 'Mist', 'BR、IWC10', 'Mist', 'BR、IWC10', 'Mist', 'BR、IWC10', 'Mist', 'BR、IWC10', 'Mist', 'BR、IWC10', 'Mist', 'BR、IWC10', 'Mist', 'BR、IWC10', 'Mist', 'BR、IWC10', 'Mist', 'BR、IWC10', 'Mist', 'BR、IWC10', 'Mist', 'BR、IWC10', '上午12:00', '7°C', '1,021毫巴', '每小时0公里', '5.00公里', '部分多云 (1,524米)', '本地:', '00:00、2019年1月18日周五', '协调世界时:', '16:00、2019年1月17日周四', '来源:', '周期文件', '趋势:', '无重要变化', '露点:', '3°C', '天气:', 'Mist', '原始:', 'ZUUU 171600Z 00000MPS 5000 BR SCT050 07/03 Q1021 NOSIG', '上午12:00', '7.0°C', '1,021毫巴', '每小时0公里', '5.00公里', '部分多云 (1,524米)', '本地:', '00:00、2019年1月18日周五', '协调世界时:', '16:00、2019年1月17日周四', '来源:', 'USAF 每小时地面观测', '报告类型:', 'METAR 航空例行天气报告', '露点:', '3.0°C', '天气:', 'Mist', '上午1:00', '7°C', '1,020毫巴', '每小时7.20公里, 北', '5.00公里', '部分多云 (1,219米)', '本地:', '01:00、2019年1月18日周五', '协调世界时:', '17:00、2019年1月17日周四', '来源:', '周期文件', '趋势:', '无重要变化', '露点:', '4°C', '天气:', 'Light Rain、Mist', '原始:', 'ZUUU 171700Z 35002MPS 320V020 5000 -RA BR SCT040 07/04 Q1020 NOSIG', '上午1:00', '7.0°C', '1,020毫巴', '每小时7.20公里, 北', '5.00公里', '部分多云 (1,219米)', '本地:', '01:00、2019年1月18日周五', '协调世界时:', '17:00、2019年1月17日周四', '来源:', 'USAF 每小时地面观测', '报告类型:', 'METAR 航空例行天气报告', '露点:', '4.0°C', '天气:', 'Mist、Light Rain', '上午2:00', '7°C', '1,019毫巴', '每小时3.60公里', '4.50公里', '部分多云 (1,006米)', '本地:', '02:00、2019年1月18日周五', '协调世界时:', '18:00、2019年1月17日周四', '来源:', '周期文件', '趋势:', '无重要变化', '露点:', '4°C', '天气:', 'Light Rain、Mist', '原始:', 'ZUUU 171800Z VRB01MPS 4500 -RA BR SCT033 07/04 Q1019 NOSIG', '上午2:00', '7.0°C', '1,019毫巴', '每小时3.60公里', '4.50公里', '部分多云 (1,006米)', '本地:', '02:00、2019年1月18日周五', '协调世界时:', '18:00、2019年1月17日周四', '来源:', 'USAF 每小时地面观测', '报告类型:', 'METAR 航空例行天气报告', '露点:', '4.0°C', '天气:', 'Mist、Light Rain', '上午3:00', '6°C', '1,019毫巴', '每小时3.60公里', '4.50公里', '部分多云 (1,006米)', '本地:', '03:00、2019年1月18日周五', '协调世界时:', '19:00、2019年1月17日周四', '来源:', '周期文件', '趋势:', '无重要变化', '露点:', '4°C', '天气:', 'Mist', '原始:', 'ZUUU 171900Z VRB01MPS 4500 BR SCT033 06/04 Q1019 NOSIG', '上午3:00', '6.0°C', '1,019毫巴', '每小时3.60公里', '4.50公里', '部分多云 (1,006米)', '本地:', '03:00、2019年1月18日周五', '协调世界时:', '19:00、2019年1月17日周四', '来源:', 'USAF 每小时地面观测', '报告类型:', 'METAR 航空例行天气报告', '露点:', '4.0°C', '天气:', 'Mist', '上午4:00', '6°C', '1,019毫巴', '每小时3.60公里', '4.50公里', '大部分多云 (1,006米)', '本地:', '04:00、2019年1月18日周五', '协调世界时:', '20:00、2019年1月17日周四', '来源:', '周期文件', '趋势:', '无重要变化', '露点:', '4°C', '其他云层:', '大部分晴天 (366米)', '天气:', 'Mist', '原始:', 'ZUUU 172000Z VRB01MPS 4500 BR FEW012 BKN033 06/04 Q1019 NOSIG', '上午4:00', '6.0°C', '1,019毫巴', '每小时3.60公里', '4.50公里', '大部分多云 (1,006米)', '本地:', '04:00、2019年1月18日周五', '协调世界时:', '20:00、2019年1月17日周四', '来源:', 'USAF 每小时地面观测', '报告类型:', 'METAR 航空例行天气报告', '露点:', '4.0°C', '其他云层:', '大部分晴天 (366米)', '天气:', 'Mist', '上午5:00', '6°C', '1,018毫巴', '每小时7.20公里, 北', '4.00公里', '大部分多云 (914米)', '本地:', '05:00、2019年1月18日周五', '协调世界时:', '21:00、2019年1月17日周四', '来源:', '周期文件', '趋势:', '无重要变化', '露点:', '5°C', '其他云层:', '大部分晴天 (366米)', '天气:', 'Light Rain、Mist', '原始:', 'ZUUU 172100Z 35002MPS 310V030 4000 -RA BR FEW012 BKN030 06/05 Q1018 NOSIG', '上午5:00', '6.0°C', '1,018毫巴', '每小时7.20公里, 北', '4.00公里', '大部分多云 (914米)', '本地:', '05:00、2019年1月18日周五', '协调世界时:', '21:00、2019年1月17日周四', '来源:', 'USAF 每小时地面观测', '报告类型:', 'METAR 航空例行天气报告', '露点:', '5.0°C', '其他云层:', '大部分晴天 (366米)', '天气:', 'Mist、Light Rain', '上午6:00', '6°C', '1,018毫巴', '每小时7.20公里, 北', '4.00公里', '大部分多云 (914米)', '本地:', '06:00、2019年1月18日周五', '协调世界时:', '22:00、2019年1月17日周四', '来源:', '周期文件', '趋势:', '变化为', '露点:', '5°C', '天气:', 'Light Rain、Mist、Mist', '原始:', 'ZUUU 172200Z 35002MPS 330V030 4000 -RA BR BKN030 06/05 Q1018 BECMG TL2330 2700 BR', '上午6:00', '6.0°C', '1,018毫巴', '每小时7.20公里, 北', '4.00公里', '大部分多云 (914米)', '本地:', '06:00、2019年1月18日周五', '协调世界时:', '22:00、2019年1月17日周四', '来源:', 'USAF 每小时地面观测', '报告类型:', 'METAR 航空例行天气报告', '露点:', '5.0°C', '天气:', 'Mist、Light Rain', '上午7:00', '6°C', '1,019毫巴', '每小时7.20公里, 北', '3.50公里', '大部分多云 (914米)', '本地:', '07:00、2019年1月18日周五', '协调世界时:', '23:00、2019年1月17日周四', '来源:', '周期文件', '趋势:', '变化为', '露点:', '5°C', '其他云层:', '大部分晴天 (335米)', '天气:', 'Light Rain、Mist、Mist', '原始:', 'ZUUU 172300Z 36002MPS 320V040 3500 -RA BR FEW011 BKN030 06/05 Q1019 BECMG TL2330 2700 BR', '上午7:00', '6.0°C', '1,019毫巴', '每小时7.20公里, 北', '3.50公里', '大部分多云 (914米)', '本地:', '07:00、2019年1月18日周五', '协调世界时:', '23:00、2019年1月17日周四', '来源:', 'USAF 每小时地面观测', '报告类型:', 'METAR 航空例行天气报告', '露点:', '5.0°C', '其他云层:', '大部分晴天 (335米)', '天气:', 'Mist、Light Rain', '上午8:00', '6°C', '1,020毫巴', '每小时7.20公里, 北', '3.00公里', '大部分多云 (914米)', '本地:', '08:00、2019年1月18日周五', '协调世界时:', '00:00、2019年1月18日周五', '来源:', '周期文件', '趋势:', '变化为', '露点:', '5°C', '其他云层:', '大部分晴天 (335米)', '天气:', 'Light Rain、Mist、Mist', '原始:', 'ZUUU 180000Z 36002MPS 300V030 3000 -RA BR FEW011 BKN030 06/05 Q1020 BECMG TL0030 2700 BR', '上午8:00', '6.0°C', '1,020毫巴', '每小时7.20公里, 北', '3.00公里', '大部分多云 (914米)', '本地:', '08:00、2019年1月18日周五', '协调世界时:', '00:00、2019年1月18日周五', '来源:', 'USAF 每小时地面观测', '报告类型:', 'METAR 航空例行天气报告', '露点:', '5.0°C', '其他云层:', '大部分晴天 (335米)', '天气:', 'Mist、Light Rain', '上午9:00', '6°C', '1,021毫巴', '每小时10.8公里, 北', '2.50公里', '大部分多云 (701米)', '本地:', '09:00、2019年1月18日周五', '协调世界时:', '01:00、2019年1月18日周五', '来源:', '周期文件', '趋势:', '变化为', '露点:', '4°C', '其他云层:', '部分多云 (335米)', '天气:', 'Light Rain、Mist', '原始:', 'ZUUU 180100Z 36003MPS 320V030 2500 -RA BR SCT011 BKN023 06/04 Q1021 BECMG TL0230 3000', '上午9:00', '6.0°C', '1,021毫巴', '每小时10.8公里, 北', '2.50公里', '大部分多云 (701米)', '本地:', '09:00、2019年1月18日周五', '协调世界时:', '01:00、2019年1月18日周五', '来源:', 'USAF 每小时地面观测', '报告类型:', 'METAR 航空例行天气报告', '露点:', '4.0°C', '其他云层:', '部分多云 (335米)', '天气:', 'Mist、Light Rain', '上午10:00', '5°C', '1,022毫巴', '每小时7.20公里, 北', '1.80公里', '大部分多云 (701米)', '本地:', '10:00、2019年1月18日周五', '协调世界时:', '02:00、2019年1月18日周五', '来源:', '周期文件', '趋势:', '无重要变化', '露点:', '5°C', '其他云层:', '部分多云 (213米)', '天气:', 'Light Rain、Mist', '原始:', 'ZUUU 180200Z 36002MPS 330V030 1800 -RA BR SCT007 BKN023 05/05 Q1022 NOSIG', '上午10:00', '5.0°C', '1,022毫巴', '每小时7.20公里, 北', '1.80公里', '大部分多云 (701米)', '本地:', '10:00、2019年1月18日周五', '协调世界时:', '02:00、2019年1月18日周五', '来源:', 'USAF 每小时地面观测', '报告类型:', 'METAR 航空例行天气报告', '露点:', '5.0°C', '其他云层:', '部分多云 (213米)', '天气:', 'Mist、Light Rain', '上午11:00', '6°C', '1,022毫巴', '每小时7.20公里, 北', '1.70公里', '大部分多云 (701米)', '本地:', '11:00、2019年1月18日周五', '协调世界时:', '03:00、2019年1月18日周五', '来源:', '周期文件', '趋势:', '无重要变化', '露点:', '5°C', '其他云层:', '大部分晴天 (183米)、部分多云 (244米)', '天气:', 'Light Rain、Mist', '原始:', 'ZUUU 180300Z 36002MPS 330V030 1700 R02L/1700N R02R/1300D -RA BR FEW006 SCT008 BKN023 06/05 Q1022 NOSIG', '上午11:00', '6.0°C', '1,022毫巴', '每小时7.20公里, 北', '1.70公里', '大部分多云 (701米)', '本地:', '11:00、2019年1月18日周五', '协调世界时:', '03:00、2019年1月18日周五', '来源:', 'USAF 每小时地面观测', '报告类型:', 'METAR 航空例行天气报告', '露点:', '5.0°C', '其他云层:', '大部分晴天 (183米)、部分多云 (244米)', '天气:', 'Mist、Light Rain', '下午12:00', '6°C', '1,020毫巴', '每小时7.20公里, 北', '2.00公里', '大部分多云 (701米)', '本地:', '12:00、2019年1月18日周五', '协调世界时:', '04:00、2019年1月18日周五', '来源:', '周期文件', '趋势:', '变化为', '露点:', '5°C', '其他云层:', '部分多云 (305米)', '天气:', 'Light Rain、Mist', '原始:', 'ZUUU 180400Z 01002MPS 320V050 2000 R02L/P2000N R02R/1400D -RA BR SCT010 BKN023 06/05 Q1020 BECMG TL0530 3000', '下午12:00', '6.0°C', '1,020毫巴', '每小时7.20公里, 北', '2.00公里', '大部分多云 (701米)', '本地:', '12:00、2019年1月18日周五', '协调世界时:', '04:00、2019年1月18日周五', '来源:', 'USAF 每小时地面观测', '报告类型:', 'METAR 航空例行天气报告', '露点:', '5.0°C', '其他云层:', '部分多云 (305米)', '天气:', 'Mist、Light Rain', '下午1:00', '7°C', '1,019毫巴', '每小时7.20公里, 北', '3.50公里', '大部分多云 (792米)', '本地:', '13:00、2019年1月18日周五', '协调世界时:', '05:00、2019年1月18日周五', '来源:', '周期文件', '趋势:', '无重要变化', '露点:', '5°C', '其他云层:', '部分多云 (396米)', '天气:', 'Mist', '原始:', 'ZUUU 180500Z 01002MPS 320V050 3500 BR SCT013 BKN026 07/05 Q1019 NOSIG', '下午1:00', '7.0°C', '1,019毫巴', '每小时7.20公里, 北', '3.50公里', '大部分多云 (792米)', '本地:', '13:00、2019年1月18日周五', '协调世界时:', '05:00、2019年1月18日周五', '来源:', 'USAF 每小时地面观测', '报告类型:', 'METAR 航空例行天气报告', '露点:', '5.0°C', '其他云层:', '部分多云 (396米)', '天气:', 'Mist', '下午2:00', '8°C', '1,017毫巴', '每小时7.20公里', '4.00公里', '大部分多云 (1,006米)', '本地:', '14:00、2019年1月18日周五', '协调世界时:', '06:00、2019年1月18日周五', '来源:', '周期文件', '趋势:', '无重要变化', '露点:', '4°C', '其他云层:', '部分多云 (488米)', '天气:', 'Mist', '原始:', 'ZUUU 180600Z VRB02MPS 4000 BR SCT016 BKN033 08/04 Q1017 NOSIG', '下午2:00', '8.0°C', '1,017毫巴', '每小时7.20公里', '4.00公里', '大部分多云 (1,006米)', '本地:', '14:00、2019年1月18日周五', '协调世界时:', '06:00、2019年1月18日周五', '来源:', 'USAF 每小时地面观测', '报告类型:', 'METAR 航空例行天气报告', '露点:', '4.0°C', '其他云层:', '部分多云 (488米)', '天气:', 'Mist', '下午3:00', '8°C', '1,017毫巴', '每小时3.60公里', '4.50公里', '大部分多云 (1,006米)', '本地:', '15:00、2019年1月18日周五', '协调世界时:', '07:00、2019年1月18日周五', '来源:', '周期文件', '趋势:', '无重要变化', '露点:', '5°C', '其他云层:', '部分多云 (488米)', '天气:', 'Mist', '原始:', 'ZUUU 180700Z VRB01MPS 4500 BR SCT016 BKN033 08/05 Q1017 NOSIG', '下午3:00', '8.0°C', '1,017毫巴', '每小时3.60公里', '4.50公里', '大部分多云 (1,006米)', '本地:', '15:00、2019年1月18日周五', '协调世界时:', '07:00、2019年1月18日周五', '来源:', 'USAF 每小时地面观测', '报告类型:', 'METAR 航空例行天气报告', '露点:', '5.0°C', '其他云层:', '部分多云 (488米)', '天气:', 'Mist', '下午4:00', '8°C', '1,017毫巴', '每小时0公里', '4.50公里', '大部分多云 (1,006米)', '本地:', '16:00、2019年1月18日周五', '协调世界时:', '08:00、2019年1月18日周五', '来源:', '周期文件', '趋势:', '无重要变化', '露点:', '4°C', '其他云层:', '部分多云 (610米)', '天气:', 'Mist', '原始:', 'ZUUU 180800Z 00000MPS 4500 BR SCT020 BKN033 08/04 Q1017 NOSIG', '下午4:00', '8.0°C', '1,017毫巴', '每小时0公里', '4.50公里', '大部分多云 (1,006米)', '本地:', '16:00、2019年1月18日周五', '协调世界时:', '08:00、2019年1月18日周五', '来源:', 'USAF 每小时地面观测', '报告类型:', 'METAR 航空例行天气报告', '露点:', '4.0°C', '其他云层:', '部分多云 (610米)', '天气:', 'Mist', '下午5:00', '8°C', '1,017毫巴', '每小时3.60公里', '5.00公里', '大部分多云 (1,006米)', '本地:', '17:00、2019年1月18日周五', '协调世界时:', '09:00、2019年1月18日周五', '来源:', '周期文件', '趋势:', '无重要变化', '露点:', '4°C', '其他云层:', '部分多云 (610米)', '天气:', 'Mist', '原始:', 'ZUUU 180900Z VRB01MPS 5000 BR SCT020 BKN033 08/04 Q1017 NOSIG', '下午5:00', '8.0°C', '1,017毫巴', '每小时3.60公里', '5.00公里', '大部分多云 (1,006米)', '本地:', '17:00、2019年1月18日周五', '协调世界时:', '09:00、2019年1月18日周五', '来源:', 'USAF 每小时地面观测', '报告类型:', 'METAR 航空例行天气报告', '露点:', '4.0°C', '其他云层:', '部分多云 (610米)', '天气:', 'Mist', '下午6:00', '8°C', '1,018毫巴', '每小时0公里', '4.50公里', '大部分多云 (1,006米)', '本地:', '18:00、2019年1月18日周五', '协调世界时:', '10:00、2019年1月18日周五', '来源:', '周期文件', '趋势:', '无重要变化', '露点:', '4°C', '其他云层:', '大部分晴天 (610米)', '天气:', 'Mist', '原始:', 'ZUUU 181000Z 00000MPS 4500 BR FEW020 BKN033 08/04 Q1018 NOSIG', '下午6:00', '8.0°C', '1,018毫巴', '每小时0公里', '4.50公里', '大部分多云 (1,006米)', '本地:', '18:00、2019年1月18日周五', '协调世界时:', '10:00、2019年1月18日周五', '来源:', 'USAF 每小时地面观测', '报告类型:', 'METAR 航空例行天气报告', '露点:', '4.0°C', '其他云层:', '大部分晴天 (610米)', '天气:', 'Mist', '下午7:00', '8°C', '1,019毫巴', '每小时0公里', '5.00公里', '大部分多云 (1,219米)', '本地:', '19:00、2019年1月18日周五', '协调世界时:', '11:00、2019年1月18日周五', '来源:', '周期文件', '趋势:', '无重要变化', '露点:', '5°C', '其他云层:', '大部分晴天 (610米)', '天气:', 'Mist', '原始:', 'ZUUU 181100Z 00000MPS 5000 BR FEW020 BKN040 08/05 Q1019 NOSIG', '下午7:00', '8.0°C', '1,019毫巴', '每小时0公里', '5.00公里', '大部分多云 (1,219米)', '本地:', '19:00、2019年1月18日周五', '协调世界时:', '11:00、2019年1月18日周五', '来源:', 'USAF 每小时地面观测', '报告类型:', 'METAR 航空例行天气报告', '露点:', '5.0°C', '其他云层:', '大部分晴天 (610米)', '天气:', 'Mist', '下午8:00', '8°C', '1,020毫巴', '每小时0公里', '5.00公里', '部分多云 (1,524米)', '本地:', '20:00、2019年1月18日周五', '协调世界时:', '12:00、2019年1月18日周五', '来源:', '周期文件', '趋势:', '无重要变化', '露点:', '5°C', '天气:', 'Mist', '原始:', 'ZUUU 181200Z 00000MPS 5000 BR SCT050 08/05 Q1020 NOSIG', '下午8:00', '8.0°C', '1,020毫巴', '每小时0公里', '5.00公里', '部分多云 (1,524米)', '本地:', '20:00、2019年1月18日周五', '协调世界时:', '12:00、2019年1月18日周五', '来源:', 'USAF 每小时地面观测', '报告类型:', 'METAR 航空例行天气报告', '露点:', '5.0°C', '天气:', 'Mist', '下午9:00', '7°C', '1,020毫巴', '每小时0公里', '5.00公里', '无重要云', '本地:', '21:00、2019年1月18日周五', '协调世界时:', '13:00、2019年1月18日周五', '来源:', '周期文件', '趋势:', '无重要变化', '露点:', '5°C', '天气:', 'Mist', '原始:', 'ZUUU 181300Z 00000MPS 5000 BR NSC 07/05 Q1020 NOSIG', '下午9:00', '7.0°C', '1,020毫巴', '每小时0公里', '5.00公里', '未检测到云', '本地:', '21:00、2019年1月18日周五', '协调世界时:', '13:00、2019年1月18日周五', '来源:', 'USAF 每小时地面观测', '报告类型:', 'METAR 航空例行天气报告', '露点:', '5.0°C', '天气:', 'Mist', '下午10:00', '7°C', '1,021毫巴', '每小时0公里', '5.00公里', '无重要云', '本地:', '22:00、2019年1月18日周五', '协调世界时:', '14:00、2019年1月18日周五', '来源:', '周期文件', '趋势:', '无重要变化', '露点:', '5°C', '天气:', 'Mist', '原始:', 'ZUUU 181400Z 00000MPS 5000 BR NSC 07/05 Q1021 NOSIG', '下午10:00', '7.0°C', '1,021毫巴', '每小时0公里', '5.00公里', '未检测到云', '本地:', '22:00、2019年1月18日周五', '协调世界时:', '14:00、2019年1月18日周五', '来源:', 'USAF 每小时地面观测', '报告类型:', 'METAR 航空例行天气报告', '露点:', '5.0°C', '天气:', 'Mist', '下午11:00', '7°C', '1,021毫巴', '每小时0公里', '5.00公里', '无重要云', '本地:', '23:00、2019年1月18日周五', '协调世界时:', '15:00、2019年1月18日周五', '来源:', '周期文件', '趋势:', '无重要变化', '露点:', '5°C', '天气:', 'Mist', '原始:', 'ZUUU 181500Z 00000MPS 5000 BR NSC 07/05 Q1021 NOSIG', '下午11:00', '7.0°C', '1,021毫巴', '每小时0公里', '5.00公里', '未检测到云', '本地:', '23:00、2019年1月18日周五', '协调世界时:', '15:00、2019年1月18日周五', '来源:', 'USAF 每小时地面观测', '报告类型:', 'METAR 航空例行天气报告', '露点:', '5.0°C', '天气:', 'Mist']