['上午12:00', '18°C', '1,017毫巴', '每小时7.20公里, 南', '10.00公里', '部分多云 (1,524米)', '本地:', '00:00、2019年5月21日周二', '协调世界时:', '16:00、2019年5月20日周一', '来源:', '周期文件', '趋势:', '无重要变化', '露点:', '14°C', '原始:', 'ZUUU 201600Z 18002MPS 140V210 9999 SCT050 18/14 Q1017 NOSIG', '上午12:00', '18.0°C', '1,017毫巴', '每小时7.20公里, 南', '10.00公里', '部分多云 (1,524米)', '本地:', '00:00、2019年5月21日周二', '协调世界时:', '16:00、2019年5月20日周一', '来源:', 'USAF 每小时地面观测', '报告类型:', 'METAR 航空例行天气报告', '露点:', '14.0°C', '上午1:00', '18°C', '1,017毫巴', '每小时7.20公里, 南', '≥ 10.00公里', '晴空万里', '本地:', '01:00、2019年5月21日周二', '协调世界时:', '17:00、2019年5月20日周一', '来源:', '周期文件', '趋势:', '无重要变化', '露点:', '15°C', '晴空万里:', '真', '原始:', 'ZUUU 201700Z 18002MPS 120V200 CAVOK 18/15 Q1017 NOSIG', '上午1:00', '18.0°C', '1,017毫巴', '每小时7.20公里, 南', '-', '晴空万里', '本地:', '01:00、2019年5月21日周二', '协调世界时:', '17:00、2019年5月20日周一', '来源:', 'USAF 每小时地面观测', '报告类型:', 'METAR 航空例行天气报告', '露点:', '15.0°C', '晴空万里:', '真', '上午2:00', '18°C', '1,017毫巴', '每小时3.60公里', '≥ 10.00公里', '晴空万里', '本地:', '02:00、2019年5月21日周二', '协调世界时:', '18:00、2019年5月20日周一', '来源:', '周期文件', '趋势:', '无重要变化', '露点:', '15°C', '晴空万里:', '真', '原始:', 'ZUUU 201800Z VRB01MPS CAVOK 18/15 Q1017 NOSIG', '上午2:00', '18.0°C', '1,017毫巴', '每小时3.60公里', '-', '晴空万里', '本地:', '02:00、2019年5月21日周二', '协调世界时:', '18:00、2019年5月20日周一', '来源:', 'USAF 每小时地面观测', '报告类型:', 'METAR 航空例行天气报告', '露点:', '15.0°C', '晴空万里:', '真', '上午3:00', '18°C', '1,017毫巴', '每小时0公里', '≥ 10.00公里', '晴空万里', '本地:', '03:00、2019年5月21日周二', '协调世界时:', '19:00、2019年5月20日周一', '来源:', '周期文件', '趋势:', '无重要变化', '露点:', '15°C', '晴空万里:', '真', '原始:', 'ZUUU 201900Z 00000MPS CAVOK 18/15 Q1017 NOSIG', '上午3:00', '18.0°C', '1,017毫巴', '每小时0公里', '-', '晴空万里', '本地:', '03:00、2019年5月21日周二', '协调世界时:', '19:00、2019年5月20日周一', '来源:', 'USAF 每小时地面观测', '报告类型:', 'METAR 航空例行天气报告', '露点:', '15.0°C', '晴空万里:', '真', '上午4:00', '17°C', '1,017毫巴', '每小时0公里', '≥ 10.00公里', '晴空万里', '本地:', '04:00、2019年5月21日周二', '协调世界时:', '20:00、2019年5月20日周一', '来源:', '周期文件', '趋势:', '无重要变化', '露点:', '15°C', '晴空万里:', '真', '原始:', 'ZUUU 202000Z 00000MPS CAVOK 17/15 Q1017 NOSIG', '上午4:00', '17.0°C', '1,017毫巴', '每小时0公里', '-', '晴空万里', '本地:', '04:00、2019年5月21日周二', '协调世界时:', '20:00、2019年5月20日周一', '来源:', 'USAF 每小时地面观测', '报告类型:', 'METAR 航空例行天气报告', '露点:', '15.0°C', '晴空万里:', '真', '上午5:00', '17°C', '1,017毫巴', '每小时0公里', '≥ 10.00公里', '晴空万里', '本地:', '05:00、2019年5月21日周二', '协调世界时:', '21:00、2019年5月20日周一', '来源:', '周期文件', '趋势:', '无重要变化', '露点:', '15°C', '晴空万里:', '真', '原始:', 'ZUUU 202100Z 00000MPS CAVOK 17/15 Q1017 NOSIG', '上午5:00', '17.0°C', '1,017毫巴', '每小时0公里', '-', '晴空万里', '本地:', '05:00、2019年5月21日周二', '协调世界时:', '21:00、2019年5月20日周一', '来源:', 'USAF 每小时地面观测', '报告类型:', 'METAR 航空例行天气报告', '露点:', '15.0°C', '晴空万里:', '真', '上午6:00', '17°C', '1,016毫巴', '每小时0公里', '≥ 10.00公里', '晴空万里', '本地:', '06:00、2019年5月21日周二', '协调世界时:', '22:00、2019年5月20日周一', '来源:', '周期文件', '趋势:', '无重要变化', '露点:', '16°C', '晴空万里:', '真', '原始:', 'ZUUU 202200Z 00000MPS CAVOK 17/16 Q1016 NOSIG', '上午6:00', '17.0°C', '1,016毫巴', '每小时0公里', '-', '晴空万里', '本地:', '06:00、2019年5月21日周二', '协调世界时:', '22:00、2019年5月20日周一', '来源:', 'USAF 每小时地面观测', '报告类型:', 'METAR 航空例行天气报告', '露点:', '16.0°C', '晴空万里:', '真', '上午7:00', '17°C', '1,016毫巴', '每小时0公里', '≥ 10.00公里', '晴空万里', '本地:', '07:00、2019年5月21日周二', '协调世界时:', '23:00、2019年5月20日周一', '来源:', '周期文件', '趋势:', '无重要变化', '露点:', '16°C', '晴空万里:', '真', '原始:', 'ZUUU 202300Z 00000MPS CAVOK 17/16 Q1016 NOSIG', '上午7:00', '17.0°C', '1,016毫巴', '每小时0公里', '-', '晴空万里', '本地:', '07:00、2019年5月21日周二', '协调世界时:', '23:00、2019年5月20日周一', '来源:', 'USAF 每小时地面观测', '报告类型:', 'METAR 航空例行天气报告', '露点:', '16.0°C', '晴空万里:', '真', '上午8:00', '18°C', '1,017毫巴', '每小时3.60公里', '≥ 10.00公里', '晴空万里', '本地:', '08:00、2019年5月21日周二', '协调世界时:', '00:00、2019年5月21日周二', '来源:', '周期文件', '趋势:', '无重要变化', '露点:', '15°C', '晴空万里:', '真', '原始:', 'ZUUU 210000Z VRB01MPS CAVOK 18/15 Q1017 NOSIG', '上午8:00', '18.0°C', '1,017毫巴', '每小时3.60公里', '-', '晴空万里', '本地:', '08:00、2019年5月21日周二', '协调世界时:', '00:00、2019年5月21日周二', '来源:', 'USAF 每小时地面观测', '报告类型:', 'METAR 航空例行天气报告', '露点:', '15.0°C', '晴空万里:', '真', '上午9:00', '21°C', '1,017毫巴', '每小时3.60公里', '≥ 10.00公里', '晴空万里', '本地:', '09:00、2019年5月21日周二', '协调世界时:', '01:00、2019年5月21日周二', '来源:', '周期文件', '趋势:', '无重要变化', '露点:', '16°C', '晴空万里:', '真', '原始:', 'ZUUU 210100Z VRB01MPS CAVOK 21/16 Q1017 NOSIG', '上午9:00', '21.0°C', '1,017毫巴', '每小时3.60公里', '-', '晴空万里', '本地:', '09:00、2019年5月21日周二', '协调世界时:', '01:00、2019年5月21日周二', '来源:', 'USAF 每小时地面观测', '报告类型:', 'METAR 航空例行天气报告', '露点:', '16.0°C', '晴空万里:', '真', '上午10:00', '22°C', '1,017毫巴', '每小时3.60公里', '10.00公里', '大部分晴天 (792米)', '本地:', '10:00、2019年5月21日周二', '协调世界时:', '02:00、2019年5月21日周二', '来源:', '周期文件', '趋势:', '无重要变化', '露点:', '15°C', '原始:', 'ZUUU 210200Z VRB01MPS 9999 FEW026 22/15 Q1017 NOSIG', '上午10:00', '22.0°C', '1,017毫巴', '每小时3.60公里', '10.00公里', '大部分晴天 (792米)', '本地:', '10:00、2019年5月21日周二', '协调世界时:', '02:00、2019年5月21日周二', '来源:', 'USAF 每小时地面观测', '报告类型:', 'METAR 航空例行天气报告', '露点:', '15.0°C', '上午11:00', '23°C', '1,017毫巴', '每小时7.20公里, 西', '10.00公里', '部分多云 (792米)', '本地:', '11:00、2019年5月21日周二', '协调世界时:', '03:00、2019年5月21日周二', '来源:', '周期文件', '趋势:', '无重要变化', '露点:', '14°C', '原始:', 'ZUUU 210300Z 27002MPS 230V320 9999 SCT026 23/14 Q1017 NOSIG', '上午11:00', '23.0°C', '1,017毫巴', '每小时7.20公里, 西', '10.00公里', '部分多云 (792米)', '本地:', '11:00、2019年5月21日周二', '协调世界时:', '03:00、2019年5月21日周二', '来源:', 'USAF 每小时地面观测', '报告类型:', 'METAR 航空例行天气报告', '露点:', '14.0°C', '下午12:00', '25°C', '1,016毫巴', '每小时3.60公里', '10.00公里', '部分多云 (792米)', '本地:', '12:00、2019年5月21日周二', '协调世界时:', '04:00、2019年5月21日周二', '来源:', '周期文件', '趋势:', '无重要变化', '露点:', '13°C', '原始:', 'ZUUU 210400Z VRB01MPS 9999 SCT026 25/13 Q1016 NOSIG', '下午12:00', '25.0°C', '1,016毫巴', '每小时3.60公里', '10.00公里', '部分多云 (792米)', '本地:', '12:00、2019年5月21日周二', '协调世界时:', '04:00、2019年5月21日周二', '来源:', 'USAF 每小时地面观测', '报告类型:', 'METAR 航空例行天气报告', '露点:', '13.0°C', '下午1:00', '26°C', '1,016毫巴', '每小时7.20公里, 东', '10.00公里', '部分多云 (792米)', '本地:', '13:00、2019年5月21日周二', '协调世界时:', '05:00、2019年5月21日周二', '来源:', '周期文件', '趋势:', '无重要变化', '露点:', '14°C', '原始:', 'ZUUU 210500Z 09002MPS 010V180 9999 SCT026 26/14 Q1016 NOSIG', '下午1:00', '26.0°C', '1,016毫巴', '每小时7.20公里, 东', '10.00公里', '部分多云 (792米)', '本地:', '13:00、2019年5月21日周二', '协调世界时:', '05:00、2019年5月21日周二', '来源:', 'USAF 每小时地面观测', '报告类型:', 'METAR 航空例行天气报告', '露点:', '14.0°C', '下午2:00', '27°C', '1,015毫巴', '每小时3.60公里', '10.00公里', '部分多云 (792米)', '本地:', '14:00、2019年5月21日周二', '协调世界时:', '06:00、2019年5月21日周二', '来源:', '周期文件', '趋势:', '无重要变化', '露点:', '15°C', '原始:', 'ZUUU 210600Z VRB01MPS 9999 SCT026 27/15 Q1015 NOSIG', '下午2:00', '27.0°C', '1,015毫巴', '每小时3.60公里', '10.00公里', '部分多云 (792米)', '本地:', '14:00、2019年5月21日周二', '协调世界时:', '06:00、2019年5月21日周二', '来源:', 'USAF 每小时地面观测', '报告类型:', 'METAR 航空例行天气报告', '露点:', '15.0°C', '下午3:00', '27°C', '1,014毫巴', '每小时7.20公里', '10.00公里', '部分多云 (792米)', '本地:', '15:00、2019年5月21日周二', '协调世界时:', '07:00、2019年5月21日周二', '来源:', '周期文件', '趋势:', '无重要变化', '露点:', '14°C', '原始:', 'ZUUU 210700Z VRB02MPS 9999 SCT026 27/14 Q1014 NOSIG', '下午3:00', '27.0°C', '1,014毫巴', '每小时7.20公里', '10.00公里', '部分多云 (792米)', '本地:', '15:00、2019年5月21日周二', '协调世界时:', '07:00、2019年5月21日周二', '来源:', 'USAF 每小时地面观测', '报告类型:', 'METAR 航空例行天气报告', '露点:', '14.0°C', '下午4:00', '28°C', '1,013毫巴', '每小时3.60公里', '10.00公里', '部分多云 (792米)', '本地:', '16:00、2019年5月21日周二', '协调世界时:', '08:00、2019年5月21日周二', '来源:', '周期文件', '趋势:', '无重要变化', '露点:', '14°C', '原始:', 'ZUUU 210800Z VRB01MPS 9999 SCT026 28/14 Q1013 NOSIG', '下午4:00', '28.0°C', '1,013毫巴', '每小时3.60公里', '10.00公里', '部分多云 (792米)', '本地:', '16:00、2019年5月21日周二', '协调世界时:', '08:00、2019年5月21日周二', '来源:', 'USAF 每小时地面观测', '报告类型:', 'METAR 航空例行天气报告', '露点:', '14.0°C', '下午5:00', '27°C', '1,013毫巴', '每小时7.20公里', '10.00公里', '大部分晴天 (792米)', '本地:', '17:00、2019年5月21日周二', '协调世界时:', '09:00、2019年5月21日周二', '来源:', '周期文件', '趋势:', '无重要变化', '露点:', '14°C', '原始:', 'ZUUU 210900Z VRB02MPS 9999 FEW026 27/14 Q1013 NOSIG', '下午5:00', '27.0°C', '1,013毫巴', '每小时7.20公里', '10.00公里', '大部分晴天 (792米)', '本地:', '17:00、2019年5月21日周二', '协调世界时:', '09:00、2019年5月21日周二', '来源:', 'USAF 每小时地面观测', '报告类型:', 'METAR 航空例行天气报告', '露点:', '14.0°C', '下午6:00', '27°C', '1,013毫巴', '每小时7.20公里, 西南', '10.00公里', '大部分晴天 (792米)', '本地:', '18:00、2019年5月21日周二', '协调世界时:', '10:00、2019年5月21日周二', '来源:', '周期文件', '趋势:', '无重要变化', '露点:', '14°C', '原始:', 'ZUUU 211000Z 22002MPS 180V280 9999 FEW026 27/14 Q1013 NOSIG', '下午6:00', '27.0°C', '1,013毫巴', '每小时7.20公里, 西南', '10.00公里', '大部分晴天 (792米)', '本地:', '18:00、2019年5月21日周二', '协调世界时:', '10:00、2019年5月21日周二', '来源:', 'USAF 每小时地面观测', '报告类型:', 'METAR 航空例行天气报告', '露点:', '14.0°C', '下午7:00', '25°C', '1,013毫巴', '每小时10.8公里, 西南', '≥ 10.00公里', '晴空万里', '本地:', '19:00、2019年5月21日周二', '协调世界时:', '11:00、2019年5月21日周二', '来源:', '周期文件', '趋势:', '无重要变化', '露点:', '15°C', '晴空万里:', '真', '原始:', 'ZUUU 211100Z 21003MPS CAVOK 25/15 Q1013 NOSIG', '下午7:00', '25.0°C', '1,013毫巴', '每小时10.8公里, 西南', '-', '晴空万里', '本地:', '19:00、2019年5月21日周二', '协调世界时:', '11:00、2019年5月21日周二', '来源:', 'USAF 每小时地面观测', '报告类型:', 'METAR 航空例行天气报告', '露点:', '15.0°C', '晴空万里:', '真', '下午8:00', '24°C', '1,014毫巴', '每小时7.20公里, 西南', '≥ 10.00公里', '晴空万里', '本地:', '20:00、2019年5月21日周二', '协调世界时:', '12:00、2019年5月21日周二', '来源:', '周期文件', '趋势:', '无重要变化', '露点:', '15°C', '晴空万里:', '真', '原始:', 'ZUUU 211200Z 22002MPS CAVOK 24/15 Q1014 NOSIG', '下午8:00', '24.0°C', '1,014毫巴', '每小时7.20公里, 西南', '-', '晴空万里', '本地:', '20:00、2019年5月21日周二', '协调世界时:', '12:00、2019年5月21日周二', '来源:', 'USAF 每小时地面观测', '报告类型:', 'METAR 航空例行天气报告', '露点:', '15.0°C', '晴空万里:', '真', '下午9:00', '23°C', '1,014毫巴', '每小时0公里', '≥ 10.00公里', '晴空万里', '本地:', '21:00、2019年5月21日周二', '协调世界时:', '13:00、2019年5月21日周二', '来源:', '周期文件', '趋势:', '无重要变化', '露点:', '16°C', '晴空万里:', '真', '原始:', 'ZUUU 211300Z 00000MPS CAVOK 23/16 Q1014 NOSIG', '下午9:00', '23.0°C', '1,014毫巴', '每小时0公里', '-', '晴空万里', '本地:', '21:00、2019年5月21日周二', '协调世界时:', '13:00、2019年5月21日周二', '来源:', 'USAF 每小时地面观测', '报告类型:', 'METAR 航空例行天气报告', '露点:', '16.0°C', '晴空万里:', '真', '下午10:00', '24°C', '1,015毫巴', '每小时7.20公里, 东南', '≥ 10.00公里', '晴空万里', '本地:', '22:00、2019年5月21日周二', '协调世界时:', '14:00、2019年5月21日周二', '来源:', '周期文件', '趋势:', '无重要变化', '露点:', '15°C', '晴空万里:', '真', '原始:', 'ZUUU 211400Z 13002MPS 080V180 CAVOK 24/15 Q1015 NOSIG', '下午10:00', '24.0°C', '1,015毫巴', '每小时7.20公里, 东南', '-', '晴空万里', '本地:', '22:00、2019年5月21日周二', '协调世界时:', '14:00、2019年5月21日周二', '来源:', 'USAF 每小时地面观测', '报告类型:', 'METAR 航空例行天气报告', '露点:', '15.0°C', '晴空万里:', '真', '下午11:00', '23°C', '1,016毫巴', '每小时10.8公里, 东南', '≥ 10.00公里', '晴空万里', '本地:', '23:00、2019年5月21日周二', '协调世界时:', '15:00、2019年5月21日周二', '来源:', '周期文件', '趋势:', '无重要变化', '露点:', '15°C', '晴空万里:', '真', '原始:', 'ZUUU 211500Z 15003MPS 070V240 CAVOK 23/15 Q1016 NOSIG', '下午11:00', '23.0°C', '1,016毫巴', '每小时10.8公里, 东南', '-', '晴空万里', '本地:', '23:00、2019年5月21日周二', '协调世界时:', '15:00、2019年5月21日周二', '来源:', 'USAF 每小时地面观测', '报告类型:', 'METAR 航空例行天气报告', '露点:', '15.0°C', '晴空万里:', '真']