['Mist', 'BR、IWC10', 'Mist', 'BR、IWC10', 'Mist', 'BR、IWC10', 'Mist', 'BR、IWC10', 'Mist', 'BR、IWC10', 'Mist', 'BR、IWC10', 'Mist', 'BR、IWC10', 'Mist', 'BR、IWC10', '上午12:00', '23°C', '1,009毫巴', '每小时3.60公里', '10.00公里', '部分多云 (610米)', '本地:', '00:00、2019年6月26日周三', '协调世界时:', '16:00、2019年6月25日周二', '来源:', '周期文件', '趋势:', '无重要变化', '露点:', '22°C', '原始:', 'ZUUU 251600Z VRB01MPS 9999 SCT020 23/22 Q1009 NOSIG', '上午12:00', '23.0°C', '1,009毫巴', '每小时3.60公里', '10.00公里', '部分多云 (610米)', '本地:', '00:00、2019年6月26日周三', '协调世界时:', '16:00、2019年6月25日周二', '来源:', 'USAF 每小时地面观测', '报告类型:', 'METAR 航空例行天气报告', '露点:', '22.0°C', '上午1:00', '23°C', '1,008毫巴', '每小时0公里', '5.00公里', '部分多云 (914米)', '本地:', '01:00、2019年6月26日周三', '协调世界时:', '17:00、2019年6月25日周二', '来源:', '周期文件', '趋势:', '无重要变化', '露点:', '22°C', '其他云层:', '大部分晴天 (396米)', '天气:', 'Mist', '原始:', 'ZUUU 251700Z 00000MPS 5000 BR FEW013 SCT030 23/22 Q1008 NOSIG', '上午1:00', '23.0°C', '1,008毫巴', '每小时0公里', '5.00公里', '部分多云 (914米)', '本地:', '01:00、2019年6月26日周三', '协调世界时:', '17:00、2019年6月25日周二', '来源:', 'USAF 每小时地面观测', '报告类型:', 'METAR 航空例行天气报告', '露点:', '22.0°C', '其他云层:', '大部分晴天 (396米)', '天气:', 'Mist', '上午2:00', '23°C', '1,008毫巴', '每小时7.20公里, 南', '4.50公里', '部分多云 (914米)', '本地:', '02:00、2019年6月26日周三', '协调世界时:', '18:00、2019年6月25日周二', '来源:', '周期文件', '趋势:', '无重要变化', '露点:', '22°C', '天气:', 'Mist', '原始:', 'ZUUU 251800Z 17002MPS 110V210 4500 BR SCT030 23/22 Q1008 NOSIG', '上午2:00', '23.0°C', '1,008毫巴', '每小时7.20公里, 南', '4.50公里', '部分多云 (914米)', '本地:', '02:00、2019年6月26日周三', '协调世界时:', '18:00、2019年6月25日周二', '来源:', 'USAF 每小时地面观测', '报告类型:', 'METAR 航空例行天气报告', '露点:', '22.0°C', '天气:', 'Mist', '上午3:00', '23°C', '1,007毫巴', '每小时3.60公里', '4.00公里', '部分多云 (914米)', '本地:', '03:00、2019年6月26日周三', '协调世界时:', '19:00、2019年6月25日周二', '来源:', '周期文件', '趋势:', '无重要变化', '露点:', '22°C', '天气:', 'Mist', '原始:', 'ZUUU 251900Z VRB01MPS 4000 BR SCT030 23/22 Q1007 NOSIG', '上午3:00', '23.0°C', '1,007毫巴', '每小时3.60公里', '4.00公里', '部分多云 (914米)', '本地:', '03:00、2019年6月26日周三', '协调世界时:', '19:00、2019年6月25日周二', '来源:', 'USAF 每小时地面观测', '报告类型:', 'METAR 航空例行天气报告', '露点:', '22.0°C', '天气:', 'Mist', '上午4:00', '22°C', '1,006毫巴', '每小时3.60公里', '4.00公里', '部分多云 (914米)', '本地:', '04:00、2019年6月26日周三', '协调世界时:', '20:00、2019年6月25日周二', '来源:', '周期文件', '趋势:', '无重要变化', '露点:', '22°C', '其他云层:', '大部分晴天 (213米)', '天气:', 'Mist', '原始:', 'ZUUU 252000Z VRB01MPS 4000 BR FEW007 SCT030 22/22 Q1006 NOSIG', '上午4:00', '22.0°C', '1,006毫巴', '每小时3.60公里', '4.00公里', '部分多云 (914米)', '本地:', '04:00、2019年6月26日周三', '协调世界时:', '20:00、2019年6月25日周二', '来源:', 'USAF 每小时地面观测', '报告类型:', 'METAR 航空例行天气报告', '露点:', '22.0°C', '其他云层:', '大部分晴天 (213米)', '天气:', 'Mist', '上午5:00', '22°C', '1,006毫巴', '每小时3.60公里, 西南', '4.00公里', '部分多云 (914米)', '本地:', '05:00、2019年6月26日周三', '协调世界时:', '21:00、2019年6月25日周二', '来源:', '周期文件', '趋势:', '无重要变化', '露点:', '22°C', '其他云层:', '大部分晴天 (213米)', '天气:', 'Mist', '原始:', 'ZUUU 252100Z 22001MPS 4000 BR FEW007 SCT030 22/22 Q1006 NOSIG', '上午5:00', '22.0°C', '1,006毫巴', '每小时3.60公里, 西南', '4.00公里', '部分多云 (914米)', '本地:', '05:00、2019年6月26日周三', '协调世界时:', '21:00、2019年6月25日周二', '来源:', 'USAF 每小时地面观测', '报告类型:', 'METAR 航空例行天气报告', '露点:', '22.0°C', '其他云层:', '大部分晴天 (213米)', '天气:', 'Mist', '上午6:00', '22°C', '1,006毫巴', '每小时0公里', '3.50公里', '部分多云 (914米)', '本地:', '06:00、2019年6月26日周三', '协调世界时:', '22:00、2019年6月25日周二', '来源:', '周期文件', '趋势:', '无重要变化', '露点:', '22°C', '其他云层:', '大部分晴天 (213米)', '天气:', 'Mist', '原始:', 'ZUUU 252200Z 00000MPS 3500 BR FEW007 SCT030 22/22 Q1006 NOSIG', '上午6:00', '22.0°C', '1,006毫巴', '每小时0公里', '3.50公里', '部分多云 (914米)', '本地:', '06:00、2019年6月26日周三', '协调世界时:', '22:00、2019年6月25日周二', '来源:', 'USAF 每小时地面观测', '报告类型:', 'METAR 航空例行天气报告', '露点:', '22.0°C', '其他云层:', '大部分晴天 (213米)', '天气:', 'Mist', '上午7:00', '22°C', '1,007毫巴', '每小时0公里', '3.00公里', '部分多云 (914米)', '本地:', '07:00、2019年6月26日周三', '协调世界时:', '23:00、2019年6月25日周二', '来源:', '周期文件', '趋势:', '无重要变化', '露点:', '22°C', '其他云层:', '大部分晴天 (213米)', '天气:', 'Mist', '原始:', 'ZUUU 252300Z 00000MPS 3000 BR FEW007 SCT030 22/22 Q1007 NOSIG', '上午7:00', '22.0°C', '1,007毫巴', '每小时0公里', '3.00公里', '部分多云 (914米)', '本地:', '07:00、2019年6月26日周三', '协调世界时:', '23:00、2019年6月25日周二', '来源:', 'USAF 每小时地面观测', '报告类型:', 'METAR 航空例行天气报告', '露点:', '22.0°C', '其他云层:', '大部分晴天 (213米)', '天气:', 'Mist', '上午8:00', '23°C', '1,007毫巴', '每小时7.20公里, 西南', '5.00公里', '部分多云 (914米)', '本地:', '08:00、2019年6月26日周三', '协调世界时:', '00:00、2019年6月26日周三', '来源:', '周期文件', '趋势:', '无重要变化', '露点:', '22°C', '其他云层:', '大部分晴天 (213米)', '天气:', 'Mist', '原始:', 'ZUUU 260000Z 22002MPS 5000 BR FEW007 SCT030 23/22 Q1007 NOSIG', '上午8:00', '23.0°C', '1,007毫巴', '每小时7.20公里, 西南', '5.00公里', '部分多云 (914米)', '本地:', '08:00、2019年6月26日周三', '协调世界时:', '00:00、2019年6月26日周三', '来源:', 'USAF 每小时地面观测', '报告类型:', 'METAR 航空例行天气报告', '露点:', '22.0°C', '其他云层:', '大部分晴天 (213米)', '天气:', 'Mist', '上午9:00', '23°C', '1,007毫巴', '每小时7.20公里, 西南', '6.00公里', '部分多云 (914米)', '本地:', '09:00、2019年6月26日周三', '协调世界时:', '01:00、2019年6月26日周三', '来源:', '周期文件', '趋势:', '无重要变化', '露点:', '22°C', '其他云层:', '大部分晴天 (213米)', '原始:', 'ZUUU 260100Z 23002MPS 6000 FEW007 SCT030 23/22 Q1007 NOSIG', '上午9:00', '23.0°C', '1,007毫巴', '每小时7.20公里, 西南', '6.00公里', '部分多云 (914米)', '本地:', '09:00、2019年6月26日周三', '协调世界时:', '01:00、2019年6月26日周三', '来源:', 'USAF 每小时地面观测', '报告类型:', 'METAR 航空例行天气报告', '露点:', '22.0°C', '其他云层:', '大部分晴天 (213米)', '上午10:00', '23°C', '1,006毫巴', '每小时3.60公里', '8.00公里', '大部分多云 (914米)', '本地:', '10:00、2019年6月26日周三', '协调世界时:', '02:00、2019年6月26日周三', '来源:', '周期文件', '趋势:', '无重要变化', '露点:', '22°C', '其他云层:', '大部分晴天 (213米)', '原始:', 'ZUUU 260200Z VRB01MPS 8000 FEW007 BKN030 23/22 Q1006 NOSIG', '上午10:00', '23.0°C', '1,006毫巴', '每小时3.60公里', '8.00公里', '大部分多云 (914米)', '本地:', '10:00、2019年6月26日周三', '协调世界时:', '02:00、2019年6月26日周三', '来源:', 'USAF 每小时地面观测', '报告类型:', 'METAR 航空例行天气报告', '露点:', '22.0°C', '其他云层:', '大部分晴天 (213米)', '上午11:00', '25°C', '1,006毫巴', '每小时0公里', '10.00公里', '部分多云 (305米)', '本地:', '11:00、2019年6月26日周三', '协调世界时:', '03:00、2019年6月26日周三', '来源:', '周期文件', '趋势:', '无重要变化', '露点:', '22°C', '其他云层:', '部分多云 (914米)', '原始:', 'ZUUU 260300Z 00000MPS 9999 SCT010 SCT030 25/22 Q1006 NOSIG', '上午11:00', '25.0°C', '1,006毫巴', '每小时0公里', '10.00公里', '部分多云 (305米)', '本地:', '11:00、2019年6月26日周三', '协调世界时:', '03:00、2019年6月26日周三', '来源:', 'USAF 每小时地面观测', '报告类型:', 'METAR 航空例行天气报告', '露点:', '22.0°C', '其他云层:', '部分多云 (914米)', '下午12:00', '26°C', '1,005毫巴', '每小时3.60公里', '10.00公里', '部分多云 (396米)', '本地:', '12:00、2019年6月26日周三', '协调世界时:', '04:00、2019年6月26日周三', '来源:', '周期文件', '趋势:', '无重要变化', '露点:', '22°C', '其他云层:', '部分多云 (914米)', '原始:', 'ZUUU 260400Z VRB01MPS 9999 SCT013 SCT030 26/22 Q1005 NOSIG', '下午12:00', '26.0°C', '1,005毫巴', '每小时3.60公里', '10.00公里', '部分多云 (396米)', '本地:', '12:00、2019年6月26日周三', '协调世界时:', '04:00、2019年6月26日周三', '来源:', 'USAF 每小时地面观测', '报告类型:', 'METAR 航空例行天气报告', '露点:', '22.0°C', '其他云层:', '部分多云 (914米)', '下午1:00', '25°C', '1,004毫巴', '每小时0公里', '10.00公里', '部分多云 (914米)', '本地:', '13:00、2019年6月26日周三', '协调世界时:', '05:00、2019年6月26日周三', '来源:', '周期文件', '趋势:', '无重要变化', '露点:', '21°C', '其他云层:', '大部分晴天 (610米)', '原始:', 'ZUUU 260500Z 00000MPS 9999 FEW020 SCT030 25/21 Q1004 NOSIG', '下午1:00', '25.0°C', '1,004毫巴', '每小时0公里', '10.00公里', '部分多云 (914米)', '本地:', '13:00、2019年6月26日周三', '协调世界时:', '05:00、2019年6月26日周三', '来源:', 'USAF 每小时地面观测', '报告类型:', 'METAR 航空例行天气报告', '露点:', '21.0°C', '其他云层:', '大部分晴天 (610米)', '下午2:00', '25°C', '1,004毫巴', '每小时3.60公里', '10.00公里', '部分多云 (914米)', '本地:', '14:00、2019年6月26日周三', '协调世界时:', '06:00、2019年6月26日周三', '来源:', '周期文件', '趋势:', '无重要变化', '露点:', '22°C', '其他云层:', '大部分晴天 (610米)', '原始:', 'ZUUU 260600Z VRB01MPS 9999 FEW020 SCT030 25/22 Q1004 NOSIG', '下午2:00', '25.0°C', '1,004毫巴', '每小时3.60公里', '10.00公里', '部分多云 (914米)', '本地:', '14:00、2019年6月26日周三', '协调世界时:', '06:00、2019年6月26日周三', '来源:', 'USAF 每小时地面观测', '报告类型:', 'METAR 航空例行天气报告', '露点:', '22.0°C', '其他云层:', '大部分晴天 (610米)', '下午3:00', '27°C', '1,003毫巴', '每小时7.20公里, 北', '10.00公里', '部分多云 (1,219米)', '本地:', '15:00、2019年6月26日周三', '协调世界时:', '07:00、2019年6月26日周三', '来源:', '周期文件', '趋势:', '无重要变化', '露点:', '22°C', '其他云层:', '大部分晴天 (792米)', '原始:', 'ZUUU 260700Z 01002MPS 290V060 9999 FEW026 SCT040 27/22 Q1003 NOSIG', '下午3:00', '27.0°C', '1,003毫巴', '每小时7.20公里, 北', '10.00公里', '部分多云 (1,219米)', '本地:', '15:00、2019年6月26日周三', '协调世界时:', '07:00、2019年6月26日周三', '来源:', 'USAF 每小时地面观测', '报告类型:', 'METAR 航空例行天气报告', '露点:', '22.0°C', '其他云层:', '大部分晴天 (792米)', '下午4:00', '27°C', '1,002毫巴', '每小时10.8公里, 北', '10.00公里', '部分多云 (1,219米)', '本地:', '16:00、2019年6月26日周三', '协调世界时:', '08:00、2019年6月26日周三', '来源:', '周期文件', '趋势:', '无重要变化', '露点:', '22°C', '其他云层:', '大部分晴天 (792米)', '原始:', 'ZUUU 260800Z 01003MPS 320V050 9999 FEW026 SCT040 27/22 Q1002 NOSIG', '下午4:00', '27.0°C', '1,002毫巴', '每小时10.8公里, 北', '10.00公里', '部分多云 (1,219米)', '本地:', '16:00、2019年6月26日周三', '协调世界时:', '08:00、2019年6月26日周三', '来源:', 'USAF 每小时地面观测', '报告类型:', 'METAR 航空例行天气报告', '露点:', '22.0°C', '其他云层:', '大部分晴天 (792米)', '下午5:00', '27°C', '1,001毫巴', '每小时14.4公里, 北', '8.00公里', '部分多云 (792米)', '本地:', '17:00、2019年6月26日周三', '协调世界时:', '09:00、2019年6月26日周三', '来源:', '周期文件', '趋势:', '无重要变化', '露点:', '22°C', '其他云层:', '部分多云 (1,219米)', '原始:', 'ZUUU 260900Z 02004MPS 350V060 8000 SCT026 SCT040 27/22 Q1001 NOSIG', '下午5:00', '27.0°C', '1,001毫巴', '每小时14.4公里, 北', '8.00公里', '部分多云 (792米)', '本地:', '17:00、2019年6月26日周三', '协调世界时:', '09:00、2019年6月26日周三', '来源:', 'USAF 每小时地面观测', '报告类型:', 'METAR 航空例行天气报告', '露点:', '22.0°C', '其他云层:', '部分多云 (1,219米)', '下午6:00', '26°C', '1,001毫巴', '每小时18.0公里, 东北', '8.00公里', '部分多云 (792米)', '本地:', '18:00、2019年6月26日周三', '协调世界时:', '10:00、2019年6月26日周三', '来源:', '周期文件', '趋势:', '无重要变化', '露点:', '22°C', '其他云层:', '大部分晴天 (792米)', '原始:', 'ZUUU 261000Z 03005MPS 8000 FEW026TCU SCT026 26/22 Q1001 NOSIG', '下午6:00', '26.0°C', '1,001毫巴', '每小时18.0公里, 东北', '8.00公里', '部分多云 (792米)', '本地:', '18:00、2019年6月26日周三', '协调世界时:', '10:00、2019年6月26日周三', '来源:', 'USAF 每小时地面观测', '报告类型:', 'METAR 航空例行天气报告', '露点:', '22.0°C', '其他云层:', '大部分晴天 (792米)', '下午7:00', '26°C', '1,001毫巴', '每小时14.4公里, 东北', '8.00公里', '部分多云 (792米)', '本地:', '19:00、2019年6月26日周三', '协调世界时:', '11:00、2019年6月26日周三', '来源:', '周期文件', '趋势:', '无重要变化', '露点:', '22°C', '其他云层:', '大部分晴天 (792米)', '原始:', 'ZUUU 261100Z 04004MPS 8000 FEW026TCU SCT026 26/22 Q1001 NOSIG', '下午7:00', '26.0°C', '1,001毫巴', '每小时14.4公里, 东北', '8.00公里', '部分多云 (792米)', '本地:', '19:00、2019年6月26日周三', '协调世界时:', '11:00、2019年6月26日周三', '来源:', 'USAF 每小时地面观测', '报告类型:', 'METAR 航空例行天气报告', '露点:', '22.0°C', '其他云层:', '大部分晴天 (792米)', '下午8:00', '26°C', '1,002毫巴', '每小时14.4公里, 东北', '8.00公里', '部分多云 (792米)', '本地:', '20:00、2019年6月26日周三', '协调世界时:', '12:00、2019年6月26日周三', '来源:', '周期文件', '趋势:', '无重要变化', '露点:', '22°C', '其他云层:', '大部分晴天 (792米)', '原始:', 'ZUUU 261200Z 06004MPS 030V090 8000 FEW026TCU SCT026 26/22 Q1002 NOSIG', '下午8:00', '26.0°C', '1,002毫巴', '每小时14.4公里, 东北', '8.00公里', '部分多云 (792米)', '本地:', '20:00、2019年6月26日周三', '协调世界时:', '12:00、2019年6月26日周三', '来源:', 'USAF 每小时地面观测', '报告类型:', 'METAR 航空例行天气报告', '露点:', '22.0°C', '其他云层:', '大部分晴天 (792米)', '下午9:00', '25°C', '1,002毫巴', '每小时7.20公里, 北', '8.00公里', '部分多云 (792米)', '本地:', '21:00、2019年6月26日周三', '协调世界时:', '13:00、2019年6月26日周三', '来源:', '周期文件', '趋势:', '无重要变化', '露点:', '22°C', '原始:', 'ZUUU 261300Z 36002MPS 330V040 8000 SCT026 25/22 Q1002 NOSIG', '下午9:00', '25.0°C', '1,002毫巴', '每小时7.20公里, 北', '8.00公里', '部分多云 (792米)', '本地:', '21:00、2019年6月26日周三', '协调世界时:', '13:00、2019年6月26日周三', '来源:', 'USAF 每小时地面观测', '报告类型:', 'METAR 航空例行天气报告', '露点:', '22.0°C', '下午10:00', '24°C', '1,003毫巴', '每小时7.20公里, 北', '6.00公里', '部分多云 (792米)', '本地:', '22:00、2019年6月26日周三', '协调世界时:', '14:00、2019年6月26日周三', '来源:', '周期文件', '趋势:', '无重要变化', '露点:', '22°C', '原始:', 'ZUUU 261400Z 01002MPS 340V050 6000 SCT026 24/22 Q1003 NOSIG', '下午10:00', '24.0°C', '1,003毫巴', '每小时7.20公里, 北', '6.00公里', '部分多云 (792米)', '本地:', '22:00、2019年6月26日周三', '协调世界时:', '14:00、2019年6月26日周三', '来源:', 'USAF 每小时地面观测', '报告类型:', 'METAR 航空例行天气报告', '露点:', '22.0°C', '下午11:00', '24°C', '1,002毫巴', '每小时7.20公里, 北', '6.00公里', '部分多云 (792米)', '本地:', '23:00、2019年6月26日周三', '协调世界时:', '15:00、2019年6月26日周三', '来源:', '周期文件', '趋势:', '无重要变化', '露点:', '22°C', '原始:', 'ZUUU 261500Z 36002MPS 320V030 6000 SCT026 24/22 Q1002 NOSIG', '下午11:00', '24.0°C', '1,002毫巴', '每小时7.20公里, 北', '6.00公里', '部分多云 (792米)', '本地:', '23:00、2019年6月26日周三', '协调世界时:', '15:00、2019年6月26日周三', '来源:', 'USAF 每小时地面观测', '报告类型:', 'METAR 航空例行天气报告', '露点:', '22.0°C']