['Mist', 'BR、IWC10', 'Light Rain、Mist', '-RA、IWC61、BR、IWC10', 'Light Rain、Mist', '-RA、IWC61、BR、IWC10', 'Light Rain、Mist', '-RA、IWC61、BR、IWC10', 'Light Rain、Mist', '-RA、IWC61、BR、IWC10', 'Mist', 'BR、IWC10', 'Light Rain、Mist', '-RA、IWC61、BR、IWC10', 'Mist', 'BR、IWC10', 'Light Rain、Mist', '-RA、IWC61、BR、IWC10', 'Light Rain、Mist', '-RA、IWC61、BR、IWC10', 'Light Rain、Mist', '-RA、IWC61、BR、IWC10', 'Light Rain、Mist', '-RA、IWC61、BR、IWC10', 'Mist', 'BR、IWC10', '上午12:00', '18°C', '1,022毫巴', '每小时0公里', '7.00公里', '部分多云 (1,524米)', '本地:', '00:00、2019年10月31日周四', '协调世界时:', '16:00、2019年10月30日周三', '来源:', '周期文件', '趋势:', '无重要变化', '露点:', '15°C', '原始:', 'ZUUU 301600Z 00000MPS 7000 SCT050 18/15 Q1022 NOSIG', '上午12:00', '18.0°C', '1,022毫巴', '每小时0公里', '7.00公里', '部分多云 (1,524米)', '本地:', '00:00、2019年10月31日周四', '协调世界时:', '16:00、2019年10月30日周三', '来源:', 'USAF 每小时地面观测', '报告类型:', 'METAR 航空例行天气报告', '露点:', '15.0°C', '上午1:00', '18°C', '1,021毫巴', '每小时0公里', '5.00公里', '部分多云 (1,524米)', '本地:', '01:00、2019年10月31日周四', '协调世界时:', '17:00、2019年10月30日周三', '来源:', '周期文件', '趋势:', '无重要变化', '露点:', '15°C', '天气:', 'Mist', '原始:', 'ZUUU 301700Z 00000MPS 5000 BR SCT050 18/15 Q1021 NOSIG', '上午1:00', '18.0°C', '1,021毫巴', '每小时0公里', '5.00公里', '部分多云 (1,524米)', '本地:', '01:00、2019年10月31日周四', '协调世界时:', '17:00、2019年10月30日周三', '来源:', 'USAF 每小时地面观测', '报告类型:', 'METAR 航空例行天气报告', '露点:', '15.0°C', '天气:', 'Mist', '上午2:00', '17°C', '1,021毫巴', '每小时0公里', '5.00公里', '部分多云 (1,524米)', '本地:', '02:00、2019年10月31日周四', '协调世界时:', '18:00、2019年10月30日周三', '来源:', '周期文件', '趋势:', '无重要变化', '露点:', '15°C', '天气:', 'Light Rain、Mist', '原始:', 'ZUUU 301800Z 00000MPS 5000 -RA BR SCT050 17/15 Q1021 NOSIG', '上午2:00', '17.0°C', '1,021毫巴', '每小时0公里', '5.00公里', '部分多云 (1,524米)', '本地:', '02:00、2019年10月31日周四', '协调世界时:', '18:00、2019年10月30日周三', '来源:', 'USAF 每小时地面观测', '报告类型:', 'METAR 航空例行天气报告', '露点:', '15.0°C', '天气:', 'Mist、Light Rain', '上午3:00', '17°C', '1,021毫巴', '每小时7.20公里, 西', '4.00公里', '部分多云 (1,524米)', '本地:', '03:00、2019年10月31日周四', '协调世界时:', '19:00、2019年10月30日周三', '来源:', '周期文件', '趋势:', '无重要变化', '露点:', '16°C', '天气:', 'Light Rain、Mist', '原始:', 'ZUUU 301900Z 25002MPS 4000 -RA BR SCT050 17/16 Q1021 NOSIG', '上午3:00', '17.0°C', '1,021毫巴', '每小时7.20公里, 西', '4.00公里', '部分多云 (1,524米)', '本地:', '03:00、2019年10月31日周四', '协调世界时:', '19:00、2019年10月30日周三', '来源:', 'USAF 每小时地面观测', '报告类型:', 'METAR 航空例行天气报告', '露点:', '16.0°C', '天气:', 'Mist、Light Rain', '上午4:00', '16°C', '1,020毫巴', '每小时7.20公里, 南', '4.00公里', '部分多云 (1,524米)', '本地:', '04:00、2019年10月31日周四', '协调世界时:', '20:00、2019年10月30日周三', '来源:', '周期文件', '趋势:', '无重要变化', '露点:', '16°C', '天气:', 'Light Rain、Mist', '原始:', 'ZUUU 302000Z 20002MPS 4000 -RA BR SCT050 16/16 Q1020 NOSIG', '上午4:00', '16.0°C', '1,020毫巴', '每小时7.20公里, 南', '4.00公里', '部分多云 (1,524米)', '本地:', '04:00、2019年10月31日周四', '协调世界时:', '20:00、2019年10月30日周三', '来源:', 'USAF 每小时地面观测', '报告类型:', 'METAR 航空例行天气报告', '露点:', '16.0°C', '天气:', 'Mist、Light Rain', '上午5:00', '16°C', '1,020毫巴', '每小时3.60公里', '4.00公里', '部分多云 (1,219米)', '本地:', '05:00、2019年10月31日周四', '协调世界时:', '21:00、2019年10月30日周三', '来源:', '周期文件', '趋势:', '无重要变化', '露点:', '15°C', '天气:', 'Light Rain、Mist', '原始:', 'ZUUU 302100Z VRB01MPS 4000 -RA BR SCT040 16/15 Q1020 NOSIG', '上午5:00', '16.0°C', '1,020毫巴', '每小时3.60公里', '4.00公里', '部分多云 (1,219米)', '本地:', '05:00、2019年10月31日周四', '协调世界时:', '21:00、2019年10月30日周三', '来源:', 'USAF 每小时地面观测', '报告类型:', 'METAR 航空例行天气报告', '露点:', '15.0°C', '天气:', 'Mist、Light Rain', '上午6:00', '16°C', '1,020毫巴', '每小时3.60公里', '3.50公里', '部分多云 (1,219米)', '本地:', '06:00、2019年10月31日周四', '协调世界时:', '22:00、2019年10月30日周三', '来源:', '周期文件', '趋势:', '无重要变化', '露点:', '15°C', '天气:', 'Mist', '原始:', 'ZUUU 302200Z VRB01MPS 3500 BR SCT040 16/15 Q1020 NOSIG', '上午6:00', '16.0°C', '1,020毫巴', '每小时3.60公里', '3.50公里', '部分多云 (1,219米)', '本地:', '06:00、2019年10月31日周四', '协调世界时:', '22:00、2019年10月30日周三', '来源:', 'USAF 每小时地面观测', '报告类型:', 'METAR 航空例行天气报告', '露点:', '15.0°C', '天气:', 'Mist', '上午7:00', '17°C', '1,021毫巴', '每小时3.60公里', '3.00公里', '部分多云 (1,219米)', '本地:', '07:00、2019年10月31日周四', '协调世界时:', '23:00、2019年10月30日周三', '来源:', '周期文件', '趋势:', '变化为', '露点:', '15°C', '天气:', 'Light Rain、Mist、Mist', '原始:', 'ZUUU 302300Z VRB01MPS 3000 -RA BR SCT040 17/15 Q1021 BECMG TL2330 2700 BR', '上午7:00', '17.0°C', '1,021毫巴', '每小时3.60公里', '3.00公里', '部分多云 (1,219米)', '本地:', '07:00、2019年10月31日周四', '协调世界时:', '23:00、2019年10月30日周三', '来源:', 'USAF 每小时地面观测', '报告类型:', 'METAR 航空例行天气报告', '露点:', '15.0°C', '天气:', 'Mist、Light Rain', '上午8:00', '17°C', '1,021毫巴', '每小时7.20公里, 东南', '2.70公里', '部分多云 (1,006米)', '本地:', '08:00、2019年10月31日周四', '协调世界时:', '00:00、2019年10月31日周四', '来源:', '周期文件', '趋势:', '变化为', '露点:', '15°C', '天气:', 'Mist', '原始:', 'ZUUU 310000Z 13002MPS 050V170 2700 BR SCT033 17/15 Q1021 BECMG TL0100 3500', '上午8:00', '17.0°C', '1,021毫巴', '每小时7.20公里, 东南', '2.70公里', '部分多云 (1,006米)', '本地:', '08:00、2019年10月31日周四', '协调世界时:', '00:00、2019年10月31日周四', '来源:', 'USAF 每小时地面观测', '报告类型:', 'METAR 航空例行天气报告', '露点:', '15.0°C', '天气:', 'Mist', '上午9:00', '16°C', '1,022毫巴', '每小时3.60公里', '3.00公里', '大部分多云 (792米)', '本地:', '09:00、2019年10月31日周四', '协调世界时:', '01:00、2019年10月31日周四', '来源:', '周期文件', '趋势:', '无重要变化', '露点:', '15°C', '其他云层:', '大部分晴天 (305米)', '天气:', 'Light Rain、Mist', '原始:', 'ZUUU 310100Z VRB01MPS 3000 -RA BR FEW010 BKN026 16/15 Q1022 NOSIG', '上午9:00', '16.0°C', '1,022毫巴', '每小时3.60公里', '3.00公里', '大部分多云 (792米)', '本地:', '09:00、2019年10月31日周四', '协调世界时:', '01:00、2019年10月31日周四', '来源:', 'USAF 每小时地面观测', '报告类型:', 'METAR 航空例行天气报告', '露点:', '15.0°C', '其他云层:', '大部分晴天 (305米)', '天气:', 'Mist、Light Rain', '上午10:00', '16°C', '1,022毫巴', '每小时0公里', '1.70公里', '大部分多云 (701米)', '本地:', '10:00、2019年10月31日周四', '协调世界时:', '02:00、2019年10月31日周四', '来源:', '周期文件', '趋势:', '无重要变化', '露点:', '15°C', '其他云层:', '大部分晴天 (274米)', '天气:', 'Light Rain、Mist', '原始:', 'ZUUU 310200Z 00000MPS 1700 R02L/1600D R02R/1100U -RA BR FEW009 BKN023 16/15 Q1022 NOSIG', '上午10:00', '16.0°C', '1,022毫巴', '每小时0公里', '1.70公里', '大部分多云 (701米)', '本地:', '10:00、2019年10月31日周四', '协调世界时:', '02:00、2019年10月31日周四', '来源:', 'USAF 每小时地面观测', '报告类型:', 'METAR 航空例行天气报告', '露点:', '15.0°C', '其他云层:', '大部分晴天 (274米)', '天气:', 'Mist、Light Rain', '上午11:00', '16°C', '1,022毫巴', '每小时0公里', '4.00公里', '大部分多云 (701米)', '本地:', '11:00、2019年10月31日周四', '协调世界时:', '03:00、2019年10月31日周四', '来源:', '周期文件', '趋势:', '无重要变化', '露点:', '15°C', '其他云层:', '大部分晴天 (305米)', '天气:', 'Light Rain、Mist', '原始:', 'ZUUU 310300Z 00000MPS 4000 -RA BR FEW010 BKN023 16/15 Q1022 NOSIG', '上午11:00', '16.0°C', '1,022毫巴', '每小时0公里', '4.00公里', '大部分多云 (701米)', '本地:', '11:00、2019年10月31日周四', '协调世界时:', '03:00、2019年10月31日周四', '来源:', 'USAF 每小时地面观测', '报告类型:', 'METAR 航空例行天气报告', '露点:', '15.0°C', '其他云层:', '大部分晴天 (305米)', '天气:', 'Mist、Light Rain', '下午12:00', '17°C', '1,021毫巴', '每小时0公里', '3.50公里', '大部分多云 (914米)', '本地:', '12:00、2019年10月31日周四', '协调世界时:', '04:00、2019年10月31日周四', '来源:', '周期文件', '趋势:', '无重要变化', '露点:', '15°C', '天气:', 'Light Rain、Mist', '原始:', 'ZUUU 310400Z 00000MPS 3500 -RA BR BKN030 17/15 Q1021 NOSIG', '下午12:00', '17.0°C', '1,021毫巴', '每小时0公里', '3.50公里', '大部分多云 (914米)', '本地:', '12:00、2019年10月31日周四', '协调世界时:', '04:00、2019年10月31日周四', '来源:', 'USAF 每小时地面观测', '报告类型:', 'METAR 航空例行天气报告', '露点:', '15.0°C', '天气:', 'Mist、Light Rain', '下午1:00', '17°C', '1,020毫巴', '每小时10.8公里, 东', '5.00公里', '部分多云 (1,219米)', '本地:', '13:00、2019年10月31日周四', '协调世界时:', '05:00、2019年10月31日周四', '来源:', '周期文件', '趋势:', '无重要变化', '露点:', '14°C', '其他云层:', '大部分晴天 (488米)', '天气:', 'Mist', '原始:', 'ZUUU 310500Z 08003MPS 040V140 5000 BR FEW016 SCT040 17/14 Q1020 NOSIG', '下午1:00', '17.0°C', '1,020毫巴', '每小时10.8公里, 东', '5.00公里', '部分多云 (1,219米)', '本地:', '13:00、2019年10月31日周四', '协调世界时:', '05:00、2019年10月31日周四', '来源:', 'USAF 每小时地面观测', '报告类型:', 'METAR 航空例行天气报告', '露点:', '14.0°C', '其他云层:', '大部分晴天 (488米)', '天气:', 'Mist', '下午2:00', '18°C', '1,019毫巴', '每小时7.20公里, 东', '7.00公里', '部分多云 (1,219米)', '本地:', '14:00、2019年10月31日周四', '协调世界时:', '06:00、2019年10月31日周四', '来源:', '周期文件', '趋势:', '无重要变化', '露点:', '14°C', '其他云层:', '大部分晴天 (701米)', '原始:', 'ZUUU 310600Z 08002MPS 360V130 7000 FEW023 SCT040 18/14 Q1019 NOSIG', '下午2:00', '18.0°C', '1,019毫巴', '每小时7.20公里, 东', '7.00公里', '部分多云 (1,219米)', '本地:', '14:00、2019年10月31日周四', '协调世界时:', '06:00、2019年10月31日周四', '来源:', 'USAF 每小时地面观测', '报告类型:', 'METAR 航空例行天气报告', '露点:', '14.0°C', '其他云层:', '大部分晴天 (701米)', '下午3:00', '18°C', '1,018毫巴', '每小时10.8公里, 东', '7.00公里', '大部分多云 (1,219米)', '本地:', '15:00、2019年10月31日周四', '协调世界时:', '07:00、2019年10月31日周四', '来源:', '周期文件', '趋势:', '无重要变化', '露点:', '14°C', '其他云层:', '大部分晴天 (701米)', '原始:', 'ZUUU 310700Z 08003MPS 030V120 7000 FEW023 BKN040 18/14 Q1018 NOSIG', '下午3:00', '18.0°C', '1,018毫巴', '每小时10.8公里, 东', '7.00公里', '大部分多云 (1,219米)', '本地:', '15:00、2019年10月31日周四', '协调世界时:', '07:00、2019年10月31日周四', '来源:', 'USAF 每小时地面观测', '报告类型:', 'METAR 航空例行天气报告', '露点:', '14.0°C', '其他云层:', '大部分晴天 (701米)', '下午4:00', '17°C', '1,018毫巴', '每小时10.8公里, 东北', '10.00公里', '大部分多云 (1,219米)', '本地:', '16:00、2019年10月31日周四', '协调世界时:', '08:00、2019年10月31日周四', '来源:', '周期文件', '趋势:', '无重要变化', '露点:', '13°C', '其他云层:', '大部分晴天 (701米)', '原始:', 'ZUUU 310800Z 06003MPS 030V100 9999 FEW023 BKN040 17/13 Q1018 NOSIG', '下午4:00', '17.0°C', '1,018毫巴', '每小时10.8公里, 东北', '10.00公里', '大部分多云 (1,219米)', '本地:', '16:00、2019年10月31日周四', '协调世界时:', '08:00、2019年10月31日周四', '来源:', 'USAF 每小时地面观测', '报告类型:', 'METAR 航空例行天气报告', '露点:', '13.0°C', '其他云层:', '大部分晴天 (701米)', '下午5:00', '17°C', '1,018毫巴', '每小时10.8公里, 东北', '10.00公里', '大部分多云 (1,219米)', '本地:', '17:00、2019年10月31日周四', '协调世界时:', '09:00、2019年10月31日周四', '来源:', '周期文件', '趋势:', '无重要变化', '露点:', '13°C', '其他云层:', '大部分晴天 (701米)', '原始:', 'ZUUU 310900Z 04003MPS 9999 FEW023 BKN040 17/13 Q1018 NOSIG', '下午5:00', '17.0°C', '1,018毫巴', '每小时10.8公里, 东北', '10.00公里', '大部分多云 (1,219米)', '本地:', '17:00、2019年10月31日周四', '协调世界时:', '09:00、2019年10月31日周四', '来源:', 'USAF 每小时地面观测', '报告类型:', 'METAR 航空例行天气报告', '露点:', '13.0°C', '其他云层:', '大部分晴天 (701米)', '下午6:00', '17°C', '1,018毫巴', '每小时7.20公里, 北', '10.00公里', '大部分多云 (1,219米)', '本地:', '18:00、2019年10月31日周四', '协调世界时:', '10:00、2019年10月31日周四', '来源:', '周期文件', '趋势:', '无重要变化', '露点:', '14°C', '其他云层:', '大部分晴天 (701米)', '原始:', 'ZUUU 311000Z 02002MPS 340V060 9999 FEW023 BKN040 17/14 Q1018 NOSIG', '下午6:00', '17.0°C', '1,018毫巴', '每小时7.20公里, 北', '10.00公里', '大部分多云 (1,219米)', '本地:', '18:00、2019年10月31日周四', '协调世界时:', '10:00、2019年10月31日周四', '来源:', 'USAF 每小时地面观测', '报告类型:', 'METAR 航空例行天气报告', '露点:', '14.0°C', '其他云层:', '大部分晴天 (701米)', '下午7:00', '17°C', '1,019毫巴', '每小时3.60公里', '7.00公里', '大部分多云 (1,219米)', '本地:', '19:00、2019年10月31日周四', '协调世界时:', '11:00、2019年10月31日周四', '来源:', '周期文件', '趋势:', '无重要变化', '露点:', '14°C', '其他云层:', '大部分晴天 (488米)', '原始:', 'ZUUU 311100Z VRB01MPS 7000 FEW016 BKN040 17/14 Q1019 NOSIG', '下午7:00', '17.0°C', '1,019毫巴', '每小时3.60公里', '7.00公里', '大部分多云 (1,219米)', '本地:', '19:00、2019年10月31日周四', '协调世界时:', '11:00、2019年10月31日周四', '来源:', 'USAF 每小时地面观测', '报告类型:', 'METAR 航空例行天气报告', '露点:', '14.0°C', '其他云层:', '大部分晴天 (488米)', '下午8:00', '17°C', '1,019毫巴', '每小时0公里', '8.00公里', '部分多云 (1,219米)', '本地:', '20:00、2019年10月31日周四', '协调世界时:', '12:00、2019年10月31日周四', '来源:', '周期文件', '趋势:', '无重要变化', '露点:', '14°C', '其他云层:', '大部分晴天 (488米)', '原始:', 'ZUUU 311200Z 00000MPS 8000 FEW016 SCT040 17/14 Q1019 NOSIG', '下午8:00', '17.0°C', '1,019毫巴', '每小时0公里', '8.00公里', '部分多云 (1,219米)', '本地:', '20:00、2019年10月31日周四', '协调世界时:', '12:00、2019年10月31日周四', '来源:', 'USAF 每小时地面观测', '报告类型:', 'METAR 航空例行天气报告', '露点:', '14.0°C', '其他云层:', '大部分晴天 (488米)', '下午9:00', '16°C', '1,020毫巴', '每小时3.60公里, 北', '10.00公里', '部分多云 (1,524米)', '本地:', '21:00、2019年10月31日周四', '协调世界时:', '13:00、2019年10月31日周四', '来源:', '周期文件', '趋势:', '无重要变化', '露点:', '13°C', '其他云层:', '大部分晴天 (488米)', '原始:', 'ZUUU 311300Z 36001MPS 9999 FEW016 SCT050 16/13 Q1020 NOSIG', '下午9:00', '16.0°C', '1,020毫巴', '每小时3.60公里, 北', '10.00公里', '部分多云 (1,524米)', '本地:', '21:00、2019年10月31日周四', '协调世界时:', '13:00、2019年10月31日周四', '来源:', 'USAF 每小时地面观测', '报告类型:', 'METAR 航空例行天气报告', '露点:', '13.0°C', '其他云层:', '大部分晴天 (488米)', '下午10:00', '16°C', '1,020毫巴', '每小时3.60公里', '10.00公里', '部分多云 (1,524米)', '本地:', '22:00、2019年10月31日周四', '协调世界时:', '14:00、2019年10月31日周四', '来源:', '周期文件', '趋势:', '无重要变化', '露点:', '13°C', '其他云层:', '大部分晴天 (701米)', '原始:', 'ZUUU 311400Z VRB01MPS 9999 FEW023 SCT050 16/13 Q1020 NOSIG', '下午10:00', '16.0°C', '1,020毫巴', '每小时3.60公里', '10.00公里', '部分多云 (1,524米)', '本地:', '22:00、2019年10月31日周四', '协调世界时:', '14:00、2019年10月31日周四', '来源:', 'USAF 每小时地面观测', '报告类型:', 'METAR 航空例行天气报告', '露点:', '13.0°C', '其他云层:', '大部分晴天 (701米)', '下午11:00', '16°C', '1,020毫巴', '每小时7.20公里, 北', '10.00公里', '部分多云 (1,524米)', '本地:', '23:00、2019年10月31日周四', '协调世界时:', '15:00、2019年10月31日周四', '来源:', '周期文件', '趋势:', '无重要变化', '露点:', '13°C', '原始:', 'ZUUU 311500Z 36002MPS 320V040 9999 SCT050 16/13 Q1020 NOSIG', '下午11:00', '16.0°C', '1,020毫巴', '每小时7.20公里, 北', '10.00公里', '部分多云 (1,524米)', '本地:', '23:00、2019年10月31日周四', '协调世界时:', '15:00、2019年10月31日周四', '来源:', 'USAF 每小时地面观测', '报告类型:', 'METAR 航空例行天气报告', '露点:', '13.0°C']