['上午12:00', '15°C', '1,024毫巴', '每小时0公里', '≥ 10.00公里', '晴空万里', '本地:', '00:00、2019年10月18日周五', '协调世界时:', '16:00、2019年10月17日周四', '来源:', '周期文件', '趋势:', '无重要变化', '露点:', '13°C', '晴空万里:', '真', '原始:', 'ZUUU 171600Z 00000MPS CAVOK 15/13 Q1024 NOSIG', '上午12:00', '15.0°C', '1,024毫巴', '每小时0公里', '9.90公里', '晴空万里', '本地:', '00:00、2019年10月18日周五', '协调世界时:', '16:00、2019年10月17日周四', '来源:', 'USAF 每小时地面观测', '报告类型:', 'METAR 航空例行天气报告', '露点:', '13.0°C', '晴空万里:', '真', '上午1:00', '15°C', '1,024毫巴', '每小时0公里', '≥ 10.00公里', '晴空万里', '本地:', '01:00、2019年10月18日周五', '协调世界时:', '17:00、2019年10月17日周四', '来源:', '周期文件', '趋势:', '无重要变化', '露点:', '12°C', '晴空万里:', '真', '原始:', 'ZUUU 171700Z 00000MPS CAVOK 15/12 Q1024 NOSIG', '上午1:00', '15.0°C', '1,024毫巴', '每小时0公里', '9.90公里', '晴空万里', '本地:', '01:00、2019年10月18日周五', '协调世界时:', '17:00、2019年10月17日周四', '来源:', 'USAF 每小时地面观测', '报告类型:', 'METAR 航空例行天气报告', '露点:', '12.0°C', '晴空万里:', '真', '上午2:00', '15°C', '1,023毫巴', '每小时0公里', '≥ 10.00公里', '晴空万里', '本地:', '02:00、2019年10月18日周五', '协调世界时:', '18:00、2019年10月17日周四', '来源:', '周期文件', '趋势:', '无重要变化', '露点:', '13°C', '晴空万里:', '真', '原始:', 'ZUUU 171800Z 00000MPS CAVOK 15/13 Q1023 NOSIG', '上午2:00', '15.0°C', '1,023毫巴', '每小时0公里', '9.90公里', '晴空万里', '本地:', '02:00、2019年10月18日周五', '协调世界时:', '18:00、2019年10月17日周四', '来源:', 'USAF 每小时地面观测', '报告类型:', 'METAR 航空例行天气报告', '露点:', '13.0°C', '晴空万里:', '真', '上午3:00', '15°C', '1,023毫巴', '每小时0公里', '≥ 10.00公里', '晴空万里', '本地:', '03:00、2019年10月18日周五', '协调世界时:', '19:00、2019年10月17日周四', '来源:', '周期文件', '趋势:', '无重要变化', '露点:', '12°C', '晴空万里:', '真', '原始:', 'ZUUU 171900Z 00000MPS CAVOK 15/12 Q1023 NOSIG', '上午3:00', '15.0°C', '1,023毫巴', '每小时0公里', '9.90公里', '晴空万里', '本地:', '03:00、2019年10月18日周五', '协调世界时:', '19:00、2019年10月17日周四', '来源:', 'USAF 每小时地面观测', '报告类型:', 'METAR 航空例行天气报告', '露点:', '12.0°C', '晴空万里:', '真', '上午4:00', '14°C', '1,022毫巴', '每小时0公里', '8.00公里', '无重要云', '本地:', '04:00、2019年10月18日周五', '协调世界时:', '20:00、2019年10月17日周四', '来源:', '周期文件', '趋势:', '无重要变化', '露点:', '13°C', '原始:', 'ZUUU 172000Z 00000MPS 8000 NSC 14/13 Q1022 NOSIG', '上午4:00', '14.0°C', '1,022毫巴', '每小时0公里', '8.00公里', '未检测到云', '本地:', '04:00、2019年10月18日周五', '协调世界时:', '20:00、2019年10月17日周四', '来源:', 'USAF 每小时地面观测', '报告类型:', 'METAR 航空例行天气报告', '露点:', '13.0°C', '上午5:00', '14°C', '1,022毫巴', '每小时3.60公里', '8.00公里', '无重要云', '本地:', '05:00、2019年10月18日周五', '协调世界时:', '21:00、2019年10月17日周四', '来源:', '周期文件', '趋势:', '无重要变化', '露点:', '13°C', '原始:', 'ZUUU 172100Z VRB01MPS 8000 NSC 14/13 Q1022 NOSIG', '上午5:00', '14.0°C', '1,022毫巴', '每小时3.60公里', '8.00公里', '未检测到云', '本地:', '05:00、2019年10月18日周五', '协调世界时:', '21:00、2019年10月17日周四', '来源:', 'USAF 每小时地面观测', '报告类型:', 'METAR 航空例行天气报告', '露点:', '13.0°C', '上午6:00', '14°C', '1,022毫巴', '每小时3.60公里', '7.00公里', '无重要云', '本地:', '06:00、2019年10月18日周五', '协调世界时:', '22:00、2019年10月17日周四', '来源:', '周期文件', '趋势:', '无重要变化', '露点:', '13°C', '原始:', 'ZUUU 172200Z VRB01MPS 7000 NSC 14/13 Q1022 NOSIG', '上午6:00', '14.0°C', '1,022毫巴', '每小时3.60公里', '7.00公里', '未检测到云', '本地:', '06:00、2019年10月18日周五', '协调世界时:', '22:00、2019年10月17日周四', '来源:', 'USAF 每小时地面观测', '报告类型:', 'METAR 航空例行天气报告', '露点:', '13.0°C', '上午7:00', '13°C', '1,023毫巴', '每小时0公里', '6.00公里', '无重要云', '本地:', '07:00、2019年10月18日周五', '协调世界时:', '23:00、2019年10月17日周四', '来源:', '周期文件', '趋势:', '无重要变化', '露点:', '12°C', '原始:', 'ZUUU 172300Z 00000MPS 6000 NSC 13/12 Q1023 NOSIG', '上午7:00', '13.0°C', '1,023毫巴', '每小时0公里', '6.00公里', '未检测到云', '本地:', '07:00、2019年10月18日周五', '协调世界时:', '23:00、2019年10月17日周四', '来源:', 'USAF 每小时地面观测', '报告类型:', 'METAR 航空例行天气报告', '露点:', '12.0°C', '上午8:00', '15°C', '1,023毫巴', '每小时0公里', '7.00公里', '无重要云', '本地:', '08:00、2019年10月18日周五', '协调世界时:', '00:00、2019年10月18日周五', '来源:', '周期文件', '趋势:', '无重要变化', '露点:', '14°C', '原始:', 'ZUUU 180000Z 00000MPS 7000 NSC 15/14 Q1023 NOSIG', '上午8:00', '15.0°C', '1,023毫巴', '每小时0公里', '7.00公里', '未检测到云', '本地:', '08:00、2019年10月18日周五', '协调世界时:', '00:00、2019年10月18日周五', '来源:', 'USAF 每小时地面观测', '报告类型:', 'METAR 航空例行天气报告', '露点:', '14.0°C', '上午9:00', '17°C', '1,024毫巴', '每小时0公里', '8.00公里', '无重要云', '本地:', '09:00、2019年10月18日周五', '协调世界时:', '01:00、2019年10月18日周五', '来源:', '周期文件', '趋势:', '无重要变化', '露点:', '14°C', '原始:', 'ZUUU 180100Z 00000MPS 8000 NSC 17/14 Q1024 NOSIG', '上午9:00', '17.0°C', '1,024毫巴', '每小时0公里', '8.00公里', '未检测到云', '本地:', '09:00、2019年10月18日周五', '协调世界时:', '01:00、2019年10月18日周五', '来源:', 'USAF 每小时地面观测', '报告类型:', 'METAR 航空例行天气报告', '露点:', '14.0°C', '上午10:00', '19°C', '1,024毫巴', '每小时7.20公里, 西南', '≥ 10.00公里', '晴空万里', '本地:', '10:00、2019年10月18日周五', '协调世界时:', '02:00、2019年10月18日周五', '来源:', '周期文件', '趋势:', '无重要变化', '露点:', '14°C', '晴空万里:', '真', '原始:', 'ZUUU 180200Z 23002MPS 180V320 CAVOK 19/14 Q1024 NOSIG', '上午10:00', '19.0°C', '1,024毫巴', '每小时7.20公里, 西南', '9.90公里', '晴空万里', '本地:', '10:00、2019年10月18日周五', '协调世界时:', '02:00、2019年10月18日周五', '来源:', 'USAF 每小时地面观测', '报告类型:', 'METAR 航空例行天气报告', '露点:', '14.0°C', '晴空万里:', '真', '上午11:00', '21°C', '1,023毫巴', '每小时3.60公里', '≥ 10.00公里', '晴空万里', '本地:', '11:00、2019年10月18日周五', '协调世界时:', '03:00、2019年10月18日周五', '来源:', '周期文件', '趋势:', '无重要变化', '露点:', '12°C', '晴空万里:', '真', '原始:', 'ZUUU 180300Z VRB01MPS CAVOK 21/12 Q1023 NOSIG', '上午11:00', '21.0°C', '1,023毫巴', '每小时3.60公里', '9.90公里', '晴空万里', '本地:', '11:00、2019年10月18日周五', '协调世界时:', '03:00、2019年10月18日周五', '来源:', 'USAF 每小时地面观测', '报告类型:', 'METAR 航空例行天气报告', '露点:', '12.0°C', '晴空万里:', '真', '下午12:00', '23°C', '1,023毫巴', '每小时3.60公里', '≥ 10.00公里', '晴空万里', '本地:', '12:00、2019年10月18日周五', '协调世界时:', '04:00、2019年10月18日周五', '来源:', '周期文件', '趋势:', '无重要变化', '露点:', '12°C', '晴空万里:', '真', '原始:', 'ZUUU 180400Z VRB01MPS CAVOK 23/12 Q1023 NOSIG', '下午12:00', '23.0°C', '1,023毫巴', '每小时3.60公里', '9.90公里', '晴空万里', '本地:', '12:00、2019年10月18日周五', '协调世界时:', '04:00、2019年10月18日周五', '来源:', 'USAF 每小时地面观测', '报告类型:', 'METAR 航空例行天气报告', '露点:', '12.0°C', '晴空万里:', '真', '下午1:00', '23°C', '1,021毫巴', '每小时3.60公里', '10.00公里', '部分多云 (792米)', '本地:', '13:00、2019年10月18日周五', '协调世界时:', '05:00、2019年10月18日周五', '来源:', '周期文件', '趋势:', '无重要变化', '露点:', '10°C', '原始:', 'ZUUU 180500Z VRB01MPS 9999 SCT026 23/10 Q1021 NOSIG', '下午1:00', '23.0°C', '1,021毫巴', '每小时3.60公里', '10.00公里', '部分多云 (792米)', '本地:', '13:00、2019年10月18日周五', '协调世界时:', '05:00、2019年10月18日周五', '来源:', 'USAF 每小时地面观测', '报告类型:', 'METAR 航空例行天气报告', '露点:', '10.0°C', '下午2:00', '24°C', '1,020毫巴', '每小时3.60公里', '10.00公里', '部分多云 (792米)', '本地:', '14:00、2019年10月18日周五', '协调世界时:', '06:00、2019年10月18日周五', '来源:', '周期文件', '趋势:', '无重要变化', '露点:', '11°C', '原始:', 'ZUUU 180600Z VRB01MPS 9999 SCT026 24/11 Q1020 NOSIG', '下午2:00', '24.0°C', '1,020毫巴', '每小时3.60公里', '10.00公里', '部分多云 (792米)', '本地:', '14:00、2019年10月18日周五', '协调世界时:', '06:00、2019年10月18日周五', '来源:', 'USAF 每小时地面观测', '报告类型:', 'METAR 航空例行天气报告', '露点:', '11.0°C', '下午3:00', '24°C', '1,019毫巴', '每小时7.20公里, 西南', '10.00公里', '部分多云 (1,006米)', '本地:', '15:00、2019年10月18日周五', '协调世界时:', '07:00、2019年10月18日周五', '来源:', '周期文件', '趋势:', '无重要变化', '露点:', '11°C', '其他云层:', '大部分晴天 (792米)', '原始:', 'ZUUU 180700Z 24002MPS 200V310 9999 FEW026 SCT033 24/11 Q1019 NOSIG', '下午3:00', '24.0°C', '1,019毫巴', '每小时7.20公里, 西南', '10.00公里', '部分多云 (1,006米)', '本地:', '15:00、2019年10月18日周五', '协调世界时:', '07:00、2019年10月18日周五', '来源:', 'USAF 每小时地面观测', '报告类型:', 'METAR 航空例行天气报告', '露点:', '11.0°C', '其他云层:', '大部分晴天 (792米)', '下午4:00', '24°C', '1,019毫巴', '每小时10.8公里, 东南', '10.00公里', '大部分多云 (1,219米)', '本地:', '16:00、2019年10月18日周五', '协调世界时:', '08:00、2019年10月18日周五', '来源:', '周期文件', '趋势:', '无重要变化', '露点:', '11°C', '其他云层:', '大部分晴天 (792米)', '原始:', 'ZUUU 180800Z 13003MPS 050V160 9999 FEW026 BKN040 24/11 Q1019 NOSIG', '下午4:00', '24.0°C', '1,019毫巴', '每小时10.8公里, 东南', '10.00公里', '大部分多云 (1,219米)', '本地:', '16:00、2019年10月18日周五', '协调世界时:', '08:00、2019年10月18日周五', '来源:', 'USAF 每小时地面观测', '报告类型:', 'METAR 航空例行天气报告', '露点:', '11.0°C', '其他云层:', '大部分晴天 (792米)', '下午5:00', '23°C', '1,019毫巴', '每小时3.60公里', '10.00公里', '大部分晴天 (792米)', '本地:', '17:00、2019年10月18日周五', '协调世界时:', '09:00、2019年10月18日周五', '来源:', '周期文件', '趋势:', '无重要变化', '露点:', '11°C', '原始:', 'ZUUU 180900Z VRB01MPS 9999 FEW026TCU FEW026 23/11 Q1019 NOSIG', '下午5:00', '23.0°C', '1,019毫巴', '每小时3.60公里', '10.00公里', '大部分晴天 (792米)', '本地:', '17:00、2019年10月18日周五', '协调世界时:', '09:00、2019年10月18日周五', '来源:', 'USAF 每小时地面观测', '报告类型:', 'METAR 航空例行天气报告', '露点:', '11.0°C', '下午6:00', '23°C', '1,019毫巴', '每小时3.60公里', '10.00公里', '大部分晴天 (792米)', '本地:', '18:00、2019年10月18日周五', '协调世界时:', '10:00、2019年10月18日周五', '来源:', '周期文件', '趋势:', '无重要变化', '露点:', '12°C', '原始:', 'ZUUU 181000Z VRB01MPS 9999 FEW026 23/12 Q1019 NOSIG', '下午6:00', '23.0°C', '1,019毫巴', '每小时3.60公里', '10.00公里', '大部分晴天 (792米)', '本地:', '18:00、2019年10月18日周五', '协调世界时:', '10:00、2019年10月18日周五', '来源:', 'USAF 每小时地面观测', '报告类型:', 'METAR 航空例行天气报告', '露点:', '12.0°C', '下午7:00', '22°C', '1,019毫巴', '每小时7.20公里, 南', '10.00公里', '部分多云 (1,219米)', '本地:', '19:00、2019年10月18日周五', '协调世界时:', '11:00、2019年10月18日周五', '来源:', '周期文件', '趋势:', '无重要变化', '露点:', '11°C', '原始:', 'ZUUU 181100Z 19002MPS 140V240 9999 SCT040 22/11 Q1019 NOSIG', '下午7:00', '22.0°C', '1,019毫巴', '每小时7.20公里, 南', '10.00公里', '部分多云 (1,219米)', '本地:', '19:00、2019年10月18日周五', '协调世界时:', '11:00、2019年10月18日周五', '来源:', 'USAF 每小时地面观测', '报告类型:', 'METAR 航空例行天气报告', '露点:', '11.0°C', '下午8:00', '22°C', '1,020毫巴', '每小时3.60公里', '10.00公里', '大部分晴天 (1,524米)', '本地:', '20:00、2019年10月18日周五', '协调世界时:', '12:00、2019年10月18日周五', '来源:', '周期文件', '趋势:', '无重要变化', '露点:', '12°C', '原始:', 'ZUUU 181200Z VRB01MPS 9999 FEW050 22/12 Q1020 NOSIG', '下午8:00', '22.0°C', '1,020毫巴', '每小时3.60公里', '10.00公里', '大部分晴天 (1,524米)', '本地:', '20:00、2019年10月18日周五', '协调世界时:', '12:00、2019年10月18日周五', '来源:', 'USAF 每小时地面观测', '报告类型:', 'METAR 航空例行天气报告', '露点:', '12.0°C', '下午9:00', '20°C', '1,021毫巴', '每小时0公里', '10.00公里', '大部分晴天 (1,524米)', '本地:', '21:00、2019年10月18日周五', '协调世界时:', '13:00、2019年10月18日周五', '来源:', '周期文件', '趋势:', '无重要变化', '露点:', '14°C', '原始:', 'ZUUU 181300Z 00000MPS 9999 FEW050 20/14 Q1021 NOSIG', '下午9:00', '20.0°C', '1,021毫巴', '每小时0公里', '10.00公里', '大部分晴天 (1,524米)', '本地:', '21:00、2019年10月18日周五', '协调世界时:', '13:00、2019年10月18日周五', '来源:', 'USAF 每小时地面观测', '报告类型:', 'METAR 航空例行天气报告', '露点:', '14.0°C', '下午10:00', '19°C', '1,021毫巴', '每小时3.60公里, 西南', '10.00公里', '大部分晴天 (1,524米)', '本地:', '22:00、2019年10月18日周五', '协调世界时:', '14:00、2019年10月18日周五', '来源:', '周期文件', '趋势:', '无重要变化', '露点:', '15°C', '原始:', 'ZUUU 181400Z 22001MPS 9999 FEW050 19/15 Q1021 NOSIG', '下午10:00', '19.0°C', '1,021毫巴', '每小时3.60公里, 西南', '10.00公里', '大部分晴天 (1,524米)', '本地:', '22:00、2019年10月18日周五', '协调世界时:', '14:00、2019年10月18日周五', '来源:', 'USAF 每小时地面观测', '报告类型:', 'METAR 航空例行天气报告', '露点:', '15.0°C', '下午11:00', '19°C', '1,021毫巴', '每小时7.20公里, 西南', '10.00公里', '大部分晴天 (1,524米)', '本地:', '23:00、2019年10月18日周五', '协调世界时:', '15:00、2019年10月18日周五', '来源:', '周期文件', '趋势:', '无重要变化', '露点:', '13°C', '原始:', 'ZUUU 181500Z 21002MPS 110V220 9999 FEW050 19/13 Q1021 NOSIG', '下午11:00', '19.0°C', '1,021毫巴', '每小时7.20公里, 西南', '10.00公里', '大部分晴天 (1,524米)', '本地:', '23:00、2019年10月18日周五', '协调世界时:', '15:00、2019年10月18日周五', '来源:', 'USAF 每小时地面观测', '报告类型:', 'METAR 航空例行天气报告', '露点:', '13.0°C']