['Mist', 'BR、IWC10', 'Mist', 'BR、IWC10', 'Mist', 'BR、IWC10', 'Mist', 'BR、IWC10', '上午12:00', '13°C', '1,012毫巴', '每小时7.20公里, 北', '7.00公里', '部分多云 (1,524米)', '本地:', '00:00、2019年3月4日周一', '协调世界时:', '16:00、2019年3月3日周日', '来源:', '周期文件', '趋势:', '无重要变化', '露点:', '9°C', '原始:', 'ZUUU 031600Z 36002MPS 320V030 7000 SCT050 13/09 Q1012 NOSIG', '上午12:00', '13.0°C', '1,012毫巴', '每小时7.20公里, 北', '7.00公里', '部分多云 (1,524米)', '本地:', '00:00、2019年3月4日周一', '协调世界时:', '16:00、2019年3月3日周日', '来源:', 'USAF 每小时地面观测', '报告类型:', 'METAR 航空例行天气报告', '露点:', '9.0°C', '上午1:00', '12°C', '1,012毫巴', '每小时7.20公里, 北', '6.00公里', '部分多云 (1,524米)', '本地:', '01:00、2019年3月4日周一', '协调世界时:', '17:00、2019年3月3日周日', '来源:', '周期文件', '趋势:', '无重要变化', '露点:', '9°C', '原始:', 'ZUUU 031700Z 36002MPS 320V030 6000 SCT050 12/09 Q1012 NOSIG', '上午1:00', '12.0°C', '1,012毫巴', '每小时7.20公里, 北', '6.00公里', '部分多云 (1,524米)', '本地:', '01:00、2019年3月4日周一', '协调世界时:', '17:00、2019年3月3日周日', '来源:', 'USAF 每小时地面观测', '报告类型:', 'METAR 航空例行天气报告', '露点:', '9.0°C', '上午2:00', '12°C', '1,012毫巴', '每小时7.20公里, 北', '6.00公里', '部分多云 (1,524米)', '本地:', '02:00、2019年3月4日周一', '协调世界时:', '18:00、2019年3月3日周日', '来源:', '周期文件', '趋势:', '无重要变化', '露点:', '9°C', '原始:', 'ZUUU 031800Z 36002MPS 330V040 6000 SCT050 12/09 Q1012 NOSIG', '上午2:00', '12.0°C', '1,012毫巴', '每小时7.20公里, 北', '6.00公里', '部分多云 (1,524米)', '本地:', '02:00、2019年3月4日周一', '协调世界时:', '18:00、2019年3月3日周日', '来源:', 'USAF 每小时地面观测', '报告类型:', 'METAR 航空例行天气报告', '露点:', '9.0°C', '上午3:00', '12°C', '1,011毫巴', '每小时7.20公里, 北', '6.00公里', '部分多云 (1,524米)', '本地:', '03:00、2019年3月4日周一', '协调世界时:', '19:00、2019年3月3日周日', '来源:', '周期文件', '趋势:', '无重要变化', '露点:', '8°C', '原始:', 'ZUUU 031900Z 36002MPS 310V020 6000 SCT050 12/08 Q1011 NOSIG', '上午3:00', '12.0°C', '1,011毫巴', '每小时7.20公里, 北', '6.00公里', '部分多云 (1,524米)', '本地:', '03:00、2019年3月4日周一', '协调世界时:', '19:00、2019年3月3日周日', '来源:', 'USAF 每小时地面观测', '报告类型:', 'METAR 航空例行天气报告', '露点:', '8.0°C', '上午4:00', '12°C', '1,010毫巴', '每小时3.60公里, 北', '6.00公里', '部分多云 (1,524米)', '本地:', '04:00、2019年3月4日周一', '协调世界时:', '20:00、2019年3月3日周日', '来源:', '周期文件', '趋势:', '无重要变化', '露点:', '8°C', '原始:', 'ZUUU 032000Z 02001MPS 6000 SCT050 12/08 Q1010 NOSIG', '上午4:00', '12.0°C', '1,010毫巴', '每小时3.60公里, 北', '6.00公里', '部分多云 (1,524米)', '本地:', '04:00、2019年3月4日周一', '协调世界时:', '20:00、2019年3月3日周日', '来源:', 'USAF 每小时地面观测', '报告类型:', 'METAR 航空例行天气报告', '露点:', '8.0°C', '上午5:00', '11°C', '1,010毫巴', '每小时7.20公里, 北', '6.00公里', '部分多云 (1,524米)', '本地:', '05:00、2019年3月4日周一', '协调世界时:', '21:00、2019年3月3日周日', '来源:', '周期文件', '趋势:', '无重要变化', '露点:', '9°C', '原始:', 'ZUUU 032100Z 02002MPS 6000 SCT050 11/09 Q1010 NOSIG', '上午5:00', '11.0°C', '1,010毫巴', '每小时7.20公里, 北', '6.00公里', '部分多云 (1,524米)', '本地:', '05:00、2019年3月4日周一', '协调世界时:', '21:00、2019年3月3日周日', '来源:', 'USAF 每小时地面观测', '报告类型:', 'METAR 航空例行天气报告', '露点:', '9.0°C', '上午6:00', '12°C', '1,010毫巴', '每小时0公里', '6.00公里', '部分多云 (1,219米)', '本地:', '06:00、2019年3月4日周一', '协调世界时:', '22:00、2019年3月3日周日', '来源:', '周期文件', '趋势:', '无重要变化', '露点:', '8°C', '原始:', 'ZUUU 032200Z 00000MPS 6000 SCT040 12/08 Q1010 NOSIG', '上午6:00', '12.0°C', '1,010毫巴', '每小时0公里', '6.00公里', '部分多云 (1,219米)', '本地:', '06:00、2019年3月4日周一', '协调世界时:', '22:00、2019年3月3日周日', '来源:', 'USAF 每小时地面观测', '报告类型:', 'METAR 航空例行天气报告', '露点:', '8.0°C', '上午7:00', '11°C', '1,010毫巴', '每小时7.20公里, 北', '6.00公里', '部分多云 (1,524米)', '本地:', '07:00、2019年3月4日周一', '协调世界时:', '23:00、2019年3月3日周日', '来源:', '周期文件', '趋势:', '无重要变化', '露点:', '8°C', '原始:', 'ZUUU 032300Z 35002MPS 6000 SCT050 11/08 Q1010 NOSIG', '上午7:00', '11.0°C', '1,010毫巴', '每小时7.20公里, 北', '6.00公里', '部分多云 (1,524米)', '本地:', '07:00、2019年3月4日周一', '协调世界时:', '23:00、2019年3月3日周日', '来源:', 'USAF 每小时地面观测', '报告类型:', 'METAR 航空例行天气报告', '露点:', '8.0°C', '上午8:00', '11°C', '1,011毫巴', '每小时3.60公里', '4.50公里', '部分多云 (1,219米)', '本地:', '08:00、2019年3月4日周一', '协调世界时:', '00:00、2019年3月4日周一', '来源:', '周期文件', '趋势:', '无重要变化', '露点:', '8°C', '天气:', 'Mist', '原始:', 'ZUUU 040000Z VRB01MPS 4500 BR SCT040 11/08 Q1011 NOSIG', '上午8:00', '11.0°C', '1,011毫巴', '每小时3.60公里', '4.50公里', '部分多云 (1,219米)', '本地:', '08:00、2019年3月4日周一', '协调世界时:', '00:00、2019年3月4日周一', '来源:', 'USAF 每小时地面观测', '报告类型:', 'METAR 航空例行天气报告', '露点:', '8.0°C', '天气:', 'Mist', '上午9:00', '11°C', '1,012毫巴', '每小时10.8公里, 北', '4.50公里', '部分多云 (1,219米)', '本地:', '09:00、2019年3月4日周一', '协调世界时:', '01:00、2019年3月4日周一', '来源:', '周期文件', '趋势:', '无重要变化', '露点:', '8°C', '天气:', 'Mist', '原始:', 'ZUUU 040100Z 01003MPS 4500 BR SCT040 11/08 Q1012 NOSIG', '上午9:00', '11.0°C', '1,012毫巴', '每小时10.8公里, 北', '4.50公里', '部分多云 (1,219米)', '本地:', '09:00、2019年3月4日周一', '协调世界时:', '01:00、2019年3月4日周一', '来源:', 'USAF 每小时地面观测', '报告类型:', 'METAR 航空例行天气报告', '露点:', '8.0°C', '天气:', 'Mist', '上午10:00', '12°C', '1,012毫巴', '每小时10.8公里, 北', '5.00公里', '部分多云 (1,219米)', '本地:', '10:00、2019年3月4日周一', '协调世界时:', '02:00、2019年3月4日周一', '来源:', '周期文件', '趋势:', '无重要变化', '露点:', '9°C', '天气:', 'Mist', '原始:', 'ZUUU 040200Z 02003MPS 5000 BR SCT040 12/09 Q1012 NOSIG', '上午10:00', '12.0°C', '1,012毫巴', '每小时10.8公里, 北', '5.00公里', '部分多云 (1,219米)', '本地:', '10:00、2019年3月4日周一', '协调世界时:', '02:00、2019年3月4日周一', '来源:', 'USAF 每小时地面观测', '报告类型:', 'METAR 航空例行天气报告', '露点:', '9.0°C', '天气:', 'Mist', '上午11:00', '12°C', '1,012毫巴', '每小时10.8公里, 北', '5.00公里', '大部分晴天 (1,219米)', '本地:', '11:00、2019年3月4日周一', '协调世界时:', '03:00、2019年3月4日周一', '来源:', '周期文件', '趋势:', '无重要变化', '露点:', '9°C', '天气:', 'Mist', '原始:', 'ZUUU 040300Z 02003MPS 5000 BR FEW040 12/09 Q1012 NOSIG', '上午11:00', '12.0°C', '1,012毫巴', '每小时10.8公里, 北', '5.00公里', '大部分晴天 (1,219米)', '本地:', '11:00、2019年3月4日周一', '协调世界时:', '03:00、2019年3月4日周一', '来源:', 'USAF 每小时地面观测', '报告类型:', 'METAR 航空例行天气报告', '露点:', '9.0°C', '天气:', 'Mist', '下午12:00', '12°C', '1,012毫巴', '每小时7.20公里, 北', '6.00公里', '大部分晴天 (1,524米)', '本地:', '12:00、2019年3月4日周一', '协调世界时:', '04:00、2019年3月4日周一', '来源:', '周期文件', '趋势:', '无重要变化', '露点:', '8°C', '原始:', 'ZUUU 040400Z 02002MPS 330V060 6000 FEW050 12/08 Q1012 NOSIG', '下午12:00', '12.0°C', '1,012毫巴', '每小时7.20公里, 北', '6.00公里', '大部分晴天 (1,524米)', '本地:', '12:00、2019年3月4日周一', '协调世界时:', '04:00、2019年3月4日周一', '来源:', 'USAF 每小时地面观测', '报告类型:', 'METAR 航空例行天气报告', '露点:', '8.0°C', '下午1:00', '13°C', '1,011毫巴', '每小时10.8公里, 东北', '6.00公里', '大部分晴天 (1,524米)', '本地:', '13:00、2019年3月4日周一', '协调世界时:', '05:00、2019年3月4日周一', '来源:', '周期文件', '趋势:', '无重要变化', '露点:', '8°C', '原始:', 'ZUUU 040500Z 03003MPS 350V060 6000 FEW050 13/08 Q1011 NOSIG', '下午1:00', '13.0°C', '1,011毫巴', '每小时10.8公里, 东北', '6.00公里', '大部分晴天 (1,524米)', '本地:', '13:00、2019年3月4日周一', '协调世界时:', '05:00、2019年3月4日周一', '来源:', 'USAF 每小时地面观测', '报告类型:', 'METAR 航空例行天气报告', '露点:', '8.0°C', '下午2:00', '14°C', '1,010毫巴', '每小时7.20公里, 东北', '6.00公里', '大部分晴天 (792米)', '本地:', '14:00、2019年3月4日周一', '协调世界时:', '06:00、2019年3月4日周一', '来源:', '周期文件', '趋势:', '无重要变化', '露点:', '7°C', '原始:', 'ZUUU 040600Z 03002MPS 350V060 6000 FEW026 14/07 Q1010 NOSIG', '下午2:00', '14.0°C', '1,010毫巴', '每小时7.20公里, 东北', '6.00公里', '大部分晴天 (792米)', '本地:', '14:00、2019年3月4日周一', '协调世界时:', '06:00、2019年3月4日周一', '来源:', 'USAF 每小时地面观测', '报告类型:', 'METAR 航空例行天气报告', '露点:', '7.0°C', '下午3:00', '14°C', '1,009毫巴', '每小时7.20公里', '7.00公里', '部分多云 (1,006米)', '本地:', '15:00、2019年3月4日周一', '协调世界时:', '07:00、2019年3月4日周一', '来源:', '周期文件', '趋势:', '无重要变化', '露点:', '8°C', '原始:', 'ZUUU 040700Z VRB02MPS 7000 SCT033 14/08 Q1009 NOSIG', '下午3:00', '14.0°C', '1,009毫巴', '每小时7.20公里', '7.00公里', '部分多云 (1,006米)', '本地:', '15:00、2019年3月4日周一', '协调世界时:', '07:00、2019年3月4日周一', '来源:', 'USAF 每小时地面观测', '报告类型:', 'METAR 航空例行天气报告', '露点:', '8.0°C', '下午4:00', '15°C', '1,009毫巴', '每小时7.20公里, 北', '7.00公里', '部分多云 (1,006米)', '本地:', '16:00、2019年3月4日周一', '协调世界时:', '08:00、2019年3月4日周一', '来源:', '周期文件', '趋势:', '无重要变化', '露点:', '7°C', '原始:', 'ZUUU 040800Z 34002MPS 300V050 7000 SCT033 15/07 Q1009 NOSIG', '下午4:00', '15.0°C', '1,009毫巴', '每小时7.20公里, 北', '7.00公里', '部分多云 (1,006米)', '本地:', '16:00、2019年3月4日周一', '协调世界时:', '08:00、2019年3月4日周一', '来源:', 'USAF 每小时地面观测', '报告类型:', 'METAR 航空例行天气报告', '露点:', '7.0°C', '下午5:00', '14°C', '1,009毫巴', '每小时0公里', '7.00公里', '部分多云 (1,311米)', '本地:', '17:00、2019年3月4日周一', '协调世界时:', '09:00、2019年3月4日周一', '来源:', '周期文件', '趋势:', '无重要变化', '露点:', '7°C', '原始:', 'ZUUU 040900Z 00000MPS 7000 SCT043 14/07 Q1009 NOSIG', '下午5:00', '14.0°C', '1,009毫巴', '每小时0公里', '7.00公里', '部分多云 (1,311米)', '本地:', '17:00、2019年3月4日周一', '协调世界时:', '09:00、2019年3月4日周一', '来源:', 'USAF 每小时地面观测', '报告类型:', 'METAR 航空例行天气报告', '露点:', '7.0°C', '下午6:00', '14°C', '1,010毫巴', '每小时0公里', '8.00公里', '无重要云', '本地:', '18:00、2019年3月4日周一', '协调世界时:', '10:00、2019年3月4日周一', '来源:', '周期文件', '趋势:', '无重要变化', '露点:', '7°C', '原始:', 'ZUUU 041000Z 00000MPS 8000 NSC 14/07 Q1010 NOSIG', '下午6:00', '14.0°C', '1,010毫巴', '每小时0公里', '8.00公里', '未检测到云', '本地:', '18:00、2019年3月4日周一', '协调世界时:', '10:00、2019年3月4日周一', '来源:', 'USAF 每小时地面观测', '报告类型:', 'METAR 航空例行天气报告', '露点:', '7.0°C', '下午7:00', '14°C', '1,010毫巴', '每小时0公里', '8.00公里', '无重要云', '本地:', '19:00、2019年3月4日周一', '协调世界时:', '11:00、2019年3月4日周一', '来源:', '周期文件', '趋势:', '无重要变化', '露点:', '7°C', '原始:', 'ZUUU 041100Z 00000MPS 8000 NSC 14/07 Q1010 NOSIG', '下午7:00', '14.0°C', '1,010毫巴', '每小时0公里', '8.00公里', '未检测到云', '本地:', '19:00、2019年3月4日周一', '协调世界时:', '11:00、2019年3月4日周一', '来源:', 'USAF 每小时地面观测', '报告类型:', 'METAR 航空例行天气报告', '露点:', '7.0°C', '下午8:00', '13°C', '1,011毫巴', '每小时7.20公里, 北', '8.00公里', '无重要云', '本地:', '20:00、2019年3月4日周一', '协调世界时:', '12:00、2019年3月4日周一', '来源:', '周期文件', '趋势:', '无重要变化', '露点:', '7°C', '原始:', 'ZUUU 041200Z 36002MPS 330V040 8000 NSC 13/07 Q1011 NOSIG', '下午8:00', '13.0°C', '1,011毫巴', '每小时7.20公里, 北', '8.00公里', '未检测到云', '本地:', '20:00、2019年3月4日周一', '协调世界时:', '12:00、2019年3月4日周一', '来源:', 'USAF 每小时地面观测', '报告类型:', 'METAR 航空例行天气报告', '露点:', '7.0°C', '下午9:00', '14°C', '1,012毫巴', '每小时10.8公里, 东北', '8.00公里', '无重要云', '本地:', '21:00、2019年3月4日周一', '协调世界时:', '13:00、2019年3月4日周一', '来源:', '周期文件', '趋势:', '无重要变化', '露点:', '7°C', '原始:', 'ZUUU 041300Z 03003MPS 8000 NSC 14/07 Q1012 NOSIG', '下午9:00', '14.0°C', '1,012毫巴', '每小时10.8公里, 东北', '8.00公里', '未检测到云', '本地:', '21:00、2019年3月4日周一', '协调世界时:', '13:00、2019年3月4日周一', '来源:', 'USAF 每小时地面观测', '报告类型:', 'METAR 航空例行天气报告', '露点:', '7.0°C', '下午10:00', '13°C', '1,013毫巴', '每小时0公里', '8.00公里', '无重要云', '本地:', '22:00、2019年3月4日周一', '协调世界时:', '14:00、2019年3月4日周一', '来源:', '周期文件', '趋势:', '无重要变化', '露点:', '8°C', '原始:', 'ZUUU 041400Z 00000MPS 8000 NSC 13/08 Q1013 NOSIG', '下午10:00', '13.0°C', '1,013毫巴', '每小时0公里', '8.00公里', '未检测到云', '本地:', '22:00、2019年3月4日周一', '协调世界时:', '14:00、2019年3月4日周一', '来源:', 'USAF 每小时地面观测', '报告类型:', 'METAR 航空例行天气报告', '露点:', '8.0°C', '下午11:00', '13°C', '1,013毫巴', '每小时0公里', '8.00公里', '无重要云', '本地:', '23:00、2019年3月4日周一', '协调世界时:', '15:00、2019年3月4日周一', '来源:', '周期文件', '趋势:', '无重要变化', '露点:', '7°C', '原始:', 'ZUUU 041500Z 00000MPS 8000 NSC 13/07 Q1013 NOSIG', '下午11:00', '13.0°C', '1,013毫巴', '每小时0公里', '8.00公里', '未检测到云', '本地:', '23:00、2019年3月4日周一', '协调世界时:', '15:00、2019年3月4日周一', '来源:', 'USAF 每小时地面观测', '报告类型:', 'METAR 航空例行天气报告', '露点:', '7.0°C']