['Light Rain', '-RA、IWC61', '上午12:00', '11°C', '1,019毫巴', '每小时10.8公里, 北', '10.00公里', '大部分多云 (1,524米)', '本地:', '00:00、2019年2月9日周六', '协调世界时:', '16:00、2019年2月8日周五', '来源:', '周期文件', '趋势:', '无重要变化', '露点:', '0°C', '原始:', 'ZUUU 081600Z 01003MPS 340V040 9999 BKN050 11/M00 Q1019 NOSIG', '上午12:00', '11.0°C', '1,019毫巴', '每小时10.8公里, 北', '10.00公里', '大部分多云 (1,524米)', '本地:', '00:00、2019年2月9日周六', '协调世界时:', '16:00、2019年2月8日周五', '来源:', 'USAF 每小时地面观测', '报告类型:', 'METAR 航空例行天气报告', '露点:', '0.0°C', '上午1:00', '10°C', '1,019毫巴', '每小时0公里', '10.00公里', '大部分多云 (1,524米)', '本地:', '01:00、2019年2月9日周六', '协调世界时:', '17:00、2019年2月8日周五', '来源:', '周期文件', '趋势:', '无重要变化', '露点:', '0°C', '原始:', 'ZUUU 081700Z 00000MPS 9999 BKN050 10/00 Q1019 NOSIG', '上午1:00', '10.0°C', '1,019毫巴', '每小时0公里', '10.00公里', '大部分多云 (1,524米)', '本地:', '01:00、2019年2月9日周六', '协调世界时:', '17:00、2019年2月8日周五', '来源:', 'USAF 每小时地面观测', '报告类型:', 'METAR 航空例行天气报告', '露点:', '0.0°C', '上午2:00', '10°C', '1,019毫巴', '每小时0公里', '10.00公里', '大部分多云 (1,524米)', '本地:', '02:00、2019年2月9日周六', '协调世界时:', '18:00、2019年2月8日周五', '来源:', '周期文件', '趋势:', '无重要变化', '露点:', '0°C', '原始:', 'ZUUU 081800Z 00000MPS 9999 BKN050 10/M00 Q1019 NOSIG', '上午2:00', '10.0°C', '1,019毫巴', '每小时0公里', '10.00公里', '大部分多云 (1,524米)', '本地:', '02:00、2019年2月9日周六', '协调世界时:', '18:00、2019年2月8日周五', '来源:', 'USAF 每小时地面观测', '报告类型:', 'METAR 航空例行天气报告', '露点:', '0.0°C', '上午3:00', '10°C', '1,019毫巴', '每小时0公里', '10.00公里', '大部分多云 (1,524米)', '本地:', '03:00、2019年2月9日周六', '协调世界时:', '19:00、2019年2月8日周五', '来源:', '周期文件', '趋势:', '无重要变化', '露点:', '0°C', '原始:', 'ZUUU 081900Z 00000MPS 9999 BKN050 10/00 Q1019 NOSIG', '上午3:00', '10.0°C', '1,019毫巴', '每小时0公里', '10.00公里', '大部分多云 (1,524米)', '本地:', '03:00、2019年2月9日周六', '协调世界时:', '19:00、2019年2月8日周五', '来源:', 'USAF 每小时地面观测', '报告类型:', 'METAR 航空例行天气报告', '露点:', '0.0°C', '上午4:00', '8°C', '1,018毫巴', '每小时7.20公里, 西南', '10.00公里', '大部分多云 (1,524米)', '本地:', '04:00、2019年2月9日周六', '协调世界时:', '20:00、2019年2月8日周五', '来源:', '周期文件', '趋势:', '无重要变化', '露点:', '5°C', '原始:', 'ZUUU 082000Z 21002MPS 9999 BKN050 08/05 Q1018 NOSIG', '上午4:00', '8.0°C', '1,018毫巴', '每小时7.20公里, 西南', '10.00公里', '大部分多云 (1,524米)', '本地:', '04:00、2019年2月9日周六', '协调世界时:', '20:00、2019年2月8日周五', '来源:', 'USAF 每小时地面观测', '报告类型:', 'METAR 航空例行天气报告', '露点:', '5.0°C', '上午5:00', '8°C', '1,018毫巴', '每小时0公里', '≥ 10.00公里', '晴空万里', '本地:', '05:00、2019年2月9日周六', '协调世界时:', '21:00、2019年2月8日周五', '来源:', '周期文件', '趋势:', '无重要变化', '露点:', '5°C', '晴空万里:', '真', '原始:', 'ZUUU 082100Z 00000MPS CAVOK 08/05 Q1018 NOSIG', '上午5:00', '8.0°C', '1,018毫巴', '每小时0公里', '-', '晴空万里', '本地:', '05:00、2019年2月9日周六', '协调世界时:', '21:00、2019年2月8日周五', '来源:', 'USAF 每小时地面观测', '报告类型:', 'METAR 航空例行天气报告', '露点:', '5.0°C', '晴空万里:', '真', '上午6:00', '8°C', '1,018毫巴', '每小时3.60公里, 西南', '≥ 10.00公里', '晴空万里', '本地:', '06:00、2019年2月9日周六', '协调世界时:', '22:00、2019年2月8日周五', '来源:', '周期文件', '趋势:', '无重要变化', '露点:', '6°C', '晴空万里:', '真', '原始:', 'ZUUU 082200Z 21001MPS CAVOK 08/06 Q1018 NOSIG', '上午6:00', '8.0°C', '1,018毫巴', '每小时3.60公里, 西南', '-', '晴空万里', '本地:', '06:00、2019年2月9日周六', '协调世界时:', '22:00、2019年2月8日周五', '来源:', 'USAF 每小时地面观测', '报告类型:', 'METAR 航空例行天气报告', '露点:', '6.0°C', '晴空万里:', '真', '上午7:00', '9°C', '1,018毫巴', '每小时7.20公里, 北', '≥ 10.00公里', '晴空万里', '本地:', '07:00、2019年2月9日周六', '协调世界时:', '23:00、2019年2月8日周五', '来源:', '周期文件', '趋势:', '无重要变化', '露点:', '-1°C', '晴空万里:', '真', '原始:', 'ZUUU 082300Z 36002MPS 330V030 CAVOK 09/M01 Q1018 NOSIG', '上午7:00', '9.0°C', '1,018毫巴', '每小时7.20公里, 北', '-', '晴空万里', '本地:', '07:00、2019年2月9日周六', '协调世界时:', '23:00、2019年2月8日周五', '来源:', 'USAF 每小时地面观测', '报告类型:', 'METAR 航空例行天气报告', '露点:', '-1.0°C', '晴空万里:', '真', '上午8:00', '9°C', '1,019毫巴', '每小时7.20公里, 北', '≥ 10.00公里', '晴空万里', '本地:', '08:00、2019年2月9日周六', '协调世界时:', '00:00、2019年2月9日周六', '来源:', '周期文件', '趋势:', '无重要变化', '露点:', '-1°C', '晴空万里:', '真', '原始:', 'ZUUU 090000Z 01002MPS 340V040 CAVOK 09/M01 Q1019 NOSIG', '上午8:00', '9.0°C', '1,019毫巴', '每小时7.20公里, 北', '-', '晴空万里', '本地:', '08:00、2019年2月9日周六', '协调世界时:', '00:00、2019年2月9日周六', '来源:', 'USAF 每小时地面观测', '报告类型:', 'METAR 航空例行天气报告', '露点:', '-1.0°C', '晴空万里:', '真', '上午9:00', '9°C', '1,019毫巴', '每小时10.8公里, 东北', '≥ 10.00公里', '晴空万里', '本地:', '09:00、2019年2月9日周六', '协调世界时:', '01:00、2019年2月9日周六', '来源:', '周期文件', '趋势:', '无重要变化', '露点:', '-2°C', '晴空万里:', '真', '原始:', 'ZUUU 090100Z 03003MPS CAVOK 09/M02 Q1019 NOSIG', '上午9:00', '9.0°C', '1,019毫巴', '每小时10.8公里, 东北', '-', '晴空万里', '本地:', '09:00、2019年2月9日周六', '协调世界时:', '01:00、2019年2月9日周六', '来源:', 'USAF 每小时地面观测', '报告类型:', 'METAR 航空例行天气报告', '露点:', '-2.0°C', '晴空万里:', '真', '上午10:00', '9°C', '1,020毫巴', '每小时14.4公里, 东北', '≥ 10.00公里', '晴空万里', '本地:', '10:00、2019年2月9日周六', '协调世界时:', '02:00、2019年2月9日周六', '来源:', '周期文件', '趋势:', '无重要变化', '露点:', '-3°C', '晴空万里:', '真', '原始:', 'ZUUU 090200Z 03004MPS CAVOK 09/M03 Q1020 NOSIG', '上午10:00', '9.0°C', '1,020毫巴', '每小时14.4公里, 东北', '-', '晴空万里', '本地:', '10:00、2019年2月9日周六', '协调世界时:', '02:00、2019年2月9日周六', '来源:', 'USAF 每小时地面观测', '报告类型:', 'METAR 航空例行天气报告', '露点:', '-3.0°C', '晴空万里:', '真', '上午11:00', '10°C', '1,020毫巴', '每小时10.8公里, 东北', '≥ 10.00公里', '晴空万里', '本地:', '11:00、2019年2月9日周六', '协调世界时:', '03:00、2019年2月9日周六', '来源:', '周期文件', '趋势:', '无重要变化', '露点:', '-3°C', '晴空万里:', '真', '原始:', 'ZUUU 090300Z 05003MPS 020V080 CAVOK 10/M03 Q1020 NOSIG', '上午11:00', '10.0°C', '1,020毫巴', '每小时10.8公里, 东北', '-', '晴空万里', '本地:', '11:00、2019年2月9日周六', '协调世界时:', '03:00、2019年2月9日周六', '来源:', 'USAF 每小时地面观测', '报告类型:', 'METAR 航空例行天气报告', '露点:', '-3.0°C', '晴空万里:', '真', '下午12:00', '10°C', '1,019毫巴', '每小时10.8公里, 东北', '≥ 10.00公里', '晴空万里', '本地:', '12:00、2019年2月9日周六', '协调世界时:', '04:00、2019年2月9日周六', '来源:', '周期文件', '趋势:', '无重要变化', '露点:', '-3°C', '晴空万里:', '真', '原始:', 'ZUUU 090400Z 06003MPS 020V090 CAVOK 10/M03 Q1019 NOSIG', '下午12:00', '10.0°C', '1,019毫巴', '每小时10.8公里, 东北', '-', '晴空万里', '本地:', '12:00、2019年2月9日周六', '协调世界时:', '04:00、2019年2月9日周六', '来源:', 'USAF 每小时地面观测', '报告类型:', 'METAR 航空例行天气报告', '露点:', '-3.0°C', '晴空万里:', '真', '下午1:00', '10°C', '1,018毫巴', '每小时10.8公里, 北', '≥ 10.00公里', '晴空万里', '本地:', '13:00、2019年2月9日周六', '协调世界时:', '05:00、2019年2月9日周六', '来源:', '周期文件', '趋势:', '无重要变化', '露点:', '-2°C', '晴空万里:', '真', '原始:', 'ZUUU 090500Z 01003MPS 330V060 CAVOK 10/M02 Q1018 NOSIG', '下午1:00', '10.0°C', '1,018毫巴', '每小时10.8公里, 北', '-', '晴空万里', '本地:', '13:00、2019年2月9日周六', '协调世界时:', '05:00、2019年2月9日周六', '来源:', 'USAF 每小时地面观测', '报告类型:', 'METAR 航空例行天气报告', '露点:', '-2.0°C', '晴空万里:', '真', '下午2:00', '10°C', '1,017毫巴', '每小时14.4公里, 北', '≥ 10.00公里', '晴空万里', '本地:', '14:00、2019年2月9日周六', '协调世界时:', '06:00、2019年2月9日周六', '来源:', '周期文件', '趋势:', '无重要变化', '露点:', '-2°C', '晴空万里:', '真', '原始:', 'ZUUU 090600Z 02004MPS 320V060 CAVOK 10/M02 Q1017 NOSIG', '下午2:00', '10.0°C', '1,017毫巴', '每小时14.4公里, 北', '-', '晴空万里', '本地:', '14:00、2019年2月9日周六', '协调世界时:', '06:00、2019年2月9日周六', '来源:', 'USAF 每小时地面观测', '报告类型:', 'METAR 航空例行天气报告', '露点:', '-2.0°C', '晴空万里:', '真', '下午3:00', '9°C', '1,016毫巴', '每小时14.4公里, 北', '≥ 10.00公里', '晴空万里', '本地:', '15:00、2019年2月9日周六', '协调世界时:', '07:00、2019年2月9日周六', '来源:', '周期文件', '趋势:', '无重要变化', '露点:', '-1°C', '晴空万里:', '真', '原始:', 'ZUUU 090700Z 02004MPS 350V060 CAVOK 09/M01 Q1016 NOSIG', '下午3:00', '9.0°C', '1,016毫巴', '每小时14.4公里, 北', '-', '晴空万里', '本地:', '15:00、2019年2月9日周六', '协调世界时:', '07:00、2019年2月9日周六', '来源:', 'USAF 每小时地面观测', '报告类型:', 'METAR 航空例行天气报告', '露点:', '-1.0°C', '晴空万里:', '真', '下午4:00', '9°C', '1,016毫巴', '每小时21.6公里, 北', '≥ 10.00公里', '晴空万里', '本地:', '16:00、2019年2月9日周六', '协调世界时:', '08:00、2019年2月9日周六', '来源:', '周期文件', '趋势:', '无重要变化', '露点:', '0°C', '晴空万里:', '真', '原始:', 'ZUUU 090800Z 02006MPS CAVOK 09/00 Q1016 NOSIG', '下午4:00', '9.0°C', '1,016毫巴', '每小时21.6公里, 北', '-', '晴空万里', '本地:', '16:00、2019年2月9日周六', '协调世界时:', '08:00、2019年2月9日周六', '来源:', 'USAF 每小时地面观测', '报告类型:', 'METAR 航空例行天气报告', '露点:', '0.0°C', '晴空万里:', '真', '下午5:00', '8°C', '1,017毫巴', '每小时18.0公里, 北', '10.00公里', '部分多云 (1,219米)', '本地:', '17:00、2019年2月9日周六', '协调世界时:', '09:00、2019年2月9日周六', '来源:', '周期文件', '趋势:', '无重要变化', '露点:', '2°C', '原始:', 'ZUUU 090900Z 02005MPS 350V050 9999 SCT040 08/02 Q1017 NOSIG', '下午5:00', '8.0°C', '1,017毫巴', '每小时18.0公里, 北', '10.00公里', '部分多云 (1,219米)', '本地:', '17:00、2019年2月9日周六', '协调世界时:', '09:00、2019年2月9日周六', '来源:', 'USAF 每小时地面观测', '报告类型:', 'METAR 航空例行天气报告', '露点:', '2.0°C', '下午6:00', '7°C', '1,017毫巴', '每小时21.6公里, 东北', '10.00公里', '部分多云 (1,006米)', '本地:', '18:00、2019年2月9日周六', '协调世界时:', '10:00、2019年2月9日周六', '来源:', '周期文件', '趋势:', '无重要变化', '露点:', '2°C', '其他云层:', '大部分晴天 (610米)', '原始:', 'ZUUU 091000Z 03006MPS 360V060 9999 FEW020 SCT033 07/02 Q1017 NOSIG', '下午6:00', '7.0°C', '1,017毫巴', '每小时21.6公里, 东北', '10.00公里', '部分多云 (1,006米)', '本地:', '18:00、2019年2月9日周六', '协调世界时:', '10:00、2019年2月9日周六', '来源:', 'USAF 每小时地面观测', '报告类型:', 'METAR 航空例行天气报告', '露点:', '2.0°C', '其他云层:', '大部分晴天 (610米)', '下午7:00', '7°C', '1,019毫巴', '每小时25.2公里, 东北', '10.00公里', '部分多云 (610米)', '本地:', '19:00、2019年2月9日周六', '协调世界时:', '11:00、2019年2月9日周六', '来源:', '周期文件', '趋势:', '无重要变化', '露点:', '2°C', '其他云层:', '部分多云 (1,219米)', '原始:', 'ZUUU 091100Z 04007MPS 9999 SCT020 SCT040 07/02 Q1019 NOSIG', '下午7:00', '7.0°C', '1,019毫巴', '每小时25.2公里, 东北', '10.00公里', '部分多云 (610米)', '本地:', '19:00、2019年2月9日周六', '协调世界时:', '11:00、2019年2月9日周六', '来源:', 'USAF 每小时地面观测', '报告类型:', 'METAR 航空例行天气报告', '露点:', '2.0°C', '其他云层:', '部分多云 (1,219米)', '下午8:00', '6°C', '1,020毫巴', '每小时21.6公里, 东北', '10.00公里', '部分多云 (1,219米)', '本地:', '20:00、2019年2月9日周六', '协调世界时:', '12:00、2019年2月9日周六', '来源:', '周期文件', '趋势:', '无重要变化', '露点:', '1°C', '其他云层:', '大部分晴天 (610米)', '原始:', 'ZUUU 091200Z 03006MPS 9999 FEW020 SCT040 06/01 Q1020 NOSIG', '下午8:00', '6.0°C', '1,020毫巴', '每小时21.6公里, 东北', '10.00公里', '部分多云 (1,219米)', '本地:', '20:00、2019年2月9日周六', '协调世界时:', '12:00、2019年2月9日周六', '来源:', 'USAF 每小时地面观测', '报告类型:', 'METAR 航空例行天气报告', '露点:', '1.0°C', '其他云层:', '大部分晴天 (610米)', '下午9:00', '6°C', '1,021毫巴', '每小时28.8公里, 东北', '10.00公里', '部分多云 (610米)', '本地:', '21:00、2019年2月9日周六', '协调世界时:', '13:00、2019年2月9日周六', '来源:', '周期文件', '趋势:', '无重要变化', '露点:', '2°C', '其他云层:', '部分多云 (1,524米)', '原始:', 'ZUUU 091300Z 05008MPS 9999 SCT020 SCT050 06/02 Q1021 NOSIG', '下午9:00', '6.0°C', '1,021毫巴', '每小时28.8公里, 东北', '10.00公里', '部分多云 (610米)', '本地:', '21:00、2019年2月9日周六', '协调世界时:', '13:00、2019年2月9日周六', '来源:', 'USAF 每小时地面观测', '报告类型:', 'METAR 航空例行天气报告', '露点:', '2.0°C', '其他云层:', '部分多云 (1,524米)', '下午10:00', '5°C', '1,021毫巴', '每小时28.8公里, 北', '10.00公里', '部分多云 (610米)', '本地:', '22:00、2019年2月9日周六', '协调世界时:', '14:00、2019年2月9日周六', '来源:', '周期文件', '趋势:', '无重要变化', '露点:', '2°C', '其他云层:', '部分多云 (1,524米)', '原始:', 'ZUUU 091400Z 02008MPS 9999 SCT020 SCT050 05/02 Q1021 NOSIG', '下午10:00', '5.0°C', '1,021毫巴', '每小时28.8公里, 北', '10.00公里', '部分多云 (610米)', '本地:', '22:00、2019年2月9日周六', '协调世界时:', '14:00、2019年2月9日周六', '来源:', 'USAF 每小时地面观测', '报告类型:', 'METAR 航空例行天气报告', '露点:', '2.0°C', '其他云层:', '部分多云 (1,524米)', '下午11:00', '5°C', '1,022毫巴', '每小时28.8公里, 东北', '10.00公里', '部分多云 (488米)', '本地:', '23:00、2019年2月9日周六', '协调世界时:', '15:00、2019年2月9日周六', '来源:', '周期文件', '趋势:', '无重要变化', '露点:', '2°C', '其他云层:', '部分多云 (1,219米)', '天气:', 'Light Rain', '原始:', 'ZUUU 091500Z 04008MPS 9999 -RA SCT016 SCT040 05/02 Q1022 NOSIG', '下午11:00', '5.0°C', '1,022毫巴', '每小时28.8公里, 东北', '10.00公里', '部分多云 (488米)', '本地:', '23:00、2019年2月9日周六', '协调世界时:', '15:00、2019年2月9日周六', '来源:', 'USAF 每小时地面观测', '报告类型:', 'METAR 航空例行天气报告', '露点:', '2.0°C', '其他云层:', '部分多云 (1,219米)', '天气:', 'Light Rain']