['Mist', 'BR、IWC10', 'Mist', 'BR、IWC10', 'Mist', 'BR、IWC10', 'Mist', 'BR、IWC10', 'Mist', 'BR、IWC10', 'Mist', 'BR、IWC10', 'Mist', 'BR、IWC10', 'Mist', 'BR、IWC10', 'Mist', 'BR、IWC10', 'Mist', 'BR、IWC10', '上午12:00', '16°C', '1,021毫巴', '每小时7.20公里, 西南', '5.00公里', '大部分晴天 (1,524米)', '本地:', '00:00、2019年4月5日周五', '协调世界时:', '16:00、2019年4月4日周四', '来源:', '周期文件', '趋势:', '无重要变化', '露点:', '13°C', '天气:', 'Mist', '原始:', 'ZUUU 041600Z 21002MPS 5000 BR FEW050 16/13 Q1021 NOSIG', '上午12:00', '16.0°C', '1,021毫巴', '每小时7.20公里, 西南', '5.00公里', '大部分晴天 (1,524米)', '本地:', '00:00、2019年4月5日周五', '协调世界时:', '16:00、2019年4月4日周四', '来源:', 'USAF 每小时地面观测', '报告类型:', 'METAR 航空例行天气报告', '露点:', '13.0°C', '天气:', 'Mist', '上午1:00', '16°C', '1,020毫巴', '每小时3.60公里', '5.00公里', '大部分晴天 (1,524米)', '本地:', '01:00、2019年4月5日周五', '协调世界时:', '17:00、2019年4月4日周四', '来源:', '周期文件', '趋势:', '无重要变化', '露点:', '13°C', '天气:', 'Mist', '原始:', 'ZUUU 041700Z VRB01MPS 5000 BR FEW050 16/13 Q1020 NOSIG', '上午1:00', '16.0°C', '1,020毫巴', '每小时3.60公里', '5.00公里', '大部分晴天 (1,524米)', '本地:', '01:00、2019年4月5日周五', '协调世界时:', '17:00、2019年4月4日周四', '来源:', 'USAF 每小时地面观测', '报告类型:', 'METAR 航空例行天气报告', '露点:', '13.0°C', '天气:', 'Mist', '上午2:00', '15°C', '1,020毫巴', '每小时7.20公里, 西南', '4.50公里', '大部分晴天 (1,524米)', '本地:', '02:00、2019年4月5日周五', '协调世界时:', '18:00、2019年4月4日周四', '来源:', '周期文件', '趋势:', '无重要变化', '露点:', '13°C', '天气:', 'Mist', '原始:', 'ZUUU 041800Z 21002MPS 4500 BR FEW050 15/13 Q1020 NOSIG', '上午2:00', '15.0°C', '1,020毫巴', '每小时7.20公里, 西南', '4.50公里', '大部分晴天 (1,524米)', '本地:', '02:00、2019年4月5日周五', '协调世界时:', '18:00、2019年4月4日周四', '来源:', 'USAF 每小时地面观测', '报告类型:', 'METAR 航空例行天气报告', '露点:', '13.0°C', '天气:', 'Mist', '上午3:00', '14°C', '1,019毫巴', '每小时7.20公里, 西南', '4.50公里', '大部分晴天 (1,524米)', '本地:', '03:00、2019年4月5日周五', '协调世界时:', '19:00、2019年4月4日周四', '来源:', '周期文件', '趋势:', '无重要变化', '露点:', '12°C', '天气:', 'Mist', '原始:', 'ZUUU 041900Z 21002MPS 4500 BR FEW050 14/12 Q1019 NOSIG', '上午3:00', '14.0°C', '1,019毫巴', '每小时7.20公里, 西南', '4.50公里', '大部分晴天 (1,524米)', '本地:', '03:00、2019年4月5日周五', '协调世界时:', '19:00、2019年4月4日周四', '来源:', 'USAF 每小时地面观测', '报告类型:', 'METAR 航空例行天气报告', '露点:', '12.0°C', '天气:', 'Mist', '上午4:00', '14°C', '1,018毫巴', '每小时7.20公里, 南', '4.50公里', '大部分晴天 (1,524米)', '本地:', '04:00、2019年4月5日周五', '协调世界时:', '20:00、2019年4月4日周四', '来源:', '周期文件', '趋势:', '无重要变化', '露点:', '13°C', '天气:', 'Mist', '原始:', 'ZUUU 042000Z 16002MPS 4500 BR FEW050 14/13 Q1018 NOSIG', '上午4:00', '14.0°C', '1,018毫巴', '每小时7.20公里, 南', '4.50公里', '大部分晴天 (1,524米)', '本地:', '04:00、2019年4月5日周五', '协调世界时:', '20:00、2019年4月4日周四', '来源:', 'USAF 每小时地面观测', '报告类型:', 'METAR 航空例行天气报告', '露点:', '13.0°C', '天气:', 'Mist', '上午5:00', '14°C', '1,018毫巴', '每小时0公里', '4.00公里', '大部分晴天 (1,524米)', '本地:', '05:00、2019年4月5日周五', '协调世界时:', '21:00、2019年4月4日周四', '来源:', '周期文件', '趋势:', '无重要变化', '露点:', '13°C', '天气:', 'Mist', '原始:', 'ZUUU 042100Z 00000MPS 4000 BR FEW050 14/13 Q1018 NOSIG', '上午5:00', '14.0°C', '1,018毫巴', '每小时0公里', '4.00公里', '大部分晴天 (1,524米)', '本地:', '05:00、2019年4月5日周五', '协调世界时:', '21:00、2019年4月4日周四', '来源:', 'USAF 每小时地面观测', '报告类型:', 'METAR 航空例行天气报告', '露点:', '13.0°C', '天气:', 'Mist', '上午6:00', '14°C', '1,019毫巴', '每小时0公里', '3.50公里', '大部分晴天 (1,524米)', '本地:', '06:00、2019年4月5日周五', '协调世界时:', '22:00、2019年4月4日周四', '来源:', '周期文件', '趋势:', '无重要变化', '露点:', '13°C', '天气:', 'Mist', '原始:', 'ZUUU 042200Z 00000MPS 3500 BR FEW050 14/13 Q1019 NOSIG', '上午6:00', '14.0°C', '1,019毫巴', '每小时0公里', '3.50公里', '大部分晴天 (1,524米)', '本地:', '06:00、2019年4月5日周五', '协调世界时:', '22:00、2019年4月4日周四', '来源:', 'USAF 每小时地面观测', '报告类型:', 'METAR 航空例行天气报告', '露点:', '13.0°C', '天气:', 'Mist', '上午7:00', '14°C', '1,019毫巴', '每小时0公里', '3.00公里', '无重要云', '本地:', '07:00、2019年4月5日周五', '协调世界时:', '23:00、2019年4月4日周四', '来源:', '周期文件', '趋势:', '无重要变化', '露点:', '12°C', '天气:', 'Mist', '原始:', 'ZUUU 042300Z 00000MPS 3000 BR NSC 14/12 Q1019 NOSIG', '上午7:00', '14.0°C', '1,019毫巴', '每小时0公里', '3.00公里', '未检测到云', '本地:', '07:00、2019年4月5日周五', '协调世界时:', '23:00、2019年4月4日周四', '来源:', 'USAF 每小时地面观测', '报告类型:', 'METAR 航空例行天气报告', '露点:', '12.0°C', '天气:', 'Mist', '上午8:00', '15°C', '1,020毫巴', '每小时7.20公里', '3.00公里', '无重要云', '本地:', '08:00、2019年4月5日周五', '协调世界时:', '00:00、2019年4月5日周五', '来源:', '周期文件', '趋势:', '无重要变化', '露点:', '14°C', '天气:', 'Mist', '原始:', 'ZUUU 050000Z VRB02MPS 3000 R02L/P2000N R02R/1400D BR NSC 15/14 Q1020 NOSIG', '上午8:00', '15.0°C', '1,020毫巴', '每小时7.20公里', '3.00公里', '未检测到云', '本地:', '08:00、2019年4月5日周五', '协调世界时:', '00:00、2019年4月5日周五', '来源:', 'USAF 每小时地面观测', '报告类型:', 'METAR 航空例行天气报告', '露点:', '14.0°C', '天气:', 'Mist', '上午9:00', '17°C', '1,020毫巴', '每小时7.20公里', '5.00公里', '无重要云', '本地:', '09:00、2019年4月5日周五', '协调世界时:', '01:00、2019年4月5日周五', '来源:', '周期文件', '趋势:', '无重要变化', '露点:', '14°C', '天气:', 'Mist', '原始:', 'ZUUU 050100Z VRB02MPS 5000 BR NSC 17/14 Q1020 NOSIG', '上午9:00', '17.0°C', '1,020毫巴', '每小时7.20公里', '5.00公里', '未检测到云', '本地:', '09:00、2019年4月5日周五', '协调世界时:', '01:00、2019年4月5日周五', '来源:', 'USAF 每小时地面观测', '报告类型:', 'METAR 航空例行天气报告', '露点:', '14.0°C', '天气:', 'Mist', '上午10:00', '19°C', '1,020毫巴', '每小时3.60公里', '6.00公里', '无重要云', '本地:', '10:00、2019年4月5日周五', '协调世界时:', '02:00、2019年4月5日周五', '来源:', '周期文件', '趋势:', '无重要变化', '露点:', '14°C', '原始:', 'ZUUU 050200Z VRB01MPS 6000 NSC 19/14 Q1020 NOSIG', '上午10:00', '19.0°C', '1,020毫巴', '每小时3.60公里', '6.00公里', '未检测到云', '本地:', '10:00、2019年4月5日周五', '协调世界时:', '02:00、2019年4月5日周五', '来源:', 'USAF 每小时地面观测', '报告类型:', 'METAR 航空例行天气报告', '露点:', '14.0°C', '上午11:00', '22°C', '1,020毫巴', '每小时3.60公里', '8.00公里', '无重要云', '本地:', '11:00、2019年4月5日周五', '协调世界时:', '03:00、2019年4月5日周五', '来源:', '周期文件', '趋势:', '无重要变化', '露点:', '14°C', '原始:', 'ZUUU 050300Z VRB01MPS 8000 NSC 22/14 Q1020 NOSIG', '上午11:00', '22.0°C', '1,020毫巴', '每小时3.60公里', '8.00公里', '未检测到云', '本地:', '11:00、2019年4月5日周五', '协调世界时:', '03:00、2019年4月5日周五', '来源:', 'USAF 每小时地面观测', '报告类型:', 'METAR 航空例行天气报告', '露点:', '14.0°C', '下午12:00', '24°C', '1,019毫巴', '每小时10.8公里, 南', '≥ 10.00公里', '晴空万里', '本地:', '12:00、2019年4月5日周五', '协调世界时:', '04:00、2019年4月5日周五', '来源:', '周期文件', '趋势:', '无重要变化', '露点:', '13°C', '晴空万里:', '真', '原始:', 'ZUUU 050400Z 16003MPS 060V220 CAVOK 24/13 Q1019 NOSIG', '下午12:00', '24.0°C', '1,019毫巴', '每小时10.8公里, 南', '-', '晴空万里', '本地:', '12:00、2019年4月5日周五', '协调世界时:', '04:00、2019年4月5日周五', '来源:', 'USAF 每小时地面观测', '报告类型:', 'METAR 航空例行天气报告', '露点:', '13.0°C', '晴空万里:', '真', '下午1:00', '25°C', '1,018毫巴', '每小时10.8公里, 南', '≥ 10.00公里', '晴空万里', '本地:', '13:00、2019年4月5日周五', '协调世界时:', '05:00、2019年4月5日周五', '来源:', '周期文件', '趋势:', '无重要变化', '露点:', '13°C', '晴空万里:', '真', '原始:', 'ZUUU 050500Z 19003MPS 110V230 CAVOK 25/13 Q1018 NOSIG', '下午1:00', '25.0°C', '1,018毫巴', '每小时10.8公里, 南', '-', '晴空万里', '本地:', '13:00、2019年4月5日周五', '协调世界时:', '05:00、2019年4月5日周五', '来源:', 'USAF 每小时地面观测', '报告类型:', 'METAR 航空例行天气报告', '露点:', '13.0°C', '晴空万里:', '真', '下午2:00', '26°C', '1,016毫巴', '每小时10.8公里', '≥ 10.00公里', '晴空万里', '本地:', '14:00、2019年4月5日周五', '协调世界时:', '06:00、2019年4月5日周五', '来源:', '周期文件', '趋势:', '无重要变化', '露点:', '10°C', '晴空万里:', '真', '原始:', 'ZUUU 050600Z VRB03MPS CAVOK 26/10 Q1016 NOSIG', '下午2:00', '26.0°C', '1,016毫巴', '每小时10.8公里', '-', '晴空万里', '本地:', '14:00、2019年4月5日周五', '协调世界时:', '06:00、2019年4月5日周五', '来源:', 'USAF 每小时地面观测', '报告类型:', 'METAR 航空例行天气报告', '露点:', '10.0°C', '晴空万里:', '真', '下午3:00', '27°C', '1,015毫巴', '每小时10.8公里, 南', '≥ 10.00公里', '晴空万里', '本地:', '15:00、2019年4月5日周五', '协调世界时:', '07:00、2019年4月5日周五', '来源:', '周期文件', '趋势:', '无重要变化', '露点:', '8°C', '晴空万里:', '真', '原始:', 'ZUUU 050700Z 19003MPS 130V300 CAVOK 27/08 Q1015 NOSIG', '下午3:00', '27.0°C', '1,015毫巴', '每小时10.8公里, 南', '-', '晴空万里', '本地:', '15:00、2019年4月5日周五', '协调世界时:', '07:00、2019年4月5日周五', '来源:', 'USAF 每小时地面观测', '报告类型:', 'METAR 航空例行天气报告', '露点:', '8.0°C', '晴空万里:', '真', '下午4:00', '27°C', '1,014毫巴', '每小时10.8公里, 西南', '≥ 10.00公里', '晴空万里', '本地:', '16:00、2019年4月5日周五', '协调世界时:', '08:00、2019年4月5日周五', '来源:', '周期文件', '趋势:', '无重要变化', '露点:', '8°C', '晴空万里:', '真', '原始:', 'ZUUU 050800Z 21003MPS 140V290 CAVOK 27/08 Q1014 NOSIG', '下午4:00', '27.0°C', '1,014毫巴', '每小时10.8公里, 西南', '-', '晴空万里', '本地:', '16:00、2019年4月5日周五', '协调世界时:', '08:00、2019年4月5日周五', '来源:', 'USAF 每小时地面观测', '报告类型:', 'METAR 航空例行天气报告', '露点:', '8.0°C', '晴空万里:', '真', '下午5:00', '27°C', '1,013毫巴', '每小时10.8公里', '≥ 10.00公里', '晴空万里', '本地:', '17:00、2019年4月5日周五', '协调世界时:', '09:00、2019年4月5日周五', '来源:', '周期文件', '趋势:', '无重要变化', '露点:', '9°C', '晴空万里:', '真', '原始:', 'ZUUU 050900Z VRB03MPS CAVOK 27/09 Q1013 NOSIG', '下午5:00', '27.0°C', '1,013毫巴', '每小时10.8公里', '-', '晴空万里', '本地:', '17:00、2019年4月5日周五', '协调世界时:', '09:00、2019年4月5日周五', '来源:', 'USAF 每小时地面观测', '报告类型:', 'METAR 航空例行天气报告', '露点:', '9.0°C', '晴空万里:', '真', '下午6:00', '26°C', '1,013毫巴', '每小时10.8公里, 南', '≥ 10.00公里', '晴空万里', '本地:', '18:00、2019年4月5日周五', '协调世界时:', '10:00、2019年4月5日周五', '来源:', '周期文件', '趋势:', '无重要变化', '露点:', '10°C', '晴空万里:', '真', '原始:', 'ZUUU 051000Z 20003MPS 150V230 CAVOK 26/10 Q1013 NOSIG', '下午6:00', '26.0°C', '1,013毫巴', '每小时10.8公里, 南', '-', '晴空万里', '本地:', '18:00、2019年4月5日周五', '协调世界时:', '10:00、2019年4月5日周五', '来源:', 'USAF 每小时地面观测', '报告类型:', 'METAR 航空例行天气报告', '露点:', '10.0°C', '晴空万里:', '真', '下午7:00', '24°C', '1,013毫巴', '每小时7.20公里, 西南', '≥ 10.00公里', '晴空万里', '本地:', '19:00、2019年4月5日周五', '协调世界时:', '11:00、2019年4月5日周五', '来源:', '周期文件', '趋势:', '无重要变化', '露点:', '10°C', '晴空万里:', '真', '原始:', 'ZUUU 051100Z 21002MPS CAVOK 24/10 Q1013 NOSIG', '下午7:00', '24.0°C', '1,013毫巴', '每小时7.20公里, 西南', '-', '晴空万里', '本地:', '19:00、2019年4月5日周五', '协调世界时:', '11:00、2019年4月5日周五', '来源:', 'USAF 每小时地面观测', '报告类型:', 'METAR 航空例行天气报告', '露点:', '10.0°C', '晴空万里:', '真', '下午8:00', '24°C', '1,014毫巴', '每小时7.20公里, 南', '≥ 10.00公里', '晴空万里', '本地:', '20:00、2019年4月5日周五', '协调世界时:', '12:00、2019年4月5日周五', '来源:', '周期文件', '趋势:', '无重要变化', '露点:', '10°C', '晴空万里:', '真', '原始:', 'ZUUU 051200Z 17002MPS 130V220 CAVOK 24/10 Q1014 NOSIG', '下午8:00', '24.0°C', '1,014毫巴', '每小时7.20公里, 南', '-', '晴空万里', '本地:', '20:00、2019年4月5日周五', '协调世界时:', '12:00、2019年4月5日周五', '来源:', 'USAF 每小时地面观测', '报告类型:', 'METAR 航空例行天气报告', '露点:', '10.0°C', '晴空万里:', '真', '下午9:00', '22°C', '1,014毫巴', '每小时3.60公里', '≥ 10.00公里', '晴空万里', '本地:', '21:00、2019年4月5日周五', '协调世界时:', '13:00、2019年4月5日周五', '来源:', '周期文件', '趋势:', '无重要变化', '露点:', '10°C', '晴空万里:', '真', '原始:', 'ZUUU 051300Z VRB01MPS CAVOK 22/10 Q1014 NOSIG', '下午9:00', '22.0°C', '1,014毫巴', '每小时3.60公里', '-', '晴空万里', '本地:', '21:00、2019年4月5日周五', '协调世界时:', '13:00、2019年4月5日周五', '来源:', 'USAF 每小时地面观测', '报告类型:', 'METAR 航空例行天气报告', '露点:', '10.0°C', '晴空万里:', '真', '下午10:00', '18°C', '1,015毫巴', '每小时3.60公里', '≥ 10.00公里', '晴空万里', '本地:', '22:00、2019年4月5日周五', '协调世界时:', '14:00、2019年4月5日周五', '来源:', '周期文件', '趋势:', '无重要变化', '露点:', '11°C', '晴空万里:', '真', '原始:', 'ZUUU 051400Z VRB01MPS CAVOK 18/11 Q1015 NOSIG', '下午10:00', '18.0°C', '1,015毫巴', '每小时3.60公里', '-', '晴空万里', '本地:', '22:00、2019年4月5日周五', '协调世界时:', '14:00、2019年4月5日周五', '来源:', 'USAF 每小时地面观测', '报告类型:', 'METAR 航空例行天气报告', '露点:', '11.0°C', '晴空万里:', '真', '下午11:00', '20°C', '1,015毫巴', '每小时7.20公里, 南', '≥ 10.00公里', '晴空万里', '本地:', '23:00、2019年4月5日周五', '协调世界时:', '15:00、2019年4月5日周五', '来源:', '周期文件', '趋势:', '无重要变化', '露点:', '10°C', '晴空万里:', '真', '原始:', 'ZUUU 051500Z 19002MPS 140V240 CAVOK 20/10 Q1015 NOSIG', '下午11:00', '20.0°C', '1,015毫巴', '每小时7.20公里, 南', '-', '晴空万里', '本地:', '23:00、2019年4月5日周五', '协调世界时:', '15:00、2019年4月5日周五', '来源:', 'USAF 每小时地面观测', '报告类型:', 'METAR 航空例行天气报告', '露点:', '10.0°C', '晴空万里:', '真']