['Light Rain', '-RA、IWC61', '上午12:00', '5°C', '1,023毫巴', '每小时18.0公里, 东北', '10.00公里', '部分多云 (1,219米)', '本地:', '00:00、2019年2月10日周日', '协调世界时:', '16:00、2019年2月9日周六', '来源:', '周期文件', '趋势:', '无重要变化', '露点:', '1°C', '其他云层:', '大部分晴天 (610米)', '原始:', 'ZUUU 091600Z 04005MPS 360V070 9999 FEW020 SCT040 05/01 Q1023 NOSIG', '上午12:00', '5.0°C', '1,023毫巴', '每小时18.0公里, 东北', '10.00公里', '部分多云 (1,219米)', '本地:', '00:00、2019年2月10日周日', '协调世界时:', '16:00、2019年2月9日周六', '来源:', 'USAF 每小时地面观测', '报告类型:', 'METAR 航空例行天气报告', '露点:', '1.0°C', '其他云层:', '大部分晴天 (610米)', '上午1:00', '5°C', '1,022毫巴', '每小时10.8公里, 东北', '10.00公里', '部分多云 (1,219米)', '本地:', '01:00、2019年2月10日周日', '协调世界时:', '17:00、2019年2月9日周六', '来源:', '周期文件', '趋势:', '无重要变化', '露点:', '0°C', '其他云层:', '大部分晴天 (610米)', '原始:', 'ZUUU 091700Z 04003MPS 360V070 9999 FEW020 SCT040 05/00 Q1022 NOSIG', '上午1:00', '5.0°C', '1,022毫巴', '每小时10.8公里, 东北', '10.00公里', '部分多云 (1,219米)', '本地:', '01:00、2019年2月10日周日', '协调世界时:', '17:00、2019年2月9日周六', '来源:', 'USAF 每小时地面观测', '报告类型:', 'METAR 航空例行天气报告', '露点:', '0.0°C', '其他云层:', '大部分晴天 (610米)', '上午2:00', '5°C', '1,022毫巴', '每小时7.20公里, 北', '10.00公里', '大部分多云 (1,219米)', '本地:', '02:00、2019年2月10日周日', '协调世界时:', '18:00、2019年2月9日周六', '来源:', '周期文件', '趋势:', '无重要变化', '露点:', '0°C', '原始:', 'ZUUU 091800Z 35002MPS 320V030 9999 BKN040 05/00 Q1022 NOSIG', '上午2:00', '5.0°C', '1,022毫巴', '每小时7.20公里, 北', '10.00公里', '大部分多云 (1,219米)', '本地:', '02:00、2019年2月10日周日', '协调世界时:', '18:00、2019年2月9日周六', '来源:', 'USAF 每小时地面观测', '报告类型:', 'METAR 航空例行天气报告', '露点:', '0.0°C', '上午3:00', '5°C', '1,022毫巴', '每小时3.60公里', '10.00公里', '大部分多云 (1,219米)', '本地:', '03:00、2019年2月10日周日', '协调世界时:', '19:00、2019年2月9日周六', '来源:', '周期文件', '趋势:', '无重要变化', '露点:', '1°C', '原始:', 'ZUUU 091900Z VRB01MPS 9999 BKN040 05/01 Q1022 NOSIG', '上午3:00', '5.0°C', '1,022毫巴', '每小时3.60公里', '10.00公里', '大部分多云 (1,219米)', '本地:', '03:00、2019年2月10日周日', '协调世界时:', '19:00、2019年2月9日周六', '来源:', 'USAF 每小时地面观测', '报告类型:', 'METAR 航空例行天气报告', '露点:', '1.0°C', '上午4:00', '5°C', '1,022毫巴', '每小时10.8公里, 北', '10.00公里', '大部分多云 (1,006米)', '本地:', '04:00、2019年2月10日周日', '协调世界时:', '20:00、2019年2月9日周六', '来源:', '周期文件', '趋势:', '无重要变化', '露点:', '0°C', '原始:', 'ZUUU 092000Z 01003MPS 330V040 9999 BKN033 05/00 Q1022 NOSIG', '上午4:00', '5.0°C', '1,022毫巴', '每小时10.8公里, 北', '10.00公里', '大部分多云 (1,006米)', '本地:', '04:00、2019年2月10日周日', '协调世界时:', '20:00、2019年2月9日周六', '来源:', 'USAF 每小时地面观测', '报告类型:', 'METAR 航空例行天气报告', '露点:', '0.0°C', '上午5:00', '5°C', '1,022毫巴', '每小时14.4公里, 东北', '10.00公里', '大部分多云 (1,006米)', '本地:', '05:00、2019年2月10日周日', '协调世界时:', '21:00、2019年2月9日周六', '来源:', '周期文件', '趋势:', '无重要变化', '露点:', '-1°C', '原始:', 'ZUUU 092100Z 06004MPS 9999 BKN033 05/M01 Q1022 NOSIG', '上午5:00', '5.0°C', '1,022毫巴', '每小时14.4公里, 东北', '10.00公里', '大部分多云 (1,006米)', '本地:', '05:00、2019年2月10日周日', '协调世界时:', '21:00、2019年2月9日周六', '来源:', 'USAF 每小时地面观测', '报告类型:', 'METAR 航空例行天气报告', '露点:', '-1.0°C', '上午6:00', '5°C', '1,023毫巴', '每小时21.6公里, 东北', '10.00公里', '大部分多云 (914米)', '本地:', '06:00、2019年2月10日周日', '协调世界时:', '22:00、2019年2月9日周六', '来源:', '周期文件', '趋势:', '无重要变化', '露点:', '-1°C', '原始:', 'ZUUU 092200Z 05006MPS 9999 BKN030 05/M01 Q1023 NOSIG', '上午6:00', '5.0°C', '1,023毫巴', '每小时21.6公里, 东北', '10.00公里', '大部分多云 (914米)', '本地:', '06:00、2019年2月10日周日', '协调世界时:', '22:00、2019年2月9日周六', '来源:', 'USAF 每小时地面观测', '报告类型:', 'METAR 航空例行天气报告', '露点:', '-1.0°C', '上午7:00', '5°C', '1,024毫巴', '每小时10.8公里, 东北', '10.00公里', '大部分多云 (914米)', '本地:', '07:00、2019年2月10日周日', '协调世界时:', '23:00、2019年2月9日周六', '来源:', '周期文件', '趋势:', '无重要变化', '露点:', '0°C', '原始:', 'ZUUU 092300Z 05003MPS 9999 BKN030 05/00 Q1024 NOSIG', '上午7:00', '5.0°C', '1,024毫巴', '每小时10.8公里, 东北', '10.00公里', '大部分多云 (914米)', '本地:', '07:00、2019年2月10日周日', '协调世界时:', '23:00、2019年2月9日周六', '来源:', 'USAF 每小时地面观测', '报告类型:', 'METAR 航空例行天气报告', '露点:', '0.0°C', '上午8:00', '5°C', '1,025毫巴', '每小时14.4公里, 东北', '10.00公里', '大部分多云 (914米)', '本地:', '08:00、2019年2月10日周日', '协调世界时:', '00:00、2019年2月10日周日', '来源:', '周期文件', '趋势:', '无重要变化', '露点:', '-1°C', '原始:', 'ZUUU 100000Z 04004MPS 360V060 9999 BKN030 05/M01 Q1025 NOSIG', '上午8:00', '5.0°C', '1,025毫巴', '每小时14.4公里, 东北', '10.00公里', '大部分多云 (914米)', '本地:', '08:00、2019年2月10日周日', '协调世界时:', '00:00、2019年2月10日周日', '来源:', 'USAF 每小时地面观测', '报告类型:', 'METAR 航空例行天气报告', '露点:', '-1.0°C', '上午9:00', '6°C', '1,027毫巴', '每小时10.8公里, 北', '10.00公里', '大部分多云 (914米)', '本地:', '09:00、2019年2月10日周日', '协调世界时:', '01:00、2019年2月10日周日', '来源:', '周期文件', '趋势:', '无重要变化', '露点:', '0°C', '天气:', 'Light Rain', '原始:', 'ZUUU 100100Z 02003MPS 320V060 9999 -RA BKN030 06/M00 Q1027 NOSIG', '上午9:00', '6.0°C', '1,027毫巴', '每小时10.8公里, 北', '10.00公里', '大部分多云 (914米)', '本地:', '09:00、2019年2月10日周日', '协调世界时:', '01:00、2019年2月10日周日', '来源:', 'USAF 每小时地面观测', '报告类型:', 'METAR 航空例行天气报告', '露点:', '0.0°C', '天气:', 'Light Rain', '上午10:00', '6°C', '1,028毫巴', '每小时18.0公里, 东北', '10.00公里', '大部分多云 (1,006米)', '本地:', '10:00、2019年2月10日周日', '协调世界时:', '02:00、2019年2月10日周日', '来源:', '周期文件', '趋势:', '无重要变化', '露点:', '-1°C', '原始:', 'ZUUU 100200Z 03005MPS 9999 BKN033 06/M01 Q1028 NOSIG', '上午10:00', '6.0°C', '1,028毫巴', '每小时18.0公里, 东北', '10.00公里', '大部分多云 (1,006米)', '本地:', '10:00、2019年2月10日周日', '协调世界时:', '02:00、2019年2月10日周日', '来源:', 'USAF 每小时地面观测', '报告类型:', 'METAR 航空例行天气报告', '露点:', '-1.0°C', '上午11:00', '6°C', '1,029毫巴', '每小时14.4公里, 东北', '10.00公里', '大部分多云 (1,219米)', '本地:', '11:00、2019年2月10日周日', '协调世界时:', '03:00、2019年2月10日周日', '来源:', '周期文件', '趋势:', '无重要变化', '露点:', '-2°C', '原始:', 'ZUUU 100300Z 03004MPS 9999 BKN040 06/M02 Q1029 NOSIG', '上午11:00', '6.0°C', '1,029毫巴', '每小时14.4公里, 东北', '10.00公里', '大部分多云 (1,219米)', '本地:', '11:00、2019年2月10日周日', '协调世界时:', '03:00、2019年2月10日周日', '来源:', 'USAF 每小时地面观测', '报告类型:', 'METAR 航空例行天气报告', '露点:', '-2.0°C', '下午12:00', '7°C', '1,029毫巴', '每小时10.8公里, 北', '10.00公里', '大部分多云 (1,524米)', '本地:', '12:00、2019年2月10日周日', '协调世界时:', '04:00、2019年2月10日周日', '来源:', '周期文件', '趋势:', '无重要变化', '露点:', '-3°C', '原始:', 'ZUUU 100400Z 02003MPS 340V050 9999 BKN050 07/M03 Q1029 NOSIG', '下午12:00', '7.0°C', '1,029毫巴', '每小时10.8公里, 北', '10.00公里', '大部分多云 (1,524米)', '本地:', '12:00、2019年2月10日周日', '协调世界时:', '04:00、2019年2月10日周日', '来源:', 'USAF 每小时地面观测', '报告类型:', 'METAR 航空例行天气报告', '露点:', '-3.0°C', '下午1:00', '7°C', '1,028毫巴', '每小时7.20公里, 北', '≥ 10.00公里', '晴空万里', '本地:', '13:00、2019年2月10日周日', '协调世界时:', '05:00、2019年2月10日周日', '来源:', '周期文件', '趋势:', '无重要变化', '露点:', '-2°C', '晴空万里:', '真', '原始:', 'ZUUU 100500Z 36002MPS 320V040 CAVOK 07/M02 Q1028 NOSIG', '下午1:00', '7.0°C', '1,028毫巴', '每小时7.20公里, 北', '-', '晴空万里', '本地:', '13:00、2019年2月10日周日', '协调世界时:', '05:00、2019年2月10日周日', '来源:', 'USAF 每小时地面观测', '报告类型:', 'METAR 航空例行天气报告', '露点:', '-2.0°C', '晴空万里:', '真', '下午2:00', '8°C', '1,028毫巴', '每小时3.60公里', '≥ 10.00公里', '晴空万里', '本地:', '14:00、2019年2月10日周日', '协调世界时:', '06:00、2019年2月10日周日', '来源:', '周期文件', '趋势:', '无重要变化', '露点:', '-4°C', '晴空万里:', '真', '原始:', 'ZUUU 100600Z VRB01MPS CAVOK 08/M04 Q1028 NOSIG', '下午2:00', '8.0°C', '1,028毫巴', '每小时3.60公里', '-', '晴空万里', '本地:', '14:00、2019年2月10日周日', '协调世界时:', '06:00、2019年2月10日周日', '来源:', 'USAF 每小时地面观测', '报告类型:', 'METAR 航空例行天气报告', '露点:', '-4.0°C', '晴空万里:', '真', '下午3:00', '8°C', '1,027毫巴', '每小时3.60公里', '≥ 10.00公里', '晴空万里', '本地:', '15:00、2019年2月10日周日', '协调世界时:', '07:00、2019年2月10日周日', '来源:', '周期文件', '趋势:', '无重要变化', '露点:', '-3°C', '晴空万里:', '真', '原始:', 'ZUUU 100700Z VRB01MPS CAVOK 08/M03 Q1027 NOSIG', '下午3:00', '8.0°C', '1,027毫巴', '每小时3.60公里', '-', '晴空万里', '本地:', '15:00、2019年2月10日周日', '协调世界时:', '07:00、2019年2月10日周日', '来源:', 'USAF 每小时地面观测', '报告类型:', 'METAR 航空例行天气报告', '露点:', '-3.0°C', '晴空万里:', '真', '下午4:00', '8°C', '1,027毫巴', '每小时0公里', '≥ 10.00公里', '晴空万里', '本地:', '16:00、2019年2月10日周日', '协调世界时:', '08:00、2019年2月10日周日', '来源:', '周期文件', '趋势:', '无重要变化', '露点:', '-3°C', '晴空万里:', '真', '原始:', 'ZUUU 100800Z 00000MPS CAVOK 08/M03 Q1027 NOSIG', '下午4:00', '8.0°C', '1,027毫巴', '每小时0公里', '-', '晴空万里', '本地:', '16:00、2019年2月10日周日', '协调世界时:', '08:00、2019年2月10日周日', '来源:', 'USAF 每小时地面观测', '报告类型:', 'METAR 航空例行天气报告', '露点:', '-3.0°C', '晴空万里:', '真', '下午5:00', '9°C', '1,027毫巴', '每小时3.60公里', '≥ 10.00公里', '晴空万里', '本地:', '17:00、2019年2月10日周日', '协调世界时:', '09:00、2019年2月10日周日', '来源:', '周期文件', '趋势:', '无重要变化', '露点:', '-3°C', '晴空万里:', '真', '原始:', 'ZUUU 100900Z VRB01MPS CAVOK 09/M03 Q1027 NOSIG', '下午5:00', '9.0°C', '1,027毫巴', '每小时3.60公里', '-', '晴空万里', '本地:', '17:00、2019年2月10日周日', '协调世界时:', '09:00、2019年2月10日周日', '来源:', 'USAF 每小时地面观测', '报告类型:', 'METAR 航空例行天气报告', '露点:', '-3.0°C', '晴空万里:', '真', '下午6:00', '8°C', '1,028毫巴', '每小时0公里', '≥ 10.00公里', '晴空万里', '本地:', '18:00、2019年2月10日周日', '协调世界时:', '10:00、2019年2月10日周日', '来源:', '周期文件', '趋势:', '无重要变化', '露点:', '-3°C', '晴空万里:', '真', '原始:', 'ZUUU 101000Z 00000MPS CAVOK 08/M03 Q1028 NOSIG', '下午6:00', '8.0°C', '1,028毫巴', '每小时0公里', '-', '晴空万里', '本地:', '18:00、2019年2月10日周日', '协调世界时:', '10:00、2019年2月10日周日', '来源:', 'USAF 每小时地面观测', '报告类型:', 'METAR 航空例行天气报告', '露点:', '-3.0°C', '晴空万里:', '真', '下午7:00', '8°C', '1,028毫巴', '每小时7.20公里, 西南', '≥ 10.00公里', '晴空万里', '本地:', '19:00、2019年2月10日周日', '协调世界时:', '11:00、2019年2月10日周日', '来源:', '周期文件', '趋势:', '无重要变化', '露点:', '-2°C', '晴空万里:', '真', '原始:', 'ZUUU 101100Z 22002MPS CAVOK 08/M02 Q1028 NOSIG', '下午7:00', '8.0°C', '1,028毫巴', '每小时7.20公里, 西南', '-', '晴空万里', '本地:', '19:00、2019年2月10日周日', '协调世界时:', '11:00、2019年2月10日周日', '来源:', 'USAF 每小时地面观测', '报告类型:', 'METAR 航空例行天气报告', '露点:', '-2.0°C', '晴空万里:', '真', '下午8:00', '7°C', '1,029毫巴', '每小时0公里', '≥ 10.00公里', '晴空万里', '本地:', '20:00、2019年2月10日周日', '协调世界时:', '12:00、2019年2月10日周日', '来源:', '周期文件', '趋势:', '无重要变化', '露点:', '-2°C', '晴空万里:', '真', '原始:', 'ZUUU 101200Z 00000MPS CAVOK 07/M02 Q1029 NOSIG', '下午8:00', '7.0°C', '1,029毫巴', '每小时0公里', '-', '晴空万里', '本地:', '20:00、2019年2月10日周日', '协调世界时:', '12:00、2019年2月10日周日', '来源:', 'USAF 每小时地面观测', '报告类型:', 'METAR 航空例行天气报告', '露点:', '-2.0°C', '晴空万里:', '真', '下午9:00', '6°C', '1,029毫巴', '每小时0公里', '≥ 10.00公里', '晴空万里', '本地:', '21:00、2019年2月10日周日', '协调世界时:', '13:00、2019年2月10日周日', '来源:', '周期文件', '趋势:', '无重要变化', '露点:', '-2°C', '晴空万里:', '真', '原始:', 'ZUUU 101300Z 00000MPS CAVOK 06/M02 Q1029 NOSIG', '下午9:00', '6.0°C', '1,029毫巴', '每小时0公里', '-', '晴空万里', '本地:', '21:00、2019年2月10日周日', '协调世界时:', '13:00、2019年2月10日周日', '来源:', 'USAF 每小时地面观测', '报告类型:', 'METAR 航空例行天气报告', '露点:', '-2.0°C', '晴空万里:', '真', '下午10:00', '6°C', '1,030毫巴', '每小时0公里', '≥ 10.00公里', '晴空万里', '本地:', '22:00、2019年2月10日周日', '协调世界时:', '14:00、2019年2月10日周日', '来源:', '周期文件', '趋势:', '无重要变化', '露点:', '-1°C', '晴空万里:', '真', '原始:', 'ZUUU 101400Z 00000MPS CAVOK 06/M01 Q1030 NOSIG', '下午10:00', '6.0°C', '1,030毫巴', '每小时0公里', '-', '晴空万里', '本地:', '22:00、2019年2月10日周日', '协调世界时:', '14:00、2019年2月10日周日', '来源:', 'USAF 每小时地面观测', '报告类型:', 'METAR 航空例行天气报告', '露点:', '-1.0°C', '晴空万里:', '真', '下午11:00', '6°C', '1,030毫巴', '每小时0公里', '≥ 10.00公里', '晴空万里', '本地:', '23:00、2019年2月10日周日', '协调世界时:', '15:00、2019年2月10日周日', '来源:', '周期文件', '趋势:', '无重要变化', '露点:', '0°C', '晴空万里:', '真', '原始:', 'ZUUU 101500Z 00000MPS CAVOK 06/M00 Q1030 NOSIG', '下午11:00', '6.0°C', '1,030毫巴', '每小时0公里', '-', '晴空万里', '本地:', '23:00、2019年2月10日周日', '协调世界时:', '15:00、2019年2月10日周日', '来源:', 'USAF 每小时地面观测', '报告类型:', 'METAR 航空例行天气报告', '露点:', '0.0°C', '晴空万里:', '真']