['Showers of Light Rain', '-SHRA、IWC80', 'Showers of Light Rain', '-SHRA、IWC80', '上午12:00', '26°C', '1,000毫巴', '每小时7.20公里, 北', '10.00公里', '大部分多云 (1,524米)', '本地:', '00:00、2019年6月28日周五', '协调世界时:', '16:00、2019年6月27日周四', '来源:', '周期文件', '趋势:', '无重要变化', '露点:', '21°C', '原始:', 'ZUUU 271600Z 36002MPS 280V050 9999 BKN050 26/21 Q1000 NOSIG', '上午12:00', '26.0°C', '1,000毫巴', '每小时7.20公里, 北', '10.00公里', '大部分多云 (1,524米)', '本地:', '00:00、2019年6月28日周五', '协调世界时:', '16:00、2019年6月27日周四', '来源:', 'USAF 每小时地面观测', '报告类型:', 'METAR 航空例行天气报告', '露点:', '21.0°C', '上午1:00', '25°C', '1,000毫巴', '每小时3.60公里', '10.00公里', '大部分晴天 (914米)', '本地:', '01:00、2019年6月28日周五', '协调世界时:', '17:00、2019年6月27日周四', '来源:', '周期文件', '趋势:', '无重要变化', '露点:', '21°C', '原始:', 'ZUUU 271700Z VRB01MPS 9999 FEW030 25/21 Q1000 NOSIG', '上午1:00', '25.0°C', '1,000毫巴', '每小时3.60公里', '10.00公里', '大部分晴天 (914米)', '本地:', '01:00、2019年6月28日周五', '协调世界时:', '17:00、2019年6月27日周四', '来源:', 'USAF 每小时地面观测', '报告类型:', 'METAR 航空例行天气报告', '露点:', '21.0°C', '上午2:00', '25°C', '1,001毫巴', '每小时3.60公里', '10.00公里', '部分多云 (1,524米)', '本地:', '02:00、2019年6月28日周五', '协调世界时:', '18:00、2019年6月27日周四', '来源:', '周期文件', '趋势:', '无重要变化', '露点:', '22°C', '其他云层:', '大部分晴天 (914米)', '原始:', 'ZUUU 271800Z VRB01MPS 9999 FEW030 SCT050 25/22 Q1001 NOSIG', '上午2:00', '25.0°C', '1,001毫巴', '每小时3.60公里', '10.00公里', '部分多云 (1,524米)', '本地:', '02:00、2019年6月28日周五', '协调世界时:', '18:00、2019年6月27日周四', '来源:', 'USAF 每小时地面观测', '报告类型:', 'METAR 航空例行天气报告', '露点:', '22.0°C', '其他云层:', '大部分晴天 (914米)', '上午3:00', '25°C', '1,000毫巴', '每小时0公里', '10.00公里', '部分多云 (1,524米)', '本地:', '03:00、2019年6月28日周五', '协调世界时:', '19:00、2019年6月27日周四', '来源:', '周期文件', '趋势:', '无重要变化', '露点:', '22°C', '其他云层:', '大部分晴天 (914米)', '原始:', 'ZUUU 271900Z 00000MPS 9999 FEW030 SCT050 25/22 Q1000 NOSIG', '上午3:00', '25.0°C', '1,000毫巴', '每小时0公里', '10.00公里', '部分多云 (1,524米)', '本地:', '03:00、2019年6月28日周五', '协调世界时:', '19:00、2019年6月27日周四', '来源:', 'USAF 每小时地面观测', '报告类型:', 'METAR 航空例行天气报告', '露点:', '22.0°C', '其他云层:', '大部分晴天 (914米)', '上午4:00', '24°C', '1,000毫巴', '每小时3.60公里, 西', '10.00公里', '部分多云 (1,524米)', '本地:', '04:00、2019年6月28日周五', '协调世界时:', '20:00、2019年6月27日周四', '来源:', '周期文件', '趋势:', '无重要变化', '露点:', '23°C', '天气:', 'Showers of Light Rain', '原始:', 'ZUUU 272000Z 28001MPS 9999 -SHRA SCT050 24/23 Q1000 NOSIG', '上午4:00', '24.0°C', '1,000毫巴', '每小时3.60公里, 西', '10.00公里', '部分多云 (1,524米)', '本地:', '04:00、2019年6月28日周五', '协调世界时:', '20:00、2019年6月27日周四', '来源:', 'USAF 每小时地面观测', '报告类型:', 'METAR 航空例行天气报告', '露点:', '23.0°C', '天气:', 'Showers of Light Rain', '上午5:00', '23°C', '1,001毫巴', '每小时10.8公里, 西', '10.00公里', '部分多云 (1,524米)', '本地:', '05:00、2019年6月28日周五', '协调世界时:', '21:00、2019年6月27日周四', '来源:', '周期文件', '趋势:', '无重要变化', '露点:', '23°C', '原始:', 'ZUUU 272100Z 25003MPS 9999 SCT050 23/23 Q1001 NOSIG', '上午5:00', '23.0°C', '1,001毫巴', '每小时10.8公里, 西', '10.00公里', '部分多云 (1,524米)', '本地:', '05:00、2019年6月28日周五', '协调世界时:', '21:00、2019年6月27日周四', '来源:', 'USAF 每小时地面观测', '报告类型:', 'METAR 航空例行天气报告', '露点:', '23.0°C', '上午6:00', '23°C', '1,001毫巴', '每小时7.20公里, 西南', '10.00公里', '部分多云 (1,219米)', '本地:', '06:00、2019年6月28日周五', '协调世界时:', '22:00、2019年6月27日周四', '来源:', '周期文件', '趋势:', '无重要变化', '露点:', '23°C', '原始:', 'ZUUU 272200Z 24002MPS 220V280 9999 SCT040 23/23 Q1001 NOSIG', '上午6:00', '23.0°C', '1,001毫巴', '每小时7.20公里, 西南', '10.00公里', '部分多云 (1,219米)', '本地:', '06:00、2019年6月28日周五', '协调世界时:', '22:00、2019年6月27日周四', '来源:', 'USAF 每小时地面观测', '报告类型:', 'METAR 航空例行天气报告', '露点:', '23.0°C', '上午7:00', '23°C', '1,002毫巴', '每小时3.60公里, 西南', '10.00公里', '部分多云 (1,219米)', '本地:', '07:00、2019年6月28日周五', '协调世界时:', '23:00、2019年6月27日周四', '来源:', '周期文件', '趋势:', '无重要变化', '露点:', '23°C', '原始:', 'ZUUU 272300Z 23001MPS 9999 SCT040 23/23 Q1002 NOSIG', '上午7:00', '23.0°C', '1,002毫巴', '每小时3.60公里, 西南', '10.00公里', '部分多云 (1,219米)', '本地:', '07:00、2019年6月28日周五', '协调世界时:', '23:00、2019年6月27日周四', '来源:', 'USAF 每小时地面观测', '报告类型:', 'METAR 航空例行天气报告', '露点:', '23.0°C', '上午8:00', '24°C', '1,003毫巴', '每小时7.20公里, 西南', '10.00公里', '部分多云 (1,524米)', '本地:', '08:00、2019年6月28日周五', '协调世界时:', '00:00、2019年6月28日周五', '来源:', '周期文件', '趋势:', '无重要变化', '露点:', '23°C', '原始:', 'ZUUU 280000Z 23002MPS 9999 SCT050 24/23 Q1003 NOSIG', '上午8:00', '24.0°C', '1,003毫巴', '每小时7.20公里, 西南', '10.00公里', '部分多云 (1,524米)', '本地:', '08:00、2019年6月28日周五', '协调世界时:', '00:00、2019年6月28日周五', '来源:', 'USAF 每小时地面观测', '报告类型:', 'METAR 航空例行天气报告', '露点:', '23.0°C', '上午9:00', '25°C', '1,003毫巴', '每小时10.8公里, 西南', '10.00公里', '部分多云 (1,524米)', '本地:', '09:00、2019年6月28日周五', '协调世界时:', '01:00、2019年6月28日周五', '来源:', '周期文件', '趋势:', '无重要变化', '露点:', '23°C', '其他云层:', '大部分晴天 (701米)', '原始:', 'ZUUU 280100Z 22003MPS 9999 FEW023 SCT050 25/23 Q1003 NOSIG', '上午9:00', '25.0°C', '1,003毫巴', '每小时10.8公里, 西南', '10.00公里', '部分多云 (1,524米)', '本地:', '09:00、2019年6月28日周五', '协调世界时:', '01:00、2019年6月28日周五', '来源:', 'USAF 每小时地面观测', '报告类型:', 'METAR 航空例行天气报告', '露点:', '23.0°C', '其他云层:', '大部分晴天 (701米)', '上午10:00', '26°C', '1,003毫巴', '每小时10.8公里, 西南', '10.00公里', '部分多云 (792米)', '本地:', '10:00、2019年6月28日周五', '协调世界时:', '02:00、2019年6月28日周五', '来源:', '周期文件', '趋势:', '无重要变化', '露点:', '23°C', '原始:', 'ZUUU 280200Z 23003MPS 180V270 9999 SCT026 26/23 Q1003 NOSIG', '上午10:00', '26.0°C', '1,003毫巴', '每小时10.8公里, 西南', '10.00公里', '部分多云 (792米)', '本地:', '10:00、2019年6月28日周五', '协调世界时:', '02:00、2019年6月28日周五', '来源:', 'USAF 每小时地面观测', '报告类型:', 'METAR 航空例行天气报告', '露点:', '23.0°C', '上午11:00', '28°C', '1,004毫巴', '每小时7.20公里', '10.00公里', '部分多云 (914米)', '本地:', '11:00、2019年6月28日周五', '协调世界时:', '03:00、2019年6月28日周五', '来源:', '周期文件', '趋势:', '无重要变化', '露点:', '23°C', '原始:', 'ZUUU 280300Z VRB02MPS 9999 SCT030 28/23 Q1004 NOSIG', '上午11:00', '28.0°C', '1,004毫巴', '每小时7.20公里', '10.00公里', '部分多云 (914米)', '本地:', '11:00、2019年6月28日周五', '协调世界时:', '03:00、2019年6月28日周五', '来源:', 'USAF 每小时地面观测', '报告类型:', 'METAR 航空例行天气报告', '露点:', '23.0°C', '下午12:00', '28°C', '1,004毫巴', '每小时14.4公里, 西南', '10.00公里', '部分多云 (914米)', '本地:', '12:00、2019年6月28日周五', '协调世界时:', '04:00、2019年6月28日周五', '来源:', '周期文件', '趋势:', '无重要变化', '露点:', '22°C', '原始:', 'ZUUU 280400Z 21004MPS 170V250 9999 SCT030 28/22 Q1004 NOSIG', '下午12:00', '28.0°C', '1,004毫巴', '每小时14.4公里, 西南', '10.00公里', '部分多云 (914米)', '本地:', '12:00、2019年6月28日周五', '协调世界时:', '04:00、2019年6月28日周五', '来源:', 'USAF 每小时地面观测', '报告类型:', 'METAR 航空例行天气报告', '露点:', '22.0°C', '下午1:00', '27°C', '1,003毫巴', '每小时14.4公里, 西南', '10.00公里', '部分多云 (792米)', '本地:', '13:00、2019年6月28日周五', '协调世界时:', '05:00、2019年6月28日周五', '来源:', '周期文件', '趋势:', '无重要变化', '露点:', '22°C', '其他云层:', '大部分晴天 (792米)', '天气:', 'Showers of Light Rain', '原始:', 'ZUUU 280500Z 22004MPS 180V250 9999 -SHRA FEW026CB SCT026 27/22 Q1003 NOSIG', '下午1:00', '27.0°C', '1,003毫巴', '每小时14.4公里, 西南', '10.00公里', '部分多云 (792米)', '本地:', '13:00、2019年6月28日周五', '协调世界时:', '05:00、2019年6月28日周五', '来源:', 'USAF 每小时地面观测', '报告类型:', 'METAR 航空例行天气报告', '露点:', '22.0°C', '其他云层:', '大部分晴天 (792米)', '天气:', 'Showers of Light Rain', '下午2:00', '27°C', '1,003毫巴', '每小时10.8公里, 南', '10.00公里', '部分多云 (792米)', '本地:', '14:00、2019年6月28日周五', '协调世界时:', '06:00、2019年6月28日周五', '来源:', '周期文件', '趋势:', '无重要变化', '露点:', '22°C', '其他云层:', '大部分晴天 (792米)', '原始:', 'ZUUU 280600Z 20003MPS 150V240 9999 FEW026TCU SCT026 27/22 Q1003 NOSIG', '下午2:00', '27.0°C', '1,003毫巴', '每小时10.8公里, 南', '10.00公里', '部分多云 (792米)', '本地:', '14:00、2019年6月28日周五', '协调世界时:', '06:00、2019年6月28日周五', '来源:', 'USAF 每小时地面观测', '报告类型:', 'METAR 航空例行天气报告', '露点:', '22.0°C', '其他云层:', '大部分晴天 (792米)', '下午3:00', '29°C', '1,002毫巴', '每小时14.4公里, 西南', '10.00公里', '大部分晴天 (792米)', '本地:', '15:00、2019年6月28日周五', '协调世界时:', '07:00、2019年6月28日周五', '来源:', '周期文件', '趋势:', '无重要变化', '露点:', '21°C', '原始:', 'ZUUU 280700Z 22004MPS 180V260 9999 FEW026 FEW026TCU 29/21 Q1002 NOSIG', '下午3:00', '29.0°C', '1,002毫巴', '每小时14.4公里, 西南', '10.00公里', '大部分晴天 (792米)', '本地:', '15:00、2019年6月28日周五', '协调世界时:', '07:00、2019年6月28日周五', '来源:', 'USAF 每小时地面观测', '报告类型:', 'METAR 航空例行天气报告', '露点:', '21.0°C', '下午4:00', '30°C', '1,002毫巴', '每小时10.8公里', '10.00公里', '大部分晴天 (792米)', '本地:', '16:00、2019年6月28日周五', '协调世界时:', '08:00、2019年6月28日周五', '来源:', '周期文件', '趋势:', '无重要变化', '露点:', '21°C', '原始:', 'ZUUU 280800Z VRB03MPS 9999 FEW026 FEW026TCU 30/21 Q1002 NOSIG', '下午4:00', '30.0°C', '1,002毫巴', '每小时10.8公里', '10.00公里', '大部分晴天 (792米)', '本地:', '16:00、2019年6月28日周五', '协调世界时:', '08:00、2019年6月28日周五', '来源:', 'USAF 每小时地面观测', '报告类型:', 'METAR 航空例行天气报告', '露点:', '21.0°C', '下午5:00', '30°C', '1,002毫巴', '每小时10.8公里, 南', '10.00公里', '大部分晴天 (792米)', '本地:', '17:00、2019年6月28日周五', '协调世界时:', '09:00、2019年6月28日周五', '来源:', '周期文件', '趋势:', '无重要变化', '露点:', '20°C', '原始:', 'ZUUU 280900Z 19003MPS 130V240 9999 FEW026TCU FEW026 30/20 Q1002 NOSIG', '下午5:00', '30.0°C', '1,002毫巴', '每小时10.8公里, 南', '10.00公里', '大部分晴天 (792米)', '本地:', '17:00、2019年6月28日周五', '协调世界时:', '09:00、2019年6月28日周五', '来源:', 'USAF 每小时地面观测', '报告类型:', 'METAR 航空例行天气报告', '露点:', '20.0°C', '下午6:00', '29°C', '1,002毫巴', '每小时14.4公里, 南', '10.00公里', '大部分晴天 (792米)', '本地:', '18:00、2019年6月28日周五', '协调世界时:', '10:00、2019年6月28日周五', '来源:', '周期文件', '趋势:', '无重要变化', '露点:', '20°C', '原始:', 'ZUUU 281000Z 19004MPS 130V220 9999 FEW026TCU FEW026 29/20 Q1002 NOSIG', '下午6:00', '29.0°C', '1,002毫巴', '每小时14.4公里, 南', '10.00公里', '大部分晴天 (792米)', '本地:', '18:00、2019年6月28日周五', '协调世界时:', '10:00、2019年6月28日周五', '来源:', 'USAF 每小时地面观测', '报告类型:', 'METAR 航空例行天气报告', '露点:', '20.0°C', '下午7:00', '29°C', '1,002毫巴', '每小时10.8公里, 南', '10.00公里', '大部分晴天 (792米)', '本地:', '19:00、2019年6月28日周五', '协调世界时:', '11:00、2019年6月28日周五', '来源:', '周期文件', '趋势:', '无重要变化', '露点:', '20°C', '原始:', 'ZUUU 281100Z 18003MPS 130V220 9999 FEW026TCU FEW026 29/20 Q1002 NOSIG', '下午7:00', '29.0°C', '1,002毫巴', '每小时10.8公里, 南', '10.00公里', '大部分晴天 (792米)', '本地:', '19:00、2019年6月28日周五', '协调世界时:', '11:00、2019年6月28日周五', '来源:', 'USAF 每小时地面观测', '报告类型:', 'METAR 航空例行天气报告', '露点:', '20.0°C', '下午8:00', '27°C', '1,003毫巴', '每小时7.20公里, 西南', '10.00公里', '大部分晴天 (792米)', '本地:', '20:00、2019年6月28日周五', '协调世界时:', '12:00、2019年6月28日周五', '来源:', '周期文件', '趋势:', '无重要变化', '露点:', '21°C', '原始:', 'ZUUU 281200Z 21002MPS 150V240 9999 FEW026TCU FEW026 27/21 Q1003 NOSIG', '下午8:00', '27.0°C', '1,003毫巴', '每小时7.20公里, 西南', '10.00公里', '大部分晴天 (792米)', '本地:', '20:00、2019年6月28日周五', '协调世界时:', '12:00、2019年6月28日周五', '来源:', 'USAF 每小时地面观测', '报告类型:', 'METAR 航空例行天气报告', '露点:', '21.0°C', '下午9:00', '27°C', '1,004毫巴', '每小时7.20公里, 南', '10.00公里', '大部分晴天 (792米)', '本地:', '21:00、2019年6月28日周五', '协调世界时:', '13:00、2019年6月28日周五', '来源:', '周期文件', '趋势:', '无重要变化', '露点:', '20°C', '原始:', 'ZUUU 281300Z 19002MPS 130V240 9999 FEW026 27/20 Q1004 NOSIG', '下午9:00', '27.0°C', '1,004毫巴', '每小时7.20公里, 南', '10.00公里', '大部分晴天 (792米)', '本地:', '21:00、2019年6月28日周五', '协调世界时:', '13:00、2019年6月28日周五', '来源:', 'USAF 每小时地面观测', '报告类型:', 'METAR 航空例行天气报告', '露点:', '20.0°C', '下午10:00', '26°C', '1,005毫巴', '每小时7.20公里, 南', '10.00公里', '大部分晴天 (1,219米)', '本地:', '22:00、2019年6月28日周五', '协调世界时:', '14:00、2019年6月28日周五', '来源:', '周期文件', '趋势:', '无重要变化', '露点:', '20°C', '原始:', 'ZUUU 281400Z 20002MPS 160V250 9999 FEW040 26/20 Q1005 NOSIG', '下午10:00', '26.0°C', '1,005毫巴', '每小时7.20公里, 南', '10.00公里', '大部分晴天 (1,219米)', '本地:', '22:00、2019年6月28日周五', '协调世界时:', '14:00、2019年6月28日周五', '来源:', 'USAF 每小时地面观测', '报告类型:', 'METAR 航空例行天气报告', '露点:', '20.0°C', '下午11:00', '26°C', '1,005毫巴', '每小时3.60公里', '10.00公里', '大部分晴天 (1,219米)', '本地:', '23:00、2019年6月28日周五', '协调世界时:', '15:00、2019年6月28日周五', '来源:', '周期文件', '趋势:', '无重要变化', '露点:', '20°C', '原始:', 'ZUUU 281500Z VRB01MPS 9999 FEW040 26/20 Q1005 NOSIG', '下午11:00', '26.0°C', '1,005毫巴', '每小时3.60公里', '10.00公里', '大部分晴天 (1,219米)', '本地:', '23:00、2019年6月28日周五', '协调世界时:', '15:00、2019年6月28日周五', '来源:', 'USAF 每小时地面观测', '报告类型:', 'METAR 航空例行天气报告', '露点:', '20.0°C']