['Showers of Light Rain', '-SHRA、IWC80', 'Showers of Light Rain', '-SHRA、IWC80', 'Showers of Light Rain', '-SHRA、IWC80', 'Showers of Light Rain', '-SHRA、IWC80', 'Showers of Light Rain', '-SHRA、IWC80', 'Showers of Light Rain', '-SHRA、IWC80', 'Showers of Light Rain', '-SHRA、IWC80', 'Showers of Light Rain', '-SHRA、IWC80', 'Showers of Light Rain', '-SHRA、IWC80', 'Showers of Light Rain', '-SHRA、IWC80', 'Showers of Light Rain', '-SHRA、IWC80', 'Showers of Light Rain', '-SHRA、IWC80', 'Showers of Light Rain', '-SHRA、IWC80', 'Showers of Light Rain、Mist', '-SHRA、IWC80、BR、IWC10', 'Mist', 'BR、IWC10', '上午12:00', '26°C', '1,004毫巴', '每小时3.60公里', '10.00公里', '大部分晴天 (1,524米)', '本地:', '00:00、2019年7月15日周一', '协调世界时:', '16:00、2019年7月14日周日', '来源:', '周期文件', '趋势:', '无重要变化', '露点:', '22°C', '原始:', 'ZUUU 141600Z VRB01MPS 9999 FEW050 26/22 Q1004 NOSIG', '上午12:00', '26.0°C', '1,004毫巴', '每小时3.60公里', '10.00公里', '大部分晴天 (1,524米)', '本地:', '00:00、2019年7月15日周一', '协调世界时:', '16:00、2019年7月14日周日', '来源:', 'USAF 每小时地面观测', '报告类型:', 'METAR 航空例行天气报告', '露点:', '22.0°C', '上午1:00', '26°C', '1,003毫巴', '每小时7.20公里, 西', '10.00公里', '大部分晴天 (1,006米)', '本地:', '01:00、2019年7月15日周一', '协调世界时:', '17:00、2019年7月14日周日', '来源:', '周期文件', '趋势:', '无重要变化', '露点:', '22°C', '天气:', 'Showers of Light Rain', '原始:', 'ZUUU 141700Z 26002MPS 230V310 9999 -SHRA FEW033 FEW033TCU 26/22 Q1003 NOSIG', '上午1:00', '26.0°C', '1,003毫巴', '每小时7.20公里, 西', '10.00公里', '大部分晴天 (1,006米)', '本地:', '01:00、2019年7月15日周一', '协调世界时:', '17:00、2019年7月14日周日', '来源:', 'USAF 每小时地面观测', '报告类型:', 'METAR 航空例行天气报告', '露点:', '22.0°C', '天气:', 'Showers of Light Rain', '上午2:00', '25°C', '1,003毫巴', '每小时0公里', '8.00公里', '大部分晴天 (1,006米)', '本地:', '02:00、2019年7月15日周一', '协调世界时:', '18:00、2019年7月14日周日', '来源:', '周期文件', '趋势:', '无重要变化', '露点:', '22°C', '天气:', 'Showers of Light Rain', '原始:', 'ZUUU 141800Z 00000MPS 8000 -SHRA FEW033TCU FEW033 25/22 Q1003 NOSIG', '上午2:00', '25.0°C', '1,003毫巴', '每小时0公里', '8.00公里', '大部分晴天 (1,006米)', '本地:', '02:00、2019年7月15日周一', '协调世界时:', '18:00、2019年7月14日周日', '来源:', 'USAF 每小时地面观测', '报告类型:', 'METAR 航空例行天气报告', '露点:', '22.0°C', '天气:', 'Showers of Light Rain', '上午3:00', '25°C', '1,003毫巴', '每小时14.4公里, 西', '7.00公里', '大部分晴天 (1,006米)', '本地:', '03:00、2019年7月15日周一', '协调世界时:', '19:00、2019年7月14日周日', '来源:', '周期文件', '趋势:', '无重要变化', '露点:', '21°C', '天气:', 'Showers of Light Rain', '原始:', 'ZUUU 141900Z 26004MPS 230V300 7000 -SHRA FEW033 FEW033TCU 25/21 Q1003 NOSIG', '上午3:00', '25.0°C', '1,003毫巴', '每小时14.4公里, 西', '7.00公里', '大部分晴天 (1,006米)', '本地:', '03:00、2019年7月15日周一', '协调世界时:', '19:00、2019年7月14日周日', '来源:', 'USAF 每小时地面观测', '报告类型:', 'METAR 航空例行天气报告', '露点:', '21.0°C', '天气:', 'Showers of Light Rain', '上午4:00', '24°C', '1,003毫巴', '每小时7.20公里, 西', '8.00公里', '大部分晴天 (914米)', '本地:', '04:00、2019年7月15日周一', '协调世界时:', '20:00、2019年7月14日周日', '来源:', '周期文件', '趋势:', '无重要变化', '露点:', '21°C', '天气:', 'Showers of Light Rain', '原始:', 'ZUUU 142000Z 26002MPS 210V310 8000 -SHRA FEW030TCU FEW030 24/21 Q1003 NOSIG', '上午4:00', '24.0°C', '1,003毫巴', '每小时7.20公里, 西', '8.00公里', '大部分晴天 (914米)', '本地:', '04:00、2019年7月15日周一', '协调世界时:', '20:00、2019年7月14日周日', '来源:', 'USAF 每小时地面观测', '报告类型:', 'METAR 航空例行天气报告', '露点:', '21.0°C', '天气:', 'Showers of Light Rain', '上午5:00', '23°C', '1,003毫巴', '每小时3.60公里', '10.00公里', '大部分晴天 (1,219米)', '本地:', '05:00、2019年7月15日周一', '协调世界时:', '21:00、2019年7月14日周日', '来源:', '周期文件', '趋势:', '无重要变化', '露点:', '21°C', '天气:', 'Showers of Light Rain', '原始:', 'ZUUU 142100Z VRB01MPS 9999 -SHRA FEW040 FEW040TCU 23/21 Q1003 NOSIG', '上午5:00', '23.0°C', '1,003毫巴', '每小时3.60公里', '10.00公里', '大部分晴天 (1,219米)', '本地:', '05:00、2019年7月15日周一', '协调世界时:', '21:00、2019年7月14日周日', '来源:', 'USAF 每小时地面观测', '报告类型:', 'METAR 航空例行天气报告', '露点:', '21.0°C', '天气:', 'Showers of Light Rain', '上午6:00', '23°C', '1,003毫巴', '每小时7.20公里, 西南', '10.00公里', '部分多云 (1,219米)', '本地:', '06:00、2019年7月15日周一', '协调世界时:', '22:00、2019年7月14日周日', '来源:', '周期文件', '趋势:', '无重要变化', '露点:', '20°C', '其他云层:', '大部分晴天 (1,219米)', '天气:', 'Showers of Light Rain', '原始:', 'ZUUU 142200Z 21002MPS 180V240 9999 -SHRA FEW040TCU SCT040 23/20 Q1003 NOSIG', '上午6:00', '23.0°C', '1,003毫巴', '每小时7.20公里, 西南', '10.00公里', '部分多云 (1,219米)', '本地:', '06:00、2019年7月15日周一', '协调世界时:', '22:00、2019年7月14日周日', '来源:', 'USAF 每小时地面观测', '报告类型:', 'METAR 航空例行天气报告', '露点:', '20.0°C', '其他云层:', '大部分晴天 (1,219米)', '天气:', 'Showers of Light Rain', '上午7:00', '22°C', '1,004毫巴', '每小时7.20公里, 南', '7.00公里', '部分多云 (914米)', '本地:', '07:00、2019年7月15日周一', '协调世界时:', '23:00、2019年7月14日周日', '来源:', '周期文件', '趋势:', '无重要变化', '露点:', '21°C', '其他云层:', '大部分晴天 (914米)', '天气:', 'Showers of Light Rain', '原始:', 'ZUUU 142300Z 20002MPS 170V230 7000 -SHRA FEW030TCU SCT030 22/21 Q1004 NOSIG', '上午7:00', '22.0°C', '1,004毫巴', '每小时7.20公里, 南', '7.00公里', '部分多云 (914米)', '本地:', '07:00、2019年7月15日周一', '协调世界时:', '23:00、2019年7月14日周日', '来源:', 'USAF 每小时地面观测', '报告类型:', 'METAR 航空例行天气报告', '露点:', '21.0°C', '其他云层:', '大部分晴天 (914米)', '天气:', 'Showers of Light Rain', '上午8:00', '22°C', '1,005毫巴', '每小时3.60公里', '7.00公里', '部分多云 (914米)', '本地:', '08:00、2019年7月15日周一', '协调世界时:', '00:00、2019年7月15日周一', '来源:', '周期文件', '趋势:', '无重要变化', '露点:', '20°C', '其他云层:', '部分多云 (1,524米)', '天气:', 'Showers of Light Rain', '原始:', 'ZUUU 150000Z VRB01MPS 7000 -SHRA SCT030 SCT050 22/20 Q1005 NOSIG', '上午8:00', '22.0°C', '1,005毫巴', '每小时3.60公里', '7.00公里', '部分多云 (914米)', '本地:', '08:00、2019年7月15日周一', '协调世界时:', '00:00、2019年7月15日周一', '来源:', 'USAF 每小时地面观测', '报告类型:', 'METAR 航空例行天气报告', '露点:', '20.0°C', '其他云层:', '部分多云 (1,524米)', '天气:', 'Showers of Light Rain', '上午9:00', '22°C', '1,005毫巴', '每小时7.20公里, 西北', '9.00公里', '部分多云 (701米)', '本地:', '09:00、2019年7月15日周一', '协调世界时:', '01:00、2019年7月15日周一', '来源:', '周期文件', '趋势:', '无重要变化', '露点:', '20°C', '其他云层:', '部分多云 (1,524米)', '天气:', 'Showers of Light Rain', '原始:', 'ZUUU 150100Z 30002MPS 240V360 9000 -SHRA SCT023 SCT050 22/20 Q1005 NOSIG', '上午9:00', '22.0°C', '1,005毫巴', '每小时7.20公里, 西北', '9.00公里', '部分多云 (701米)', '本地:', '09:00、2019年7月15日周一', '协调世界时:', '01:00、2019年7月15日周一', '来源:', 'USAF 每小时地面观测', '报告类型:', 'METAR 航空例行天气报告', '露点:', '20.0°C', '其他云层:', '部分多云 (1,524米)', '天气:', 'Showers of Light Rain', '上午10:00', '23°C', '1,005毫巴', '每小时0公里', '8.00公里', '部分多云 (701米)', '本地:', '10:00、2019年7月15日周一', '协调世界时:', '02:00、2019年7月15日周一', '来源:', '周期文件', '趋势:', '无重要变化', '露点:', '21°C', '其他云层:', '大部分晴天 (305米)', '天气:', 'Showers of Light Rain', '原始:', 'ZUUU 150200Z 00000MPS 8000 -SHRA FEW010 SCT023 23/21 Q1005 NOSIG', '上午10:00', '23.0°C', '1,005毫巴', '每小时0公里', '8.00公里', '部分多云 (701米)', '本地:', '10:00、2019年7月15日周一', '协调世界时:', '02:00、2019年7月15日周一', '来源:', 'USAF 每小时地面观测', '报告类型:', 'METAR 航空例行天气报告', '露点:', '21.0°C', '其他云层:', '大部分晴天 (305米)', '天气:', 'Showers of Light Rain', '上午11:00', '23°C', '1,005毫巴', '每小时7.20公里, 西', '8.00公里', '部分多云 (701米)', '本地:', '11:00、2019年7月15日周一', '协调世界时:', '03:00、2019年7月15日周一', '来源:', '周期文件', '趋势:', '无重要变化', '露点:', '21°C', '其他云层:', '部分多云 (1,524米)', '天气:', 'Showers of Light Rain', '原始:', 'ZUUU 150300Z 27002MPS 230V310 8000 -SHRA SCT023 SCT050 23/21 Q1005 NOSIG', '上午11:00', '23.0°C', '1,005毫巴', '每小时7.20公里, 西', '8.00公里', '部分多云 (701米)', '本地:', '11:00、2019年7月15日周一', '协调世界时:', '03:00、2019年7月15日周一', '来源:', 'USAF 每小时地面观测', '报告类型:', 'METAR 航空例行天气报告', '露点:', '21.0°C', '其他云层:', '部分多云 (1,524米)', '天气:', 'Showers of Light Rain', '下午12:00', '23°C', '1,005毫巴', '每小时7.20公里, 西', '7.00公里', '部分多云 (701米)', '本地:', '12:00、2019年7月15日周一', '协调世界时:', '04:00、2019年7月15日周一', '来源:', '周期文件', '趋势:', '无重要变化', '露点:', '21°C', '其他云层:', '大部分晴天 (213米)', '天气:', 'Showers of Light Rain', '原始:', 'ZUUU 150400Z 26002MPS 230V290 7000 -SHRA FEW007 SCT023 23/21 Q1005 NOSIG', '下午12:00', '23.0°C', '1,005毫巴', '每小时7.20公里, 西', '7.00公里', '部分多云 (701米)', '本地:', '12:00、2019年7月15日周一', '协调世界时:', '04:00、2019年7月15日周一', '来源:', 'USAF 每小时地面观测', '报告类型:', 'METAR 航空例行天气报告', '露点:', '21.0°C', '其他云层:', '大部分晴天 (213米)', '天气:', 'Showers of Light Rain', '下午1:00', '24°C', '1,005毫巴', '每小时7.20公里, 西', '10.00公里', '部分多云 (792米)', '本地:', '13:00、2019年7月15日周一', '协调世界时:', '05:00、2019年7月15日周一', '来源:', '周期文件', '趋势:', '无重要变化', '露点:', '21°C', '其他云层:', '大部分晴天 (274米)', '原始:', 'ZUUU 150500Z 27002MPS 230V320 9999 FEW009 SCT026 24/21 Q1005 NOSIG', '下午1:00', '24.0°C', '1,005毫巴', '每小时7.20公里, 西', '10.00公里', '部分多云 (792米)', '本地:', '13:00、2019年7月15日周一', '协调世界时:', '05:00、2019年7月15日周一', '来源:', 'USAF 每小时地面观测', '报告类型:', 'METAR 航空例行天气报告', '露点:', '21.0°C', '其他云层:', '大部分晴天 (274米)', '下午2:00', '25°C', '1,004毫巴', '每小时3.60公里', '10.00公里', '部分多云 (792米)', '本地:', '14:00、2019年7月15日周一', '协调世界时:', '06:00、2019年7月15日周一', '来源:', '周期文件', '趋势:', '无重要变化', '露点:', '21°C', '其他云层:', '大部分晴天 (274米)', '原始:', 'ZUUU 150600Z VRB01MPS 9999 FEW009 SCT026 25/21 Q1004 NOSIG', '下午2:00', '25.0°C', '1,004毫巴', '每小时3.60公里', '10.00公里', '部分多云 (792米)', '本地:', '14:00、2019年7月15日周一', '协调世界时:', '06:00、2019年7月15日周一', '来源:', 'USAF 每小时地面观测', '报告类型:', 'METAR 航空例行天气报告', '露点:', '21.0°C', '其他云层:', '大部分晴天 (274米)', '下午3:00', '25°C', '1,004毫巴', '每小时7.20公里, 西南', '10.00公里', '部分多云 (792米)', '本地:', '15:00、2019年7月15日周一', '协调世界时:', '07:00、2019年7月15日周一', '来源:', '周期文件', '趋势:', '无重要变化', '露点:', '21°C', '原始:', 'ZUUU 150700Z 23002MPS 9999 SCT026 25/21 Q1004 NOSIG', '下午3:00', '25.0°C', '1,004毫巴', '每小时7.20公里, 西南', '10.00公里', '部分多云 (792米)', '本地:', '15:00、2019年7月15日周一', '协调世界时:', '07:00、2019年7月15日周一', '来源:', 'USAF 每小时地面观测', '报告类型:', 'METAR 航空例行天气报告', '露点:', '21.0°C', '下午4:00', '25°C', '1,003毫巴', '每小时3.60公里, 西南', '10.00公里', '部分多云 (1,006米)', '本地:', '16:00、2019年7月15日周一', '协调世界时:', '08:00、2019年7月15日周一', '来源:', '周期文件', '趋势:', '无重要变化', '露点:', '21°C', '原始:', 'ZUUU 150800Z 21001MPS 9999 SCT033 25/21 Q1003 NOSIG', '下午4:00', '25.0°C', '1,003毫巴', '每小时3.60公里, 西南', '10.00公里', '部分多云 (1,006米)', '本地:', '16:00、2019年7月15日周一', '协调世界时:', '08:00、2019年7月15日周一', '来源:', 'USAF 每小时地面观测', '报告类型:', 'METAR 航空例行天气报告', '露点:', '21.0°C', '下午5:00', '25°C', '1,003毫巴', '每小时3.60公里, 西南', '10.00公里', '部分多云 (1,006米)', '本地:', '17:00、2019年7月15日周一', '协调世界时:', '09:00、2019年7月15日周一', '来源:', '周期文件', '趋势:', '无重要变化', '露点:', '21°C', '原始:', 'ZUUU 150900Z 21001MPS 9999 SCT033 25/21 Q1003 NOSIG', '下午5:00', '25.0°C', '1,003毫巴', '每小时3.60公里, 西南', '10.00公里', '部分多云 (1,006米)', '本地:', '17:00、2019年7月15日周一', '协调世界时:', '09:00、2019年7月15日周一', '来源:', 'USAF 每小时地面观测', '报告类型:', 'METAR 航空例行天气报告', '露点:', '21.0°C', '下午6:00', '24°C', '1,003毫巴', '每小时7.20公里, 西南', '10.00公里', '部分多云 (914米)', '本地:', '18:00、2019年7月15日周一', '协调世界时:', '10:00、2019年7月15日周一', '来源:', '周期文件', '趋势:', '无重要变化', '露点:', '20°C', '其他云层:', '大部分晴天 (914米)', '原始:', 'ZUUU 151000Z 23002MPS 9999 FEW030TCU SCT030 24/20 Q1003 NOSIG', '下午6:00', '24.0°C', '1,003毫巴', '每小时7.20公里, 西南', '10.00公里', '部分多云 (914米)', '本地:', '18:00、2019年7月15日周一', '协调世界时:', '10:00、2019年7月15日周一', '来源:', 'USAF 每小时地面观测', '报告类型:', 'METAR 航空例行天气报告', '露点:', '20.0°C', '其他云层:', '大部分晴天 (914米)', '下午7:00', '24°C', '1,003毫巴', '每小时3.60公里, 南', '7.00公里', '部分多云 (914米)', '本地:', '19:00、2019年7月15日周一', '协调世界时:', '11:00、2019年7月15日周一', '来源:', '周期文件', '趋势:', '无重要变化', '露点:', '21°C', '其他云层:', '大部分晴天 (914米)', '天气:', 'Showers of Light Rain', '原始:', 'ZUUU 151100Z 20001MPS 7000 -SHRA FEW030TCU SCT030 24/21 Q1003 NOSIG', '下午7:00', '24.0°C', '1,003毫巴', '每小时3.60公里, 南', '7.00公里', '部分多云 (914米)', '本地:', '19:00、2019年7月15日周一', '协调世界时:', '11:00、2019年7月15日周一', '来源:', 'USAF 每小时地面观测', '报告类型:', 'METAR 航空例行天气报告', '露点:', '21.0°C', '其他云层:', '大部分晴天 (914米)', '天气:', 'Showers of Light Rain', '下午8:00', '23°C', '1,004毫巴', '每小时7.20公里, 东', '3.50公里', '部分多云 (914米)', '本地:', '20:00、2019年7月15日周一', '协调世界时:', '12:00、2019年7月15日周一', '来源:', '周期文件', '趋势:', '无重要变化', '露点:', '21°C', '其他云层:', '大部分晴天 (396米)、大部分晴天 (914米)', '天气:', 'Showers of Light Rain、Mist', '原始:', 'ZUUU 151200Z 11002MPS 030V150 3500 -SHRA BR FEW013 FEW030TCU SCT030 23/21 Q1004 NOSIG', '下午8:00', '23.0°C', '1,004毫巴', '每小时7.20公里, 东', '3.50公里', '部分多云 (914米)', '本地:', '20:00、2019年7月15日周一', '协调世界时:', '12:00、2019年7月15日周一', '来源:', 'USAF 每小时地面观测', '报告类型:', 'METAR 航空例行天气报告', '露点:', '21.0°C', '其他云层:', '大部分晴天 (396米)、大部分晴天 (914米)', '天气:', 'Mist、Showers of Light Rain', '下午9:00', '23°C', '1,005毫巴', '每小时3.60公里', '7.00公里', '部分多云 (914米)', '本地:', '21:00、2019年7月15日周一', '协调世界时:', '13:00、2019年7月15日周一', '来源:', '周期文件', '趋势:', '无重要变化', '露点:', '21°C', '其他云层:', '大部分晴天 (396米)', '原始:', 'ZUUU 151300Z VRB01MPS 7000 FEW013 SCT030 23/21 Q1005 NOSIG', '下午9:00', '23.0°C', '1,005毫巴', '每小时3.60公里', '7.00公里', '部分多云 (914米)', '本地:', '21:00、2019年7月15日周一', '协调世界时:', '13:00、2019年7月15日周一', '来源:', 'USAF 每小时地面观测', '报告类型:', 'METAR 航空例行天气报告', '露点:', '21.0°C', '其他云层:', '大部分晴天 (396米)', '下午10:00', '23°C', '1,005毫巴', '每小时0公里', '7.00公里', '部分多云 (914米)', '本地:', '22:00、2019年7月15日周一', '协调世界时:', '14:00、2019年7月15日周一', '来源:', '周期文件', '趋势:', '无重要变化', '露点:', '21°C', '其他云层:', '大部分晴天 (396米)', '原始:', 'ZUUU 151400Z 00000MPS 7000 FEW013 SCT030 23/21 Q1005 NOSIG', '下午10:00', '23.0°C', '1,005毫巴', '每小时0公里', '7.00公里', '部分多云 (914米)', '本地:', '22:00、2019年7月15日周一', '协调世界时:', '14:00、2019年7月15日周一', '来源:', 'USAF 每小时地面观测', '报告类型:', 'METAR 航空例行天气报告', '露点:', '21.0°C', '其他云层:', '大部分晴天 (396米)', '下午11:00', '23°C', '1,006毫巴', '每小时3.60公里', '5.00公里', '部分多云 (914米)', '本地:', '23:00、2019年7月15日周一', '协调世界时:', '15:00、2019年7月15日周一', '来源:', '周期文件', '趋势:', '无重要变化', '露点:', '21°C', '天气:', 'Mist', '原始:', 'ZUUU 151500Z VRB01MPS 5000 BR SCT030 23/21 Q1006 NOSIG', '下午11:00', '23.0°C', '1,006毫巴', '每小时3.60公里', '5.00公里', '部分多云 (914米)', '本地:', '23:00、2019年7月15日周一', '协调世界时:', '15:00、2019年7月15日周一', '来源:', 'USAF 每小时地面观测', '报告类型:', 'METAR 航空例行天气报告', '露点:', '21.0°C', '天气:', 'Mist']