['上午12:00', '12°C', '1,019毫巴', '每小时3.60公里', '≥ 10.00公里', '晴空万里', '本地:', '00:00、2019年12月17日周二', '协调世界时:', '16:00、2019年12月16日周一', '来源:', '周期文件', '趋势:', '无重要变化', '露点:', '4°C', '晴空万里:', '真', '原始:', 'ZUUU 161600Z VRB01MPS CAVOK 12/04 Q1019 NOSIG', '上午12:00', '12.0°C', '1,019毫巴', '每小时3.60公里', '9.90公里', '晴空万里', '本地:', '00:00、2019年12月17日周二', '协调世界时:', '16:00、2019年12月16日周一', '来源:', 'USAF 每小时地面观测', '报告类型:', 'METAR 航空例行天气报告', '露点:', '4.0°C', '晴空万里:', '真', '上午1:00', '12°C', '1,019毫巴', '每小时7.20公里, 北', '≥ 10.00公里', '晴空万里', '本地:', '01:00、2019年12月17日周二', '协调世界时:', '17:00、2019年12月16日周一', '来源:', '周期文件', '趋势:', '无重要变化', '露点:', '6°C', '晴空万里:', '真', '原始:', 'ZUUU 161700Z 36002MPS 320V030 CAVOK 12/06 Q1019 NOSIG', '上午1:00', '12.0°C', '1,019毫巴', '每小时7.20公里, 北', '9.90公里', '晴空万里', '本地:', '01:00、2019年12月17日周二', '协调世界时:', '17:00、2019年12月16日周一', '来源:', 'USAF 每小时地面观测', '报告类型:', 'METAR 航空例行天气报告', '露点:', '6.0°C', '晴空万里:', '真', '上午2:00', '12°C', '1,019毫巴', '每小时0公里', '≥ 10.00公里', '晴空万里', '本地:', '02:00、2019年12月17日周二', '协调世界时:', '18:00、2019年12月16日周一', '来源:', '周期文件', '趋势:', '无重要变化', '露点:', '8°C', '晴空万里:', '真', '原始:', 'ZUUU 161800Z 00000MPS CAVOK 12/08 Q1019 NOSIG', '上午2:00', '12.0°C', '1,019毫巴', '每小时0公里', '9.90公里', '晴空万里', '本地:', '02:00、2019年12月17日周二', '协调世界时:', '18:00、2019年12月16日周一', '来源:', 'USAF 每小时地面观测', '报告类型:', 'METAR 航空例行天气报告', '露点:', '8.0°C', '晴空万里:', '真', '上午3:00', '11°C', '1,019毫巴', '每小时3.60公里', '≥ 10.00公里', '晴空万里', '本地:', '03:00、2019年12月17日周二', '协调世界时:', '19:00、2019年12月16日周一', '来源:', '周期文件', '趋势:', '无重要变化', '露点:', '8°C', '晴空万里:', '真', '原始:', 'ZUUU 161900Z VRB01MPS CAVOK 11/08 Q1019 NOSIG', '上午3:00', '11.0°C', '1,019毫巴', '每小时3.60公里', '9.90公里', '晴空万里', '本地:', '03:00、2019年12月17日周二', '协调世界时:', '19:00、2019年12月16日周一', '来源:', 'USAF 每小时地面观测', '报告类型:', 'METAR 航空例行天气报告', '露点:', '8.0°C', '晴空万里:', '真', '上午4:00', '11°C', '1,019毫巴', '每小时0公里', '≥ 10.00公里', '晴空万里', '本地:', '04:00、2019年12月17日周二', '协调世界时:', '20:00、2019年12月16日周一', '来源:', '周期文件', '趋势:', '无重要变化', '露点:', '8°C', '晴空万里:', '真', '原始:', 'ZUUU 162000Z 00000MPS CAVOK 11/08 Q1019 NOSIG', '上午4:00', '11.0°C', '1,019毫巴', '每小时0公里', '9.90公里', '晴空万里', '本地:', '04:00、2019年12月17日周二', '协调世界时:', '20:00、2019年12月16日周一', '来源:', 'USAF 每小时地面观测', '报告类型:', 'METAR 航空例行天气报告', '露点:', '8.0°C', '晴空万里:', '真', '上午5:00', '11°C', '1,019毫巴', '每小时0公里', '≥ 10.00公里', '晴空万里', '本地:', '05:00、2019年12月17日周二', '协调世界时:', '21:00、2019年12月16日周一', '来源:', '周期文件', '趋势:', '无重要变化', '露点:', '9°C', '晴空万里:', '真', '原始:', 'ZUUU 162100Z 00000MPS CAVOK 11/09 Q1019 NOSIG', '上午5:00', '11.0°C', '1,019毫巴', '每小时0公里', '9.90公里', '晴空万里', '本地:', '05:00、2019年12月17日周二', '协调世界时:', '21:00、2019年12月16日周一', '来源:', 'USAF 每小时地面观测', '报告类型:', 'METAR 航空例行天气报告', '露点:', '9.0°C', '晴空万里:', '真', '上午6:00', '10°C', '1,019毫巴', '每小时0公里', '≥ 10.00公里', '晴空万里', '本地:', '06:00、2019年12月17日周二', '协调世界时:', '22:00、2019年12月16日周一', '来源:', '周期文件', '趋势:', '无重要变化', '露点:', '9°C', '晴空万里:', '真', '原始:', 'ZUUU 162200Z 00000MPS CAVOK 10/09 Q1019 NOSIG', '上午6:00', '10.0°C', '1,019毫巴', '每小时0公里', '9.90公里', '晴空万里', '本地:', '06:00、2019年12月17日周二', '协调世界时:', '22:00、2019年12月16日周一', '来源:', 'USAF 每小时地面观测', '报告类型:', 'METAR 航空例行天气报告', '露点:', '9.0°C', '晴空万里:', '真', '上午7:00', '11°C', '1,020毫巴', '每小时0公里', '8.00公里', '无重要云', '本地:', '07:00、2019年12月17日周二', '协调世界时:', '23:00、2019年12月16日周一', '来源:', '周期文件', '趋势:', '无重要变化', '露点:', '9°C', '原始:', 'ZUUU 162300Z 00000MPS 8000 NSC 11/09 Q1020 NOSIG', '上午7:00', '11.0°C', '1,020毫巴', '每小时0公里', '8.00公里', '未检测到云', '本地:', '07:00、2019年12月17日周二', '协调世界时:', '23:00、2019年12月16日周一', '来源:', 'USAF 每小时地面观测', '报告类型:', 'METAR 航空例行天气报告', '露点:', '9.0°C', '上午8:00', '11°C', '1,021毫巴', '每小时0公里', '8.00公里', '部分多云 (1,524米)', '本地:', '08:00、2019年12月17日周二', '协调世界时:', '00:00、2019年12月17日周二', '来源:', '周期文件', '趋势:', '无重要变化', '露点:', '9°C', '原始:', 'ZUUU 170000Z 00000MPS 8000 SCT050 11/09 Q1021 NOSIG', '上午8:00', '11.0°C', '1,021毫巴', '每小时0公里', '8.00公里', '部分多云 (1,524米)', '本地:', '08:00、2019年12月17日周二', '协调世界时:', '00:00、2019年12月17日周二', '来源:', 'USAF 每小时地面观测', '报告类型:', 'METAR 航空例行天气报告', '露点:', '9.0°C', '上午9:00', '11°C', '1,022毫巴', '每小时0公里', '8.00公里', '无重要云', '本地:', '09:00、2019年12月17日周二', '协调世界时:', '01:00、2019年12月17日周二', '来源:', '周期文件', '趋势:', '无重要变化', '露点:', '8°C', '原始:', 'ZUUU 170100Z 00000MPS 8000 NSC 11/08 Q1022 NOSIG', '上午9:00', '11.0°C', '1,022毫巴', '每小时0公里', '8.00公里', '未检测到云', '本地:', '09:00、2019年12月17日周二', '协调世界时:', '01:00、2019年12月17日周二', '来源:', 'USAF 每小时地面观测', '报告类型:', 'METAR 航空例行天气报告', '露点:', '8.0°C', '上午10:00', '12°C', '1,023毫巴', '每小时3.60公里', '≥ 10.00公里', '晴空万里', '本地:', '10:00、2019年12月17日周二', '协调世界时:', '02:00、2019年12月17日周二', '来源:', '周期文件', '趋势:', '无重要变化', '露点:', '5°C', '晴空万里:', '真', '原始:', 'ZUUU 170200Z VRB01MPS CAVOK 12/05 Q1023 NOSIG', '上午10:00', '12.0°C', '1,023毫巴', '每小时3.60公里', '9.90公里', '晴空万里', '本地:', '10:00、2019年12月17日周二', '协调世界时:', '02:00、2019年12月17日周二', '来源:', 'USAF 每小时地面观测', '报告类型:', 'METAR 航空例行天气报告', '露点:', '5.0°C', '晴空万里:', '真', '上午11:00', '13°C', '1,023毫巴', '每小时7.20公里, 北', '≥ 10.00公里', '晴空万里', '本地:', '11:00、2019年12月17日周二', '协调世界时:', '03:00、2019年12月17日周二', '来源:', '周期文件', '趋势:', '无重要变化', '露点:', '2°C', '晴空万里:', '真', '原始:', 'ZUUU 170300Z 36002MPS 320V030 CAVOK 13/02 Q1023 NOSIG', '上午11:00', '13.0°C', '1,023毫巴', '每小时7.20公里, 北', '9.90公里', '晴空万里', '本地:', '11:00、2019年12月17日周二', '协调世界时:', '03:00、2019年12月17日周二', '来源:', 'USAF 每小时地面观测', '报告类型:', 'METAR 航空例行天气报告', '露点:', '2.0°C', '晴空万里:', '真', '下午12:00', '14°C', '1,022毫巴', '每小时10.8公里, 东北', '≥ 10.00公里', '晴空万里', '本地:', '12:00、2019年12月17日周二', '协调世界时:', '04:00、2019年12月17日周二', '来源:', '周期文件', '趋势:', '无重要变化', '露点:', '2°C', '晴空万里:', '真', '原始:', 'ZUUU 170400Z 03003MPS 360V080 CAVOK 14/02 Q1022 NOSIG', '下午12:00', '14.0°C', '1,022毫巴', '每小时10.8公里, 东北', '9.90公里', '晴空万里', '本地:', '12:00、2019年12月17日周二', '协调世界时:', '04:00、2019年12月17日周二', '来源:', 'USAF 每小时地面观测', '报告类型:', 'METAR 航空例行天气报告', '露点:', '2.0°C', '晴空万里:', '真', '下午1:00', '14°C', '1,021毫巴', '每小时10.8公里, 北', '≥ 10.00公里', '晴空万里', '本地:', '13:00、2019年12月17日周二', '协调世界时:', '05:00、2019年12月17日周二', '来源:', '周期文件', '趋势:', '无重要变化', '露点:', '1°C', '晴空万里:', '真', '原始:', 'ZUUU 170500Z 01003MPS 330V050 CAVOK 14/01 Q1021 NOSIG', '下午1:00', '14.0°C', '1,021毫巴', '每小时10.8公里, 北', '9.90公里', '晴空万里', '本地:', '13:00、2019年12月17日周二', '协调世界时:', '05:00、2019年12月17日周二', '来源:', 'USAF 每小时地面观测', '报告类型:', 'METAR 航空例行天气报告', '露点:', '1.0°C', '晴空万里:', '真', '下午2:00', '14°C', '1,020毫巴', '每小时10.8公里, 北', '≥ 10.00公里', '晴空万里', '本地:', '14:00、2019年12月17日周二', '协调世界时:', '06:00、2019年12月17日周二', '来源:', '周期文件', '趋势:', '无重要变化', '露点:', '1°C', '晴空万里:', '真', '原始:', 'ZUUU 170600Z 02003MPS 350V050 CAVOK 14/01 Q1020 NOSIG', '下午2:00', '14.0°C', '1,020毫巴', '每小时10.8公里, 北', '9.90公里', '晴空万里', '本地:', '14:00、2019年12月17日周二', '协调世界时:', '06:00、2019年12月17日周二', '来源:', 'USAF 每小时地面观测', '报告类型:', 'METAR 航空例行天气报告', '露点:', '1.0°C', '晴空万里:', '真', '下午3:00', '13°C', '1,020毫巴', '每小时10.8公里, 北', '≥ 10.00公里', '晴空万里', '本地:', '15:00、2019年12月17日周二', '协调世界时:', '07:00、2019年12月17日周二', '来源:', '周期文件', '趋势:', '无重要变化', '露点:', '1°C', '晴空万里:', '真', '原始:', 'ZUUU 170700Z 36003MPS 310V040 CAVOK 13/01 Q1020 NOSIG', '下午3:00', '13.0°C', '1,020毫巴', '每小时10.8公里, 北', '9.90公里', '晴空万里', '本地:', '15:00、2019年12月17日周二', '协调世界时:', '07:00、2019年12月17日周二', '来源:', 'USAF 每小时地面观测', '报告类型:', 'METAR 航空例行天气报告', '露点:', '1.0°C', '晴空万里:', '真', '下午4:00', '13°C', '1,019毫巴', '每小时10.8公里, 北', '≥ 10.00公里', '晴空万里', '本地:', '16:00、2019年12月17日周二', '协调世界时:', '08:00、2019年12月17日周二', '来源:', '周期文件', '趋势:', '无重要变化', '露点:', '1°C', '晴空万里:', '真', '原始:', 'ZUUU 170800Z 36003MPS 320V050 CAVOK 13/01 Q1019 NOSIG', '下午4:00', '13.0°C', '1,019毫巴', '每小时10.8公里, 北', '9.90公里', '晴空万里', '本地:', '16:00、2019年12月17日周二', '协调世界时:', '08:00、2019年12月17日周二', '来源:', 'USAF 每小时地面观测', '报告类型:', 'METAR 航空例行天气报告', '露点:', '1.0°C', '晴空万里:', '真', '下午5:00', '13°C', '1,020毫巴', '每小时7.20公里, 北', '≥ 10.00公里', '晴空万里', '本地:', '17:00、2019年12月17日周二', '协调世界时:', '09:00、2019年12月17日周二', '来源:', '周期文件', '趋势:', '无重要变化', '露点:', '0°C', '晴空万里:', '真', '原始:', 'ZUUU 170900Z 36002MPS 330V040 CAVOK 13/00 Q1020 NOSIG', '下午5:00', '13.0°C', '1,020毫巴', '每小时7.20公里, 北', '9.90公里', '晴空万里', '本地:', '17:00、2019年12月17日周二', '协调世界时:', '09:00、2019年12月17日周二', '来源:', 'USAF 每小时地面观测', '报告类型:', 'METAR 航空例行天气报告', '露点:', '0.0°C', '晴空万里:', '真', '下午6:00', '13°C', '1,021毫巴', '每小时7.20公里, 北', '≥ 10.00公里', '晴空万里', '本地:', '18:00、2019年12月17日周二', '协调世界时:', '10:00、2019年12月17日周二', '来源:', '周期文件', '趋势:', '无重要变化', '露点:', '0°C', '晴空万里:', '真', '原始:', 'ZUUU 171000Z 36002MPS 330V040 CAVOK 13/00 Q1021 NOSIG', '下午6:00', '13.0°C', '1,021毫巴', '每小时7.20公里, 北', '9.90公里', '晴空万里', '本地:', '18:00、2019年12月17日周二', '协调世界时:', '10:00、2019年12月17日周二', '来源:', 'USAF 每小时地面观测', '报告类型:', 'METAR 航空例行天气报告', '露点:', '0.0°C', '晴空万里:', '真', '下午7:00', '12°C', '1,022毫巴', '每小时10.8公里, 北', '≥ 10.00公里', '晴空万里', '本地:', '19:00、2019年12月17日周二', '协调世界时:', '11:00、2019年12月17日周二', '来源:', '周期文件', '趋势:', '无重要变化', '露点:', '0°C', '晴空万里:', '真', '原始:', 'ZUUU 171100Z 36003MPS 330V030 CAVOK 12/00 Q1022 NOSIG', '下午7:00', '12.0°C', '1,022毫巴', '每小时10.8公里, 北', '9.90公里', '晴空万里', '本地:', '19:00、2019年12月17日周二', '协调世界时:', '11:00、2019年12月17日周二', '来源:', 'USAF 每小时地面观测', '报告类型:', 'METAR 航空例行天气报告', '露点:', '0.0°C', '晴空万里:', '真', '下午8:00', '12°C', '1,022毫巴', '每小时14.4公里, 东北', '≥ 10.00公里', '晴空万里', '本地:', '20:00、2019年12月17日周二', '协调世界时:', '12:00、2019年12月17日周二', '来源:', '周期文件', '趋势:', '无重要变化', '露点:', '0°C', '晴空万里:', '真', '原始:', 'ZUUU 171200Z 03004MPS CAVOK 12/M00 Q1022 NOSIG', '下午8:00', '12.0°C', '1,022毫巴', '每小时14.4公里, 东北', '9.90公里', '晴空万里', '本地:', '20:00、2019年12月17日周二', '协调世界时:', '12:00、2019年12月17日周二', '来源:', 'USAF 每小时地面观测', '报告类型:', 'METAR 航空例行天气报告', '露点:', '0.0°C', '晴空万里:', '真', '下午9:00', '12°C', '1,023毫巴', '每小时7.20公里, 北', '10.00公里', '部分多云 (1,524米)', '本地:', '21:00、2019年12月17日周二', '协调世界时:', '13:00、2019年12月17日周二', '来源:', '周期文件', '趋势:', '无重要变化', '露点:', '0°C', '原始:', 'ZUUU 171300Z 02002MPS 9999 SCT050 12/M00 Q1023 NOSIG', '下午9:00', '12.0°C', '1,023毫巴', '每小时7.20公里, 北', '10.00公里', '部分多云 (1,524米)', '本地:', '21:00、2019年12月17日周二', '协调世界时:', '13:00、2019年12月17日周二', '来源:', 'USAF 每小时地面观测', '报告类型:', 'METAR 航空例行天气报告', '露点:', '0.0°C', '下午10:00', '12°C', '1,024毫巴', '每小时3.60公里', '10.00公里', '部分多云 (1,524米)', '本地:', '22:00、2019年12月17日周二', '协调世界时:', '14:00、2019年12月17日周二', '来源:', '周期文件', '趋势:', '无重要变化', '露点:', '-2°C', '原始:', 'ZUUU 171400Z VRB01MPS 9999 SCT050 12/M02 Q1024 NOSIG', '下午10:00', '12.0°C', '1,024毫巴', '每小时3.60公里', '10.00公里', '部分多云 (1,524米)', '本地:', '22:00、2019年12月17日周二', '协调世界时:', '14:00、2019年12月17日周二', '来源:', 'USAF 每小时地面观测', '报告类型:', 'METAR 航空例行天气报告', '露点:', '-2.0°C', '下午11:00', '11°C', '1,025毫巴', '每小时0公里', '10.00公里', '部分多云 (1,524米)', '本地:', '23:00、2019年12月17日周二', '协调世界时:', '15:00、2019年12月17日周二', '来源:', '周期文件', '趋势:', '无重要变化', '露点:', '-1°C', '原始:', 'ZUUU 171500Z 00000MPS 9999 SCT050 11/M01 Q1025 NOSIG', '下午11:00', '11.0°C', '1,025毫巴', '每小时0公里', '10.00公里', '部分多云 (1,524米)', '本地:', '23:00、2019年12月17日周二', '协调世界时:', '15:00、2019年12月17日周二', '来源:', 'USAF 每小时地面观测', '报告类型:', 'METAR 航空例行天气报告', '露点:', '-1.0°C']