['Showers of Light Rain', '-SHRA、IWC80', 'Showers of Light Rain、Mist', '-SHRA、IWC80、BR、IWC10', 'Showers of Light Rain、Mist', '-SHRA、IWC80、BR、IWC10', 'Showers of Light Rain、Mist', '-SHRA、IWC80、BR、IWC10', 'Showers of Light Rain、Mist', '-SHRA、IWC80、BR、IWC10', 'Showers of Light Rain', '-SHRA、IWC80', '上午12:00', '25°C', '1,006毫巴', '每小时0公里', '7.00公里', '部分多云 (1,006米)', '本地:', '00:00、2019年8月20日周二', '协调世界时:', '16:00、2019年8月19日周一', '来源:', '周期文件', '趋势:', '无重要变化', '露点:', '23°C', '其他云层:', '大部分晴天 (1,006米)', '天气:', 'Showers of Light Rain', '原始:', 'ZUUU 191600Z 00000MPS 7000 -SHRA FEW033CB SCT033 25/23 Q1006 NOSIG', '上午12:00', '25.0°C', '1,006毫巴', '每小时0公里', '7.00公里', '部分多云 (1,006米)', '本地:', '00:00、2019年8月20日周二', '协调世界时:', '16:00、2019年8月19日周一', '来源:', 'USAF 每小时地面观测', '报告类型:', 'METAR 航空例行天气报告', '露点:', '23.0°C', '其他云层:', '大部分晴天 (1,006米)', '天气:', 'Showers of Light Rain', '上午1:00', '25°C', '1,006毫巴', '每小时7.20公里, 西南', '4.50公里', '部分多云 (1,006米)', '本地:', '01:00、2019年8月20日周二', '协调世界时:', '17:00、2019年8月19日周一', '来源:', '周期文件', '趋势:', '无重要变化', '露点:', '23°C', '其他云层:', '大部分晴天 (1,006米)', '天气:', 'Showers of Light Rain、Mist', '原始:', 'ZUUU 191700Z 24002MPS 220V280 4500 -SHRA BR FEW033CB SCT033 25/23 Q1006 NOSIG', '上午1:00', '25.0°C', '1,006毫巴', '每小时7.20公里, 西南', '4.50公里', '部分多云 (1,006米)', '本地:', '01:00、2019年8月20日周二', '协调世界时:', '17:00、2019年8月19日周一', '来源:', 'USAF 每小时地面观测', '报告类型:', 'METAR 航空例行天气报告', '露点:', '23.0°C', '其他云层:', '大部分晴天 (1,006米)', '天气:', 'Mist、Showers of Light Rain', '上午2:00', '25°C', '1,006毫巴', '每小时7.20公里, 西南', '4.20公里', '部分多云 (1,006米)', '本地:', '02:00、2019年8月20日周二', '协调世界时:', '18:00、2019年8月19日周一', '来源:', '周期文件', '趋势:', '无重要变化', '露点:', '23°C', '其他云层:', '大部分晴天 (122米)、大部分晴天 (1,006米)', '天气:', 'Showers of Light Rain、Mist', '原始:', 'ZUUU 191800Z 24002MPS 4200 -SHRA BR FEW004 FEW033CB SCT033 25/23 Q1006 NOSIG', '上午2:00', '25.0°C', '1,006毫巴', '每小时7.20公里, 西南', '4.20公里', '部分多云 (1,006米)', '本地:', '02:00、2019年8月20日周二', '协调世界时:', '18:00、2019年8月19日周一', '来源:', 'USAF 每小时地面观测', '报告类型:', 'METAR 航空例行天气报告', '露点:', '23.0°C', '其他云层:', '大部分晴天 (122米)、大部分晴天 (1,006米)', '天气:', 'Mist、Showers of Light Rain', '上午3:00', '24°C', '1,006毫巴', '每小时7.20公里, 西', '4.50公里', '部分多云 (1,006米)', '本地:', '03:00、2019年8月20日周二', '协调世界时:', '19:00、2019年8月19日周一', '来源:', '周期文件', '趋势:', '无重要变化', '露点:', '23°C', '其他云层:', '大部分晴天 (122米)、大部分晴天 (1,006米)', '天气:', 'Showers of Light Rain、Mist', '原始:', 'ZUUU 191900Z 25002MPS 220V280 4500 -SHRA BR FEW004 FEW033CB SCT033 24/23 Q1006 NOSIG', '上午3:00', '24.0°C', '1,006毫巴', '每小时7.20公里, 西', '4.50公里', '部分多云 (1,006米)', '本地:', '03:00、2019年8月20日周二', '协调世界时:', '19:00、2019年8月19日周一', '来源:', 'USAF 每小时地面观测', '报告类型:', 'METAR 航空例行天气报告', '露点:', '23.0°C', '其他云层:', '大部分晴天 (122米)、大部分晴天 (1,006米)', '天气:', 'Mist、Showers of Light Rain', '上午4:00', '24°C', '1,006毫巴', '每小时7.20公里, 西', '5.00公里', '部分多云 (1,006米)', '本地:', '04:00、2019年8月20日周二', '协调世界时:', '20:00、2019年8月19日周一', '来源:', '周期文件', '趋势:', '无重要变化', '露点:', '23°C', '其他云层:', '大部分晴天 (122米)、大部分晴天 (1,006米)', '天气:', 'Showers of Light Rain、Mist', '原始:', 'ZUUU 192000Z 29002MPS 200V360 5000 -SHRA BR FEW004 FEW033CB SCT033 24/23 Q1006 NOSIG', '上午4:00', '24.0°C', '1,006毫巴', '每小时7.20公里, 西', '5.00公里', '部分多云 (1,006米)', '本地:', '04:00、2019年8月20日周二', '协调世界时:', '20:00、2019年8月19日周一', '来源:', 'USAF 每小时地面观测', '报告类型:', 'METAR 航空例行天气报告', '露点:', '23.0°C', '其他云层:', '大部分晴天 (122米)、大部分晴天 (1,006米)', '天气:', 'Mist、Showers of Light Rain', '上午5:00', '24°C', '1,006毫巴', '每小时0公里', '6.00公里', '部分多云 (1,006米)', '本地:', '05:00、2019年8月20日周二', '协调世界时:', '21:00、2019年8月19日周一', '来源:', '周期文件', '趋势:', '无重要变化', '露点:', '23°C', '其他云层:', '大部分晴天 (1,006米)', '天气:', 'Showers of Light Rain', '原始:', 'ZUUU 192100Z 00000MPS 6000 -SHRA FEW033CB SCT033 24/23 Q1006 NOSIG', '上午5:00', '24.0°C', '1,006毫巴', '每小时0公里', '6.00公里', '部分多云 (1,006米)', '本地:', '05:00、2019年8月20日周二', '协调世界时:', '21:00、2019年8月19日周一', '来源:', 'USAF 每小时地面观测', '报告类型:', 'METAR 航空例行天气报告', '露点:', '23.0°C', '其他云层:', '大部分晴天 (1,006米)', '天气:', 'Showers of Light Rain', '上午6:00', '24°C', '1,006毫巴', '每小时7.20公里, 北', '10.00公里', '大部分晴天 (1,219米)', '本地:', '06:00、2019年8月20日周二', '协调世界时:', '22:00、2019年8月19日周一', '来源:', '周期文件', '趋势:', '无重要变化', '露点:', '23°C', '原始:', 'ZUUU 192200Z 35002MPS 280V050 9999 FEW040 24/23 Q1006 NOSIG', '上午6:00', '24.0°C', '1,006毫巴', '每小时7.20公里, 北', '10.00公里', '大部分晴天 (1,219米)', '本地:', '06:00、2019年8月20日周二', '协调世界时:', '22:00、2019年8月19日周一', '来源:', 'USAF 每小时地面观测', '报告类型:', 'METAR 航空例行天气报告', '露点:', '23.0°C', '上午7:00', '25°C', '1,006毫巴', '每小时10.8公里, 东北', '10.00公里', '部分多云 (1,219米)', '本地:', '07:00、2019年8月20日周二', '协调世界时:', '23:00、2019年8月19日周一', '来源:', '周期文件', '趋势:', '无重要变化', '露点:', '22°C', '其他云层:', '大部分晴天 (1,219米)', '原始:', 'ZUUU 192300Z 03003MPS 9999 FEW040TCU SCT040 25/22 Q1006 NOSIG', '上午7:00', '25.0°C', '1,006毫巴', '每小时10.8公里, 东北', '10.00公里', '部分多云 (1,219米)', '本地:', '07:00、2019年8月20日周二', '协调世界时:', '23:00、2019年8月19日周一', '来源:', 'USAF 每小时地面观测', '报告类型:', 'METAR 航空例行天气报告', '露点:', '22.0°C', '其他云层:', '大部分晴天 (1,219米)', '上午8:00', '25°C', '1,007毫巴', '每小时0公里', '10.00公里', '部分多云 (1,219米)', '本地:', '08:00、2019年8月20日周二', '协调世界时:', '00:00、2019年8月20日周二', '来源:', '周期文件', '趋势:', '无重要变化', '露点:', '22°C', '其他云层:', '大部分晴天 (1,219米)', '原始:', 'ZUUU 200000Z 00000MPS 9999 FEW040TCU SCT040 25/22 Q1007 NOSIG', '上午8:00', '25.0°C', '1,007毫巴', '每小时0公里', '10.00公里', '部分多云 (1,219米)', '本地:', '08:00、2019年8月20日周二', '协调世界时:', '00:00、2019年8月20日周二', '来源:', 'USAF 每小时地面观测', '报告类型:', 'METAR 航空例行天气报告', '露点:', '22.0°C', '其他云层:', '大部分晴天 (1,219米)', '上午9:00', '25°C', '1,007毫巴', '每小时7.20公里, 西', '10.00公里', '部分多云 (1,219米)', '本地:', '09:00、2019年8月20日周二', '协调世界时:', '01:00、2019年8月20日周二', '来源:', '周期文件', '趋势:', '无重要变化', '露点:', '22°C', '其他云层:', '大部分晴天 (1,219米)', '原始:', 'ZUUU 200100Z 28002MPS 220V320 9999 FEW040TCU SCT040 25/22 Q1007 NOSIG', '上午9:00', '25.0°C', '1,007毫巴', '每小时7.20公里, 西', '10.00公里', '部分多云 (1,219米)', '本地:', '09:00、2019年8月20日周二', '协调世界时:', '01:00、2019年8月20日周二', '来源:', 'USAF 每小时地面观测', '报告类型:', 'METAR 航空例行天气报告', '露点:', '22.0°C', '其他云层:', '大部分晴天 (1,219米)', '上午10:00', '26°C', '1,007毫巴', '每小时7.20公里, 西北', '10.00公里', '部分多云 (1,006米)', '本地:', '10:00、2019年8月20日周二', '协调世界时:', '02:00、2019年8月20日周二', '来源:', '周期文件', '趋势:', '无重要变化', '露点:', '22°C', '其他云层:', '大部分晴天 (1,006米)', '原始:', 'ZUUU 200200Z 30002MPS 240V340 9999 FEW033TCU SCT033 26/22 Q1007 NOSIG', '上午10:00', '26.0°C', '1,007毫巴', '每小时7.20公里, 西北', '10.00公里', '部分多云 (1,006米)', '本地:', '10:00、2019年8月20日周二', '协调世界时:', '02:00、2019年8月20日周二', '来源:', 'USAF 每小时地面观测', '报告类型:', 'METAR 航空例行天气报告', '露点:', '22.0°C', '其他云层:', '大部分晴天 (1,006米)', '上午11:00', '26°C', '1,008毫巴', '每小时7.20公里, 西北', '10.00公里', '部分多云 (1,006米)', '本地:', '11:00、2019年8月20日周二', '协调世界时:', '03:00、2019年8月20日周二', '来源:', '周期文件', '趋势:', '无重要变化', '露点:', '21°C', '其他云层:', '大部分晴天 (1,006米)', '原始:', 'ZUUU 200300Z 31002MPS 280V010 9999 FEW033TCU SCT033 26/21 Q1008 NOSIG', '上午11:00', '26.0°C', '1,008毫巴', '每小时7.20公里, 西北', '10.00公里', '部分多云 (1,006米)', '本地:', '11:00、2019年8月20日周二', '协调世界时:', '03:00、2019年8月20日周二', '来源:', 'USAF 每小时地面观测', '报告类型:', 'METAR 航空例行天气报告', '露点:', '21.0°C', '其他云层:', '大部分晴天 (1,006米)', '下午12:00', '27°C', '1,007毫巴', '每小时7.20公里, 北', '10.00公里', '部分多云 (1,006米)', '本地:', '12:00、2019年8月20日周二', '协调世界时:', '04:00、2019年8月20日周二', '来源:', '周期文件', '趋势:', '无重要变化', '露点:', '22°C', '其他云层:', '大部分晴天 (1,006米)', '原始:', 'ZUUU 200400Z 36002MPS 300V040 9999 FEW033TCU SCT033 27/22 Q1007 NOSIG', '下午12:00', '27.0°C', '1,007毫巴', '每小时7.20公里, 北', '10.00公里', '部分多云 (1,006米)', '本地:', '12:00、2019年8月20日周二', '协调世界时:', '04:00、2019年8月20日周二', '来源:', 'USAF 每小时地面观测', '报告类型:', 'METAR 航空例行天气报告', '露点:', '22.0°C', '其他云层:', '大部分晴天 (1,006米)', '下午1:00', '27°C', '1,007毫巴', '每小时7.20公里, 西', '10.00公里', '部分多云 (1,006米)', '本地:', '13:00、2019年8月20日周二', '协调世界时:', '05:00、2019年8月20日周二', '来源:', '周期文件', '趋势:', '无重要变化', '露点:', '23°C', '其他云层:', '大部分晴天 (1,006米)', '原始:', 'ZUUU 200500Z 28002MPS 230V330 9999 FEW033TCU SCT033 27/23 Q1007 NOSIG', '下午1:00', '27.0°C', '1,007毫巴', '每小时7.20公里, 西', '10.00公里', '部分多云 (1,006米)', '本地:', '13:00、2019年8月20日周二', '协调世界时:', '05:00、2019年8月20日周二', '来源:', 'USAF 每小时地面观测', '报告类型:', 'METAR 航空例行天气报告', '露点:', '23.0°C', '其他云层:', '大部分晴天 (1,006米)', '下午2:00', '27°C', '1,007毫巴', '每小时10.8公里, 西', '10.00公里', '部分多云 (1,006米)', '本地:', '14:00、2019年8月20日周二', '协调世界时:', '06:00、2019年8月20日周二', '来源:', '周期文件', '趋势:', '无重要变化', '露点:', '22°C', '其他云层:', '大部分晴天 (1,006米)', '原始:', 'ZUUU 200600Z 29003MPS 230V350 9999 FEW033TCU SCT033 27/22 Q1007 NOSIG', '下午2:00', '27.0°C', '1,007毫巴', '每小时10.8公里, 西', '10.00公里', '部分多云 (1,006米)', '本地:', '14:00、2019年8月20日周二', '协调世界时:', '06:00、2019年8月20日周二', '来源:', 'USAF 每小时地面观测', '报告类型:', 'METAR 航空例行天气报告', '露点:', '22.0°C', '其他云层:', '大部分晴天 (1,006米)', '下午3:00', '27°C', '1,007毫巴', '每小时7.20公里, 西北', '10.00公里', '部分多云 (1,219米)', '本地:', '15:00、2019年8月20日周二', '协调世界时:', '07:00、2019年8月20日周二', '来源:', '周期文件', '趋势:', '无重要变化', '露点:', '23°C', '其他云层:', '大部分晴天 (1,219米)', '原始:', 'ZUUU 200700Z 30002MPS 260V360 9999 FEW040TCU SCT040 27/23 Q1007 NOSIG', '下午3:00', '27.0°C', '1,007毫巴', '每小时7.20公里, 西北', '10.00公里', '部分多云 (1,219米)', '本地:', '15:00、2019年8月20日周二', '协调世界时:', '07:00、2019年8月20日周二', '来源:', 'USAF 每小时地面观测', '报告类型:', 'METAR 航空例行天气报告', '露点:', '23.0°C', '其他云层:', '大部分晴天 (1,219米)', '下午4:00', '27°C', '1,006毫巴', '每小时7.20公里, 西北', '10.00公里', '部分多云 (1,219米)', '本地:', '16:00、2019年8月20日周二', '协调世界时:', '08:00、2019年8月20日周二', '来源:', '周期文件', '趋势:', '无重要变化', '露点:', '23°C', '其他云层:', '大部分晴天 (1,219米)', '原始:', 'ZUUU 200800Z 32002MPS 270V010 9999 FEW040TCU SCT040 27/23 Q1006 NOSIG', '下午4:00', '27.0°C', '1,006毫巴', '每小时7.20公里, 西北', '10.00公里', '部分多云 (1,219米)', '本地:', '16:00、2019年8月20日周二', '协调世界时:', '08:00、2019年8月20日周二', '来源:', 'USAF 每小时地面观测', '报告类型:', 'METAR 航空例行天气报告', '露点:', '23.0°C', '其他云层:', '大部分晴天 (1,219米)', '下午5:00', '27°C', '1,006毫巴', '每小时0公里', '10.00公里', '部分多云 (1,219米)', '本地:', '17:00、2019年8月20日周二', '协调世界时:', '09:00、2019年8月20日周二', '来源:', '周期文件', '趋势:', '无重要变化', '露点:', '23°C', '原始:', 'ZUUU 200900Z 00000MPS 9999 SCT040 27/23 Q1006 NOSIG', '下午5:00', '27.0°C', '1,006毫巴', '每小时0公里', '10.00公里', '部分多云 (1,219米)', '本地:', '17:00、2019年8月20日周二', '协调世界时:', '09:00、2019年8月20日周二', '来源:', 'USAF 每小时地面观测', '报告类型:', 'METAR 航空例行天气报告', '露点:', '23.0°C', '下午6:00', '27°C', '1,006毫巴', '每小时3.60公里', '10.00公里', '部分多云 (1,219米)', '本地:', '18:00、2019年8月20日周二', '协调世界时:', '10:00、2019年8月20日周二', '来源:', '周期文件', '趋势:', '无重要变化', '露点:', '23°C', '原始:', 'ZUUU 201000Z VRB01MPS 9999 SCT040 27/23 Q1006 NOSIG', '下午6:00', '27.0°C', '1,006毫巴', '每小时3.60公里', '10.00公里', '部分多云 (1,219米)', '本地:', '18:00、2019年8月20日周二', '协调世界时:', '10:00、2019年8月20日周二', '来源:', 'USAF 每小时地面观测', '报告类型:', 'METAR 航空例行天气报告', '露点:', '23.0°C', '下午7:00', '27°C', '1,006毫巴', '每小时0公里', '10.00公里', '部分多云 (1,219米)', '本地:', '19:00、2019年8月20日周二', '协调世界时:', '11:00、2019年8月20日周二', '来源:', '周期文件', '趋势:', '无重要变化', '露点:', '23°C', '原始:', 'ZUUU 201100Z 00000MPS 9999 SCT040 27/23 Q1006 NOSIG', '下午7:00', '27.0°C', '1,006毫巴', '每小时0公里', '10.00公里', '部分多云 (1,219米)', '本地:', '19:00、2019年8月20日周二', '协调世界时:', '11:00、2019年8月20日周二', '来源:', 'USAF 每小时地面观测', '报告类型:', 'METAR 航空例行天气报告', '露点:', '23.0°C', '下午8:00', '27°C', '1,007毫巴', '每小时3.60公里', '10.00公里', '部分多云 (1,219米)', '本地:', '20:00、2019年8月20日周二', '协调世界时:', '12:00、2019年8月20日周二', '来源:', '周期文件', '趋势:', '无重要变化', '露点:', '23°C', '原始:', 'ZUUU 201200Z VRB01MPS 9999 SCT040 27/23 Q1007 NOSIG', '下午8:00', '27.0°C', '1,007毫巴', '每小时3.60公里', '10.00公里', '部分多云 (1,219米)', '本地:', '20:00、2019年8月20日周二', '协调世界时:', '12:00、2019年8月20日周二', '来源:', 'USAF 每小时地面观测', '报告类型:', 'METAR 航空例行天气报告', '露点:', '23.0°C', '下午9:00', '27°C', '1,007毫巴', '每小时3.60公里', '10.00公里', '部分多云 (1,524米)', '本地:', '21:00、2019年8月20日周二', '协调世界时:', '13:00、2019年8月20日周二', '来源:', '周期文件', '趋势:', '无重要变化', '露点:', '23°C', '原始:', 'ZUUU 201300Z VRB01MPS 9999 SCT050 27/23 Q1007 NOSIG', '下午9:00', '27.0°C', '1,007毫巴', '每小时3.60公里', '10.00公里', '部分多云 (1,524米)', '本地:', '21:00、2019年8月20日周二', '协调世界时:', '13:00、2019年8月20日周二', '来源:', 'USAF 每小时地面观测', '报告类型:', 'METAR 航空例行天气报告', '露点:', '23.0°C', '下午10:00', '26°C', '1,008毫巴', '每小时3.60公里, 西', '10.00公里', '部分多云 (1,524米)', '本地:', '22:00、2019年8月20日周二', '协调世界时:', '14:00、2019年8月20日周二', '来源:', '周期文件', '趋势:', '无重要变化', '露点:', '23°C', '原始:', 'ZUUU 201400Z 29001MPS 9999 SCT050 26/23 Q1008 NOSIG', '下午10:00', '26.0°C', '1,008毫巴', '每小时3.60公里, 西', '10.00公里', '部分多云 (1,524米)', '本地:', '22:00、2019年8月20日周二', '协调世界时:', '14:00、2019年8月20日周二', '来源:', 'USAF 每小时地面观测', '报告类型:', 'METAR 航空例行天气报告', '露点:', '23.0°C', '下午11:00', '26°C', '1,008毫巴', '每小时0公里', '10.00公里', '部分多云 (1,524米)', '本地:', '23:00、2019年8月20日周二', '协调世界时:', '15:00、2019年8月20日周二', '来源:', '周期文件', '趋势:', '无重要变化', '露点:', '22°C', '原始:', 'ZUUU 201500Z 00000MPS 9999 SCT050 26/22 Q1008 NOSIG', '下午11:00', '26.0°C', '1,008毫巴', '每小时0公里', '10.00公里', '部分多云 (1,524米)', '本地:', '23:00、2019年8月20日周二', '协调世界时:', '15:00、2019年8月20日周二', '来源:', 'USAF 每小时地面观测', '报告类型:', 'METAR 航空例行天气报告', '露点:', '22.0°C']