['Showers of Light Rain', '-SHRA、IWC80', 'Showers of Light Rain', '-SHRA、IWC80', 'Showers of Light Rain', '-SHRA、IWC80', 'Showers of Light Rain', '-SHRA、IWC80', 'Showers of Light Rain', '-SHRA、IWC80', 'Showers of Light Rain', '-SHRA、IWC80', 'Showers of Light Rain', '-SHRA、IWC80', 'Showers of Light Rain', '-SHRA、IWC80', 'Showers of Light Rain', '-SHRA、IWC80', 'Showers of Light Rain', '-SHRA、IWC80', '上午12:00', '14°C', '1,018毫巴', '每小时7.20公里, 北', '10.00公里', '部分多云 (914米)', '本地:', '00:00、2019年5月8日周三', '协调世界时:', '16:00、2019年5月7日周二', '来源:', '周期文件', '趋势:', '无重要变化', '露点:', '13°C', '其他云层:', '大部分晴天 (305米)、大部分晴天 (914米)', '天气:', 'Showers of Light Rain', '原始:', 'ZUUU 071600Z 35002MPS 320V040 9999 -SHRA FEW010 FEW030TCU SCT030 14/13 Q1018 NOSIG', '上午12:00', '14.0°C', '1,018毫巴', '每小时7.20公里, 北', '10.00公里', '部分多云 (914米)', '本地:', '00:00、2019年5月8日周三', '协调世界时:', '16:00、2019年5月7日周二', '来源:', 'USAF 每小时地面观测', '报告类型:', 'METAR 航空例行天气报告', '露点:', '13.0°C', '其他云层:', '大部分晴天 (305米)、大部分晴天 (914米)', '天气:', 'Showers of Light Rain', '上午1:00', '14°C', '1,017毫巴', '每小时3.60公里', '10.00公里', '部分多云 (914米)', '本地:', '01:00、2019年5月8日周三', '协调世界时:', '17:00、2019年5月7日周二', '来源:', '周期文件', '趋势:', '无重要变化', '露点:', '13°C', '其他云层:', '大部分晴天 (305米)、大部分晴天 (914米)', '天气:', 'Showers of Light Rain', '原始:', 'ZUUU 071700Z VRB01MPS 9999 -SHRA FEW010 FEW030TCU SCT030 14/13 Q1017 NOSIG', '上午1:00', '14.0°C', '1,017毫巴', '每小时3.60公里', '10.00公里', '部分多云 (914米)', '本地:', '01:00、2019年5月8日周三', '协调世界时:', '17:00、2019年5月7日周二', '来源:', 'USAF 每小时地面观测', '报告类型:', 'METAR 航空例行天气报告', '露点:', '13.0°C', '其他云层:', '大部分晴天 (305米)、大部分晴天 (914米)', '天气:', 'Showers of Light Rain', '上午2:00', '14°C', '1,017毫巴', '每小时7.20公里, 北', '10.00公里', '部分多云 (914米)', '本地:', '02:00、2019年5月8日周三', '协调世界时:', '18:00、2019年5月7日周二', '来源:', '周期文件', '趋势:', '无重要变化', '露点:', '13°C', '其他云层:', '大部分晴天 (305米)、大部分晴天 (914米)', '天气:', 'Showers of Light Rain', '原始:', 'ZUUU 071800Z 36002MPS 330V040 9999 -SHRA FEW010 FEW030TCU SCT030 14/13 Q1017 NOSIG', '上午2:00', '14.0°C', '1,017毫巴', '每小时7.20公里, 北', '10.00公里', '部分多云 (914米)', '本地:', '02:00、2019年5月8日周三', '协调世界时:', '18:00、2019年5月7日周二', '来源:', 'USAF 每小时地面观测', '报告类型:', 'METAR 航空例行天气报告', '露点:', '13.0°C', '其他云层:', '大部分晴天 (305米)、大部分晴天 (914米)', '天气:', 'Showers of Light Rain', '上午3:00', '14°C', '1,016毫巴', '每小时7.20公里, 东北', '10.00公里', '部分多云 (1,219米)', '本地:', '03:00、2019年5月8日周三', '协调世界时:', '19:00、2019年5月7日周二', '来源:', '周期文件', '趋势:', '无重要变化', '露点:', '13°C', '其他云层:', '大部分晴天 (305米)', '原始:', 'ZUUU 071900Z 06002MPS 030V100 9999 FEW010 SCT040 14/13 Q1016 NOSIG', '上午3:00', '14.0°C', '1,016毫巴', '每小时7.20公里, 东北', '10.00公里', '部分多云 (1,219米)', '本地:', '03:00、2019年5月8日周三', '协调世界时:', '19:00、2019年5月7日周二', '来源:', 'USAF 每小时地面观测', '报告类型:', 'METAR 航空例行天气报告', '露点:', '13.0°C', '其他云层:', '大部分晴天 (305米)', '上午4:00', '14°C', '1,017毫巴', '每小时3.60公里', '10.00公里', '部分多云 (1,524米)', '本地:', '04:00、2019年5月8日周三', '协调世界时:', '20:00、2019年5月7日周二', '来源:', '周期文件', '趋势:', '无重要变化', '露点:', '13°C', '其他云层:', '大部分晴天 (305米)', '原始:', 'ZUUU 072000Z VRB01MPS 9999 FEW010 SCT050 14/13 Q1017 NOSIG', '上午4:00', '14.0°C', '1,017毫巴', '每小时3.60公里', '10.00公里', '部分多云 (1,524米)', '本地:', '04:00、2019年5月8日周三', '协调世界时:', '20:00、2019年5月7日周二', '来源:', 'USAF 每小时地面观测', '报告类型:', 'METAR 航空例行天气报告', '露点:', '13.0°C', '其他云层:', '大部分晴天 (305米)', '上午5:00', '13°C', '1,016毫巴', '每小时0公里', '≥ 10.00公里', '晴空万里', '本地:', '05:00、2019年5月8日周三', '协调世界时:', '21:00、2019年5月7日周二', '来源:', '周期文件', '趋势:', '无重要变化', '露点:', '13°C', '晴空万里:', '真', '原始:', 'ZUUU 072100Z 00000MPS CAVOK 13/13 Q1016 NOSIG', '上午5:00', '13.0°C', '1,016毫巴', '每小时0公里', '-', '晴空万里', '本地:', '05:00、2019年5月8日周三', '协调世界时:', '21:00、2019年5月7日周二', '来源:', 'USAF 每小时地面观测', '报告类型:', 'METAR 航空例行天气报告', '露点:', '13.0°C', '晴空万里:', '真', '上午6:00', '14°C', '1,016毫巴', '每小时0公里', '≥ 10.00公里', '晴空万里', '本地:', '06:00、2019年5月8日周三', '协调世界时:', '22:00、2019年5月7日周二', '来源:', '周期文件', '趋势:', '无重要变化', '露点:', '13°C', '晴空万里:', '真', '原始:', 'ZUUU 072200Z 00000MPS CAVOK 14/13 Q1016 NOSIG', '上午6:00', '14.0°C', '1,016毫巴', '每小时0公里', '-', '晴空万里', '本地:', '06:00、2019年5月8日周三', '协调世界时:', '22:00、2019年5月7日周二', '来源:', 'USAF 每小时地面观测', '报告类型:', 'METAR 航空例行天气报告', '露点:', '13.0°C', '晴空万里:', '真', '上午7:00', '14°C', '1,016毫巴', '每小时0公里', '≥ 10.00公里', '晴空万里', '本地:', '07:00、2019年5月8日周三', '协调世界时:', '23:00、2019年5月7日周二', '来源:', '周期文件', '趋势:', '无重要变化', '露点:', '13°C', '晴空万里:', '真', '原始:', 'ZUUU 072300Z 00000MPS CAVOK 14/13 Q1016 NOSIG', '上午7:00', '14.0°C', '1,016毫巴', '每小时0公里', '-', '晴空万里', '本地:', '07:00、2019年5月8日周三', '协调世界时:', '23:00、2019年5月7日周二', '来源:', 'USAF 每小时地面观测', '报告类型:', 'METAR 航空例行天气报告', '露点:', '13.0°C', '晴空万里:', '真', '上午8:00', '14°C', '1,016毫巴', '每小时7.20公里, 西南', '10.00公里', '部分多云 (1,524米)', '本地:', '08:00、2019年5月8日周三', '协调世界时:', '00:00、2019年5月8日周三', '来源:', '周期文件', '趋势:', '无重要变化', '露点:', '14°C', '其他云层:', '大部分晴天 (274米)', '原始:', 'ZUUU 080000Z 23002MPS 9999 FEW009 SCT050 14/14 Q1016 NOSIG', '上午8:00', '14.0°C', '1,016毫巴', '每小时7.20公里, 西南', '10.00公里', '部分多云 (1,524米)', '本地:', '08:00、2019年5月8日周三', '协调世界时:', '00:00、2019年5月8日周三', '来源:', 'USAF 每小时地面观测', '报告类型:', 'METAR 航空例行天气报告', '露点:', '14.0°C', '其他云层:', '大部分晴天 (274米)', '上午9:00', '17°C', '1,016毫巴', '每小时0公里', '10.00公里', '部分多云 (610米)', '本地:', '09:00、2019年5月8日周三', '协调世界时:', '01:00、2019年5月8日周三', '来源:', '周期文件', '趋势:', '无重要变化', '露点:', '13°C', '原始:', 'ZUUU 080100Z 00000MPS 9999 SCT020 17/13 Q1016 NOSIG', '上午9:00', '17.0°C', '1,016毫巴', '每小时0公里', '10.00公里', '部分多云 (610米)', '本地:', '09:00、2019年5月8日周三', '协调世界时:', '01:00、2019年5月8日周三', '来源:', 'USAF 每小时地面观测', '报告类型:', 'METAR 航空例行天气报告', '露点:', '13.0°C', '上午10:00', '17°C', '1,016毫巴', '每小时0公里', '10.00公里', '部分多云 (610米)', '本地:', '10:00、2019年5月8日周三', '协调世界时:', '02:00、2019年5月8日周三', '来源:', '周期文件', '趋势:', '无重要变化', '露点:', '12°C', '原始:', 'ZUUU 080200Z 00000MPS 9999 SCT020 17/12 Q1016 NOSIG', '上午10:00', '17.0°C', '1,016毫巴', '每小时0公里', '10.00公里', '部分多云 (610米)', '本地:', '10:00、2019年5月8日周三', '协调世界时:', '02:00、2019年5月8日周三', '来源:', 'USAF 每小时地面观测', '报告类型:', 'METAR 航空例行天气报告', '露点:', '12.0°C', '上午11:00', '20°C', '1,016毫巴', '每小时3.60公里', '10.00公里', '大部分晴天 (792米)', '本地:', '11:00、2019年5月8日周三', '协调世界时:', '03:00、2019年5月8日周三', '来源:', '周期文件', '趋势:', '无重要变化', '露点:', '13°C', '原始:', 'ZUUU 080300Z VRB01MPS 9999 FEW026 20/13 Q1016 NOSIG', '上午11:00', '20.0°C', '1,016毫巴', '每小时3.60公里', '10.00公里', '大部分晴天 (792米)', '本地:', '11:00、2019年5月8日周三', '协调世界时:', '03:00、2019年5月8日周三', '来源:', 'USAF 每小时地面观测', '报告类型:', 'METAR 航空例行天气报告', '露点:', '13.0°C', '下午12:00', '20°C', '1,015毫巴', '每小时3.60公里', '10.00公里', '部分多云 (792米)', '本地:', '12:00、2019年5月8日周三', '协调世界时:', '04:00、2019年5月8日周三', '来源:', '周期文件', '趋势:', '无重要变化', '露点:', '12°C', '原始:', 'ZUUU 080400Z VRB01MPS 9999 SCT026 20/12 Q1015 NOSIG', '下午12:00', '20.0°C', '1,015毫巴', '每小时3.60公里', '10.00公里', '部分多云 (792米)', '本地:', '12:00、2019年5月8日周三', '协调世界时:', '04:00、2019年5月8日周三', '来源:', 'USAF 每小时地面观测', '报告类型:', 'METAR 航空例行天气报告', '露点:', '12.0°C', '下午1:00', '21°C', '1,015毫巴', '每小时3.60公里', '10.00公里', '大部分晴天 (792米)', '本地:', '13:00、2019年5月8日周三', '协调世界时:', '05:00、2019年5月8日周三', '来源:', '周期文件', '趋势:', '无重要变化', '露点:', '13°C', '原始:', 'ZUUU 080500Z VRB01MPS 9999 FEW026 21/13 Q1015 NOSIG', '下午1:00', '21.0°C', '1,015毫巴', '每小时3.60公里', '10.00公里', '大部分晴天 (792米)', '本地:', '13:00、2019年5月8日周三', '协调世界时:', '05:00、2019年5月8日周三', '来源:', 'USAF 每小时地面观测', '报告类型:', 'METAR 航空例行天气报告', '露点:', '13.0°C', '下午2:00', '21°C', '1,014毫巴', '每小时3.60公里', '10.00公里', '部分多云 (792米)', '本地:', '14:00、2019年5月8日周三', '协调世界时:', '06:00、2019年5月8日周三', '来源:', '周期文件', '趋势:', '无重要变化', '露点:', '14°C', '原始:', 'ZUUU 080600Z VRB01MPS 9999 SCT026 21/14 Q1014 NOSIG', '下午2:00', '21.0°C', '1,014毫巴', '每小时3.60公里', '10.00公里', '部分多云 (792米)', '本地:', '14:00、2019年5月8日周三', '协调世界时:', '06:00、2019年5月8日周三', '来源:', 'USAF 每小时地面观测', '报告类型:', 'METAR 航空例行天气报告', '露点:', '14.0°C', '下午3:00', '21°C', '1,013毫巴', '每小时7.20公里, 西南', '10.00公里', '部分多云 (1,006米)', '本地:', '15:00、2019年5月8日周三', '协调世界时:', '07:00、2019年5月8日周三', '来源:', '周期文件', '趋势:', '无重要变化', '露点:', '13°C', '原始:', 'ZUUU 080700Z 24002MPS 190V300 9999 SCT033 21/13 Q1013 NOSIG', '下午3:00', '21.0°C', '1,013毫巴', '每小时7.20公里, 西南', '10.00公里', '部分多云 (1,006米)', '本地:', '15:00、2019年5月8日周三', '协调世界时:', '07:00、2019年5月8日周三', '来源:', 'USAF 每小时地面观测', '报告类型:', 'METAR 航空例行天气报告', '露点:', '13.0°C', '下午4:00', '21°C', '1,012毫巴', '每小时3.60公里', '10.00公里', '部分多云 (1,219米)', '本地:', '16:00、2019年5月8日周三', '协调世界时:', '08:00、2019年5月8日周三', '来源:', '周期文件', '趋势:', '无重要变化', '露点:', '13°C', '原始:', 'ZUUU 080800Z VRB01MPS 9999 SCT040 21/13 Q1012 NOSIG', '下午4:00', '21.0°C', '1,012毫巴', '每小时3.60公里', '10.00公里', '部分多云 (1,219米)', '本地:', '16:00、2019年5月8日周三', '协调世界时:', '08:00、2019年5月8日周三', '来源:', 'USAF 每小时地面观测', '报告类型:', 'METAR 航空例行天气报告', '露点:', '13.0°C', '下午5:00', '20°C', '1,012毫巴', '每小时10.8公里, 西南', '10.00公里', '部分多云 (1,219米)', '本地:', '17:00、2019年5月8日周三', '协调世界时:', '09:00、2019年5月8日周三', '来源:', '周期文件', '趋势:', '无重要变化', '露点:', '13°C', '天气:', 'Showers of Light Rain', '原始:', 'ZUUU 080900Z 21003MPS 9999 -SHRA SCT040 20/13 Q1012 NOSIG', '下午5:00', '20.0°C', '1,012毫巴', '每小时10.8公里, 西南', '10.00公里', '部分多云 (1,219米)', '本地:', '17:00、2019年5月8日周三', '协调世界时:', '09:00、2019年5月8日周三', '来源:', 'USAF 每小时地面观测', '报告类型:', 'METAR 航空例行天气报告', '露点:', '13.0°C', '天气:', 'Showers of Light Rain', '下午6:00', '19°C', '1,012毫巴', '每小时0公里', '10.00公里', '部分多云 (1,219米)', '本地:', '18:00、2019年5月8日周三', '协调世界时:', '10:00、2019年5月8日周三', '来源:', '周期文件', '趋势:', '无重要变化', '露点:', '14°C', '天气:', 'Showers of Light Rain', '原始:', 'ZUUU 081000Z 00000MPS 9999 -SHRA SCT040 19/14 Q1012 NOSIG', '下午6:00', '19.0°C', '1,012毫巴', '每小时0公里', '10.00公里', '部分多云 (1,219米)', '本地:', '18:00、2019年5月8日周三', '协调世界时:', '10:00、2019年5月8日周三', '来源:', 'USAF 每小时地面观测', '报告类型:', 'METAR 航空例行天气报告', '露点:', '14.0°C', '天气:', 'Showers of Light Rain', '下午7:00', '19°C', '1,012毫巴', '每小时0公里', '10.00公里', '部分多云 (1,219米)', '本地:', '19:00、2019年5月8日周三', '协调世界时:', '11:00、2019年5月8日周三', '来源:', '周期文件', '趋势:', '无重要变化', '露点:', '15°C', '天气:', 'Showers of Light Rain', '原始:', 'ZUUU 081100Z 00000MPS 9999 -SHRA SCT040 19/15 Q1012 NOSIG', '下午7:00', '19.0°C', '1,012毫巴', '每小时0公里', '10.00公里', '部分多云 (1,219米)', '本地:', '19:00、2019年5月8日周三', '协调世界时:', '11:00、2019年5月8日周三', '来源:', 'USAF 每小时地面观测', '报告类型:', 'METAR 航空例行天气报告', '露点:', '15.0°C', '天气:', 'Showers of Light Rain', '下午8:00', '18°C', '1,013毫巴', '每小时3.60公里, 西', '10.00公里', '部分多云 (1,219米)', '本地:', '20:00、2019年5月8日周三', '协调世界时:', '12:00、2019年5月8日周三', '来源:', '周期文件', '趋势:', '无重要变化', '露点:', '16°C', '天气:', 'Showers of Light Rain', '原始:', 'ZUUU 081200Z 29001MPS 9999 -SHRA SCT040 18/16 Q1013 NOSIG', '下午8:00', '18.0°C', '1,013毫巴', '每小时3.60公里, 西', '10.00公里', '部分多云 (1,219米)', '本地:', '20:00、2019年5月8日周三', '协调世界时:', '12:00、2019年5月8日周三', '来源:', 'USAF 每小时地面观测', '报告类型:', 'METAR 航空例行天气报告', '露点:', '16.0°C', '天气:', 'Showers of Light Rain', '下午9:00', '17°C', '1,014毫巴', '每小时7.20公里, 西', '10.00公里', '部分多云 (1,219米)', '本地:', '21:00、2019年5月8日周三', '协调世界时:', '13:00、2019年5月8日周三', '来源:', '周期文件', '趋势:', '无重要变化', '露点:', '15°C', '天气:', 'Showers of Light Rain', '原始:', 'ZUUU 081300Z 29002MPS 250V330 9999 -SHRA SCT040 17/15 Q1014 NOSIG', '下午9:00', '17.0°C', '1,014毫巴', '每小时7.20公里, 西', '10.00公里', '部分多云 (1,219米)', '本地:', '21:00、2019年5月8日周三', '协调世界时:', '13:00、2019年5月8日周三', '来源:', 'USAF 每小时地面观测', '报告类型:', 'METAR 航空例行天气报告', '露点:', '15.0°C', '天气:', 'Showers of Light Rain', '下午10:00', '17°C', '1,016毫巴', '每小时7.20公里, 西', '8.00公里', '部分多云 (1,006米)', '本地:', '22:00、2019年5月8日周三', '协调世界时:', '14:00、2019年5月8日周三', '来源:', '周期文件', '趋势:', '无重要变化', '露点:', '15°C', '天气:', 'Showers of Light Rain', '原始:', 'ZUUU 081400Z 28002MPS 240V340 8000 -SHRA SCT033 17/15 Q1016 NOSIG', '下午10:00', '17.0°C', '1,016毫巴', '每小时7.20公里, 西', '8.00公里', '部分多云 (1,006米)', '本地:', '22:00、2019年5月8日周三', '协调世界时:', '14:00、2019年5月8日周三', '来源:', 'USAF 每小时地面观测', '报告类型:', 'METAR 航空例行天气报告', '露点:', '15.0°C', '天气:', 'Showers of Light Rain', '下午11:00', '16°C', '1,017毫巴', '每小时10.8公里, 西', '7.00公里', '部分多云 (1,006米)', '本地:', '23:00、2019年5月8日周三', '协调世界时:', '15:00、2019年5月8日周三', '来源:', '周期文件', '趋势:', '无重要变化', '露点:', '15°C', '天气:', 'Showers of Light Rain', '原始:', 'ZUUU 081500Z 29003MPS 230V330 7000 -SHRA SCT033 16/15 Q1017 NOSIG', '下午11:00', '16.0°C', '1,017毫巴', '每小时10.8公里, 西', '7.00公里', '部分多云 (1,006米)', '本地:', '23:00、2019年5月8日周三', '协调世界时:', '15:00、2019年5月8日周三', '来源:', 'USAF 每小时地面观测', '报告类型:', 'METAR 航空例行天气报告', '露点:', '15.0°C', '天气:', 'Showers of Light Rain']