['Mist', 'BR、IWC10', 'Mist', 'BR、IWC10', 'Mist', 'BR、IWC10', 'Mist', 'BR、IWC10', 'Mist', 'BR、IWC10', 'Mist', 'BR、IWC10', 'Showers of Light Rain、Mist', '-SHRA、IWC80、BR、IWC10', 'Showers of Light Rain、Mist', '-SHRA、IWC80、BR、IWC10', 'Showers of Light Rain、Mist', '-SHRA、IWC80、BR、IWC10', 'Showers of Light Rain、Mist', '-SHRA、IWC80、BR、IWC10', 'Mist', 'BR、IWC10', 'Showers of Light Rain、Mist', '-SHRA、IWC80、BR、IWC10', 'Showers of Light Rain、Mist', '-SHRA、IWC80、BR、IWC10', 'Mist', 'BR、IWC10', 'Showers of Light Rain、Mist', '-SHRA、IWC80、BR、IWC10', 'Showers of Light Rain、Mist', '-SHRA、IWC80、BR、IWC10', 'Mist', 'BR、IWC10', 'Mist', 'BR、IWC10', '上午12:00', '21°C', '1,016毫巴', '每小时0公里', '4.00公里', '部分多云 (1,219米)', '本地:', '00:00、2019年9月2日周一', '协调世界时:', '16:00、2019年9月1日周日', '来源:', '周期文件', '趋势:', '无重要变化', '露点:', '20°C', '天气:', 'Mist', '原始:', 'ZUUU 011600Z 00000MPS 4000 BR SCT040 21/20 Q1016 NOSIG', '上午12:00', '21.0°C', '1,016毫巴', '每小时0公里', '4.00公里', '部分多云 (1,219米)', '本地:', '00:00、2019年9月2日周一', '协调世界时:', '16:00、2019年9月1日周日', '来源:', 'USAF 每小时地面观测', '报告类型:', 'METAR 航空例行天气报告', '露点:', '20.0°C', '天气:', 'Mist', '上午1:00', '21°C', '1,016毫巴', '每小时0公里', '4.00公里', '部分多云 (1,219米)', '本地:', '01:00、2019年9月2日周一', '协调世界时:', '17:00、2019年9月1日周日', '来源:', '周期文件', '趋势:', '无重要变化', '露点:', '20°C', '天气:', 'Mist', '原始:', 'ZUUU 011700Z 00000MPS 4000 BR SCT040 21/20 Q1016 NOSIG', '上午1:00', '21.0°C', '1,016毫巴', '每小时0公里', '4.00公里', '部分多云 (1,219米)', '本地:', '01:00、2019年9月2日周一', '协调世界时:', '17:00、2019年9月1日周日', '来源:', 'USAF 每小时地面观测', '报告类型:', 'METAR 航空例行天气报告', '露点:', '20.0°C', '天气:', 'Mist', '上午2:00', '21°C', '1,016毫巴', '每小时3.60公里', '4.00公里', '部分多云 (1,524米)', '本地:', '02:00、2019年9月2日周一', '协调世界时:', '18:00、2019年9月1日周日', '来源:', '周期文件', '趋势:', '无重要变化', '露点:', '20°C', '天气:', 'Mist', '原始:', 'ZUUU 011800Z VRB01MPS 4000 BR SCT050 21/20 Q1016 NOSIG', '上午2:00', '21.0°C', '1,016毫巴', '每小时3.60公里', '4.00公里', '部分多云 (1,524米)', '本地:', '02:00、2019年9月2日周一', '协调世界时:', '18:00、2019年9月1日周日', '来源:', 'USAF 每小时地面观测', '报告类型:', 'METAR 航空例行天气报告', '露点:', '20.0°C', '天气:', 'Mist', '上午3:00', '21°C', '1,016毫巴', '每小时0公里', '3.80公里', '部分多云 (1,524米)', '本地:', '03:00、2019年9月2日周一', '协调世界时:', '19:00、2019年9月1日周日', '来源:', '周期文件', '趋势:', '无重要变化', '露点:', '20°C', '天气:', 'Mist', '原始:', 'ZUUU 011900Z 00000MPS 3800 BR SCT050 21/20 Q1016 NOSIG', '上午3:00', '21.0°C', '1,016毫巴', '每小时0公里', '3.80公里', '部分多云 (1,524米)', '本地:', '03:00、2019年9月2日周一', '协调世界时:', '19:00、2019年9月1日周日', '来源:', 'USAF 每小时地面观测', '报告类型:', 'METAR 航空例行天气报告', '露点:', '20.0°C', '天气:', 'Mist', '上午4:00', '21°C', '1,015毫巴', '每小时0公里', '3.60公里', '部分多云 (1,524米)', '本地:', '04:00、2019年9月2日周一', '协调世界时:', '20:00、2019年9月1日周日', '来源:', '周期文件', '趋势:', '无重要变化', '露点:', '20°C', '其他云层:', '大部分晴天 (1,006米)', '天气:', 'Mist', '原始:', 'ZUUU 012000Z 00000MPS 3600 BR FEW033 SCT050 21/20 Q1015 NOSIG', '上午4:00', '21.0°C', '1,015毫巴', '每小时0公里', '3.60公里', '部分多云 (1,524米)', '本地:', '04:00、2019年9月2日周一', '协调世界时:', '20:00、2019年9月1日周日', '来源:', 'USAF 每小时地面观测', '报告类型:', 'METAR 航空例行天气报告', '露点:', '20.0°C', '其他云层:', '大部分晴天 (1,006米)', '天气:', 'Mist', '上午5:00', '22°C', '1,015毫巴', '每小时0公里', '3.50公里', '部分多云 (1,219米)', '本地:', '05:00、2019年9月2日周一', '协调世界时:', '21:00、2019年9月1日周日', '来源:', '周期文件', '趋势:', '变化为', '露点:', '20°C', '其他云层:', '大部分晴天 (701米)', '天气:', 'Mist、Mist', '原始:', 'ZUUU 012100Z 00000MPS 3500 BR FEW023 SCT040 22/20 Q1015 BECMG TL2230 2700 BR', '上午5:00', '22.0°C', '1,015毫巴', '每小时0公里', '3.50公里', '部分多云 (1,219米)', '本地:', '05:00、2019年9月2日周一', '协调世界时:', '21:00、2019年9月1日周日', '来源:', 'USAF 每小时地面观测', '报告类型:', 'METAR 航空例行天气报告', '露点:', '20.0°C', '其他云层:', '大部分晴天 (701米)', '天气:', 'Mist', '上午6:00', '21°C', '1,015毫巴', '每小时7.20公里, 北', '2.70公里', '部分多云 (701米)', '本地:', '06:00、2019年9月2日周一', '协调世界时:', '22:00、2019年9月1日周日', '来源:', '周期文件', '趋势:', '无重要变化', '露点:', '19°C', '其他云层:', '大部分晴天 (274米)', '天气:', 'Showers of Light Rain、Mist', '原始:', 'ZUUU 012200Z 36002MPS 330V030 2700 -SHRA BR FEW009 SCT023 21/19 Q1015 NOSIG', '上午6:00', '21.0°C', '1,015毫巴', '每小时7.20公里, 北', '2.70公里', '部分多云 (701米)', '本地:', '06:00、2019年9月2日周一', '协调世界时:', '22:00、2019年9月1日周日', '来源:', 'USAF 每小时地面观测', '报告类型:', 'METAR 航空例行天气报告', '露点:', '19.0°C', '其他云层:', '大部分晴天 (274米)', '天气:', 'Mist、Showers of Light Rain', '上午7:00', '21°C', '1,016毫巴', '每小时3.60公里', '1.40公里', '部分多云 (701米)', '本地:', '07:00、2019年9月2日周一', '协调世界时:', '23:00、2019年9月1日周日', '来源:', '周期文件', '趋势:', '变化为', '露点:', '20°C', '其他云层:', '大部分晴天 (183米)', '天气:', 'Showers of Light Rain、Mist', '原始:', 'ZUUU 012300Z VRB01MPS 1400 R02L/1600N R02R/1500D -SHRA BR FEW006 SCT023 21/20 Q1016 BECMG TL2400 1500', '上午7:00', '21.0°C', '1,016毫巴', '每小时3.60公里', '1.40公里', '部分多云 (701米)', '本地:', '07:00、2019年9月2日周一', '协调世界时:', '23:00、2019年9月1日周日', '来源:', 'USAF 每小时地面观测', '报告类型:', 'METAR 航空例行天气报告', '露点:', '20.0°C', '其他云层:', '大部分晴天 (183米)', '天气:', 'Mist、Showers of Light Rain', '上午8:00', '21°C', '1,016毫巴', '每小时7.20公里, 北', '1.70公里', '部分多云 (701米)', '本地:', '08:00、2019年9月2日周一', '协调世界时:', '00:00、2019年9月2日周一', '来源:', '周期文件', '趋势:', '变化为', '露点:', '19°C', '其他云层:', '大部分晴天 (183米)', '天气:', 'Showers of Light Rain、Mist', '原始:', 'ZUUU 020000Z 01002MPS 330V040 1700 R02L/P2000N R02R/1200N -SHRA BR FEW006 SCT023 21/19 Q1016 BECMG TL0150 3000', '上午8:00', '21.0°C', '1,016毫巴', '每小时7.20公里, 北', '1.70公里', '部分多云 (701米)', '本地:', '08:00、2019年9月2日周一', '协调世界时:', '00:00、2019年9月2日周一', '来源:', 'USAF 每小时地面观测', '报告类型:', 'METAR 航空例行天气报告', '露点:', '19.0°C', '其他云层:', '大部分晴天 (183米)', '天气:', 'Mist、Showers of Light Rain', '上午9:00', '21°C', '1,016毫巴', '每小时7.20公里, 北', '2.30公里', '部分多云 (701米)', '本地:', '09:00、2019年9月2日周一', '协调世界时:', '01:00、2019年9月2日周一', '来源:', '周期文件', '趋势:', '变化为', '露点:', '19°C', '其他云层:', '大部分晴天 (183米)', '天气:', 'Showers of Light Rain、Mist', '原始:', 'ZUUU 020100Z 01002MPS 330V030 2300 -SHRA BR FEW006 SCT023 21/19 Q1016 BECMG TL0230 3000', '上午9:00', '21.0°C', '1,016毫巴', '每小时7.20公里, 北', '2.30公里', '部分多云 (701米)', '本地:', '09:00、2019年9月2日周一', '协调世界时:', '01:00、2019年9月2日周一', '来源:', 'USAF 每小时地面观测', '报告类型:', 'METAR 航空例行天气报告', '露点:', '19.0°C', '其他云层:', '大部分晴天 (183米)', '天气:', 'Mist、Showers of Light Rain', '上午10:00', '21°C', '1,017毫巴', '每小时7.20公里, 北', '4.00公里', '大部分多云 (792米)', '本地:', '10:00、2019年9月2日周一', '协调世界时:', '02:00、2019年9月2日周一', '来源:', '周期文件', '趋势:', '无重要变化', '露点:', '20°C', '其他云层:', '大部分晴天 (305米)', '天气:', 'Mist', '原始:', 'ZUUU 020200Z 01002MPS 320V050 4000 BR FEW010 BKN026 21/20 Q1017 NOSIG', '上午10:00', '21.0°C', '1,017毫巴', '每小时7.20公里, 北', '4.00公里', '大部分多云 (792米)', '本地:', '10:00、2019年9月2日周一', '协调世界时:', '02:00、2019年9月2日周一', '来源:', 'USAF 每小时地面观测', '报告类型:', 'METAR 航空例行天气报告', '露点:', '20.0°C', '其他云层:', '大部分晴天 (305米)', '天气:', 'Mist', '上午11:00', '21°C', '1,017毫巴', '每小时7.20公里, 北', '4.00公里', '大部分多云 (792米)', '本地:', '11:00、2019年9月2日周一', '协调世界时:', '03:00、2019年9月2日周一', '来源:', '周期文件', '趋势:', '无重要变化', '露点:', '20°C', '其他云层:', '大部分晴天 (305米)', '天气:', 'Showers of Light Rain、Mist', '原始:', 'ZUUU 020300Z 35002MPS 320V030 4000 -SHRA BR FEW010 BKN026 21/20 Q1017 NOSIG', '上午11:00', '21.0°C', '1,017毫巴', '每小时7.20公里, 北', '4.00公里', '大部分多云 (792米)', '本地:', '11:00、2019年9月2日周一', '协调世界时:', '03:00、2019年9月2日周一', '来源:', 'USAF 每小时地面观测', '报告类型:', 'METAR 航空例行天气报告', '露点:', '20.0°C', '其他云层:', '大部分晴天 (305米)', '天气:', 'Mist、Showers of Light Rain', '下午12:00', '22°C', '1,017毫巴', '每小时7.20公里, 北', '3.50公里', '大部分多云 (792米)', '本地:', '12:00、2019年9月2日周一', '协调世界时:', '04:00、2019年9月2日周一', '来源:', '周期文件', '趋势:', '无重要变化', '露点:', '20°C', '其他云层:', '部分多云 (305米)', '天气:', 'Showers of Light Rain、Mist', '原始:', 'ZUUU 020400Z 36002MPS 330V040 3500 -SHRA BR SCT010 BKN026 22/20 Q1017 NOSIG', '下午12:00', '22.0°C', '1,017毫巴', '每小时7.20公里, 北', '3.50公里', '大部分多云 (792米)', '本地:', '12:00、2019年9月2日周一', '协调世界时:', '04:00、2019年9月2日周一', '来源:', 'USAF 每小时地面观测', '报告类型:', 'METAR 航空例行天气报告', '露点:', '20.0°C', '其他云层:', '部分多云 (305米)', '天气:', 'Mist、Showers of Light Rain', '下午1:00', '23°C', '1,016毫巴', '每小时3.60公里', '5.00公里', '大部分多云 (792米)', '本地:', '13:00、2019年9月2日周一', '协调世界时:', '05:00、2019年9月2日周一', '来源:', '周期文件', '趋势:', '无重要变化', '露点:', '20°C', '其他云层:', '大部分晴天 (305米)', '天气:', 'Mist', '原始:', 'ZUUU 020500Z VRB01MPS 5000 BR FEW010 BKN026 23/20 Q1016 NOSIG', '下午1:00', '23.0°C', '1,016毫巴', '每小时3.60公里', '5.00公里', '大部分多云 (792米)', '本地:', '13:00、2019年9月2日周一', '协调世界时:', '05:00、2019年9月2日周一', '来源:', 'USAF 每小时地面观测', '报告类型:', 'METAR 航空例行天气报告', '露点:', '20.0°C', '其他云层:', '大部分晴天 (305米)', '天气:', 'Mist', '下午2:00', '23°C', '1,015毫巴', '每小时7.20公里, 北', '8.00公里', '大部分多云 (792米)', '本地:', '14:00、2019年9月2日周一', '协调世界时:', '06:00、2019年9月2日周一', '来源:', '周期文件', '趋势:', '无重要变化', '露点:', '20°C', '其他云层:', '大部分晴天 (305米)', '原始:', 'ZUUU 020600Z 35002MPS 310V040 8000 FEW010 BKN026 23/20 Q1015 NOSIG', '下午2:00', '23.0°C', '1,015毫巴', '每小时7.20公里, 北', '8.00公里', '大部分多云 (792米)', '本地:', '14:00、2019年9月2日周一', '协调世界时:', '06:00、2019年9月2日周一', '来源:', 'USAF 每小时地面观测', '报告类型:', 'METAR 航空例行天气报告', '露点:', '20.0°C', '其他云层:', '大部分晴天 (305米)', '下午3:00', '24°C', '1,015毫巴', '每小时7.20公里, 北', '10.00公里', '大部分多云 (792米)', '本地:', '15:00、2019年9月2日周一', '协调世界时:', '07:00、2019年9月2日周一', '来源:', '周期文件', '趋势:', '无重要变化', '露点:', '20°C', '原始:', 'ZUUU 020700Z 36002MPS 300V050 9999 BKN026 24/20 Q1015 NOSIG', '下午3:00', '24.0°C', '1,015毫巴', '每小时7.20公里, 北', '10.00公里', '大部分多云 (792米)', '本地:', '15:00、2019年9月2日周一', '协调世界时:', '07:00、2019年9月2日周一', '来源:', 'USAF 每小时地面观测', '报告类型:', 'METAR 航空例行天气报告', '露点:', '20.0°C', '下午4:00', '24°C', '1,014毫巴', '每小时3.60公里', '10.00公里', '大部分多云 (792米)', '本地:', '16:00、2019年9月2日周一', '协调世界时:', '08:00、2019年9月2日周一', '来源:', '周期文件', '趋势:', '无重要变化', '露点:', '20°C', '原始:', 'ZUUU 020800Z VRB01MPS 9999 BKN026 24/20 Q1014 NOSIG', '下午4:00', '24.0°C', '1,014毫巴', '每小时3.60公里', '10.00公里', '大部分多云 (792米)', '本地:', '16:00、2019年9月2日周一', '协调世界时:', '08:00、2019年9月2日周一', '来源:', 'USAF 每小时地面观测', '报告类型:', 'METAR 航空例行天气报告', '露点:', '20.0°C', '下午5:00', '24°C', '1,014毫巴', '每小时7.20公里, 北', '10.00公里', '部分多云 (792米)', '本地:', '17:00、2019年9月2日周一', '协调世界时:', '09:00、2019年9月2日周一', '来源:', '周期文件', '趋势:', '无重要变化', '露点:', '20°C', '原始:', 'ZUUU 020900Z 01002MPS 9999 SCT026 24/20 Q1014 NOSIG', '下午5:00', '24.0°C', '1,014毫巴', '每小时7.20公里, 北', '10.00公里', '部分多云 (792米)', '本地:', '17:00、2019年9月2日周一', '协调世界时:', '09:00、2019年9月2日周一', '来源:', 'USAF 每小时地面观测', '报告类型:', 'METAR 航空例行天气报告', '露点:', '20.0°C', '下午6:00', '22°C', '1,014毫巴', '每小时7.20公里, 东南', '2.30公里', '部分多云 (274米)', '本地:', '18:00、2019年9月2日周一', '协调世界时:', '10:00、2019年9月2日周一', '来源:', '周期文件', '趋势:', '变化为', '露点:', '20°C', '其他云层:', '大部分晴天 (610米)、部分多云 (610米)', '天气:', 'Showers of Light Rain、Mist', '原始:', 'ZUUU 021000Z 13002MPS 040V200 2300 -SHRA BR SCT009 FEW020TCU SCT020 22/20 Q1014 BECMG TL1140 3000', '下午6:00', '22.0°C', '1,014毫巴', '每小时7.20公里, 东南', '2.30公里', '部分多云 (274米)', '本地:', '18:00、2019年9月2日周一', '协调世界时:', '10:00、2019年9月2日周一', '来源:', 'USAF 每小时地面观测', '报告类型:', 'METAR 航空例行天气报告', '露点:', '20.0°C', '其他云层:', '大部分晴天 (610米)、部分多云 (610米)', '天气:', 'Mist、Showers of Light Rain', '下午7:00', '22°C', '1,014毫巴', '每小时7.20公里, 北', '5.00公里', '部分多云 (274米)', '本地:', '19:00、2019年9月2日周一', '协调世界时:', '11:00、2019年9月2日周一', '来源:', '周期文件', '趋势:', '无重要变化', '露点:', '20°C', '其他云层:', '大部分晴天 (701米)、部分多云 (701米)', '天气:', 'Showers of Light Rain、Mist', '原始:', 'ZUUU 021100Z 01002MPS 5000 -SHRA BR SCT009 FEW023TCU SCT023 22/20 Q1014 NOSIG', '下午7:00', '22.0°C', '1,014毫巴', '每小时7.20公里, 北', '5.00公里', '部分多云 (274米)', '本地:', '19:00、2019年9月2日周一', '协调世界时:', '11:00、2019年9月2日周一', '来源:', 'USAF 每小时地面观测', '报告类型:', 'METAR 航空例行天气报告', '露点:', '20.0°C', '其他云层:', '大部分晴天 (701米)、部分多云 (701米)', '天气:', 'Mist、Showers of Light Rain', '下午8:00', '21°C', '1,015毫巴', '每小时10.8公里, 北', '5.00公里', '大部分多云 (914米)', '本地:', '20:00、2019年9月2日周一', '协调世界时:', '12:00、2019年9月2日周一', '来源:', '周期文件', '趋势:', '无重要变化', '露点:', '20°C', '其他云层:', '部分多云 (274米)', '天气:', 'Mist', '原始:', 'ZUUU 021200Z 01003MPS 340V040 5000 BR SCT009 BKN030 21/20 Q1015 NOSIG', '下午8:00', '21.0°C', '1,015毫巴', '每小时10.8公里, 北', '5.00公里', '大部分多云 (914米)', '本地:', '20:00、2019年9月2日周一', '协调世界时:', '12:00、2019年9月2日周一', '来源:', 'USAF 每小时地面观测', '报告类型:', 'METAR 航空例行天气报告', '露点:', '20.0°C', '其他云层:', '部分多云 (274米)', '天气:', 'Mist', '下午9:00', '21°C', '1,015毫巴', '每小时7.20公里, 北', '6.00公里', '大部分多云 (914米)', '本地:', '21:00、2019年9月2日周一', '协调世界时:', '13:00、2019年9月2日周一', '来源:', '周期文件', '趋势:', '无重要变化', '露点:', '19°C', '其他云层:', '部分多云 (274米)', '原始:', 'ZUUU 021300Z 01002MPS 6000 SCT009 BKN030 21/19 Q1015 NOSIG', '下午9:00', '21.0°C', '1,015毫巴', '每小时7.20公里, 北', '6.00公里', '大部分多云 (914米)', '本地:', '21:00、2019年9月2日周一', '协调世界时:', '13:00、2019年9月2日周一', '来源:', 'USAF 每小时地面观测', '报告类型:', 'METAR 航空例行天气报告', '露点:', '19.0°C', '其他云层:', '部分多云 (274米)', '下午10:00', '21°C', '1,016毫巴', '每小时7.20公里, 北', '6.00公里', '大部分多云 (914米)', '本地:', '22:00、2019年9月2日周一', '协调世界时:', '14:00、2019年9月2日周一', '来源:', '周期文件', '趋势:', '无重要变化', '露点:', '19°C', '其他云层:', '部分多云 (305米)', '原始:', 'ZUUU 021400Z 01002MPS 6000 SCT010 BKN030 21/19 Q1016 NOSIG', '下午10:00', '21.0°C', '1,016毫巴', '每小时7.20公里, 北', '6.00公里', '大部分多云 (914米)', '本地:', '22:00、2019年9月2日周一', '协调世界时:', '14:00、2019年9月2日周一', '来源:', 'USAF 每小时地面观测', '报告类型:', 'METAR 航空例行天气报告', '露点:', '19.0°C', '其他云层:', '部分多云 (305米)', '下午11:00', '21°C', '1,016毫巴', '每小时3.60公里', '5.00公里', '大部分多云 (914米)', '本地:', '23:00、2019年9月2日周一', '协调世界时:', '15:00、2019年9月2日周一', '来源:', '周期文件', '趋势:', '无重要变化', '露点:', '19°C', '其他云层:', '部分多云 (305米)', '天气:', 'Mist', '原始:', 'ZUUU 021500Z VRB01MPS 5000 BR SCT010 BKN030 21/19 Q1016 NOSIG', '下午11:00', '21.0°C', '1,016毫巴', '每小时3.60公里', '5.00公里', '大部分多云 (914米)', '本地:', '23:00、2019年9月2日周一', '协调世界时:', '15:00、2019年9月2日周一', '来源:', 'USAF 每小时地面观测', '报告类型:', 'METAR 航空例行天气报告', '露点:', '19.0°C', '其他云层:', '部分多云 (305米)', '天气:', 'Mist']