['Mist', 'BR、IWC10', 'Mist', 'BR、IWC10', 'Mist', 'BR、IWC10', 'Mist', 'BR、IWC10', 'Mist', 'BR', 'Mist', 'BR', 'Mist', 'BR、IWC10', 'Mist', 'BR、IWC10', 'Mist', 'BR、IWC10', 'Mist', 'BR、IWC10', 'Mist', 'BR、IWC10', 'Mist', 'BR、IWC10', 'Mist', 'BR、IWC10', 'Mist', 'BR、IWC10', 'Mist', 'BR、IWC10', 'Mist', 'BR、IWC10', 'Haze', 'HZ、IWC05', 'Mist', 'BR、IWC10', 'Mist', 'BR', 'Mist', 'BR', 'Mist', 'BR、IWC10', 'Light Rain、Mist', '-RA、IWC61、BR、IWC10', 'Light Rain、Mist', '-RA、IWC61、BR、IWC10', '上午12:00', '12°C', '1,018毫巴', '每小时7.20公里, 北', '5.00公里', '部分多云 (1,524米)', '本地:', '00:00、2019年11月23日周六', '协调世界时:', '16:00、2019年11月22日周五', '来源:', '周期文件', '趋势:', '无重要变化', '露点:', '9°C', '天气:', 'Mist', '原始:', 'ZUUU 221600Z 01002MPS 330V040 5000 BR SCT050 12/09 Q1018 NOSIG', '上午12:00', '12.0°C', '1,018毫巴', '每小时7.20公里, 北', '5.00公里', '部分多云 (1,524米)', '本地:', '00:00、2019年11月23日周六', '协调世界时:', '16:00、2019年11月22日周五', '来源:', 'USAF 每小时地面观测', '报告类型:', 'METAR 航空例行天气报告', '露点:', '9.0°C', '天气:', 'Mist', '上午1:00', '12°C', '1,018毫巴', '每小时7.20公里, 北', '5.00公里', '部分多云 (1,524米)', '本地:', '01:00、2019年11月23日周六', '协调世界时:', '17:00、2019年11月22日周五', '来源:', '周期文件', '趋势:', '无重要变化', '露点:', '9°C', '天气:', 'Mist', '原始:', 'ZUUU 221700Z 01002MPS 340V040 5000 BR SCT050 12/09 Q1018 NOSIG', '上午1:00', '12.0°C', '1,018毫巴', '每小时7.20公里, 北', '5.00公里', '部分多云 (1,524米)', '本地:', '01:00、2019年11月23日周六', '协调世界时:', '17:00、2019年11月22日周五', '来源:', 'USAF 每小时地面观测', '报告类型:', 'METAR 航空例行天气报告', '露点:', '9.0°C', '天气:', 'Mist', '上午2:00', '12°C', '1,018毫巴', '每小时7.20公里, 北', '4.50公里', '部分多云 (1,524米)', '本地:', '02:00、2019年11月23日周六', '协调世界时:', '18:00、2019年11月22日周五', '来源:', '周期文件', '趋势:', '无重要变化', '露点:', '10°C', '天气:', 'Mist', '原始:', 'ZUUU 221800Z 35002MPS 300V030 4500 BR SCT050 12/10 Q1018 NOSIG', '上午2:00', '12.0°C', '1,018毫巴', '每小时7.20公里, 北', '4.50公里', '部分多云 (1,524米)', '本地:', '02:00、2019年11月23日周六', '协调世界时:', '18:00、2019年11月22日周五', '来源:', 'USAF 每小时地面观测', '报告类型:', 'METAR 航空例行天气报告', '露点:', '10.0°C', '天气:', 'Mist', '上午3:00', '11°C', '1,019毫巴', '每小时7.20公里, 北', '4.50公里', '部分多云 (1,524米)', '本地:', '03:00、2019年11月23日周六', '协调世界时:', '19:00、2019年11月22日周五', '来源:', '周期文件', '趋势:', '无重要变化', '露点:', '10°C', '天气:', 'Mist', '原始:', 'ZUUU 221900Z 36002MPS 320V030 4500 BR SCT050 11/10 Q1019 NOSIG', '上午3:00', '11.0°C', '1,019毫巴', '每小时7.20公里, 北', '4.50公里', '部分多云 (1,524米)', '本地:', '03:00、2019年11月23日周六', '协调世界时:', '19:00、2019年11月22日周五', '来源:', 'USAF 每小时地面观测', '报告类型:', 'METAR 航空例行天气报告', '露点:', '10.0°C', '天气:', 'Mist', '上午4:00', '11°C', '1,018毫巴', '每小时3.60公里', '4.00公里', '部分多云 (1,219米)', '本地:', '04:00、2019年11月23日周六', '协调世界时:', '20:00、2019年11月22日周五', '来源:', '周期文件', '趋势:', '无重要变化', '露点:', '10°C', '天气:', 'Mist', '原始:', 'ZUUU 222000Z VRB01MPS 4000 BR SCT040 11/10 Q1018 NOSIG', '上午5:00', '11°C', '1,018毫巴', '每小时0公里', '4.00公里', '部分多云 (1,219米)', '本地:', '05:00、2019年11月23日周六', '协调世界时:', '21:00、2019年11月22日周五', '来源:', '周期文件', '趋势:', '无重要变化', '露点:', '10°C', '天气:', 'Mist', '原始:', 'ZUUU 222100Z 00000MPS 4000 BR SCT040 11/10 Q1018 NOSIG', '上午6:00', '11°C', '1,018毫巴', '每小时7.20公里, 西南', '4.00公里', '部分多云 (914米)', '本地:', '06:00、2019年11月23日周六', '协调世界时:', '22:00、2019年11月22日周五', '来源:', '周期文件', '趋势:', '无重要变化', '露点:', '10°C', '天气:', 'Mist', '原始:', 'ZUUU 222200Z 21002MPS 4000 BR SCT030 11/10 Q1018 NOSIG', '上午6:00', '11.0°C', '1,018毫巴', '每小时7.20公里, 西南', '4.00公里', '部分多云 (914米)', '本地:', '06:00、2019年11月23日周六', '协调世界时:', '22:00、2019年11月22日周五', '来源:', 'USAF 每小时地面观测', '报告类型:', 'METAR 航空例行天气报告', '露点:', '10.0°C', '天气:', 'Mist', '上午7:00', '11°C', '1,019毫巴', '每小时3.60公里', '3.70公里', '部分多云 (914米)', '本地:', '07:00、2019年11月23日周六', '协调世界时:', '23:00、2019年11月22日周五', '来源:', '周期文件', '趋势:', '无重要变化', '露点:', '10°C', '其他云层:', '大部分晴天 (366米)', '天气:', 'Mist', '原始:', 'ZUUU 222300Z VRB01MPS 3700 BR FEW012 SCT030 11/10 Q1019 NOSIG', '上午7:00', '11.0°C', '1,019毫巴', '每小时3.60公里', '3.70公里', '部分多云 (914米)', '本地:', '07:00、2019年11月23日周六', '协调世界时:', '23:00、2019年11月22日周五', '来源:', 'USAF 每小时地面观测', '报告类型:', 'METAR 航空例行天气报告', '露点:', '10.0°C', '其他云层:', '大部分晴天 (366米)', '天气:', 'Mist', '上午8:00', '11°C', '1,020毫巴', '每小时3.60公里, 西南', '2.30公里', '部分多云 (1,219米)', '本地:', '08:00、2019年11月23日周六', '协调世界时:', '00:00、2019年11月23日周六', '来源:', '周期文件', '趋势:', '变化为', '露点:', '10°C', '其他云层:', '大部分晴天 (488米)', '天气:', 'Mist', '原始:', 'ZUUU 230000Z 22001MPS 2300 BR FEW016 SCT040 11/10 Q1020 BECMG TL0140 3500', '上午8:00', '11.0°C', '1,020毫巴', '每小时3.60公里, 西南', '2.30公里', '部分多云 (1,219米)', '本地:', '08:00、2019年11月23日周六', '协调世界时:', '00:00、2019年11月23日周六', '来源:', 'USAF 每小时地面观测', '报告类型:', 'METAR 航空例行天气报告', '露点:', '10.0°C', '其他云层:', '大部分晴天 (488米)', '天气:', 'Mist', '上午9:00', '11°C', '1,020毫巴', '每小时3.60公里, 西南', '2.30公里', '部分多云 (1,219米)', '本地:', '09:00、2019年11月23日周六', '协调世界时:', '01:00、2019年11月23日周六', '来源:', '周期文件', '趋势:', '变化为', '露点:', '10°C', '天气:', 'Mist', '原始:', 'ZUUU 230100Z 22001MPS 2300 BR SCT040 11/10 Q1020 BECMG TL0240 3500', '上午9:00', '11.0°C', '1,020毫巴', '每小时3.60公里, 西南', '2.30公里', '部分多云 (1,219米)', '本地:', '09:00、2019年11月23日周六', '协调世界时:', '01:00、2019年11月23日周六', '来源:', 'USAF 每小时地面观测', '报告类型:', 'METAR 航空例行天气报告', '露点:', '10.0°C', '天气:', 'Mist', '上午10:00', '12°C', '1,020毫巴', '每小时3.60公里', '2.50公里', '部分多云 (1,524米)', '本地:', '10:00、2019年11月23日周六', '协调世界时:', '02:00、2019年11月23日周六', '来源:', '周期文件', '趋势:', '变化为', '露点:', '10°C', '其他云层:', '大部分晴天 (610米)', '天气:', 'Mist', '原始:', 'ZUUU 230200Z VRB01MPS 2500 BR FEW020 SCT050 12/10 Q1020 BECMG TL0240 3500', '上午10:00', '12.0°C', '1,020毫巴', '每小时3.60公里', '2.50公里', '部分多云 (1,524米)', '本地:', '10:00、2019年11月23日周六', '协调世界时:', '02:00、2019年11月23日周六', '来源:', 'USAF 每小时地面观测', '报告类型:', 'METAR 航空例行天气报告', '露点:', '10.0°C', '其他云层:', '大部分晴天 (610米)', '天气:', 'Mist', '上午11:00', '12°C', '1,020毫巴', '每小时7.20公里, 西南', '2.50公里', '部分多云 (1,524米)', '本地:', '11:00、2019年11月23日周六', '协调世界时:', '03:00、2019年11月23日周六', '来源:', '周期文件', '趋势:', '变化为', '露点:', '10°C', '其他云层:', '大部分晴天 (701米)', '天气:', 'Mist', '原始:', 'ZUUU 230300Z 22002MPS 180V270 2500 BR FEW023 SCT050 12/10 Q1020 BECMG TL0340 3500', '上午11:00', '12.0°C', '1,020毫巴', '每小时7.20公里, 西南', '2.50公里', '部分多云 (1,524米)', '本地:', '11:00、2019年11月23日周六', '协调世界时:', '03:00、2019年11月23日周六', '来源:', 'USAF 每小时地面观测', '报告类型:', 'METAR 航空例行天气报告', '露点:', '10.0°C', '其他云层:', '大部分晴天 (701米)', '天气:', 'Mist', '下午12:00', '13°C', '1,019毫巴', '每小时7.20公里, 西南', '3.00公里', '部分多云 (1,524米)', '本地:', '12:00、2019年11月23日周六', '协调世界时:', '04:00、2019年11月23日周六', '来源:', '周期文件', '趋势:', '无重要变化', '露点:', '10°C', '天气:', 'Mist', '原始:', 'ZUUU 230400Z 24002MPS 190V280 3000 BR SCT050 13/10 Q1019 NOSIG', '下午12:00', '13.0°C', '1,019毫巴', '每小时7.20公里, 西南', '3.00公里', '部分多云 (1,524米)', '本地:', '12:00、2019年11月23日周六', '协调世界时:', '04:00、2019年11月23日周六', '来源:', 'USAF 每小时地面观测', '报告类型:', 'METAR 航空例行天气报告', '露点:', '10.0°C', '天气:', 'Mist', '下午1:00', '14°C', '1,018毫巴', '每小时7.20公里, 西南', '3.50公里', '部分多云 (1,524米)', '本地:', '13:00、2019年11月23日周六', '协调世界时:', '05:00、2019年11月23日周六', '来源:', '周期文件', '趋势:', '无重要变化', '露点:', '10°C', '天气:', 'Mist', '原始:', 'ZUUU 230500Z 24002MPS 180V320 3500 BR SCT050 14/10 Q1018 NOSIG', '下午1:00', '14.0°C', '1,018毫巴', '每小时7.20公里, 西南', '3.50公里', '部分多云 (1,524米)', '本地:', '13:00、2019年11月23日周六', '协调世界时:', '05:00、2019年11月23日周六', '来源:', 'USAF 每小时地面观测', '报告类型:', 'METAR 航空例行天气报告', '露点:', '10.0°C', '天气:', 'Mist', '下午2:00', '14°C', '1,016毫巴', '每小时7.20公里, 西南', '4.00公里', '部分多云 (1,524米)', '本地:', '14:00、2019年11月23日周六', '协调世界时:', '06:00、2019年11月23日周六', '来源:', '周期文件', '趋势:', '无重要变化', '露点:', '10°C', '天气:', 'Mist', '原始:', 'ZUUU 230600Z 24002MPS 180V270 4000 BR SCT050 14/10 Q1016 NOSIG', '下午2:00', '14.0°C', '1,016毫巴', '每小时7.20公里, 西南', '4.00公里', '部分多云 (1,524米)', '本地:', '14:00、2019年11月23日周六', '协调世界时:', '06:00、2019年11月23日周六', '来源:', 'USAF 每小时地面观测', '报告类型:', 'METAR 航空例行天气报告', '露点:', '10.0°C', '天气:', 'Mist', '下午3:00', '15°C', '1,015毫巴', '每小时7.20公里, 南', '5.00公里', '大部分晴天 (1,524米)', '本地:', '15:00、2019年11月23日周六', '协调世界时:', '07:00、2019年11月23日周六', '来源:', '周期文件', '趋势:', '无重要变化', '露点:', '10°C', '天气:', 'Mist', '原始:', 'ZUUU 230700Z 19002MPS 140V240 5000 BR FEW050 15/10 Q1015 NOSIG', '下午3:00', '15.0°C', '1,015毫巴', '每小时7.20公里, 南', '5.00公里', '大部分晴天 (1,524米)', '本地:', '15:00、2019年11月23日周六', '协调世界时:', '07:00、2019年11月23日周六', '来源:', 'USAF 每小时地面观测', '报告类型:', 'METAR 航空例行天气报告', '露点:', '10.0°C', '天气:', 'Mist', '下午4:00', '15°C', '1,014毫巴', '每小时7.20公里, 西南', '5.00公里', '大部分晴天 (1,219米)', '本地:', '16:00、2019年11月23日周六', '协调世界时:', '08:00、2019年11月23日周六', '来源:', '周期文件', '趋势:', '无重要变化', '露点:', '9°C', '天气:', 'Haze', '原始:', 'ZUUU 230800Z 23002MPS 140V270 5000 HZ FEW040 15/09 Q1014 NOSIG', '下午4:00', '15.0°C', '1,014毫巴', '每小时7.20公里, 西南', '5.00公里', '大部分晴天 (1,219米)', '本地:', '16:00、2019年11月23日周六', '协调世界时:', '08:00、2019年11月23日周六', '来源:', 'USAF 每小时地面观测', '报告类型:', 'METAR 航空例行天气报告', '露点:', '9.0°C', '天气:', 'Haze', '下午5:00', '15°C', '1,014毫巴', '每小时7.20公里, 西南', '5.00公里', '大部分晴天 (1,219米)', '本地:', '17:00、2019年11月23日周六', '协调世界时:', '09:00、2019年11月23日周六', '来源:', '周期文件', '趋势:', '无重要变化', '露点:', '10°C', '天气:', 'Mist', '原始:', 'ZUUU 230900Z 22002MPS 140V240 5000 BR FEW040 15/10 Q1014 NOSIG', '下午5:00', '15.0°C', '1,014毫巴', '每小时7.20公里, 西南', '5.00公里', '大部分晴天 (1,219米)', '本地:', '17:00、2019年11月23日周六', '协调世界时:', '09:00、2019年11月23日周六', '来源:', 'USAF 每小时地面观测', '报告类型:', 'METAR 航空例行天气报告', '露点:', '10.0°C', '天气:', 'Mist', '下午6:00', '14°C', '1,015毫巴', '每小时3.60公里', '4.00公里', '部分多云 (1,219米)', '本地:', '18:00、2019年11月23日周六', '协调世界时:', '10:00、2019年11月23日周六', '来源:', '周期文件', '趋势:', '无重要变化', '露点:', '10°C', '天气:', 'Mist', '原始:', 'ZUUU 231000Z VRB01MPS 4000 BR SCT040 14/10 Q1015 NOSIG', '下午7:00', '13°C', '1,016毫巴', '每小时0公里', '6.00公里', '部分多云 (1,219米)', '本地:', '19:00、2019年11月23日周六', '协调世界时:', '11:00、2019年11月23日周六', '来源:', '周期文件', '趋势:', '无重要变化', '露点:', '10°C', '原始:', 'ZUUU 231100Z 00000MPS 6000 SCT040 13/10 Q1016 NOSIG', '下午8:00', '12°C', '1,017毫巴', '每小时0公里', '5.00公里', '部分多云 (1,219米)', '本地:', '20:00、2019年11月23日周六', '协调世界时:', '12:00、2019年11月23日周六', '来源:', '周期文件', '趋势:', '无重要变化', '露点:', '10°C', '天气:', 'Mist', '原始:', 'ZUUU 231200Z 00000MPS 5000 BR SCT040 12/10 Q1017 NOSIG', '下午9:00', '13°C', '1,018毫巴', '每小时0公里', '5.00公里', '部分多云 (1,219米)', '本地:', '21:00、2019年11月23日周六', '协调世界时:', '13:00、2019年11月23日周六', '来源:', '周期文件', '趋势:', '无重要变化', '露点:', '11°C', '天气:', 'Mist', '原始:', 'ZUUU 231300Z 00000MPS 5000 BR SCT040 13/11 Q1018 NOSIG', '下午9:00', '13.0°C', '1,018毫巴', '每小时0公里', '5.00公里', '部分多云 (1,219米)', '本地:', '21:00、2019年11月23日周六', '协调世界时:', '13:00、2019年11月23日周六', '来源:', 'USAF 每小时地面观测', '报告类型:', 'METAR 航空例行天气报告', '露点:', '11.0°C', '天气:', 'Mist', '下午10:00', '14°C', '1,019毫巴', '每小时3.60公里', '4.50公里', '部分多云 (1,219米)', '本地:', '22:00、2019年11月23日周六', '协调世界时:', '14:00、2019年11月23日周六', '来源:', '周期文件', '趋势:', '无重要变化', '露点:', '11°C', '其他云层:', '大部分晴天 (701米)', '天气:', 'Light Rain、Mist', '原始:', 'ZUUU 231400Z VRB01MPS 4500 -RA BR FEW023 SCT040 14/11 Q1019 NOSIG', '下午10:00', '14.0°C', '1,019毫巴', '每小时3.60公里', '4.50公里', '部分多云 (1,219米)', '本地:', '22:00、2019年11月23日周六', '协调世界时:', '14:00、2019年11月23日周六', '来源:', 'USAF 每小时地面观测', '报告类型:', 'METAR 航空例行天气报告', '露点:', '11.0°C', '其他云层:', '大部分晴天 (701米)', '天气:', 'Mist、Light Rain', '下午11:00', '12°C', '1,020毫巴', '每小时7.20公里, 北', '3.50公里', '部分多云 (1,219米)', '本地:', '23:00、2019年11月23日周六', '协调世界时:', '15:00、2019年11月23日周六', '来源:', '周期文件', '趋势:', '无重要变化', '露点:', '11°C', '其他云层:', '大部分晴天 (701米)', '天气:', 'Light Rain、Mist', '原始:', 'ZUUU 231500Z 36002MPS 330V030 3500 -RA BR FEW023 SCT040 12/11 Q1020 NOSIG', '下午11:00', '12.0°C', '1,020毫巴', '每小时7.20公里, 北', '3.50公里', '部分多云 (1,219米)', '本地:', '23:00、2019年11月23日周六', '协调世界时:', '15:00、2019年11月23日周六', '来源:', 'USAF 每小时地面观测', '报告类型:', 'METAR 航空例行天气报告', '露点:', '11.0°C', '其他云层:', '大部分晴天 (701米)', '天气:', 'Mist、Light Rain']