['Mist', 'BR、IWC10', 'Mist', 'BR、IWC10', 'Mist', 'BR、IWC10', 'Mist', 'BR、IWC10', 'Mist', 'BR、IWC10', 'Mist', 'BR、IWC10', 'Mist', 'BR、IWC10', 'Mist', 'BR、IWC10', 'Mist', 'BR、IWC10', 'Mist', 'BR、IWC10', 'Mist', 'BR、IWC10', 'Mist', 'BR、IWC10', 'Mist', 'BR、IWC10', 'Light Rain、Mist', '-RA、IWC61、BR、IWC10', 'Light Rain、Mist', '-RA、IWC61、BR、IWC10', 'Light Rain、Mist', '-RA、IWC61、BR、IWC10', 'Light Rain、Mist', '-RA、IWC61、BR、IWC10', 'Mist', 'BR、IWC10', 'Light Rain、Mist', '-RA、IWC61、BR、IWC10', 'Mist', 'BR、IWC10', 'Mist', 'BR、IWC10', 'Mist', 'BR、IWC10', 'Showers of Light Rain、Mist', '-SHRA、IWC80、BR、IWC10', 'Showers of Light Rain、Mist', '-SHRA、IWC80、BR、IWC10', '上午12:00', '14°C', '1,017毫巴', '每小时0公里', '3.50公里', '无重要云', '本地:', '00:00、2019年11月11日周一', '协调世界时:', '16:00、2019年11月10日周日', '来源:', '周期文件', '趋势:', '无重要变化', '露点:', '13°C', '天气:', 'Mist', '原始:', 'ZUUU 101600Z 00000MPS 3500 BR NSC 14/13 Q1017 NOSIG', '上午12:00', '14.0°C', '1,017毫巴', '每小时0公里', '3.50公里', '未检测到云', '本地:', '00:00、2019年11月11日周一', '协调世界时:', '16:00、2019年11月10日周日', '来源:', 'USAF 每小时地面观测', '报告类型:', 'METAR 航空例行天气报告', '露点:', '13.0°C', '天气:', 'Mist', '上午1:00', '15°C', '1,017毫巴', '每小时0公里', '4.00公里', '无重要云', '本地:', '01:00、2019年11月11日周一', '协调世界时:', '17:00、2019年11月10日周日', '来源:', '周期文件', '趋势:', '无重要变化', '露点:', '14°C', '天气:', 'Mist', '原始:', 'ZUUU 101700Z 00000MPS 4000 BR NSC 15/14 Q1017 NOSIG', '上午1:00', '15.0°C', '1,017毫巴', '每小时0公里', '4.00公里', '未检测到云', '本地:', '01:00、2019年11月11日周一', '协调世界时:', '17:00、2019年11月10日周日', '来源:', 'USAF 每小时地面观测', '报告类型:', 'METAR 航空例行天气报告', '露点:', '14.0°C', '天气:', 'Mist', '上午2:00', '14°C', '1,016毫巴', '每小时0公里', '4.00公里', '无重要云', '本地:', '02:00、2019年11月11日周一', '协调世界时:', '18:00、2019年11月10日周日', '来源:', '周期文件', '趋势:', '无重要变化', '露点:', '13°C', '天气:', 'Mist', '原始:', 'ZUUU 101800Z 00000MPS 4000 BR NSC 14/13 Q1016 NOSIG', '上午2:00', '14.0°C', '1,016毫巴', '每小时0公里', '4.00公里', '未检测到云', '本地:', '02:00、2019年11月11日周一', '协调世界时:', '18:00、2019年11月10日周日', '来源:', 'USAF 每小时地面观测', '报告类型:', 'METAR 航空例行天气报告', '露点:', '13.0°C', '天气:', 'Mist', '上午3:00', '14°C', '1,015毫巴', '每小时0公里', '4.00公里', '无重要云', '本地:', '03:00、2019年11月11日周一', '协调世界时:', '19:00、2019年11月10日周日', '来源:', '周期文件', '趋势:', '无重要变化', '露点:', '13°C', '天气:', 'Mist', '原始:', 'ZUUU 101900Z 00000MPS 4000 BR NSC 14/13 Q1015 NOSIG', '上午3:00', '14.0°C', '1,015毫巴', '每小时0公里', '4.00公里', '未检测到云', '本地:', '03:00、2019年11月11日周一', '协调世界时:', '19:00、2019年11月10日周日', '来源:', 'USAF 每小时地面观测', '报告类型:', 'METAR 航空例行天气报告', '露点:', '13.0°C', '天气:', 'Mist', '上午4:00', '14°C', '1,015毫巴', '每小时0公里', '4.00公里', '无重要云', '本地:', '04:00、2019年11月11日周一', '协调世界时:', '20:00、2019年11月10日周日', '来源:', '周期文件', '趋势:', '无重要变化', '露点:', '13°C', '天气:', 'Mist', '原始:', 'ZUUU 102000Z 00000MPS 4000 BR NSC 14/13 Q1015 NOSIG', '上午4:00', '14.0°C', '1,015毫巴', '每小时0公里', '4.00公里', '未检测到云', '本地:', '04:00、2019年11月11日周一', '协调世界时:', '20:00、2019年11月10日周日', '来源:', 'USAF 每小时地面观测', '报告类型:', 'METAR 航空例行天气报告', '露点:', '13.0°C', '天气:', 'Mist', '上午5:00', '14°C', '1,014毫巴', '每小时0公里', '3.50公里', '无重要云', '本地:', '05:00、2019年11月11日周一', '协调世界时:', '21:00、2019年11月10日周日', '来源:', '周期文件', '趋势:', '变化为', '露点:', '13°C', '天气:', 'Mist、Mist', '原始:', 'ZUUU 102100Z 00000MPS 3500 BR NSC 14/13 Q1014 BECMG TL2230 2300 BR', '上午5:00', '14.0°C', '1,014毫巴', '每小时0公里', '3.50公里', '未检测到云', '本地:', '05:00、2019年11月11日周一', '协调世界时:', '21:00、2019年11月10日周日', '来源:', 'USAF 每小时地面观测', '报告类型:', 'METAR 航空例行天气报告', '露点:', '13.0°C', '天气:', 'Mist', '上午6:00', '14°C', '1,014毫巴', '每小时0公里', '3.00公里', '无重要云', '本地:', '06:00、2019年11月11日周一', '协调世界时:', '22:00、2019年11月10日周日', '来源:', '周期文件', '趋势:', '变化为', '露点:', '13°C', '天气:', 'Mist、Mist', '原始:', 'ZUUU 102200Z 00000MPS 3000 BR NSC 14/13 Q1014 BECMG TL2300 2500 BR', '上午6:00', '14.0°C', '1,014毫巴', '每小时0公里', '3.00公里', '未检测到云', '本地:', '06:00、2019年11月11日周一', '协调世界时:', '22:00、2019年11月10日周日', '来源:', 'USAF 每小时地面观测', '报告类型:', 'METAR 航空例行天气报告', '露点:', '13.0°C', '天气:', 'Mist', '上午7:00', '14°C', '1,014毫巴', '每小时0公里', '2.70公里', '无重要云', '本地:', '07:00、2019年11月11日周一', '协调世界时:', '23:00、2019年11月10日周日', '来源:', '周期文件', '趋势:', '无重要变化', '露点:', '14°C', '天气:', 'Mist', '原始:', 'ZUUU 102300Z 00000MPS 2700 BR NSC 14/14 Q1014 NOSIG', '上午7:00', '14.0°C', '1,014毫巴', '每小时0公里', '2.70公里', '未检测到云', '本地:', '07:00、2019年11月11日周一', '协调世界时:', '23:00、2019年11月10日周日', '来源:', 'USAF 每小时地面观测', '报告类型:', 'METAR 航空例行天气报告', '露点:', '14.0°C', '天气:', 'Mist', '上午8:00', '14°C', '1,015毫巴', '每小时0公里', '2.50公里', '部分多云 (1,219米)', '本地:', '08:00、2019年11月11日周一', '协调世界时:', '00:00、2019年11月11日周一', '来源:', '周期文件', '趋势:', '变化为', '露点:', '14°C', '天气:', 'Mist', '原始:', 'ZUUU 110000Z 00000MPS 2500 R02L/1800D R02R/1400U BR SCT040 14/14 Q1015 BECMG TL0130 3000', '上午8:00', '14.0°C', '1,015毫巴', '每小时0公里', '2.50公里', '部分多云 (1,219米)', '本地:', '08:00、2019年11月11日周一', '协调世界时:', '00:00、2019年11月11日周一', '来源:', 'USAF 每小时地面观测', '报告类型:', 'METAR 航空例行天气报告', '露点:', '14.0°C', '天气:', 'Mist', '上午9:00', '15°C', '1,015毫巴', '每小时0公里', '2.50公里', '部分多云 (1,219米)', '本地:', '09:00、2019年11月11日周一', '协调世界时:', '01:00、2019年11月11日周一', '来源:', '周期文件', '趋势:', '变化为', '露点:', '14°C', '天气:', 'Mist', '原始:', 'ZUUU 110100Z 00000MPS 2500 R02L/1600N R02R/1400N BR SCT040 15/14 Q1015 BECMG TL0200 3000', '上午9:00', '15.0°C', '1,015毫巴', '每小时0公里', '2.50公里', '部分多云 (1,219米)', '本地:', '09:00、2019年11月11日周一', '协调世界时:', '01:00、2019年11月11日周一', '来源:', 'USAF 每小时地面观测', '报告类型:', 'METAR 航空例行天气报告', '露点:', '14.0°C', '天气:', 'Mist', '上午10:00', '16°C', '1,015毫巴', '每小时0公里', '2.50公里', '部分多云 (1,219米)', '本地:', '10:00、2019年11月11日周一', '协调世界时:', '02:00、2019年11月11日周一', '来源:', '周期文件', '趋势:', '变化为', '露点:', '14°C', '天气:', 'Mist', '原始:', 'ZUUU 110200Z 00000MPS 2500 BR SCT040 16/14 Q1015 BECMG TL0320 3500', '上午10:00', '16.0°C', '1,015毫巴', '每小时0公里', '2.50公里', '部分多云 (1,219米)', '本地:', '10:00、2019年11月11日周一', '协调世界时:', '02:00、2019年11月11日周一', '来源:', 'USAF 每小时地面观测', '报告类型:', 'METAR 航空例行天气报告', '露点:', '14.0°C', '天气:', 'Mist', '上午11:00', '17°C', '1,015毫巴', '每小时0公里', '3.00公里', '部分多云 (1,219米)', '本地:', '11:00、2019年11月11日周一', '协调世界时:', '03:00、2019年11月11日周一', '来源:', '周期文件', '趋势:', '无重要变化', '露点:', '14°C', '天气:', 'Mist', '原始:', 'ZUUU 110300Z 00000MPS 3000 BR SCT040 17/14 Q1015 NOSIG', '上午11:00', '17.0°C', '1,015毫巴', '每小时0公里', '3.00公里', '部分多云 (1,219米)', '本地:', '11:00、2019年11月11日周一', '协调世界时:', '03:00、2019年11月11日周一', '来源:', 'USAF 每小时地面观测', '报告类型:', 'METAR 航空例行天气报告', '露点:', '14.0°C', '天气:', 'Mist', '下午12:00', '18°C', '1,014毫巴', '每小时0公里', '3.00公里', '部分多云 (1,219米)', '本地:', '12:00、2019年11月11日周一', '协调世界时:', '04:00、2019年11月11日周一', '来源:', '周期文件', '趋势:', '无重要变化', '露点:', '14°C', '天气:', 'Mist', '原始:', 'ZUUU 110400Z 00000MPS 3000 BR SCT040 18/14 Q1014 NOSIG', '下午12:00', '18.0°C', '1,014毫巴', '每小时0公里', '3.00公里', '部分多云 (1,219米)', '本地:', '12:00、2019年11月11日周一', '协调世界时:', '04:00、2019年11月11日周一', '来源:', 'USAF 每小时地面观测', '报告类型:', 'METAR 航空例行天气报告', '露点:', '14.0°C', '天气:', 'Mist', '下午1:00', '18°C', '1,012毫巴', '每小时0公里', '4.00公里', '部分多云 (914米)', '本地:', '13:00、2019年11月11日周一', '协调世界时:', '05:00、2019年11月11日周一', '来源:', '周期文件', '趋势:', '无重要变化', '露点:', '13°C', '天气:', 'Light Rain、Mist', '原始:', 'ZUUU 110500Z 00000MPS 4000 -RA BR SCT030 18/13 Q1012 NOSIG', '下午1:00', '18.0°C', '1,012毫巴', '每小时0公里', '4.00公里', '部分多云 (914米)', '本地:', '13:00、2019年11月11日周一', '协调世界时:', '05:00、2019年11月11日周一', '来源:', 'USAF 每小时地面观测', '报告类型:', 'METAR 航空例行天气报告', '露点:', '13.0°C', '天气:', 'Mist、Light Rain', '下午2:00', '17°C', '1,011毫巴', '每小时10.8公里, 东北', '4.00公里', '部分多云 (914米)', '本地:', '14:00、2019年11月11日周一', '协调世界时:', '06:00、2019年11月11日周一', '来源:', '周期文件', '趋势:', '无重要变化', '露点:', '13°C', '天气:', 'Light Rain、Mist', '原始:', 'ZUUU 110600Z 05003MPS 4000 -RA BR SCT030 17/13 Q1011 NOSIG', '下午2:00', '17.0°C', '1,011毫巴', '每小时10.8公里, 东北', '4.00公里', '部分多云 (914米)', '本地:', '14:00、2019年11月11日周一', '协调世界时:', '06:00、2019年11月11日周一', '来源:', 'USAF 每小时地面观测', '报告类型:', 'METAR 航空例行天气报告', '露点:', '13.0°C', '天气:', 'Mist、Light Rain', '下午3:00', '16°C', '1,011毫巴', '每小时0公里', '2.50公里', '部分多云 (914米)', '本地:', '15:00、2019年11月11日周一', '协调世界时:', '07:00、2019年11月11日周一', '来源:', '周期文件', '趋势:', '无重要变化', '露点:', '14°C', '天气:', 'Light Rain、Mist', '原始:', 'ZUUU 110700Z 00000MPS 2500 -RA BR SCT030 16/14 Q1011 NOSIG', '下午3:00', '16.0°C', '1,011毫巴', '每小时0公里', '2.50公里', '部分多云 (914米)', '本地:', '15:00、2019年11月11日周一', '协调世界时:', '07:00、2019年11月11日周一', '来源:', 'USAF 每小时地面观测', '报告类型:', 'METAR 航空例行天气报告', '露点:', '14.0°C', '天气:', 'Mist、Light Rain', '下午4:00', '17°C', '1,010毫巴', '每小时7.20公里, 北', '2.50公里', '部分多云 (914米)', '本地:', '16:00、2019年11月11日周一', '协调世界时:', '08:00、2019年11月11日周一', '来源:', '周期文件', '趋势:', '无重要变化', '露点:', '13°C', '天气:', 'Light Rain、Mist', '原始:', 'ZUUU 110800Z 01002MPS 320V070 2500 -RA BR SCT030 17/13 Q1010 NOSIG', '下午4:00', '17.0°C', '1,010毫巴', '每小时7.20公里, 北', '2.50公里', '部分多云 (914米)', '本地:', '16:00、2019年11月11日周一', '协调世界时:', '08:00、2019年11月11日周一', '来源:', 'USAF 每小时地面观测', '报告类型:', 'METAR 航空例行天气报告', '露点:', '13.0°C', '天气:', 'Mist、Light Rain', '下午5:00', '17°C', '1,011毫巴', '每小时7.20公里, 北', '2.50公里', '部分多云 (914米)', '本地:', '17:00、2019年11月11日周一', '协调世界时:', '09:00、2019年11月11日周一', '来源:', '周期文件', '趋势:', '无重要变化', '露点:', '13°C', '其他云层:', '大部分晴天 (610米)', '天气:', 'Mist', '原始:', 'ZUUU 110900Z 01002MPS 2500 BR FEW020 SCT030 17/13 Q1011 NOSIG', '下午5:00', '17.0°C', '1,011毫巴', '每小时7.20公里, 北', '2.50公里', '部分多云 (914米)', '本地:', '17:00、2019年11月11日周一', '协调世界时:', '09:00、2019年11月11日周一', '来源:', 'USAF 每小时地面观测', '报告类型:', 'METAR 航空例行天气报告', '露点:', '13.0°C', '其他云层:', '大部分晴天 (610米)', '天气:', 'Mist', '下午6:00', '17°C', '1,011毫巴', '每小时7.20公里', '1.70公里', '部分多云 (914米)', '本地:', '18:00、2019年11月11日周一', '协调世界时:', '10:00、2019年11月11日周一', '来源:', '周期文件', '趋势:', '无重要变化', '露点:', '14°C', '其他云层:', '大部分晴天 (610米)', '天气:', 'Light Rain、Mist', '原始:', 'ZUUU 111000Z VRB02MPS 1700 -RA BR FEW020 SCT030 17/14 Q1011 NOSIG', '下午6:00', '17.0°C', '1,011毫巴', '每小时7.20公里', '1.70公里', '部分多云 (914米)', '本地:', '18:00、2019年11月11日周一', '协调世界时:', '10:00、2019年11月11日周一', '来源:', 'USAF 每小时地面观测', '报告类型:', 'METAR 航空例行天气报告', '露点:', '14.0°C', '其他云层:', '大部分晴天 (610米)', '天气:', 'Mist、Light Rain', '下午7:00', '16°C', '1,012毫巴', '每小时0公里', '4.00公里', '部分多云 (914米)', '本地:', '19:00、2019年11月11日周一', '协调世界时:', '11:00、2019年11月11日周一', '来源:', '周期文件', '趋势:', '无重要变化', '露点:', '14°C', '其他云层:', '大部分晴天 (610米)', '天气:', 'Mist', '原始:', 'ZUUU 111100Z 00000MPS 4000 BR FEW020 SCT030 16/14 Q1012 NOSIG', '下午7:00', '16.0°C', '1,012毫巴', '每小时0公里', '4.00公里', '部分多云 (914米)', '本地:', '19:00、2019年11月11日周一', '协调世界时:', '11:00、2019年11月11日周一', '来源:', 'USAF 每小时地面观测', '报告类型:', 'METAR 航空例行天气报告', '露点:', '14.0°C', '其他云层:', '大部分晴天 (610米)', '天气:', 'Mist', '下午8:00', '16°C', '1,013毫巴', '每小时0公里', '4.00公里', '部分多云 (914米)', '本地:', '20:00、2019年11月11日周一', '协调世界时:', '12:00、2019年11月11日周一', '来源:', '周期文件', '趋势:', '无重要变化', '露点:', '14°C', '天气:', 'Mist', '原始:', 'ZUUU 111200Z 00000MPS 4000 BR SCT030 16/14 Q1013 NOSIG', '下午8:00', '16.0°C', '1,013毫巴', '每小时0公里', '4.00公里', '部分多云 (914米)', '本地:', '20:00、2019年11月11日周一', '协调世界时:', '12:00、2019年11月11日周一', '来源:', 'USAF 每小时地面观测', '报告类型:', 'METAR 航空例行天气报告', '露点:', '14.0°C', '天气:', 'Mist', '下午9:00', '16°C', '1,014毫巴', '每小时3.60公里', '4.00公里', '部分多云 (914米)', '本地:', '21:00、2019年11月11日周一', '协调世界时:', '13:00、2019年11月11日周一', '来源:', '周期文件', '趋势:', '无重要变化', '露点:', '14°C', '天气:', 'Mist', '原始:', 'ZUUU 111300Z VRB01MPS 4000 BR SCT030 16/14 Q1014 NOSIG', '下午9:00', '16.0°C', '1,014毫巴', '每小时3.60公里', '4.00公里', '部分多云 (914米)', '本地:', '21:00、2019年11月11日周一', '协调世界时:', '13:00、2019年11月11日周一', '来源:', 'USAF 每小时地面观测', '报告类型:', 'METAR 航空例行天气报告', '露点:', '14.0°C', '天气:', 'Mist', '下午10:00', '16°C', '1,014毫巴', '每小时0公里', '3.00公里', '部分多云 (792米)', '本地:', '22:00、2019年11月11日周一', '协调世界时:', '14:00、2019年11月11日周一', '来源:', '周期文件', '趋势:', '无重要变化', '露点:', '14°C', '其他云层:', '大部分晴天 (366米)、大部分晴天 (792米)', '天气:', 'Showers of Light Rain、Mist', '原始:', 'ZUUU 111400Z 00000MPS 3000 -SHRA BR FEW012 FEW026TCU SCT026 16/14 Q1014 NOSIG', '下午10:00', '16.0°C', '1,014毫巴', '每小时0公里', '3.00公里', '部分多云 (792米)', '本地:', '22:00、2019年11月11日周一', '协调世界时:', '14:00、2019年11月11日周一', '来源:', 'USAF 每小时地面观测', '报告类型:', 'METAR 航空例行天气报告', '露点:', '14.0°C', '其他云层:', '大部分晴天 (366米)、大部分晴天 (792米)', '天气:', 'Mist、Showers of Light Rain', '下午11:00', '15°C', '1,014毫巴', '每小时7.20公里, 西南', '2.30公里', '部分多云 (792米)', '本地:', '23:00、2019年11月11日周一', '协调世界时:', '15:00、2019年11月11日周一', '来源:', '周期文件', '趋势:', '变化为', '露点:', '14°C', '其他云层:', '大部分晴天 (366米)、大部分晴天 (792米)', '天气:', 'Showers of Light Rain、Mist', '原始:', 'ZUUU 111500Z 23002MPS 170V270 2300 -SHRA BR FEW012 FEW026TCU SCT026 15/14 Q1014 BECMG TL1540 3000', '下午11:00', '15.0°C', '1,014毫巴', '每小时7.20公里, 西南', '2.30公里', '部分多云 (792米)', '本地:', '23:00、2019年11月11日周一', '协调世界时:', '15:00、2019年11月11日周一', '来源:', 'USAF 每小时地面观测', '报告类型:', 'METAR 航空例行天气报告', '露点:', '14.0°C', '其他云层:', '大部分晴天 (366米)、大部分晴天 (792米)', '天气:', 'Mist、Showers of Light Rain']