['Showers of Light Rain', '-SHRA、IWC80', 'Mist', 'BR、IWC10', '上午12:00', '27°C', '1,007毫巴', '每小时0公里', '10.00公里', '大部分晴天 (1,524米)', '本地:', '00:00、2019年8月9日周五', '协调世界时:', '16:00、2019年8月8日周四', '来源:', '周期文件', '趋势:', '无重要变化', '露点:', '23°C', '原始:', 'ZUUU 081600Z 00000MPS 9999 FEW050 27/23 Q1007 NOSIG', '上午12:00', '27.0°C', '1,007毫巴', '每小时0公里', '10.00公里', '大部分晴天 (1,524米)', '本地:', '00:00、2019年8月9日周五', '协调世界时:', '16:00、2019年8月8日周四', '来源:', 'USAF 每小时地面观测', '报告类型:', 'METAR 航空例行天气报告', '露点:', '23.0°C', '上午1:00', '27°C', '1,007毫巴', '每小时3.60公里', '10.00公里', '部分多云 (1,524米)', '本地:', '01:00、2019年8月9日周五', '协调世界时:', '17:00、2019年8月8日周四', '来源:', '周期文件', '趋势:', '无重要变化', '露点:', '23°C', '天气:', 'Showers of Light Rain', '原始:', 'ZUUU 081700Z VRB01MPS 9999 -SHRA SCT050 27/23 Q1007 NOSIG', '上午1:00', '27.0°C', '1,007毫巴', '每小时3.60公里', '10.00公里', '部分多云 (1,524米)', '本地:', '01:00、2019年8月9日周五', '协调世界时:', '17:00、2019年8月8日周四', '来源:', 'USAF 每小时地面观测', '报告类型:', 'METAR 航空例行天气报告', '露点:', '23.0°C', '天气:', 'Showers of Light Rain', '上午2:00', '26°C', '1,006毫巴', '每小时3.60公里, 西南', '10.00公里', '部分多云 (1,524米)', '本地:', '02:00、2019年8月9日周五', '协调世界时:', '18:00、2019年8月8日周四', '来源:', '周期文件', '趋势:', '无重要变化', '露点:', '24°C', '原始:', 'ZUUU 081800Z 23001MPS 9999 SCT050 26/24 Q1006 NOSIG', '上午2:00', '26.0°C', '1,006毫巴', '每小时3.60公里, 西南', '10.00公里', '部分多云 (1,524米)', '本地:', '02:00、2019年8月9日周五', '协调世界时:', '18:00、2019年8月8日周四', '来源:', 'USAF 每小时地面观测', '报告类型:', 'METAR 航空例行天气报告', '露点:', '24.0°C', '上午3:00', '26°C', '1,006毫巴', '每小时7.20公里, 西南', '10.00公里', '部分多云 (1,219米)', '本地:', '03:00、2019年8月9日周五', '协调世界时:', '19:00、2019年8月8日周四', '来源:', '周期文件', '趋势:', '无重要变化', '露点:', '23°C', '其他云层:', '大部分晴天 (1,219米)', '原始:', 'ZUUU 081900Z 24002MPS 210V270 9999 FEW040TCU SCT040 26/23 Q1006 NOSIG', '上午3:00', '26.0°C', '1,006毫巴', '每小时7.20公里, 西南', '10.00公里', '部分多云 (1,219米)', '本地:', '03:00、2019年8月9日周五', '协调世界时:', '19:00、2019年8月8日周四', '来源:', 'USAF 每小时地面观测', '报告类型:', 'METAR 航空例行天气报告', '露点:', '23.0°C', '其他云层:', '大部分晴天 (1,219米)', '上午4:00', '26°C', '1,006毫巴', '每小时7.20公里, 西', '8.00公里', '部分多云 (1,219米)', '本地:', '04:00、2019年8月9日周五', '协调世界时:', '20:00、2019年8月8日周四', '来源:', '周期文件', '趋势:', '无重要变化', '露点:', '23°C', '其他云层:', '大部分晴天 (1,219米)', '原始:', 'ZUUU 082000Z 25002MPS 8000 FEW040TCU SCT040 26/23 Q1006 NOSIG', '上午4:00', '26.0°C', '1,006毫巴', '每小时7.20公里, 西', '8.00公里', '部分多云 (1,219米)', '本地:', '04:00、2019年8月9日周五', '协调世界时:', '20:00、2019年8月8日周四', '来源:', 'USAF 每小时地面观测', '报告类型:', 'METAR 航空例行天气报告', '露点:', '23.0°C', '其他云层:', '大部分晴天 (1,219米)', '上午5:00', '25°C', '1,006毫巴', '每小时7.20公里, 西南', '6.00公里', '部分多云 (1,219米)', '本地:', '05:00、2019年8月9日周五', '协调世界时:', '21:00、2019年8月8日周四', '来源:', '周期文件', '趋势:', '无重要变化', '露点:', '23°C', '其他云层:', '大部分晴天 (1,219米)', '原始:', 'ZUUU 082100Z 23002MPS 190V260 6000 FEW040CB SCT040 25/23 Q1006 NOSIG', '上午5:00', '25.0°C', '1,006毫巴', '每小时7.20公里, 西南', '6.00公里', '部分多云 (1,219米)', '本地:', '05:00、2019年8月9日周五', '协调世界时:', '21:00、2019年8月8日周四', '来源:', 'USAF 每小时地面观测', '报告类型:', 'METAR 航空例行天气报告', '露点:', '23.0°C', '其他云层:', '大部分晴天 (1,219米)', '上午6:00', '25°C', '1,006毫巴', '每小时3.60公里', '6.00公里', '部分多云 (1,524米)', '本地:', '06:00、2019年8月9日周五', '协调世界时:', '22:00、2019年8月8日周四', '来源:', '周期文件', '趋势:', '无重要变化', '露点:', '23°C', '原始:', 'ZUUU 082200Z VRB01MPS 6000 SCT050 25/23 Q1006 NOSIG', '上午6:00', '25.0°C', '1,006毫巴', '每小时3.60公里', '6.00公里', '部分多云 (1,524米)', '本地:', '06:00、2019年8月9日周五', '协调世界时:', '22:00、2019年8月8日周四', '来源:', 'USAF 每小时地面观测', '报告类型:', 'METAR 航空例行天气报告', '露点:', '23.0°C', '上午7:00', '25°C', '1,007毫巴', '每小时7.20公里, 西南', '5.00公里', '部分多云 (1,524米)', '本地:', '07:00、2019年8月9日周五', '协调世界时:', '23:00、2019年8月8日周四', '来源:', '周期文件', '趋势:', '无重要变化', '露点:', '23°C', '天气:', 'Mist', '原始:', 'ZUUU 082300Z 21002MPS 5000 BR SCT050 25/23 Q1007 NOSIG', '上午7:00', '25.0°C', '1,007毫巴', '每小时7.20公里, 西南', '5.00公里', '部分多云 (1,524米)', '本地:', '07:00、2019年8月9日周五', '协调世界时:', '23:00、2019年8月8日周四', '来源:', 'USAF 每小时地面观测', '报告类型:', 'METAR 航空例行天气报告', '露点:', '23.0°C', '天气:', 'Mist', '上午8:00', '25°C', '1,007毫巴', '每小时3.60公里', '8.00公里', '大部分晴天 (1,524米)', '本地:', '08:00、2019年8月9日周五', '协调世界时:', '00:00、2019年8月9日周五', '来源:', '周期文件', '趋势:', '无重要变化', '露点:', '23°C', '原始:', 'ZUUU 090000Z VRB01MPS 8000 FEW050 25/23 Q1007 NOSIG', '上午8:00', '25.0°C', '1,007毫巴', '每小时3.60公里', '8.00公里', '大部分晴天 (1,524米)', '本地:', '08:00、2019年8月9日周五', '协调世界时:', '00:00、2019年8月9日周五', '来源:', 'USAF 每小时地面观测', '报告类型:', 'METAR 航空例行天气报告', '露点:', '23.0°C', '上午9:00', '28°C', '1,008毫巴', '每小时3.60公里', '10.00公里', '大部分晴天 (1,524米)', '本地:', '09:00、2019年8月9日周五', '协调世界时:', '01:00、2019年8月9日周五', '来源:', '周期文件', '趋势:', '无重要变化', '露点:', '22°C', '原始:', 'ZUUU 090100Z VRB01MPS 9999 FEW050 28/22 Q1008 NOSIG', '上午9:00', '28.0°C', '1,008毫巴', '每小时3.60公里', '10.00公里', '大部分晴天 (1,524米)', '本地:', '09:00、2019年8月9日周五', '协调世界时:', '01:00、2019年8月9日周五', '来源:', 'USAF 每小时地面观测', '报告类型:', 'METAR 航空例行天气报告', '露点:', '22.0°C', '上午10:00', '28°C', '1,008毫巴', '每小时10.8公里, 西南', '10.00公里', '大部分晴天 (1,524米)', '本地:', '10:00、2019年8月9日周五', '协调世界时:', '02:00、2019年8月9日周五', '来源:', '周期文件', '趋势:', '无重要变化', '露点:', '24°C', '原始:', 'ZUUU 090200Z 22003MPS 9999 FEW050 28/24 Q1008 NOSIG', '上午10:00', '28.0°C', '1,008毫巴', '每小时10.8公里, 西南', '10.00公里', '大部分晴天 (1,524米)', '本地:', '10:00、2019年8月9日周五', '协调世界时:', '02:00、2019年8月9日周五', '来源:', 'USAF 每小时地面观测', '报告类型:', 'METAR 航空例行天气报告', '露点:', '24.0°C', '上午11:00', '29°C', '1,008毫巴', '每小时7.20公里, 西南', '10.00公里', '大部分晴天 (1,219米)', '本地:', '11:00、2019年8月9日周五', '协调世界时:', '03:00、2019年8月9日周五', '来源:', '周期文件', '趋势:', '无重要变化', '露点:', '23°C', '原始:', 'ZUUU 090300Z 21002MPS 180V250 9999 FEW040 29/23 Q1008 NOSIG', '上午11:00', '29.0°C', '1,008毫巴', '每小时7.20公里, 西南', '10.00公里', '大部分晴天 (1,219米)', '本地:', '11:00、2019年8月9日周五', '协调世界时:', '03:00、2019年8月9日周五', '来源:', 'USAF 每小时地面观测', '报告类型:', 'METAR 航空例行天气报告', '露点:', '23.0°C', '下午12:00', '30°C', '1,008毫巴', '每小时7.20公里, 西', '10.00公里', '大部分晴天 (792米)', '本地:', '12:00、2019年8月9日周五', '协调世界时:', '04:00、2019年8月9日周五', '来源:', '周期文件', '趋势:', '无重要变化', '露点:', '22°C', '原始:', 'ZUUU 090400Z 27002MPS 180V350 9999 FEW026 30/22 Q1008 NOSIG', '下午12:00', '30.0°C', '1,008毫巴', '每小时7.20公里, 西', '10.00公里', '大部分晴天 (792米)', '本地:', '12:00、2019年8月9日周五', '协调世界时:', '04:00、2019年8月9日周五', '来源:', 'USAF 每小时地面观测', '报告类型:', 'METAR 航空例行天气报告', '露点:', '22.0°C', '下午1:00', '31°C', '1,007毫巴', '每小时10.8公里, 西', '10.00公里', '大部分晴天 (792米)', '本地:', '13:00、2019年8月9日周五', '协调世界时:', '05:00、2019年8月9日周五', '来源:', '周期文件', '趋势:', '无重要变化', '露点:', '22°C', '原始:', 'ZUUU 090500Z 26003MPS 220V310 9999 FEW026 31/22 Q1007 NOSIG', '下午1:00', '31.0°C', '1,007毫巴', '每小时10.8公里, 西', '10.00公里', '大部分晴天 (792米)', '本地:', '13:00、2019年8月9日周五', '协调世界时:', '05:00、2019年8月9日周五', '来源:', 'USAF 每小时地面观测', '报告类型:', 'METAR 航空例行天气报告', '露点:', '22.0°C', '下午2:00', '31°C', '1,006毫巴', '每小时7.20公里, 南', '10.00公里', '大部分晴天 (792米)', '本地:', '14:00、2019年8月9日周五', '协调世界时:', '06:00、2019年8月9日周五', '来源:', '周期文件', '趋势:', '无重要变化', '露点:', '21°C', '原始:', 'ZUUU 090600Z 19002MPS 140V240 9999 FEW026 31/21 Q1006 NOSIG', '下午2:00', '31.0°C', '1,006毫巴', '每小时7.20公里, 南', '10.00公里', '大部分晴天 (792米)', '本地:', '14:00、2019年8月9日周五', '协调世界时:', '06:00、2019年8月9日周五', '来源:', 'USAF 每小时地面观测', '报告类型:', 'METAR 航空例行天气报告', '露点:', '21.0°C', '下午3:00', '32°C', '1,006毫巴', '每小时14.4公里, 西南', '10.00公里', '大部分晴天 (792米)', '本地:', '15:00、2019年8月9日周五', '协调世界时:', '07:00、2019年8月9日周五', '来源:', '周期文件', '趋势:', '无重要变化', '露点:', '21°C', '原始:', 'ZUUU 090700Z 24004MPS 190V320 9999 FEW026TCU FEW026 32/21 Q1006 NOSIG', '下午3:00', '32.0°C', '1,006毫巴', '每小时14.4公里, 西南', '10.00公里', '大部分晴天 (792米)', '本地:', '15:00、2019年8月9日周五', '协调世界时:', '07:00、2019年8月9日周五', '来源:', 'USAF 每小时地面观测', '报告类型:', 'METAR 航空例行天气报告', '露点:', '21.0°C', '下午4:00', '32°C', '1,005毫巴', '每小时10.8公里, 西南', '10.00公里', '大部分晴天 (1,219米)', '本地:', '16:00、2019年8月9日周五', '协调世界时:', '08:00、2019年8月9日周五', '来源:', '周期文件', '趋势:', '无重要变化', '露点:', '22°C', '原始:', 'ZUUU 090800Z 24003MPS 220V280 9999 FEW040 32/22 Q1005 NOSIG', '下午4:00', '32.0°C', '1,005毫巴', '每小时10.8公里, 西南', '10.00公里', '大部分晴天 (1,219米)', '本地:', '16:00、2019年8月9日周五', '协调世界时:', '08:00、2019年8月9日周五', '来源:', 'USAF 每小时地面观测', '报告类型:', 'METAR 航空例行天气报告', '露点:', '22.0°C', '下午5:00', '31°C', '1,004毫巴', '每小时10.8公里, 西南', '≥ 10.00公里', '晴空万里', '本地:', '17:00、2019年8月9日周五', '协调世界时:', '09:00、2019年8月9日周五', '来源:', '周期文件', '趋势:', '无重要变化', '露点:', '21°C', '晴空万里:', '真', '原始:', 'ZUUU 090900Z 24003MPS 210V280 CAVOK 31/21 Q1004 NOSIG', '下午5:00', '31.0°C', '1,004毫巴', '每小时10.8公里, 西南', '9.90公里', '晴空万里', '本地:', '17:00、2019年8月9日周五', '协调世界时:', '09:00、2019年8月9日周五', '来源:', 'USAF 每小时地面观测', '报告类型:', 'METAR 航空例行天气报告', '露点:', '21.0°C', '晴空万里:', '真', '下午6:00', '31°C', '1,004毫巴', '每小时10.8公里, 西南', '10.00公里', '大部分晴天 (914米)', '本地:', '18:00、2019年8月9日周五', '协调世界时:', '10:00、2019年8月9日周五', '来源:', '周期文件', '趋势:', '无重要变化', '露点:', '21°C', '原始:', 'ZUUU 091000Z 24003MPS 220V280 9999 FEW030TCU 31/21 Q1004 NOSIG', '下午6:00', '31.0°C', '1,004毫巴', '每小时10.8公里, 西南', '10.00公里', '大部分晴天 (914米)', '本地:', '18:00、2019年8月9日周五', '协调世界时:', '10:00、2019年8月9日周五', '来源:', 'USAF 每小时地面观测', '报告类型:', 'METAR 航空例行天气报告', '露点:', '21.0°C', '下午7:00', '30°C', '1,004毫巴', '每小时7.20公里, 西南', '10.00公里', '大部分晴天 (914米)', '本地:', '19:00、2019年8月9日周五', '协调世界时:', '11:00、2019年8月9日周五', '来源:', '周期文件', '趋势:', '无重要变化', '露点:', '20°C', '原始:', 'ZUUU 091100Z 24002MPS 220V280 9999 FEW030TCU 30/20 Q1004 NOSIG', '下午7:00', '30.0°C', '1,004毫巴', '每小时7.20公里, 西南', '10.00公里', '大部分晴天 (914米)', '本地:', '19:00、2019年8月9日周五', '协调世界时:', '11:00、2019年8月9日周五', '来源:', 'USAF 每小时地面观测', '报告类型:', 'METAR 航空例行天气报告', '露点:', '20.0°C', '下午8:00', '30°C', '1,004毫巴', '每小时7.20公里, 西', '10.00公里', '大部分晴天 (914米)', '本地:', '20:00、2019年8月9日周五', '协调世界时:', '12:00、2019年8月9日周五', '来源:', '周期文件', '趋势:', '无重要变化', '露点:', '20°C', '原始:', 'ZUUU 091200Z 28002MPS 240V320 9999 FEW030TCU 30/20 Q1004 NOSIG', '下午8:00', '30.0°C', '1,004毫巴', '每小时7.20公里, 西', '10.00公里', '大部分晴天 (914米)', '本地:', '20:00、2019年8月9日周五', '协调世界时:', '12:00、2019年8月9日周五', '来源:', 'USAF 每小时地面观测', '报告类型:', 'METAR 航空例行天气报告', '露点:', '20.0°C', '下午9:00', '28°C', '1,005毫巴', '每小时0公里', '≥ 10.00公里', '晴空万里', '本地:', '21:00、2019年8月9日周五', '协调世界时:', '13:00、2019年8月9日周五', '来源:', '周期文件', '趋势:', '无重要变化', '露点:', '21°C', '晴空万里:', '真', '原始:', 'ZUUU 091300Z 00000MPS CAVOK 28/21 Q1005 NOSIG', '下午9:00', '28.0°C', '1,005毫巴', '每小时0公里', '9.90公里', '晴空万里', '本地:', '21:00、2019年8月9日周五', '协调世界时:', '13:00、2019年8月9日周五', '来源:', 'USAF 每小时地面观测', '报告类型:', 'METAR 航空例行天气报告', '露点:', '21.0°C', '晴空万里:', '真', '下午10:00', '27°C', '1,006毫巴', '每小时0公里', '≥ 10.00公里', '晴空万里', '本地:', '22:00、2019年8月9日周五', '协调世界时:', '14:00、2019年8月9日周五', '来源:', '周期文件', '趋势:', '无重要变化', '露点:', '22°C', '晴空万里:', '真', '原始:', 'ZUUU 091400Z 00000MPS CAVOK 27/22 Q1006 NOSIG', '下午10:00', '27.0°C', '1,006毫巴', '每小时0公里', '9.90公里', '晴空万里', '本地:', '22:00、2019年8月9日周五', '协调世界时:', '14:00、2019年8月9日周五', '来源:', 'USAF 每小时地面观测', '报告类型:', 'METAR 航空例行天气报告', '露点:', '22.0°C', '晴空万里:', '真', '下午11:00', '26°C', '1,007毫巴', '每小时0公里', '≥ 10.00公里', '晴空万里', '本地:', '23:00、2019年8月9日周五', '协调世界时:', '15:00、2019年8月9日周五', '来源:', '周期文件', '趋势:', '无重要变化', '露点:', '22°C', '晴空万里:', '真', '原始:', 'ZUUU 091500Z 00000MPS CAVOK 26/22 Q1007 NOSIG', '下午11:00', '26.0°C', '1,007毫巴', '每小时0公里', '9.90公里', '晴空万里', '本地:', '23:00、2019年8月9日周五', '协调世界时:', '15:00、2019年8月9日周五', '来源:', 'USAF 每小时地面观测', '报告类型:', 'METAR 航空例行天气报告', '露点:', '22.0°C', '晴空万里:', '真']