['Recent Showers of Rain、Showers of Light Rain、Mist', 'RESHRA、-SHRA、IWC80、BR、IWC10', 'Recent Thunderstorm、Showers of Light Rain、Mist', 'RETS、-SHRA、IWC80、BR、IWC10', 'Showers of Light Rain、Mist', '-SHRA、IWC80、BR、IWC10', 'Mist', 'BR、IWC10', 'Mist', 'BR、IWC10', 'Mist', 'BR、IWC10', 'Mist', 'BR、IWC10', 'Mist', 'BR、IWC10', 'Mist', 'BR、IWC10', 'Showers of Light Rain、Mist', '-SHRA、IWC80、BR、IWC10', 'Mist', 'BR、IWC10', 'Mist', 'BR、IWC10', 'Mist', 'BR、IWC10', 'Haze', 'HZ、IWC05', 'Haze', 'HZ、IWC05', 'Mist', 'BR、IWC10', 'Showers of Rain', 'SHRA', 'Showers of Rain、Showers of Light Rain', 'SHRA、-SHRA、IWC80', '上午12:00', '24°C', '1,011毫巴', '每小时0公里', '≥ 10.00公里', '晴空万里', '本地:', '00:00、2019年9月12日周四', '协调世界时:', '16:00、2019年9月11日周三', '来源:', '周期文件', '趋势:', '无重要变化', '露点:', '22°C', '晴空万里:', '真', '原始:', 'ZUUU 111600Z 00000MPS CAVOK 24/22 Q1011 NOSIG', '上午12:00', '24.0°C', '1,011毫巴', '每小时0公里', '9.90公里', '晴空万里', '本地:', '00:00、2019年9月12日周四', '协调世界时:', '16:00、2019年9月11日周三', '来源:', 'USAF 每小时地面观测', '报告类型:', 'METAR 航空例行天气报告', '露点:', '22.0°C', '晴空万里:', '真', '上午1:00', '24°C', '1,011毫巴', '每小时0公里', '10.00公里', '大部分晴天 (1,524米)', '本地:', '01:00、2019年9月12日周四', '协调世界时:', '17:00、2019年9月11日周三', '来源:', '周期文件', '趋势:', '无重要变化', '露点:', '23°C', '原始:', 'ZUUU 111700Z 00000MPS 9999 FEW050 24/23 Q1011 NOSIG', '上午1:00', '24.0°C', '1,011毫巴', '每小时0公里', '10.00公里', '大部分晴天 (1,524米)', '本地:', '01:00、2019年9月12日周四', '协调世界时:', '17:00、2019年9月11日周三', '来源:', 'USAF 每小时地面观测', '报告类型:', 'METAR 航空例行天气报告', '露点:', '23.0°C', '上午2:00', '24°C', '1,010毫巴', '每小时0公里', '8.00公里', '大部分晴天 (1,219米)', '本地:', '02:00、2019年9月12日周四', '协调世界时:', '18:00、2019年9月11日周三', '来源:', '周期文件', '趋势:', '无重要变化', '露点:', '23°C', '原始:', 'ZUUU 111800Z 00000MPS 8000 FEW040 FEW040TCU 24/23 Q1010 NOSIG', '上午2:00', '24.0°C', '1,010毫巴', '每小时0公里', '8.00公里', '大部分晴天 (1,219米)', '本地:', '02:00、2019年9月12日周四', '协调世界时:', '18:00、2019年9月11日周三', '来源:', 'USAF 每小时地面观测', '报告类型:', 'METAR 航空例行天气报告', '露点:', '23.0°C', '上午3:00', '24°C', '1,009毫巴', '每小时0公里', '5.00公里', '部分多云 (914米)', '本地:', '03:00、2019年9月12日周四', '协调世界时:', '19:00、2019年9月11日周三', '来源:', '周期文件', '趋势:', '变化为', '露点:', '23°C', '其他云层:', '大部分晴天 (305米)、大部分晴天 (914米)', '天气:', 'Showers of Light Rain、Mist、Recent Showers of Rain', '原始:', 'ZUUU 111900Z 00000MPS 5000 -SHRA BR FEW010 FEW030CB SCT030 24/23 Q1009 RESHRA BECMG TL1940 SHRA', '上午3:00', '24.0°C', '1,009毫巴', '每小时0公里', '5.00公里', '部分多云 (914米)', '本地:', '03:00、2019年9月12日周四', '协调世界时:', '19:00、2019年9月11日周三', '来源:', 'USAF 每小时地面观测', '报告类型:', 'METAR 航空例行天气报告', '露点:', '23.0°C', '其他云层:', '大部分晴天 (305米)、大部分晴天 (914米)', '天气:', 'Mist、Showers of Light Rain', '上午4:00', '24°C', '1,009毫巴', '每小时0公里', '3.20公里', '部分多云 (274米)', '本地:', '04:00、2019年9月12日周四', '协调世界时:', '20:00、2019年9月11日周三', '来源:', '周期文件', '趋势:', '变化为', '露点:', '23°C', '其他云层:', '大部分晴天 (122米)、大部分晴天 (1,219米)', '天气:', 'Showers of Light Rain、Mist、Recent Thunderstorm', '原始:', 'ZUUU 112000Z 00000MPS 3200 -SHRA BR FEW004 SCT009 FEW040CB 24/23 Q1009 RETS BECMG TL2130 2700 BR', '上午4:00', '24.0°C', '1,009毫巴', '每小时0公里', '3.20公里', '部分多云 (274米)', '本地:', '04:00、2019年9月12日周四', '协调世界时:', '20:00、2019年9月11日周三', '来源:', 'USAF 每小时地面观测', '报告类型:', 'METAR 航空例行天气报告', '露点:', '23.0°C', '其他云层:', '大部分晴天 (122米)、大部分晴天 (1,219米)', '天气:', 'Mist、Showers of Light Rain', '上午5:00', '24°C', '1,008毫巴', '每小时0公里', '3.20公里', '部分多云 (213米)', '本地:', '05:00、2019年9月12日周四', '协调世界时:', '21:00、2019年9月11日周三', '来源:', '周期文件', '趋势:', '无重要变化', '露点:', '23°C', '其他云层:', '大部分晴天 (122米)', '天气:', 'Showers of Light Rain、Mist', '原始:', 'ZUUU 112100Z 00000MPS 3200 -SHRA BR FEW004 SCT007 24/23 Q1008 NOSIG', '上午5:00', '24.0°C', '1,008毫巴', '每小时0公里', '3.20公里', '部分多云 (213米)', '本地:', '05:00、2019年9月12日周四', '协调世界时:', '21:00、2019年9月11日周三', '来源:', 'USAF 每小时地面观测', '报告类型:', 'METAR 航空例行天气报告', '露点:', '23.0°C', '其他云层:', '大部分晴天 (122米)', '天气:', 'Mist、Showers of Light Rain', '上午6:00', '24°C', '1,008毫巴', '每小时0公里', '3.70公里', '部分多云 (213米)', '本地:', '06:00、2019年9月12日周四', '协调世界时:', '22:00、2019年9月11日周三', '来源:', '周期文件', '趋势:', '无重要变化', '露点:', '23°C', '其他云层:', '大部分晴天 (91米)', '天气:', 'Mist', '原始:', 'ZUUU 112200Z 00000MPS 3700 BR FEW003 SCT007 24/23 Q1008 NOSIG', '上午6:00', '24.0°C', '1,008毫巴', '每小时0公里', '3.70公里', '部分多云 (213米)', '本地:', '06:00、2019年9月12日周四', '协调世界时:', '22:00、2019年9月11日周三', '来源:', 'USAF 每小时地面观测', '报告类型:', 'METAR 航空例行天气报告', '露点:', '23.0°C', '其他云层:', '大部分晴天 (91米)', '天气:', 'Mist', '上午7:00', '24°C', '1,009毫巴', '每小时0公里', '3.00公里', '部分多云 (213米)', '本地:', '07:00、2019年9月12日周四', '协调世界时:', '23:00、2019年9月11日周三', '来源:', '周期文件', '趋势:', '无重要变化', '露点:', '23°C', '其他云层:', '部分多云 (1,219米)', '天气:', 'Mist', '原始:', 'ZUUU 112300Z 00000MPS 3000 BR SCT007 SCT040 24/23 Q1009 NOSIG', '上午7:00', '24.0°C', '1,009毫巴', '每小时0公里', '3.00公里', '部分多云 (213米)', '本地:', '07:00、2019年9月12日周四', '协调世界时:', '23:00、2019年9月11日周三', '来源:', 'USAF 每小时地面观测', '报告类型:', 'METAR 航空例行天气报告', '露点:', '23.0°C', '其他云层:', '部分多云 (1,219米)', '天气:', 'Mist', '上午8:00', '24°C', '1,009毫巴', '每小时0公里', '3.50公里', '部分多云 (1,219米)', '本地:', '08:00、2019年9月12日周四', '协调世界时:', '00:00、2019年9月12日周四', '来源:', '周期文件', '趋势:', '无重要变化', '露点:', '23°C', '其他云层:', '大部分晴天 (213米)', '天气:', 'Mist', '原始:', 'ZUUU 120000Z 00000MPS 3500 BR FEW007 SCT040 24/23 Q1009 NOSIG', '上午8:00', '24.0°C', '1,009毫巴', '每小时0公里', '3.50公里', '部分多云 (1,219米)', '本地:', '08:00、2019年9月12日周四', '协调世界时:', '00:00、2019年9月12日周四', '来源:', 'USAF 每小时地面观测', '报告类型:', 'METAR 航空例行天气报告', '露点:', '23.0°C', '其他云层:', '大部分晴天 (213米)', '天气:', 'Mist', '上午9:00', '25°C', '1,009毫巴', '每小时3.60公里', '4.00公里', '部分多云 (1,219米)', '本地:', '09:00、2019年9月12日周四', '协调世界时:', '01:00、2019年9月12日周四', '来源:', '周期文件', '趋势:', '无重要变化', '露点:', '23°C', '其他云层:', '大部分晴天 (213米)', '天气:', 'Mist', '原始:', 'ZUUU 120100Z VRB01MPS 4000 BR FEW007 SCT040 25/23 Q1009 NOSIG', '上午9:00', '25.0°C', '1,009毫巴', '每小时3.60公里', '4.00公里', '部分多云 (1,219米)', '本地:', '09:00、2019年9月12日周四', '协调世界时:', '01:00、2019年9月12日周四', '来源:', 'USAF 每小时地面观测', '报告类型:', 'METAR 航空例行天气报告', '露点:', '23.0°C', '其他云层:', '大部分晴天 (213米)', '天气:', 'Mist', '上午10:00', '25°C', '1,010毫巴', '每小时3.60公里', '4.00公里', '部分多云 (914米)', '本地:', '10:00、2019年9月12日周四', '协调世界时:', '02:00、2019年9月12日周四', '来源:', '周期文件', '趋势:', '无重要变化', '露点:', '23°C', '其他云层:', '大部分晴天 (213米)', '天气:', 'Mist', '原始:', 'ZUUU 120200Z VRB01MPS 4000 BR FEW007 SCT030 25/23 Q1010 NOSIG', '上午10:00', '25.0°C', '1,010毫巴', '每小时3.60公里', '4.00公里', '部分多云 (914米)', '本地:', '10:00、2019年9月12日周四', '协调世界时:', '02:00、2019年9月12日周四', '来源:', 'USAF 每小时地面观测', '报告类型:', 'METAR 航空例行天气报告', '露点:', '23.0°C', '其他云层:', '大部分晴天 (213米)', '天气:', 'Mist', '上午11:00', '26°C', '1,010毫巴', '每小时3.60公里', '4.50公里', '部分多云 (914米)', '本地:', '11:00、2019年9月12日周四', '协调世界时:', '03:00、2019年9月12日周四', '来源:', '周期文件', '趋势:', '无重要变化', '露点:', '24°C', '其他云层:', '大部分晴天 (213米)', '天气:', 'Mist', '原始:', 'ZUUU 120300Z VRB01MPS 4500 BR FEW007 SCT030 26/24 Q1010 NOSIG', '上午11:00', '26.0°C', '1,010毫巴', '每小时3.60公里', '4.50公里', '部分多云 (914米)', '本地:', '11:00、2019年9月12日周四', '协调世界时:', '03:00、2019年9月12日周四', '来源:', 'USAF 每小时地面观测', '报告类型:', 'METAR 航空例行天气报告', '露点:', '24.0°C', '其他云层:', '大部分晴天 (213米)', '天气:', 'Mist', '下午12:00', '27°C', '1,009毫巴', '每小时3.60公里', '5.00公里', '大部分多云 (914米)', '本地:', '12:00、2019年9月12日周四', '协调世界时:', '04:00、2019年9月12日周四', '来源:', '周期文件', '趋势:', '无重要变化', '露点:', '23°C', '其他云层:', '大部分晴天 (213米)', '天气:', 'Showers of Light Rain、Mist', '原始:', 'ZUUU 120400Z VRB01MPS 5000 -SHRA BR FEW007 BKN030 27/23 Q1009 NOSIG', '下午12:00', '27.0°C', '1,009毫巴', '每小时3.60公里', '5.00公里', '大部分多云 (914米)', '本地:', '12:00、2019年9月12日周四', '协调世界时:', '04:00、2019年9月12日周四', '来源:', 'USAF 每小时地面观测', '报告类型:', 'METAR 航空例行天气报告', '露点:', '23.0°C', '其他云层:', '大部分晴天 (213米)', '天气:', 'Mist、Showers of Light Rain', '下午1:00', '27°C', '1,008毫巴', '每小时7.20公里, 东北', '5.00公里', '大部分多云 (914米)', '本地:', '13:00、2019年9月12日周四', '协调世界时:', '05:00、2019年9月12日周四', '来源:', '周期文件', '趋势:', '无重要变化', '露点:', '23°C', '其他云层:', '大部分晴天 (213米)、大部分晴天 (914米)', '天气:', 'Mist', '原始:', 'ZUUU 120500Z 06002MPS 360V140 5000 BR FEW007 FEW030TCU BKN030 27/23 Q1008 NOSIG', '下午1:00', '27.0°C', '1,008毫巴', '每小时7.20公里, 东北', '5.00公里', '大部分多云 (914米)', '本地:', '13:00、2019年9月12日周四', '协调世界时:', '05:00、2019年9月12日周四', '来源:', 'USAF 每小时地面观测', '报告类型:', 'METAR 航空例行天气报告', '露点:', '23.0°C', '其他云层:', '大部分晴天 (213米)、大部分晴天 (914米)', '天气:', 'Mist', '下午2:00', '28°C', '1,008毫巴', '每小时7.20公里, 东', '5.00公里', '部分多云 (914米)', '本地:', '14:00、2019年9月12日周四', '协调世界时:', '06:00、2019年9月12日周四', '来源:', '周期文件', '趋势:', '无重要变化', '露点:', '23°C', '天气:', 'Mist', '原始:', 'ZUUU 120600Z 09002MPS 020V170 5000 BR SCT030 28/23 Q1008 NOSIG', '下午2:00', '28.0°C', '1,008毫巴', '每小时7.20公里, 东', '5.00公里', '部分多云 (914米)', '本地:', '14:00、2019年9月12日周四', '协调世界时:', '06:00、2019年9月12日周四', '来源:', 'USAF 每小时地面观测', '报告类型:', 'METAR 航空例行天气报告', '露点:', '23.0°C', '天气:', 'Mist', '下午3:00', '28°C', '1,007毫巴', '每小时7.20公里, 东', '5.00公里', '部分多云 (914米)', '本地:', '15:00、2019年9月12日周四', '协调世界时:', '07:00、2019年9月12日周四', '来源:', '周期文件', '趋势:', '无重要变化', '露点:', '23°C', '天气:', 'Mist', '原始:', 'ZUUU 120700Z 10002MPS 050V140 5000 BR SCT030 28/23 Q1007 NOSIG', '下午3:00', '28.0°C', '1,007毫巴', '每小时7.20公里, 东', '5.00公里', '部分多云 (914米)', '本地:', '15:00、2019年9月12日周四', '协调世界时:', '07:00、2019年9月12日周四', '来源:', 'USAF 每小时地面观测', '报告类型:', 'METAR 航空例行天气报告', '露点:', '23.0°C', '天气:', 'Mist', '下午4:00', '29°C', '1,006毫巴', '每小时7.20公里, 东', '5.00公里', '部分多云 (792米)', '本地:', '16:00、2019年9月12日周四', '协调世界时:', '08:00、2019年9月12日周四', '来源:', '周期文件', '趋势:', '无重要变化', '露点:', '22°C', '天气:', 'Haze', '原始:', 'ZUUU 120800Z 08002MPS 360V140 5000 HZ SCT026 29/22 Q1006 NOSIG', '下午4:00', '29.0°C', '1,006毫巴', '每小时7.20公里, 东', '5.00公里', '部分多云 (792米)', '本地:', '16:00、2019年9月12日周四', '协调世界时:', '08:00、2019年9月12日周四', '来源:', 'USAF 每小时地面观测', '报告类型:', 'METAR 航空例行天气报告', '露点:', '22.0°C', '天气:', 'Haze', '下午5:00', '29°C', '1,006毫巴', '每小时7.20公里, 东', '5.00公里', '部分多云 (792米)', '本地:', '17:00、2019年9月12日周四', '协调世界时:', '09:00、2019年9月12日周四', '来源:', '周期文件', '趋势:', '无重要变化', '露点:', '23°C', '天气:', 'Haze', '原始:', 'ZUUU 120900Z 07002MPS 010V100 5000 HZ SCT026 29/23 Q1006 NOSIG', '下午5:00', '29.0°C', '1,006毫巴', '每小时7.20公里, 东', '5.00公里', '部分多云 (792米)', '本地:', '17:00、2019年9月12日周四', '协调世界时:', '09:00、2019年9月12日周四', '来源:', 'USAF 每小时地面观测', '报告类型:', 'METAR 航空例行天气报告', '露点:', '23.0°C', '天气:', 'Haze', '下午6:00', '29°C', '1,006毫巴', '每小时10.8公里, 东北', '5.00公里', '大部分晴天 (701米)', '本地:', '18:00、2019年9月12日周四', '协调世界时:', '10:00、2019年9月12日周四', '来源:', '周期文件', '趋势:', '无重要变化', '露点:', '23°C', '天气:', 'Mist', '原始:', 'ZUUU 121000Z 06003MPS 030V090 5000 BR FEW023 29/23 Q1006 NOSIG', '下午6:00', '29.0°C', '1,006毫巴', '每小时10.8公里, 东北', '5.00公里', '大部分晴天 (701米)', '本地:', '18:00、2019年9月12日周四', '协调世界时:', '10:00、2019年9月12日周四', '来源:', 'USAF 每小时地面观测', '报告类型:', 'METAR 航空例行天气报告', '露点:', '23.0°C', '天气:', 'Mist', '下午7:00', '28°C', '1,006毫巴', '每小时10.8公里, 东北', '10.00公里', '部分多云 (1,524米)', '本地:', '19:00、2019年9月12日周四', '协调世界时:', '11:00、2019年9月12日周四', '来源:', '周期文件', '趋势:', '无重要变化', '露点:', '23°C', '原始:', 'ZUUU 121100Z 04003MPS 360V080 9999 SCT050 28/23 Q1006 NOSIG', '下午7:00', '28.0°C', '1,006毫巴', '每小时10.8公里, 东北', '10.00公里', '部分多云 (1,524米)', '本地:', '19:00、2019年9月12日周四', '协调世界时:', '11:00、2019年9月12日周四', '来源:', 'USAF 每小时地面观测', '报告类型:', 'METAR 航空例行天气报告', '露点:', '23.0°C', '下午8:00', '27°C', '1,007毫巴', '每小时7.20公里, 北', '10.00公里', '部分多云 (1,524米)', '本地:', '20:00、2019年9月12日周四', '协调世界时:', '12:00、2019年9月12日周四', '来源:', '周期文件', '趋势:', '无重要变化', '露点:', '23°C', '原始:', 'ZUUU 121200Z 36002MPS 320V030 9999 SCT050 27/23 Q1007 NOSIG', '下午8:00', '27.0°C', '1,007毫巴', '每小时7.20公里, 北', '10.00公里', '部分多云 (1,524米)', '本地:', '20:00、2019年9月12日周四', '协调世界时:', '12:00、2019年9月12日周四', '来源:', 'USAF 每小时地面观测', '报告类型:', 'METAR 航空例行天气报告', '露点:', '23.0°C', '下午9:00', '27°C', '1,008毫巴', '每小时7.20公里, 北', '8.00公里', '部分多云 (1,524米)', '本地:', '21:00、2019年9月12日周四', '协调世界时:', '13:00、2019年9月12日周四', '来源:', '周期文件', '趋势:', '无重要变化', '露点:', '23°C', '原始:', 'ZUUU 121300Z 36002MPS 320V030 8000 SCT050 27/23 Q1008 NOSIG', '下午9:00', '27.0°C', '1,008毫巴', '每小时7.20公里, 北', '8.00公里', '部分多云 (1,524米)', '本地:', '21:00、2019年9月12日周四', '协调世界时:', '13:00、2019年9月12日周四', '来源:', 'USAF 每小时地面观测', '报告类型:', 'METAR 航空例行天气报告', '露点:', '23.0°C', '下午10:00', '26°C', '1,008毫巴', '每小时10.8公里, 北', '8.00公里', '部分多云 (1,524米)', '本地:', '22:00、2019年9月12日周四', '协调世界时:', '14:00、2019年9月12日周四', '来源:', '周期文件', '趋势:', '变化为', '露点:', '23°C', '天气:', 'Showers of Rain', '原始:', 'ZUUU 121400Z 01003MPS 8000 SCT050 26/23 Q1008 BECMG TL1540 SHRA', '下午10:00', '26.0°C', '1,008毫巴', '每小时10.8公里, 北', '8.00公里', '部分多云 (1,524米)', '本地:', '22:00、2019年9月12日周四', '协调世界时:', '14:00、2019年9月12日周四', '来源:', 'USAF 每小时地面观测', '报告类型:', 'METAR 航空例行天气报告', '露点:', '23.0°C', '下午11:00', '26°C', '1,008毫巴', '每小时3.60公里', '10.00公里', '部分多云 (1,219米)', '本地:', '23:00、2019年9月12日周四', '协调世界时:', '15:00、2019年9月12日周四', '来源:', '周期文件', '趋势:', '变化为', '露点:', '24°C', '其他云层:', '大部分晴天 (792米)', '天气:', 'Showers of Light Rain、Showers of Rain', '原始:', 'ZUUU 121500Z VRB01MPS 9999 -SHRA FEW026 FEW026CB SCT040 26/24 Q1008 BECMG TL1540 SHRA', '下午11:00', '26.0°C', '1,008毫巴', '每小时3.60公里', '10.00公里', '部分多云 (1,219米)', '本地:', '23:00、2019年9月12日周四', '协调世界时:', '15:00、2019年9月12日周四', '来源:', 'USAF 每小时地面观测', '报告类型:', 'METAR 航空例行天气报告', '露点:', '24.0°C', '其他云层:', '大部分晴天 (792米)', '天气:', 'Showers of Light Rain']