['Showers of Light Rain', '-SHRA、IWC80', 'Showers of Light Rain', '-SHRA、IWC80', 'Showers of Light Rain', '-SHRA、IWC80', 'Showers of Light Rain、Mist', '-SHRA、IWC80、BR、IWC10', 'Showers of Light Rain', '-SHRA、IWC80', 'Showers of Light Rain', '-SHRA、IWC80', 'Showers of Light Rain', '-SHRA、IWC80', 'Light Rain', '-RA、IWC61', 'Light Rain', '-RA、IWC61', 'Light Rain', '-RA、IWC61', 'Light Rain', '-RA、IWC61', 'Light Rain', '-RA、IWC61', 'Light Rain', '-RA、IWC61', 'Light Rain', '-RA、IWC61', 'Light Rain、Mist', '-RA、IWC61、BR、IWC10', 'Light Rain', '-RA、IWC61', 'Light Rain', '-RA、IWC61', 'Light Rain', '-RA、IWC61', 'Light Rain、Mist', '-RA、IWC61、BR、IWC10', 'Light Rain', '-RA、IWC61', 'Light Rain', '-RA、IWC61', 'Light Rain', '-RA、IWC61', 'Light Rain', '-RA、IWC61', 'Light Rain', '-RA、IWC61', '上午12:00', '11°C', '1,020毫巴', '每小时7.20公里, 西北', '6.00公里', '大部分多云 (792米)', '本地:', '00:00、2019年3月7日周四', '协调世界时:', '16:00、2019年3月6日周三', '来源:', '周期文件', '趋势:', '无重要变化', '露点:', '10°C', '其他云层:', '大部分晴天 (305米)', '天气:', 'Showers of Light Rain', '原始:', 'ZUUU 061600Z 31002MPS 280V340 6000 -SHRA FEW010 BKN026 11/10 Q1020 NOSIG', '上午12:00', '11.0°C', '1,020毫巴', '每小时7.20公里, 西北', '6.00公里', '大部分多云 (792米)', '本地:', '00:00、2019年3月7日周四', '协调世界时:', '16:00、2019年3月6日周三', '来源:', 'USAF 每小时地面观测', '报告类型:', 'METAR 航空例行天气报告', '露点:', '10.0°C', '其他云层:', '大部分晴天 (305米)', '天气:', 'Showers of Light Rain', '上午1:00', '11°C', '1,020毫巴', '每小时7.20公里, 西北', '6.00公里', '大部分多云 (792米)', '本地:', '01:00、2019年3月7日周四', '协调世界时:', '17:00、2019年3月6日周三', '来源:', '周期文件', '趋势:', '无重要变化', '露点:', '10°C', '其他云层:', '大部分晴天 (305米)', '天气:', 'Showers of Light Rain', '原始:', 'ZUUU 061700Z 32002MPS 280V350 6000 -SHRA FEW010 BKN026 11/10 Q1020 NOSIG', '上午1:00', '11.0°C', '1,020毫巴', '每小时7.20公里, 西北', '6.00公里', '大部分多云 (792米)', '本地:', '01:00、2019年3月7日周四', '协调世界时:', '17:00、2019年3月6日周三', '来源:', 'USAF 每小时地面观测', '报告类型:', 'METAR 航空例行天气报告', '露点:', '10.0°C', '其他云层:', '大部分晴天 (305米)', '天气:', 'Showers of Light Rain', '上午2:00', '10°C', '1,020毫巴', '每小时3.60公里', '6.00公里', '大部分多云 (792米)', '本地:', '02:00、2019年3月7日周四', '协调世界时:', '18:00、2019年3月6日周三', '来源:', '周期文件', '趋势:', '无重要变化', '露点:', '10°C', '其他云层:', '大部分晴天 (305米)', '天气:', 'Showers of Light Rain', '原始:', 'ZUUU 061800Z VRB01MPS 6000 -SHRA FEW010 BKN026 10/10 Q1020 NOSIG', '上午2:00', '10.0°C', '1,020毫巴', '每小时3.60公里', '6.00公里', '大部分多云 (792米)', '本地:', '02:00、2019年3月7日周四', '协调世界时:', '18:00、2019年3月6日周三', '来源:', 'USAF 每小时地面观测', '报告类型:', 'METAR 航空例行天气报告', '露点:', '10.0°C', '其他云层:', '大部分晴天 (305米)', '天气:', 'Showers of Light Rain', '上午3:00', '10°C', '1,020毫巴', '每小时3.60公里', '5.00公里', '大部分多云 (792米)', '本地:', '03:00、2019年3月7日周四', '协调世界时:', '19:00、2019年3月6日周三', '来源:', '周期文件', '趋势:', '无重要变化', '露点:', '9°C', '其他云层:', '大部分晴天 (305米)', '天气:', 'Showers of Light Rain、Mist', '原始:', 'ZUUU 061900Z VRB01MPS 5000 -SHRA BR FEW010 BKN026 10/09 Q1020 NOSIG', '上午3:00', '10.0°C', '1,020毫巴', '每小时3.60公里', '5.00公里', '大部分多云 (792米)', '本地:', '03:00、2019年3月7日周四', '协调世界时:', '19:00、2019年3月6日周三', '来源:', 'USAF 每小时地面观测', '报告类型:', 'METAR 航空例行天气报告', '露点:', '9.0°C', '其他云层:', '大部分晴天 (305米)', '天气:', 'Mist、Showers of Light Rain', '上午4:00', '10°C', '1,019毫巴', '每小时7.20公里, 北', '6.00公里', '大部分多云 (792米)', '本地:', '04:00、2019年3月7日周四', '协调世界时:', '20:00、2019年3月6日周三', '来源:', '周期文件', '趋势:', '无重要变化', '露点:', '9°C', '其他云层:', '大部分晴天 (305米)', '天气:', 'Showers of Light Rain', '原始:', 'ZUUU 062000Z 36002MPS 320V030 6000 -SHRA FEW010 BKN026 10/09 Q1019 NOSIG', '上午4:00', '10.0°C', '1,019毫巴', '每小时7.20公里, 北', '6.00公里', '大部分多云 (792米)', '本地:', '04:00、2019年3月7日周四', '协调世界时:', '20:00、2019年3月6日周三', '来源:', 'USAF 每小时地面观测', '报告类型:', 'METAR 航空例行天气报告', '露点:', '9.0°C', '其他云层:', '大部分晴天 (305米)', '天气:', 'Showers of Light Rain', '上午5:00', '10°C', '1,019毫巴', '每小时7.20公里, 北', '6.00公里', '部分多云 (792米)', '本地:', '05:00、2019年3月7日周四', '协调世界时:', '21:00、2019年3月6日周三', '来源:', '周期文件', '趋势:', '无重要变化', '露点:', '8°C', '其他云层:', '大部分晴天 (305米)', '天气:', 'Showers of Light Rain', '原始:', 'ZUUU 062100Z 36002MPS 320V030 6000 -SHRA FEW010 SCT026 10/08 Q1019 NOSIG', '上午5:00', '10.0°C', '1,019毫巴', '每小时7.20公里, 北', '6.00公里', '部分多云 (792米)', '本地:', '05:00、2019年3月7日周四', '协调世界时:', '21:00、2019年3月6日周三', '来源:', 'USAF 每小时地面观测', '报告类型:', 'METAR 航空例行天气报告', '露点:', '8.0°C', '其他云层:', '大部分晴天 (305米)', '天气:', 'Showers of Light Rain', '上午6:00', '10°C', '1,019毫巴', '每小时7.20公里, 北', '6.00公里', '部分多云 (792米)', '本地:', '06:00、2019年3月7日周四', '协调世界时:', '22:00、2019年3月6日周三', '来源:', '周期文件', '趋势:', '无重要变化', '露点:', '8°C', '其他云层:', '大部分晴天 (305米)', '天气:', 'Showers of Light Rain', '原始:', 'ZUUU 062200Z 35002MPS 6000 -SHRA FEW010 SCT026 10/08 Q1019 NOSIG', '上午6:00', '10.0°C', '1,019毫巴', '每小时7.20公里, 北', '6.00公里', '部分多云 (792米)', '本地:', '06:00、2019年3月7日周四', '协调世界时:', '22:00、2019年3月6日周三', '来源:', 'USAF 每小时地面观测', '报告类型:', 'METAR 航空例行天气报告', '露点:', '8.0°C', '其他云层:', '大部分晴天 (305米)', '天气:', 'Showers of Light Rain', '上午7:00', '9°C', '1,019毫巴', '每小时7.20公里, 北', '10.00公里', '部分多云 (792米)', '本地:', '07:00、2019年3月7日周四', '协调世界时:', '23:00、2019年3月6日周三', '来源:', '周期文件', '趋势:', '无重要变化', '露点:', '8°C', '天气:', 'Light Rain', '原始:', 'ZUUU 062300Z 36002MPS 330V030 9999 -RA SCT026 09/08 Q1019 NOSIG', '上午7:00', '9.0°C', '1,019毫巴', '每小时7.20公里, 北', '10.00公里', '部分多云 (792米)', '本地:', '07:00、2019年3月7日周四', '协调世界时:', '23:00、2019年3月6日周三', '来源:', 'USAF 每小时地面观测', '报告类型:', 'METAR 航空例行天气报告', '露点:', '8.0°C', '天气:', 'Light Rain', '上午8:00', '10°C', '1,019毫巴', '每小时7.20公里, 北', '10.00公里', '部分多云 (792米)', '本地:', '08:00、2019年3月7日周四', '协调世界时:', '00:00、2019年3月7日周四', '来源:', '周期文件', '趋势:', '无重要变化', '露点:', '8°C', '天气:', 'Light Rain', '原始:', 'ZUUU 070000Z 36002MPS 330V030 9999 -RA SCT026 10/08 Q1019 NOSIG', '上午8:00', '10.0°C', '1,019毫巴', '每小时7.20公里, 北', '10.00公里', '部分多云 (792米)', '本地:', '08:00、2019年3月7日周四', '协调世界时:', '00:00、2019年3月7日周四', '来源:', 'USAF 每小时地面观测', '报告类型:', 'METAR 航空例行天气报告', '露点:', '8.0°C', '天气:', 'Light Rain', '上午9:00', '10°C', '1,020毫巴', '每小时10.8公里, 北', '10.00公里', '大部分多云 (792米)', '本地:', '09:00、2019年3月7日周四', '协调世界时:', '01:00、2019年3月7日周四', '来源:', '周期文件', '趋势:', '无重要变化', '露点:', '8°C', '其他云层:', '大部分晴天 (305米)', '天气:', 'Light Rain', '原始:', 'ZUUU 070100Z 01003MPS 330V040 9999 -RA FEW010 BKN026 10/08 Q1020 NOSIG', '上午9:00', '10.0°C', '1,020毫巴', '每小时10.8公里, 北', '10.00公里', '大部分多云 (792米)', '本地:', '09:00、2019年3月7日周四', '协调世界时:', '01:00、2019年3月7日周四', '来源:', 'USAF 每小时地面观测', '报告类型:', 'METAR 航空例行天气报告', '露点:', '8.0°C', '其他云层:', '大部分晴天 (305米)', '天气:', 'Light Rain', '上午10:00', '10°C', '1,021毫巴', '每小时7.20公里, 北', '10.00公里', '大部分多云 (792米)', '本地:', '10:00、2019年3月7日周四', '协调世界时:', '02:00、2019年3月7日周四', '来源:', '周期文件', '趋势:', '无重要变化', '露点:', '8°C', '其他云层:', '大部分晴天 (305米)', '天气:', 'Light Rain', '原始:', 'ZUUU 070200Z 01002MPS 340V040 9999 -RA FEW010 BKN026 10/08 Q1021 NOSIG', '上午10:00', '10.0°C', '1,021毫巴', '每小时7.20公里, 北', '10.00公里', '大部分多云 (792米)', '本地:', '10:00、2019年3月7日周四', '协调世界时:', '02:00、2019年3月7日周四', '来源:', 'USAF 每小时地面观测', '报告类型:', 'METAR 航空例行天气报告', '露点:', '8.0°C', '其他云层:', '大部分晴天 (305米)', '天气:', 'Light Rain', '上午11:00', '10°C', '1,021毫巴', '每小时10.8公里, 北', '10.00公里', '大部分多云 (792米)', '本地:', '11:00、2019年3月7日周四', '协调世界时:', '03:00、2019年3月7日周四', '来源:', '周期文件', '趋势:', '无重要变化', '露点:', '9°C', '其他云层:', '大部分晴天 (305米)', '天气:', 'Light Rain', '原始:', 'ZUUU 070300Z 02003MPS 9999 -RA FEW010 BKN026 10/09 Q1021 NOSIG', '上午11:00', '10.0°C', '1,021毫巴', '每小时10.8公里, 北', '10.00公里', '大部分多云 (792米)', '本地:', '11:00、2019年3月7日周四', '协调世界时:', '03:00、2019年3月7日周四', '来源:', 'USAF 每小时地面观测', '报告类型:', 'METAR 航空例行天气报告', '露点:', '9.0°C', '其他云层:', '大部分晴天 (305米)', '天气:', 'Light Rain', '下午12:00', '10°C', '1,020毫巴', '每小时10.8公里, 北', '8.00公里', '大部分多云 (792米)', '本地:', '12:00、2019年3月7日周四', '协调世界时:', '04:00、2019年3月7日周四', '来源:', '周期文件', '趋势:', '无重要变化', '露点:', '10°C', '其他云层:', '大部分晴天 (244米)', '天气:', 'Light Rain', '原始:', 'ZUUU 070400Z 01003MPS 330V040 8000 -RA FEW008 BKN026 10/10 Q1020 NOSIG', '下午12:00', '10.0°C', '1,020毫巴', '每小时10.8公里, 北', '8.00公里', '大部分多云 (792米)', '本地:', '12:00、2019年3月7日周四', '协调世界时:', '04:00、2019年3月7日周四', '来源:', 'USAF 每小时地面观测', '报告类型:', 'METAR 航空例行天气报告', '露点:', '10.0°C', '其他云层:', '大部分晴天 (244米)', '天气:', 'Light Rain', '下午1:00', '10°C', '1,020毫巴', '每小时7.20公里, 北', '8.00公里', '大部分多云 (792米)', '本地:', '13:00、2019年3月7日周四', '协调世界时:', '05:00、2019年3月7日周四', '来源:', '周期文件', '趋势:', '无重要变化', '露点:', '10°C', '其他云层:', '部分多云 (213米)', '天气:', 'Light Rain', '原始:', 'ZUUU 070500Z 01002MPS 330V040 8000 -RA SCT007 BKN026 10/10 Q1020 NOSIG', '下午1:00', '10.0°C', '1,020毫巴', '每小时7.20公里, 北', '8.00公里', '大部分多云 (792米)', '本地:', '13:00、2019年3月7日周四', '协调世界时:', '05:00、2019年3月7日周四', '来源:', 'USAF 每小时地面观测', '报告类型:', 'METAR 航空例行天气报告', '露点:', '10.0°C', '其他云层:', '部分多云 (213米)', '天气:', 'Light Rain', '下午2:00', '10°C', '1,019毫巴', '每小时7.20公里, 北', '3.20公里', '大部分多云 (610米)', '本地:', '14:00、2019年3月7日周四', '协调世界时:', '06:00、2019年3月7日周四', '来源:', '周期文件', '趋势:', '变化为', '露点:', '10°C', '其他云层:', '大部分晴天 (152米)、部分多云 (244米)', '天气:', 'Light Rain、Mist、Mist', '原始:', 'ZUUU 070600Z 35002MPS 320V030 3200 -RA BR FEW005 SCT008 BKN020 10/10 Q1019 BECMG TL0640 2700 BR', '下午2:00', '10.0°C', '1,019毫巴', '每小时7.20公里, 北', '3.20公里', '大部分多云 (610米)', '本地:', '14:00、2019年3月7日周四', '协调世界时:', '06:00、2019年3月7日周四', '来源:', 'USAF 每小时地面观测', '报告类型:', 'METAR 航空例行天气报告', '露点:', '10.0°C', '其他云层:', '大部分晴天 (152米)、部分多云 (244米)', '天气:', 'Mist、Light Rain', '下午3:00', '10°C', '1,018毫巴', '每小时7.20公里, 北', '6.00公里', '大部分多云 (610米)', '本地:', '15:00、2019年3月7日周四', '协调世界时:', '07:00、2019年3月7日周四', '来源:', '周期文件', '趋势:', '无重要变化', '露点:', '10°C', '其他云层:', '大部分晴天 (152米)、部分多云 (244米)', '天气:', 'Light Rain', '原始:', 'ZUUU 070700Z 35002MPS 300V040 6000 -RA FEW005 SCT008 BKN020 10/10 Q1018 NOSIG', '下午3:00', '10.0°C', '1,018毫巴', '每小时7.20公里, 北', '6.00公里', '大部分多云 (610米)', '本地:', '15:00、2019年3月7日周四', '协调世界时:', '07:00、2019年3月7日周四', '来源:', 'USAF 每小时地面观测', '报告类型:', 'METAR 航空例行天气报告', '露点:', '10.0°C', '其他云层:', '大部分晴天 (152米)、部分多云 (244米)', '天气:', 'Light Rain', '下午4:00', '11°C', '1,017毫巴', '每小时10.8公里, 东北', '6.00公里', '大部分多云 (610米)', '本地:', '16:00、2019年3月7日周四', '协调世界时:', '08:00、2019年3月7日周四', '来源:', '周期文件', '趋势:', '无重要变化', '露点:', '10°C', '其他云层:', '大部分晴天 (152米)、部分多云 (244米)', '天气:', 'Light Rain', '原始:', 'ZUUU 070800Z 03003MPS 6000 -RA FEW005 SCT008 BKN020 11/10 Q1017 NOSIG', '下午4:00', '11.0°C', '1,017毫巴', '每小时10.8公里, 东北', '6.00公里', '大部分多云 (610米)', '本地:', '16:00、2019年3月7日周四', '协调世界时:', '08:00、2019年3月7日周四', '来源:', 'USAF 每小时地面观测', '报告类型:', 'METAR 航空例行天气报告', '露点:', '10.0°C', '其他云层:', '大部分晴天 (152米)、部分多云 (244米)', '天气:', 'Light Rain', '下午5:00', '11°C', '1,016毫巴', '每小时7.20公里, 北', '8.00公里', '大部分多云 (610米)', '本地:', '17:00、2019年3月7日周四', '协调世界时:', '09:00、2019年3月7日周四', '来源:', '周期文件', '趋势:', '无重要变化', '露点:', '10°C', '其他云层:', '部分多云 (244米)', '天气:', 'Light Rain', '原始:', 'ZUUU 070900Z 36002MPS 310V030 8000 -RA SCT008 BKN020 11/10 Q1016 NOSIG', '下午5:00', '11.0°C', '1,016毫巴', '每小时7.20公里, 北', '8.00公里', '大部分多云 (610米)', '本地:', '17:00、2019年3月7日周四', '协调世界时:', '09:00、2019年3月7日周四', '来源:', 'USAF 每小时地面观测', '报告类型:', 'METAR 航空例行天气报告', '露点:', '10.0°C', '其他云层:', '部分多云 (244米)', '天气:', 'Light Rain', '下午6:00', '10°C', '1,017毫巴', '每小时7.20公里, 北', '5.00公里', '大部分多云 (610米)', '本地:', '18:00、2019年3月7日周四', '协调世界时:', '10:00、2019年3月7日周四', '来源:', '周期文件', '趋势:', '无重要变化', '露点:', '10°C', '其他云层:', '部分多云 (244米)', '天气:', 'Light Rain、Mist', '原始:', 'ZUUU 071000Z 01002MPS 5000 -RA BR SCT008 BKN020 10/10 Q1017 NOSIG', '下午6:00', '10.0°C', '1,017毫巴', '每小时7.20公里, 北', '5.00公里', '大部分多云 (610米)', '本地:', '18:00、2019年3月7日周四', '协调世界时:', '10:00、2019年3月7日周四', '来源:', 'USAF 每小时地面观测', '报告类型:', 'METAR 航空例行天气报告', '露点:', '10.0°C', '其他云层:', '部分多云 (244米)', '天气:', 'Mist、Light Rain', '下午7:00', '10°C', '1,017毫巴', '每小时10.8公里, 东北', '7.00公里', '大部分多云 (610米)', '本地:', '19:00、2019年3月7日周四', '协调世界时:', '11:00、2019年3月7日周四', '来源:', '周期文件', '趋势:', '无重要变化', '露点:', '10°C', '其他云层:', '大部分晴天 (152米)、部分多云 (396米)', '天气:', 'Light Rain', '原始:', 'ZUUU 071100Z 05003MPS 030V090 7000 -RA FEW005 SCT013 BKN020 10/10 Q1017 NOSIG', '下午7:00', '10.0°C', '1,017毫巴', '每小时10.8公里, 东北', '7.00公里', '大部分多云 (610米)', '本地:', '19:00、2019年3月7日周四', '协调世界时:', '11:00、2019年3月7日周四', '来源:', 'USAF 每小时地面观测', '报告类型:', 'METAR 航空例行天气报告', '露点:', '10.0°C', '其他云层:', '大部分晴天 (152米)、部分多云 (396米)', '天气:', 'Light Rain', '下午8:00', '10°C', '1,018毫巴', '每小时7.20公里, 东', '7.00公里', '大部分多云 (610米)', '本地:', '20:00、2019年3月7日周四', '协调世界时:', '12:00、2019年3月7日周四', '来源:', '周期文件', '趋势:', '无重要变化', '露点:', '10°C', '其他云层:', '大部分晴天 (183米)、部分多云 (396米)', '天气:', 'Light Rain', '原始:', 'ZUUU 071200Z 08002MPS 040V120 7000 -RA FEW006 SCT013 BKN020 10/10 Q1018 NOSIG', '下午8:00', '10.0°C', '1,018毫巴', '每小时7.20公里, 东', '7.00公里', '大部分多云 (610米)', '本地:', '20:00、2019年3月7日周四', '协调世界时:', '12:00、2019年3月7日周四', '来源:', 'USAF 每小时地面观测', '报告类型:', 'METAR 航空例行天气报告', '露点:', '10.0°C', '其他云层:', '大部分晴天 (183米)、部分多云 (396米)', '天气:', 'Light Rain', '下午9:00', '10°C', '1,018毫巴', '每小时10.8公里, 东北', '7.00公里', '大部分多云 (610米)', '本地:', '21:00、2019年3月7日周四', '协调世界时:', '13:00、2019年3月7日周四', '来源:', '周期文件', '趋势:', '无重要变化', '露点:', '9°C', '其他云层:', '部分多云 (213米)', '天气:', 'Light Rain', '原始:', 'ZUUU 071300Z 06003MPS 7000 -RA SCT007 BKN020 10/09 Q1018 NOSIG', '下午9:00', '10.0°C', '1,018毫巴', '每小时10.8公里, 东北', '7.00公里', '大部分多云 (610米)', '本地:', '21:00、2019年3月7日周四', '协调世界时:', '13:00、2019年3月7日周四', '来源:', 'USAF 每小时地面观测', '报告类型:', 'METAR 航空例行天气报告', '露点:', '9.0°C', '其他云层:', '部分多云 (213米)', '天气:', 'Light Rain', '下午10:00', '10°C', '1,019毫巴', '每小时10.8公里, 东北', '7.00公里', '大部分多云 (610米)', '本地:', '22:00、2019年3月7日周四', '协调世界时:', '14:00、2019年3月7日周四', '来源:', '周期文件', '趋势:', '无重要变化', '露点:', '9°C', '其他云层:', '部分多云 (274米)', '天气:', 'Light Rain', '原始:', 'ZUUU 071400Z 06003MPS 030V090 7000 -RA SCT009 BKN020 10/09 Q1019 NOSIG', '下午10:00', '10.0°C', '1,019毫巴', '每小时10.8公里, 东北', '7.00公里', '大部分多云 (610米)', '本地:', '22:00、2019年3月7日周四', '协调世界时:', '14:00、2019年3月7日周四', '来源:', 'USAF 每小时地面观测', '报告类型:', 'METAR 航空例行天气报告', '露点:', '9.0°C', '其他云层:', '部分多云 (274米)', '天气:', 'Light Rain', '下午11:00', '10°C', '1,019毫巴', '每小时10.8公里, 东北', '7.00公里', '大部分多云 (610米)', '本地:', '23:00、2019年3月7日周四', '协调世界时:', '15:00、2019年3月7日周四', '来源:', '周期文件', '趋势:', '无重要变化', '露点:', '9°C', '其他云层:', '部分多云 (244米)', '天气:', 'Light Rain', '原始:', 'ZUUU 071500Z 04003MPS 7000 -RA SCT008 BKN020 10/09 Q1019 NOSIG', '下午11:00', '10.0°C', '1,019毫巴', '每小时10.8公里, 东北', '7.00公里', '大部分多云 (610米)', '本地:', '23:00、2019年3月7日周四', '协调世界时:', '15:00、2019年3月7日周四', '来源:', 'USAF 每小时地面观测', '报告类型:', 'METAR 航空例行天气报告', '露点:', '9.0°C', '其他云层:', '部分多云 (244米)', '天气:', 'Light Rain']